{
  "features": [
    {
      "geometry": {
        "coordinates": [
          -57.753848,
          -42.029203
        ],
        "type": "Point"
      },
      "properties": {
        "mmsi": "412329686",
        "observationStatus": "observed",
        "role": "off",
        "time": "2019-07-17T05:06:49Z",
        "vessel": "A"
      },
      "type": "Feature"
    },
    {
      "geometry": {
        "coordinates": [
          -57.692705,
          -42.072688
        ],
        "type": "Point"
      },
      "properties": {
        "mmsi": "412329684",
        "observationStatus": "observed",
        "role": "off",
        "time": "2019-07-17T05:47:57Z",
        "vessel": "B"
      },
      "type": "Feature"
    },
    {
      "geometry": {
        "coordinates": [
          -57.7861,
          -41.971923
        ],
        "type": "Point"
      },
      "properties": {
        "mmsi": "412329684",
        "observationStatus": "observed",
        "role": "on",
        "time": "2019-07-17T22:44:20Z",
        "vessel": "B"
      },
      "type": "Feature"
    },
    {
      "geometry": {
        "coordinates": [
          -57.8936,
          -42.00416
        ],
        "type": "Point"
      },
      "properties": {
        "mmsi": "412329686",
        "observationStatus": "observed",
        "role": "on",
        "time": "2019-07-17T23:11:06Z",
        "vessel": "A"
      },
      "type": "Feature"
    },
    {
      "geometry": {
        "coordinates": [
          [
            -57.753848,
            -42.029203
          ],
          [
            -57.72907,
            -42.033278
          ],
          [
            -57.8936,
            -42.00416
          ]
        ],
        "type": "LineString"
      },
      "properties": {
        "confidence": "low",
        "lineStyle": "dashed",
        "observationStatus": "estimated",
        "source": "reachable-set heuristic",
        "vessel": "A"
      },
      "type": "Feature"
    },
    {
      "geometry": {
        "coordinates": [
          [
            -57.692705,
            -42.072688
          ],
          [
            -57.72907,
            -42.033278
          ],
          [
            -57.7861,
            -41.971923
          ]
        ],
        "type": "LineString"
      },
      "properties": {
        "confidence": "low",
        "lineStyle": "dashed",
        "observationStatus": "estimated",
        "source": "reachable-set heuristic",
        "vessel": "B"
      },
      "type": "Feature"
    },
    {
      "geometry": {
        "coordinates": [
          -57.72907,
          -42.033278
        ],
        "type": "Point"
      },
      "properties": {
        "kind": "meetingPoint",
        "observationStatus": "estimated"
      },
      "type": "Feature"
    },
    {
      "geometry": {
        "coordinates": [
          [
            [
              -60.24014,
              -41.583663
            ],
            [
              -60.285224,
              -41.762835
            ],
            [
              -60.306602,
              -41.944452
            ],
            [
              -60.304068,
              -42.126765
            ],
            [
              -60.277648,
              -42.308018
            ],
            [
              -60.227595,
              -42.486464
            ],
            [
              -60.154391,
              -42.660387
            ],
            [
              -60.058742,
              -42.82811
            ],
            [
              -59.941568,
              -42.988019
            ],
            [
              -59.803999,
              -43.138574
            ],
            [
              -59.647358,
              -43.278323
            ],
            [
              -59.473155,
              -43.405923
            ],
            [
              -59.283066,
              -43.520143
            ],
            [
              -59.078924,
              -43.619885
            ],
            [
              -58.862693,
              -43.704186
            ],
            [
              -58.636456,
              -43.772236
            ],
            [
              -58.402392,
              -43.823379
            ],
            [
              -58.162756,
              -43.857123
            ],
            [
              -57.919854,
              -43.873142
            ],
            [
              -57.676027,
              -43.871282
            ],
            [
              -57.433622,
              -43.851562
            ],
            [
              -57.194974,
              -43.81417
            ],
            [
              -56.962381,
              -43.759468
            ],
            [
              -56.738083,
              -43.687982
            ],
            [
              -56.52424,
              -43.6004
            ],
            [
              -56.322913,
              -43.497567
            ],
            [
              -56.136039,
              -43.380471
            ],
            [
              -55.965418,
              -43.250242
            ],
            [
              -55.812694,
              -43.108132
            ],
            [
              -55.679337,
              -42.955511
            ],
            [
              -55.566632,
              -42.793849
            ],
            [
              -55.475664,
              -42.624703
            ],
            [
              -55.407308,
              -42.449701
            ],
            [
              -55.362225,
              -42.270528
            ],
            [
              -55.340847,
              -42.088911
            ],
            [
              -55.34338,
              -41.906598
            ],
            [
              -55.3698,
              -41.725346
            ],
            [
              -55.419853,
              -41.546899
            ],
            [
              -55.493057,
              -41.372976
            ],
            [
              -55.588706,
              -41.205253
            ],
            [
              -55.70588,
              -41.045344
            ],
            [
              -55.84345,
              -40.89479
            ],
            [
              -56.00009,
              -40.75504
            ],
            [
              -56.174294,
              -40.62744
            ],
            [
              -56.364382,
              -40.51322
            ],
            [
              -56.568525,
              -40.413479
            ],
            [
              -56.784756,
              -40.329177
            ],
            [
              -57.010992,
              -40.261127
            ],
            [
              -57.245056,
              -40.209984
            ],
            [
              -57.484692,
              -40.176241
            ],
            [
              -57.727594,
              -40.160221
            ],
            [
              -57.971422,
              -40.162081
            ],
            [
              -58.213827,
              -40.181802
            ],
            [
              -58.452475,
              -40.219193
            ],
            [
              -58.685068,
              -40.273895
            ],
            [
              -58.909365,
              -40.345381
            ],
            [
              -59.123208,
              -40.432963
            ],
            [
              -59.324536,
              -40.535797
            ],
            [
              -59.51141,
              -40.652892
            ],
            [
              -59.68203,
              -40.783122
            ],
            [
              -59.834754,
              -40.925231
            ],
            [
              -59.968111,
              -41.077852
            ],
            [
              -60.080817,
              -41.239514
            ],
            [
              -60.171785,
              -41.408661
            ],
            [
              -60.24014,
              -41.583663
            ]
          ]
        ],
        "type": "Polygon"
      },
      "properties": {
        "kind": "reachableSet",
        "observationStatus": "estimated",
        "vessel": "A"
      },
      "type": "Feature"
    },
    {
      "geometry": {
        "coordinates": [
          [
            [
              -59.061306,
              -40.596089
            ],
            [
              -59.241733,
              -40.699803
            ],
            [
              -59.407692,
              -40.816255
            ],
            [
              -59.557584,
              -40.944321
            ],
            [
              -59.689966,
              -41.082769
            ],
            [
              -59.803564,
              -41.230265
            ],
            [
              -59.897282,
              -41.385389
            ],
            [
              -59.970219,
              -41.546647
            ],
            [
              -60.021672,
              -41.712485
            ],
            [
              -60.051145,
              -41.881308
            ],
            [
              -60.058355,
              -42.051488
            ],
            [
              -60.043232,
              -42.221387
            ],
            [
              -60.005922,
              -42.389369
            ],
            [
              -59.946784,
              -42.553816
            ],
            [
              -59.866388,
              -42.713144
            ],
            [
              -59.765508,
              -42.865819
            ],
            [
              -59.645115,
              -43.010371
            ],
            [
              -59.50637,
              -43.145407
            ],
            [
              -59.350607,
              -43.269627
            ],
            [
              -59.179328,
              -43.381834
            ],
            [
              -58.994181,
              -43.480949
            ],
            [
              -58.796951,
              -43.566016
            ],
            [
              -58.589535,
              -43.636216
            ],
            [
              -58.373932,
              -43.690873
            ],
            [
              -58.152218,
              -43.729461
            ],
            [
              -57.926529,
              -43.751608
            ],
            [
              -57.699038,
              -43.757102
            ],
            [
              -57.471935,
              -43.745888
            ],
            [
              -57.247408,
              -43.718075
            ],
            [
              -57.027619,
              -43.673931
            ],
            [
              -56.814686,
              -43.613881
            ],
            [
              -56.610657,
              -43.538503
            ],
            [
              -56.417499,
              -43.448523
            ],
            [
              -56.237072,
              -43.344808
            ],
            [
              -56.071113,
              -43.228357
            ],
            [
              -55.921221,
              -43.100291
            ],
            [
              -55.788839,
              -42.961843
            ],
            [
              -55.675241,
              -42.814347
            ],
            [
              -55.581523,
              -42.659223
            ],
            [
              -55.508586,
              -42.497965
            ],
            [
              -55.457133,
              -42.332126
            ],
            [
              -55.42766,
              -42.163304
            ],
            [
              -55.42045,
              -41.993124
            ],
            [
              -55.435573,
              -41.823224
            ],
            [
              -55.472883,
              -41.655243
            ],
            [
              -55.532021,
              -41.490796
            ],
            [
              -55.612417,
              -41.331467
            ],
            [
              -55.713297,
              -41.178792
            ],
            [
              -55.83369,
              -41.034241
            ],
            [
              -55.972435,
              -40.899205
            ],
            [
              -56.128198,
              -40.774985
            ],
            [
              -56.299477,
              -40.662778
            ],
            [
              -56.484624,
              -40.563663
            ],
            [
              -56.681854,
              -40.478596
            ],
            [
              -56.88927,
              -40.408396
            ],
            [
              -57.104873,
              -40.353739
            ],
            [
              -57.326587,
              -40.31515
            ],
            [
              -57.552276,
              -40.293003
            ],
            [
              -57.779767,
              -40.28751
            ],
            [
              -58.00687,
              -40.298724
            ],
            [
              -58.231397,
              -40.326537
            ],
            [
              -58.451186,
              -40.370681
            ],
            [
              -58.664119,
              -40.430731
            ],
            [
              -58.868148,
              -40.506109
            ],
            [
              -59.061306,
              -40.596089
            ]
          ]
        ],
        "type": "Polygon"
      },
      "properties": {
        "kind": "reachableSet",
        "observationStatus": "estimated",
        "vessel": "B"
      },
      "type": "Feature"
    }
  ],
  "properties": {
    "dateline": false
  },
  "type": "FeatureCollection"
}
