{
  "features": [
    {
      "geometry": {
        "coordinates": [
          -60.561947,
          -46.1084
        ],
        "type": "Point"
      },
      "properties": {
        "mmsi": "412331067",
        "observationStatus": "observed",
        "role": "off",
        "time": "2019-01-22T06:29:08Z",
        "vessel": "A"
      },
      "type": "Feature"
    },
    {
      "geometry": {
        "coordinates": [
          -60.47318,
          -46.17168
        ],
        "type": "Point"
      },
      "properties": {
        "mmsi": "412331069",
        "observationStatus": "observed",
        "role": "off",
        "time": "2019-01-22T06:35:29Z",
        "vessel": "B"
      },
      "type": "Feature"
    },
    {
      "geometry": {
        "coordinates": [
          -60.687887,
          -45.992507
        ],
        "type": "Point"
      },
      "properties": {
        "mmsi": "412331067",
        "observationStatus": "observed",
        "role": "on",
        "time": "2019-01-22T23:03:08Z",
        "vessel": "A"
      },
      "type": "Feature"
    },
    {
      "geometry": {
        "coordinates": [
          -60.678613,
          -45.960907
        ],
        "type": "Point"
      },
      "properties": {
        "mmsi": "412331069",
        "observationStatus": "observed",
        "role": "on",
        "time": "2019-01-22T23:45:34Z",
        "vessel": "B"
      },
      "type": "Feature"
    },
    {
      "geometry": {
        "coordinates": [
          [
            -60.561947,
            -46.1084
          ],
          [
            -60.607575,
            -46.059376
          ],
          [
            -60.687887,
            -45.992507
          ]
        ],
        "type": "LineString"
      },
      "properties": {
        "confidence": "low",
        "lineStyle": "dashed",
        "observationStatus": "estimated",
        "source": "reachable-set heuristic",
        "vessel": "A"
      },
      "type": "Feature"
    },
    {
      "geometry": {
        "coordinates": [
          [
            -60.47318,
            -46.17168
          ],
          [
            -60.607575,
            -46.059376
          ],
          [
            -60.678613,
            -45.960907
          ]
        ],
        "type": "LineString"
      },
      "properties": {
        "confidence": "low",
        "lineStyle": "dashed",
        "observationStatus": "estimated",
        "source": "reachable-set heuristic",
        "vessel": "B"
      },
      "type": "Feature"
    },
    {
      "geometry": {
        "coordinates": [
          -60.607575,
          -46.059376
        ],
        "type": "Point"
      },
      "properties": {
        "kind": "meetingPoint",
        "observationStatus": "estimated"
      },
      "type": "Feature"
    },
    {
      "geometry": {
        "coordinates": [
          [
            [
              -61.978867,
              -44.804512
            ],
            [
              -62.146937,
              -44.90314
            ],
            [
              -62.300349,
              -45.012818
            ],
            [
              -62.437626,
              -45.132488
            ],
            [
              -62.557446,
              -45.260999
            ],
            [
              -62.658654,
              -45.397113
            ],
            [
              -62.740276,
              -45.539519
            ],
            [
              -62.801526,
              -45.686845
            ],
            [
              -62.841814,
              -45.837674
            ],
            [
              -62.860752,
              -45.990551
            ],
            [
              -62.858158,
              -46.144005
            ],
            [
              -62.834057,
              -46.296559
            ],
            [
              -62.78868,
              -46.446742
            ],
            [
              -62.722465,
              -46.593108
            ],
            [
              -62.63605,
              -46.734249
            ],
            [
              -62.530266,
              -46.868804
            ],
            [
              -62.406133,
              -46.995479
            ],
            [
              -62.264845,
              -47.113052
            ],
            [
              -62.107764,
              -47.220391
            ],
            [
              -61.936403,
              -47.316464
            ],
            [
              -61.752411,
              -47.400344
            ],
            [
              -61.557561,
              -47.471224
            ],
            [
              -61.353729,
              -47.528421
            ],
            [
              -61.142878,
              -47.571384
            ],
            [
              -60.927039,
              -47.599701
            ],
            [
              -60.70829,
              -47.613097
            ],
            [
              -60.488738,
              -47.611444
            ],
            [
              -60.270498,
              -47.594757
            ],
            [
              -60.055671,
              -47.563198
            ],
            [
              -59.846326,
              -47.517071
            ],
            [
              -59.64448,
              -47.456819
            ],
            [
              -59.452075,
              -47.383024
            ],
            [
              -59.270966,
              -47.296395
            ],
            [
              -59.102896,
              -47.197766
            ],
            [
              -58.949484,
              -47.088089
            ],
            [
              -58.812207,
              -46.968418
            ],
            [
              -58.692388,
              -46.839907
            ],
            [
              -58.591179,
              -46.703794
            ],
            [
              -58.509557,
              -46.561388
            ],
            [
              -58.448307,
              -46.414061
            ],
            [
              -58.408019,
              -46.263233
            ],
            [
              -58.389081,
              -46.110356
            ],
            [
              -58.391675,
              -45.956901
            ],
            [
              -58.415777,
              -45.804348
            ],
            [
              -58.461153,
              -45.654165
            ],
            [
              -58.527368,
              -45.507798
            ],
            [
              -58.613784,
              -45.366658
            ],
            [
              -58.719567,
              -45.232102
            ],
            [
              -58.843701,
              -45.105428
            ],
            [
              -58.984988,
              -44.987855
            ],
            [
              -59.142069,
              -44.880515
            ],
            [
              -59.31343,
              -44.784443
            ],
            [
              -59.497422,
              -44.700563
            ],
            [
              -59.692272,
              -44.629683
            ],
            [
              -59.896104,
              -44.572486
            ],
            [
              -60.106955,
              -44.529522
            ],
            [
              -60.322794,
              -44.501206
            ],
            [
              -60.541543,
              -44.48781
            ],
            [
              -60.761095,
              -44.489463
            ],
            [
              -60.979335,
              -44.506149
            ],
            [
              -61.194162,
              -44.537708
            ],
            [
              -61.403507,
              -44.583836
            ],
            [
              -61.605353,
              -44.644087
            ],
            [
              -61.797758,
              -44.717883
            ],
            [
              -61.978867,
              -44.804512
            ]
          ]
        ],
        "type": "Polygon"
      },
      "properties": {
        "kind": "reachableSet",
        "observationStatus": "estimated",
        "vessel": "A"
      },
      "type": "Feature"
    },
    {
      "geometry": {
        "coordinates": [
          [
            [
              -61.884977,
              -44.723185
            ],
            [
              -62.066556,
              -44.819006
            ],
            [
              -62.233779,
              -44.92684
            ],
            [
              -62.385035,
              -45.045647
            ],
            [
              -62.518869,
              -45.174283
            ],
            [
              -62.63399,
              -45.31151
            ],
            [
              -62.729292,
              -45.456006
            ],
            [
              -62.803854,
              -45.606379
            ],
            [
              -62.856961,
              -45.761181
            ],
            [
              -62.888099,
              -45.918922
            ],
            [
              -62.89697,
              -46.078082
            ],
            [
              -62.883487,
              -46.237129
            ],
            [
              -62.847781,
              -46.39453
            ],
            [
              -62.790196,
              -46.548771
            ],
            [
              -62.711285,
              -46.698365
            ],
            [
              -62.61181,
              -46.841871
            ],
            [
              -62.492728,
              -46.977908
            ],
            [
              -62.355185,
              -47.105166
            ],
            [
              -62.200507,
              -47.222419
            ],
            [
              -62.030184,
              -47.328538
            ],
            [
              -61.845854,
              -47.422501
            ],
            [
              -61.649294,
              -47.503403
            ],
            [
              -61.442397,
              -47.570465
            ],
            [
              -61.227155,
              -47.62304
            ],
            [
              -61.005641,
              -47.660624
            ],
            [
              -60.779989,
              -47.682853
            ],
            [
              -60.55237,
              -47.689513
            ],
            [
              -60.324979,
              -47.680542
            ],
            [
              -60.100003,
              -47.656024
            ],
            [
              -59.879611,
              -47.616196
            ],
            [
              -59.665925,
              -47.561442
            ],
            [
              -59.461002,
              -47.492288
            ],
            [
              -59.266816,
              -47.409402
            ],
            [
              -59.085237,
              -47.31358
            ],
            [
              -58.918015,
              -47.205747
            ],
            [
              -58.766758,
              -47.08694
            ],
            [
              -58.632925,
              -46.958304
            ],
            [
              -58.517803,
              -46.821077
            ],
            [
              -58.422502,
              -46.676581
            ],
            [
              -58.347939,
              -46.526208
            ],
            [
              -58.294833,
              -46.371405
            ],
            [
              -58.263694,
              -46.213664
            ],
            [
              -58.254824,
              -46.054504
            ],
            [
              -58.268306,
              -45.895458
            ],
            [
              -58.304012,
              -45.738056
            ],
            [
              -58.361598,
              -45.583816
            ],
            [
              -58.440508,
              -45.434222
            ],
            [
              -58.539983,
              -45.290716
            ],
            [
              -58.659066,
              -45.154678
            ],
            [
              -58.796608,
              -45.02742
            ],
            [
              -58.951286,
              -44.910167
            ],
            [
              -59.12161,
              -44.804048
            ],
            [
              -59.305939,
              -44.710085
            ],
            [
              -59.502499,
              -44.629184
            ],
            [
              -59.709396,
              -44.562122
            ],
            [
              -59.924638,
              -44.509546
            ],
            [
              -60.146152,
              -44.471963
            ],
            [
              -60.371805,
              -44.449734
            ],
            [
              -60.599423,
              -44.443073
            ],
            [
              -60.826815,
              -44.452045
            ],
            [
              -61.05179,
              -44.476563
            ],
            [
              -61.272182,
              -44.516391
            ],
            [
              -61.485868,
              -44.571145
            ],
            [
              -61.690791,
              -44.640298
            ],
            [
              -61.884977,
              -44.723185
            ]
          ]
        ],
        "type": "Polygon"
      },
      "properties": {
        "kind": "reachableSet",
        "observationStatus": "estimated",
        "vessel": "B"
      },
      "type": "Feature"
    }
  ],
  "properties": {
    "dateline": false
  },
  "type": "FeatureCollection"
}
