{
  "features": [
    {
      "geometry": {
        "coordinates": [
          -57.8564,
          -42.009733
        ],
        "type": "Point"
      },
      "properties": {
        "mmsi": "412331073",
        "observationStatus": "observed",
        "role": "off",
        "time": "2018-12-12T15:50:12Z",
        "vessel": "A"
      },
      "type": "Feature"
    },
    {
      "geometry": {
        "coordinates": [
          -57.808713,
          -42.016615
        ],
        "type": "Point"
      },
      "properties": {
        "mmsi": "412421041",
        "observationStatus": "observed",
        "role": "off",
        "time": "2018-12-12T15:57:13Z",
        "vessel": "B"
      },
      "type": "Feature"
    },
    {
      "geometry": {
        "coordinates": [
          -57.99008,
          -42.086373
        ],
        "type": "Point"
      },
      "properties": {
        "mmsi": "412331073",
        "observationStatus": "observed",
        "role": "on",
        "time": "2018-12-13T09:10:26Z",
        "vessel": "A"
      },
      "type": "Feature"
    },
    {
      "geometry": {
        "coordinates": [
          -57.948527,
          -42.02685
        ],
        "type": "Point"
      },
      "properties": {
        "mmsi": "412421041",
        "observationStatus": "observed",
        "role": "on",
        "time": "2018-12-13T10:09:53Z",
        "vessel": "B"
      },
      "type": "Feature"
    },
    {
      "geometry": {
        "coordinates": [
          [
            -57.8564,
            -42.009733
          ],
          [
            -57.930247,
            -42.06355
          ],
          [
            -57.99008,
            -42.086373
          ]
        ],
        "type": "LineString"
      },
      "properties": {
        "confidence": "low",
        "lineStyle": "dashed",
        "observationStatus": "estimated",
        "source": "reachable-set heuristic",
        "vessel": "A"
      },
      "type": "Feature"
    },
    {
      "geometry": {
        "coordinates": [
          [
            -57.808713,
            -42.016615
          ],
          [
            -57.930247,
            -42.06355
          ],
          [
            -57.948527,
            -42.02685
          ]
        ],
        "type": "LineString"
      },
      "properties": {
        "confidence": "low",
        "lineStyle": "dashed",
        "observationStatus": "estimated",
        "source": "reachable-set heuristic",
        "vessel": "B"
      },
      "type": "Feature"
    },
    {
      "geometry": {
        "coordinates": [
          -57.930247,
          -42.06355
        ],
        "type": "Point"
      },
      "properties": {
        "kind": "meetingPoint",
        "observationStatus": "estimated"
      },
      "type": "Feature"
    },
    {
      "geometry": {
        "coordinates": [
          [
            [
              -59.665928,
              -43.047153
            ],
            [
              -59.526645,
              -43.169951
            ],
            [
              -59.371921,
              -43.281945
            ],
            [
              -59.203245,
              -43.382056
            ],
            [
              -59.022242,
              -43.46932
            ],
            [
              -58.830655,
              -43.542897
            ],
            [
              -58.63033,
              -43.602077
            ],
            [
              -58.423194,
              -43.646291
            ],
            [
              -58.211244,
              -43.675113
            ],
            [
              -57.99652,
              -43.688266
            ],
            [
              -57.78109,
              -43.685622
            ],
            [
              -57.567029,
              -43.667208
            ],
            [
              -57.356399,
              -43.6332
            ],
            [
              -57.151228,
              -43.583927
            ],
            [
              -56.953491,
              -43.519862
            ],
            [
              -56.765094,
              -43.441623
            ],
            [
              -56.587851,
              -43.349964
            ],
            [
              -56.423468,
              -43.245766
            ],
            [
              -56.273528,
              -43.130033
            ],
            [
              -56.139476,
              -43.003881
            ],
            [
              -56.022603,
              -42.868523
            ],
            [
              -55.924034,
              -42.725264
            ],
            [
              -55.844719,
              -42.575482
            ],
            [
              -55.78542,
              -42.420622
            ],
            [
              -55.746711,
              -42.262173
            ],
            [
              -55.728962,
              -42.101662
            ],
            [
              -55.732345,
              -41.940635
            ],
            [
              -55.756828,
              -41.780643
            ],
            [
              -55.802175,
              -41.623225
            ],
            [
              -55.867948,
              -41.469899
            ],
            [
              -55.953516,
              -41.322141
            ],
            [
              -56.058052,
              -41.181374
            ],
            [
              -56.180552,
              -41.048954
            ],
            [
              -56.319835,
              -40.926155
            ],
            [
              -56.474559,
              -40.814161
            ],
            [
              -56.643235,
              -40.71405
            ],
            [
              -56.824238,
              -40.626786
            ],
            [
              -57.015825,
              -40.55321
            ],
            [
              -57.21615,
              -40.49403
            ],
            [
              -57.423286,
              -40.449816
            ],
            [
              -57.635236,
              -40.420994
            ],
            [
              -57.84996,
              -40.407841
            ],
            [
              -58.06539,
              -40.410485
            ],
            [
              -58.279451,
              -40.428899
            ],
            [
              -58.490081,
              -40.462906
            ],
            [
              -58.695252,
              -40.51218
            ],
            [
              -58.892989,
              -40.576244
            ],
            [
              -59.081386,
              -40.654483
            ],
            [
              -59.258629,
              -40.746143
            ],
            [
              -59.423012,
              -40.850341
            ],
            [
              -59.572952,
              -40.966073
            ],
            [
              -59.707004,
              -41.092226
            ],
            [
              -59.823877,
              -41.227584
            ],
            [
              -59.922446,
              -41.370843
            ],
            [
              -60.001761,
              -41.520624
            ],
            [
              -60.06106,
              -41.675485
            ],
            [
              -60.099769,
              -41.833934
            ],
            [
              -60.117518,
              -41.994444
            ],
            [
              -60.114135,
              -42.155471
            ],
            [
              -60.089652,
              -42.315464
            ],
            [
              -60.044305,
              -42.472881
            ],
            [
              -59.978532,
              -42.626207
            ],
            [
              -59.892964,
              -42.773965
            ],
            [
              -59.788428,
              -42.914732
            ],
            [
              -59.665928,
              -43.047153
            ]
          ]
        ],
        "type": "Polygon"
      },
      "properties": {
        "kind": "reachableSet",
        "observationStatus": "estimated",
        "vessel": "A"
      },
      "type": "Feature"
    },
    {
      "geometry": {
        "coordinates": [
          [
            [
              -60.180234,
              -42.190222
            ],
            [
              -60.147081,
              -42.358064
            ],
            [
              -60.092081,
              -42.522667
            ],
            [
              -60.015764,
              -42.682445
            ],
            [
              -59.918865,
              -42.835861
            ],
            [
              -59.802318,
              -42.981436
            ],
            [
              -59.667245,
              -43.117769
            ],
            [
              -59.514946,
              -43.243547
            ],
            [
              -59.346888,
              -43.357557
            ],
            [
              -59.16469,
              -43.458703
            ],
            [
              -58.970106,
              -43.54601
            ],
            [
              -58.765011,
              -43.618637
            ],
            [
              -58.55138,
              -43.675886
            ],
            [
              -58.331269,
              -43.717204
            ],
            [
              -58.106799,
              -43.742193
            ],
            [
              -57.880132,
              -43.750614
            ],
            [
              -57.65345,
              -43.742385
            ],
            [
              -57.428937,
              -43.717584
            ],
            [
              -57.208754,
              -43.676452
            ],
            [
              -56.995022,
              -43.619384
            ],
            [
              -56.7898,
              -43.54693
            ],
            [
              -56.595064,
              -43.459787
            ],
            [
              -56.41269,
              -43.358795
            ],
            [
              -56.244433,
              -43.244926
            ],
            [
              -56.091914,
              -43.119278
            ],
            [
              -55.956602,
              -42.983059
            ],
            [
              -55.8398,
              -42.837582
            ],
            [
              -55.742633,
              -42.684248
            ],
            [
              -55.666037,
              -42.524534
            ],
            [
              -55.610749,
              -42.359977
            ],
            [
              -55.577302,
              -42.192163
            ],
            [
              -55.566018,
              -42.022708
            ],
            [
              -55.577006,
              -41.853243
            ],
            [
              -55.610159,
              -41.685401
            ],
            [
              -55.665159,
              -41.520798
            ],
            [
              -55.741476,
              -41.36102
            ],
            [
              -55.838375,
              -41.207604
            ],
            [
              -55.954922,
              -41.062029
            ],
            [
              -56.089995,
              -40.925696
            ],
            [
              -56.242294,
              -40.799918
            ],
            [
              -56.410352,
              -40.685908
            ],
            [
              -56.59255,
              -40.584762
            ],
            [
              -56.787134,
              -40.497455
            ],
            [
              -56.992229,
              -40.424828
            ],
            [
              -57.20586,
              -40.367579
            ],
            [
              -57.425971,
              -40.326261
            ],
            [
              -57.650441,
              -40.301272
            ],
            [
              -57.877108,
              -40.292851
            ],
            [
              -58.10379,
              -40.30108
            ],
            [
              -58.328303,
              -40.325881
            ],
            [
              -58.548486,
              -40.367013
            ],
            [
              -58.762218,
              -40.424081
            ],
            [
              -58.96744,
              -40.496535
            ],
            [
              -59.162176,
              -40.583678
            ],
            [
              -59.34455,
              -40.68467
            ],
            [
              -59.512807,
              -40.798539
            ],
            [
              -59.665326,
              -40.924187
            ],
            [
              -59.800638,
              -41.060406
            ],
            [
              -59.91744,
              -41.205883
            ],
            [
              -60.014607,
              -41.359217
            ],
            [
              -60.091203,
              -41.518931
            ],
            [
              -60.146491,
              -41.683488
            ],
            [
              -60.179938,
              -41.851302
            ],
            [
              -60.191222,
              -42.020757
            ],
            [
              -60.180234,
              -42.190222
            ]
          ]
        ],
        "type": "Polygon"
      },
      "properties": {
        "kind": "reachableSet",
        "observationStatus": "estimated",
        "vessel": "B"
      },
      "type": "Feature"
    }
  ],
  "properties": {
    "dateline": false
  },
  "type": "FeatureCollection"
}
