{
  "features": [
    {
      "geometry": {
        "coordinates": [
          -60.428692,
          -45.789758
        ],
        "type": "Point"
      },
      "properties": {
        "mmsi": "412329692",
        "observationStatus": "observed",
        "role": "off",
        "time": "2018-02-03T05:47:22Z",
        "vessel": "A"
      },
      "type": "Feature"
    },
    {
      "geometry": {
        "coordinates": [
          -60.444905,
          -45.795393
        ],
        "type": "Point"
      },
      "properties": {
        "mmsi": "412329693",
        "observationStatus": "observed",
        "role": "off",
        "time": "2018-02-03T06:27:16Z",
        "vessel": "B"
      },
      "type": "Feature"
    },
    {
      "geometry": {
        "coordinates": [
          -60.56539,
          -45.67884
        ],
        "type": "Point"
      },
      "properties": {
        "mmsi": "412329693",
        "observationStatus": "observed",
        "role": "on",
        "time": "2018-02-03T22:47:15Z",
        "vessel": "B"
      },
      "type": "Feature"
    },
    {
      "geometry": {
        "coordinates": [
          -60.55874,
          -45.682393
        ],
        "type": "Point"
      },
      "properties": {
        "mmsi": "412329692",
        "observationStatus": "observed",
        "role": "on",
        "time": "2018-02-03T23:09:08Z",
        "vessel": "A"
      },
      "type": "Feature"
    },
    {
      "geometry": {
        "coordinates": [
          [
            -60.428692,
            -45.789758
          ],
          [
            -60.504535,
            -45.737117
          ],
          [
            -60.55874,
            -45.682393
          ]
        ],
        "type": "LineString"
      },
      "properties": {
        "confidence": "low",
        "lineStyle": "dashed",
        "observationStatus": "estimated",
        "source": "reachable-set heuristic",
        "vessel": "A"
      },
      "type": "Feature"
    },
    {
      "geometry": {
        "coordinates": [
          [
            -60.444905,
            -45.795393
          ],
          [
            -60.504535,
            -45.737117
          ],
          [
            -60.56539,
            -45.67884
          ]
        ],
        "type": "LineString"
      },
      "properties": {
        "confidence": "low",
        "lineStyle": "dashed",
        "observationStatus": "estimated",
        "source": "reachable-set heuristic",
        "vessel": "B"
      },
      "type": "Feature"
    },
    {
      "geometry": {
        "coordinates": [
          -60.504535,
          -45.737117
        ],
        "type": "Point"
      },
      "properties": {
        "kind": "meetingPoint",
        "observationStatus": "estimated"
      },
      "type": "Feature"
    },
    {
      "geometry": {
        "coordinates": [
          [
            [
              -62.136906,
              -44.379495
            ],
            [
              -62.31807,
              -44.499116
            ],
            [
              -62.481665,
              -44.630649
            ],
            [
              -62.626115,
              -44.772828
            ],
            [
              -62.750029,
              -44.924284
            ],
            [
              -62.852213,
              -45.083558
            ],
            [
              -62.931683,
              -45.249116
            ],
            [
              -62.987675,
              -45.419364
            ],
            [
              -63.019648,
              -45.592662
            ],
            [
              -63.027296,
              -45.767341
            ],
            [
              -63.010543,
              -45.941719
            ],
            [
              -62.969552,
              -46.114116
            ],
            [
              -62.904718,
              -46.282873
            ],
            [
              -62.816664,
              -46.446364
            ],
            [
              -62.706239,
              -46.603014
            ],
            [
              -62.574506,
              -46.751315
            ],
            [
              -62.422734,
              -46.889839
            ],
            [
              -62.252384,
              -47.017252
            ],
            [
              -62.065098,
              -47.132326
            ],
            [
              -61.862678,
              -47.233953
            ],
            [
              -61.647074,
              -47.321155
            ],
            [
              -61.420363,
              -47.393092
            ],
            [
              -61.184728,
              -47.449071
            ],
            [
              -60.942438,
              -47.488553
            ],
            [
              -60.695826,
              -47.511158
            ],
            [
              -60.447269,
              -47.516667
            ],
            [
              -60.199158,
              -47.505028
            ],
            [
              -59.953884,
              -47.476354
            ],
            [
              -59.713809,
              -47.43092
            ],
            [
              -59.481245,
              -47.369163
            ],
            [
              -59.258432,
              -47.291679
            ],
            [
              -59.047515,
              -47.199213
            ],
            [
              -58.850526,
              -47.092657
            ],
            [
              -58.669361,
              -46.973036
            ],
            [
              -58.505766,
              -46.841503
            ],
            [
              -58.361317,
              -46.699323
            ],
            [
              -58.237403,
              -46.547867
            ],
            [
              -58.135219,
              -46.388593
            ],
            [
              -58.055748,
              -46.223035
            ],
            [
              -57.999757,
              -46.052787
            ],
            [
              -57.967783,
              -45.87949
            ],
            [
              -57.960136,
              -45.704811
            ],
            [
              -57.976889,
              -45.530433
            ],
            [
              -58.017879,
              -45.358035
            ],
            [
              -58.082714,
              -45.189279
            ],
            [
              -58.170768,
              -45.025788
            ],
            [
              -58.281193,
              -44.869137
            ],
            [
              -58.412926,
              -44.720836
            ],
            [
              -58.564698,
              -44.582312
            ],
            [
              -58.735048,
              -44.4549
            ],
            [
              -58.922334,
              -44.339826
            ],
            [
              -59.124754,
              -44.238198
            ],
            [
              -59.340357,
              -44.150996
            ],
            [
              -59.567068,
              -44.079059
            ],
            [
              -59.802704,
              -44.02308
            ],
            [
              -60.044994,
              -43.983599
            ],
            [
              -60.291605,
              -43.960994
            ],
            [
              -60.540163,
              -43.955485
            ],
            [
              -60.788274,
              -43.967123
            ],
            [
              -61.033548,
              -43.995798
            ],
            [
              -61.273622,
              -44.041232
            ],
            [
              -61.506187,
              -44.102989
            ],
            [
              -61.729,
              -44.180473
            ],
            [
              -61.939917,
              -44.272938
            ],
            [
              -62.136906,
              -44.379495
            ]
          ]
        ],
        "type": "Polygon"
      },
      "properties": {
        "kind": "reachableSet",
        "observationStatus": "estimated",
        "vessel": "A"
      },
      "type": "Feature"
    },
    {
      "geometry": {
        "coordinates": [
          [
            [
              -61.901334,
              -44.386491
            ],
            [
              -62.082833,
              -44.489068
            ],
            [
              -62.249138,
              -44.603664
            ],
            [
              -62.398648,
              -44.729176
            ],
            [
              -62.529923,
              -44.864395
            ],
            [
              -62.641697,
              -45.008018
            ],
            [
              -62.732896,
              -45.158664
            ],
            [
              -62.80264,
              -45.31488
            ],
            [
              -62.850258,
              -45.475162
            ],
            [
              -62.875291,
              -45.637968
            ],
            [
              -62.877499,
              -45.801728
            ],
            [
              -62.856859,
              -45.964866
            ],
            [
              -62.813571,
              -46.12581
            ],
            [
              -62.748052,
              -46.283011
            ],
            [
              -62.660933,
              -46.434955
            ],
            [
              -62.553052,
              -46.580179
            ],
            [
              -62.425448,
              -46.717283
            ],
            [
              -62.279351,
              -46.844948
            ],
            [
              -62.116168,
              -46.961943
            ],
            [
              -61.937469,
              -47.067143
            ],
            [
              -61.744977,
              -47.159534
            ],
            [
              -61.540544,
              -47.238227
            ],
            [
              -61.32614,
              -47.302463
            ],
            [
              -61.103829,
              -47.351623
            ],
            [
              -60.875752,
              -47.385236
            ],
            [
              -60.644107,
              -47.402975
            ],
            [
              -60.411123,
              -47.404672
            ],
            [
              -60.179045,
              -47.390309
            ],
            [
              -59.950107,
              -47.360026
            ],
            [
              -59.726515,
              -47.314112
            ],
            [
              -59.510421,
              -47.253012
            ],
            [
              -59.303907,
              -47.177312
            ],
            [
              -59.108961,
              -47.087742
            ],
            [
              -58.927462,
              -46.985166
            ],
            [
              -58.761157,
              -46.87057
            ],
            [
              -58.611647,
              -46.745058
            ],
            [
              -58.480372,
              -46.609839
            ],
            [
              -58.368598,
              -46.466215
            ],
            [
              -58.277399,
              -46.31557
            ],
            [
              -58.207655,
              -46.159354
            ],
            [
              -58.160037,
              -45.999071
            ],
            [
              -58.135004,
              -45.836266
            ],
            [
              -58.132796,
              -45.672506
            ],
            [
              -58.153436,
              -45.509368
            ],
            [
              -58.196724,
              -45.348423
            ],
            [
              -58.262243,
              -45.191222
            ],
            [
              -58.349362,
              -45.039278
            ],
            [
              -58.457243,
              -44.894055
            ],
            [
              -58.584847,
              -44.75695
            ],
            [
              -58.730944,
              -44.629286
            ],
            [
              -58.894127,
              -44.51229
            ],
            [
              -59.072826,
              -44.40709
            ],
            [
              -59.265318,
              -44.314699
            ],
            [
              -59.469751,
              -44.236007
            ],
            [
              -59.684155,
              -44.171771
            ],
            [
              -59.906466,
              -44.12261
            ],
            [
              -60.134543,
              -44.088998
            ],
            [
              -60.366188,
              -44.071258
            ],
            [
              -60.599172,
              -44.069561
            ],
            [
              -60.83125,
              -44.083924
            ],
            [
              -61.060188,
              -44.114208
            ],
            [
              -61.28378,
              -44.160121
            ],
            [
              -61.499874,
              -44.221222
            ],
            [
              -61.706388,
              -44.296921
            ],
            [
              -61.901334,
              -44.386491
            ]
          ]
        ],
        "type": "Polygon"
      },
      "properties": {
        "kind": "reachableSet",
        "observationStatus": "estimated",
        "vessel": "B"
      },
      "type": "Feature"
    }
  ],
  "properties": {
    "dateline": false
  },
  "type": "FeatureCollection"
}
