{
  "features": [
    {
      "geometry": {
        "coordinates": [
          -60.636672,
          -46.278938
        ],
        "type": "Point"
      },
      "properties": {
        "mmsi": "412424374",
        "observationStatus": "observed",
        "role": "off",
        "time": "2018-03-30T20:03:54Z",
        "vessel": "A"
      },
      "type": "Feature"
    },
    {
      "geometry": {
        "coordinates": [
          -60.686553,
          -46.263972
        ],
        "type": "Point"
      },
      "properties": {
        "mmsi": "412420376",
        "observationStatus": "observed",
        "role": "off",
        "time": "2018-03-30T20:12:52Z",
        "vessel": "B"
      },
      "type": "Feature"
    },
    {
      "geometry": {
        "coordinates": [
          -60.627355,
          -46.189742
        ],
        "type": "Point"
      },
      "properties": {
        "mmsi": "412420376",
        "observationStatus": "observed",
        "role": "on",
        "time": "2018-03-31T10:52:08Z",
        "vessel": "B"
      },
      "type": "Feature"
    },
    {
      "geometry": {
        "coordinates": [
          -60.643183,
          -46.276017
        ],
        "type": "Point"
      },
      "properties": {
        "mmsi": "412424374",
        "observationStatus": "observed",
        "role": "on",
        "time": "2018-03-31T11:22:57Z",
        "vessel": "A"
      },
      "type": "Feature"
    },
    {
      "geometry": {
        "coordinates": [
          [
            -60.636672,
            -46.278938
          ],
          [
            -60.650394,
            -46.21917
          ],
          [
            -60.643183,
            -46.276017
          ]
        ],
        "type": "LineString"
      },
      "properties": {
        "confidence": "low",
        "lineStyle": "dashed",
        "observationStatus": "estimated",
        "source": "reachable-set heuristic",
        "vessel": "A"
      },
      "type": "Feature"
    },
    {
      "geometry": {
        "coordinates": [
          [
            -60.686553,
            -46.263972
          ],
          [
            -60.650394,
            -46.21917
          ],
          [
            -60.627355,
            -46.189742
          ]
        ],
        "type": "LineString"
      },
      "properties": {
        "confidence": "low",
        "lineStyle": "dashed",
        "observationStatus": "estimated",
        "source": "reachable-set heuristic",
        "vessel": "B"
      },
      "type": "Feature"
    },
    {
      "geometry": {
        "coordinates": [
          -60.650394,
          -46.21917
        ],
        "type": "Point"
      },
      "properties": {
        "kind": "meetingPoint",
        "observationStatus": "estimated"
      },
      "type": "Feature"
    },
    {
      "geometry": {
        "coordinates": [
          [
            [
              -62.377765,
              -45.497741
            ],
            [
              -62.479229,
              -45.620026
            ],
            [
              -62.56298,
              -45.748643
            ],
            [
              -62.62821,
              -45.882352
            ],
            [
              -62.674293,
              -46.019867
            ],
            [
              -62.700783,
              -46.159862
            ],
            [
              -62.707426,
              -46.300991
            ],
            [
              -62.694158,
              -46.441893
            ],
            [
              -62.661107,
              -46.581211
            ],
            [
              -62.608591,
              -46.717604
            ],
            [
              -62.537115,
              -46.849759
            ],
            [
              -62.447368,
              -46.976402
            ],
            [
              -62.340215,
              -47.096315
            ],
            [
              -62.216687,
              -47.208341
            ],
            [
              -62.077974,
              -47.311403
            ],
            [
              -61.925412,
              -47.404507
            ],
            [
              -61.76047,
              -47.486758
            ],
            [
              -61.584736,
              -47.557362
            ],
            [
              -61.399904,
              -47.615641
            ],
            [
              -61.207752,
              -47.661032
            ],
            [
              -61.010132,
              -47.693099
            ],
            [
              -60.808947,
              -47.711533
            ],
            [
              -60.606134,
              -47.716155
            ],
            [
              -60.403646,
              -47.706923
            ],
            [
              -60.203434,
              -47.683924
            ],
            [
              -60.007426,
              -47.647381
            ],
            [
              -59.817509,
              -47.597644
            ],
            [
              -59.635512,
              -47.535194
            ],
            [
              -59.463188,
              -47.460631
            ],
            [
              -59.302197,
              -47.374674
            ],
            [
              -59.154089,
              -47.27815
            ],
            [
              -59.020291,
              -47.171989
            ],
            [
              -58.90209,
              -47.057214
            ],
            [
              -58.800626,
              -46.934929
            ],
            [
              -58.716875,
              -46.806312
            ],
            [
              -58.651645,
              -46.672603
            ],
            [
              -58.605562,
              -46.535088
            ],
            [
              -58.579072,
              -46.395093
            ],
            [
              -58.572429,
              -46.253964
            ],
            [
              -58.585697,
              -46.113062
            ],
            [
              -58.618748,
              -45.973744
            ],
            [
              -58.671264,
              -45.837351
            ],
            [
              -58.74274,
              -45.705196
            ],
            [
              -58.832487,
              -45.578553
            ],
            [
              -58.93964,
              -45.45864
            ],
            [
              -59.063168,
              -45.346614
            ],
            [
              -59.201881,
              -45.243552
            ],
            [
              -59.354443,
              -45.150448
            ],
            [
              -59.519385,
              -45.068197
            ],
            [
              -59.695119,
              -44.997593
            ],
            [
              -59.879951,
              -44.939314
            ],
            [
              -60.072103,
              -44.893923
            ],
            [
              -60.269723,
              -44.861856
            ],
            [
              -60.470908,
              -44.843422
            ],
            [
              -60.673721,
              -44.8388
            ],
            [
              -60.876209,
              -44.848032
            ],
            [
              -61.076421,
              -44.871031
            ],
            [
              -61.272429,
              -44.907574
            ],
            [
              -61.462346,
              -44.957311
            ],
            [
              -61.644343,
              -45.019761
            ],
            [
              -61.816667,
              -45.094324
            ],
            [
              -61.977658,
              -45.180281
            ],
            [
              -62.125766,
              -45.276805
            ],
            [
              -62.259564,
              -45.382966
            ],
            [
              -62.377765,
              -45.497741
            ]
          ]
        ],
        "type": "Polygon"
      },
      "properties": {
        "kind": "reachableSet",
        "observationStatus": "estimated",
        "vessel": "A"
      },
      "type": "Feature"
    },
    {
      "geometry": {
        "coordinates": [
          [
            [
              -59.700274,
              -45.027255
            ],
            [
              -59.873618,
              -44.967752
            ],
            [
              -60.054506,
              -44.920374
            ],
            [
              -60.241196,
              -44.885578
            ],
            [
              -60.43189,
              -44.8637
            ],
            [
              -60.624751,
              -44.854949
            ],
            [
              -60.817923,
              -44.859411
            ],
            [
              -61.009544,
              -44.877042
            ],
            [
              -61.19777,
              -44.907673
            ],
            [
              -61.380788,
              -44.951008
            ],
            [
              -61.556834,
              -45.00663
            ],
            [
              -61.724214,
              -45.074003
            ],
            [
              -61.881316,
              -45.152479
            ],
            [
              -62.026627,
              -45.241302
            ],
            [
              -62.158747,
              -45.339617
            ],
            [
              -62.276403,
              -45.446476
            ],
            [
              -62.378464,
              -45.56085
            ],
            [
              -62.463946,
              -45.681639
            ],
            [
              -62.532025,
              -45.807678
            ],
            [
              -62.582046,
              -45.937754
            ],
            [
              -62.613528,
              -46.070614
            ],
            [
              -62.626166,
              -46.20498
            ],
            [
              -62.619841,
              -46.339555
            ],
            [
              -62.594611,
              -46.473046
            ],
            [
              -62.550721,
              -46.604165
            ],
            [
              -62.488593,
              -46.731651
            ],
            [
              -62.408825,
              -46.854275
            ],
            [
              -62.312185,
              -46.970857
            ],
            [
              -62.199605,
              -47.080274
            ],
            [
              -62.072168,
              -47.181472
            ],
            [
              -61.931102,
              -47.273477
            ],
            [
              -61.777766,
              -47.355402
            ],
            [
              -61.613635,
              -47.426458
            ],
            [
              -61.440291,
              -47.485962
            ],
            [
              -61.259402,
              -47.533339
            ],
            [
              -61.072712,
              -47.568135
            ],
            [
              -60.882018,
              -47.590013
            ],
            [
              -60.689157,
              -47.598764
            ],
            [
              -60.495985,
              -47.594302
            ],
            [
              -60.304364,
              -47.576671
            ],
            [
              -60.116138,
              -47.546041
            ],
            [
              -59.933121,
              -47.502706
            ],
            [
              -59.757074,
              -47.447084
            ],
            [
              -59.589694,
              -47.37971
            ],
            [
              -59.432592,
              -47.301234
            ],
            [
              -59.287282,
              -47.212411
            ],
            [
              -59.155162,
              -47.114097
            ],
            [
              -59.037505,
              -47.007238
            ],
            [
              -58.935444,
              -46.892863
            ],
            [
              -58.849963,
              -46.772075
            ],
            [
              -58.781883,
              -46.646035
            ],
            [
              -58.731862,
              -46.515959
            ],
            [
              -58.700381,
              -46.383099
            ],
            [
              -58.687742,
              -46.248734
            ],
            [
              -58.694068,
              -46.114158
            ],
            [
              -58.719297,
              -45.980668
            ],
            [
              -58.763188,
              -45.849548
            ],
            [
              -58.825316,
              -45.722062
            ],
            [
              -58.905084,
              -45.599438
            ],
            [
              -59.001723,
              -45.482856
            ],
            [
              -59.114303,
              -45.373439
            ],
            [
              -59.24174,
              -45.272241
            ],
            [
              -59.382806,
              -45.180237
            ],
            [
              -59.536143,
              -45.098312
            ],
            [
              -59.700274,
              -45.027255
            ]
          ]
        ],
        "type": "Polygon"
      },
      "properties": {
        "kind": "reachableSet",
        "observationStatus": "estimated",
        "vessel": "B"
      },
      "type": "Feature"
    }
  ],
  "properties": {
    "dateline": false
  },
  "type": "FeatureCollection"
}
