{
  "features": [
    {
      "geometry": {
        "coordinates": [
          -60.620625,
          -46.098892
        ],
        "type": "Point"
      },
      "properties": {
        "mmsi": "412329693",
        "observationStatus": "observed",
        "role": "off",
        "time": "2017-12-17T08:01:17Z",
        "vessel": "A"
      },
      "type": "Feature"
    },
    {
      "geometry": {
        "coordinates": [
          -60.594788,
          -46.12892
        ],
        "type": "Point"
      },
      "properties": {
        "mmsi": "412329686",
        "observationStatus": "observed",
        "role": "off",
        "time": "2017-12-17T08:04:13Z",
        "vessel": "B"
      },
      "type": "Feature"
    },
    {
      "geometry": {
        "coordinates": [
          -60.653333,
          -46.031667
        ],
        "type": "Point"
      },
      "properties": {
        "mmsi": "412329693",
        "observationStatus": "observed",
        "role": "on",
        "time": "2017-12-18T00:10:44Z",
        "vessel": "A"
      },
      "type": "Feature"
    },
    {
      "geometry": {
        "coordinates": [
          -60.637863,
          -46.027268
        ],
        "type": "Point"
      },
      "properties": {
        "mmsi": "412329686",
        "observationStatus": "observed",
        "role": "on",
        "time": "2017-12-18T00:12:41Z",
        "vessel": "B"
      },
      "type": "Feature"
    },
    {
      "geometry": {
        "coordinates": [
          [
            -60.620625,
            -46.098892
          ],
          [
            -60.643936,
            -46.04661
          ],
          [
            -60.653333,
            -46.031667
          ]
        ],
        "type": "LineString"
      },
      "properties": {
        "confidence": "low",
        "lineStyle": "dashed",
        "observationStatus": "estimated",
        "source": "reachable-set heuristic",
        "vessel": "A"
      },
      "type": "Feature"
    },
    {
      "geometry": {
        "coordinates": [
          [
            -60.594788,
            -46.12892
          ],
          [
            -60.643936,
            -46.04661
          ],
          [
            -60.637863,
            -46.027268
          ]
        ],
        "type": "LineString"
      },
      "properties": {
        "confidence": "low",
        "lineStyle": "dashed",
        "observationStatus": "estimated",
        "source": "reachable-set heuristic",
        "vessel": "B"
      },
      "type": "Feature"
    },
    {
      "geometry": {
        "coordinates": [
          -60.643936,
          -46.04661
        ],
        "type": "Point"
      },
      "properties": {
        "kind": "meetingPoint",
        "observationStatus": "estimated"
      },
      "type": "Feature"
    },
    {
      "geometry": {
        "coordinates": [
          [
            [
              -61.39719,
              -44.502827
            ],
            [
              -61.612716,
              -44.56239
            ],
            [
              -61.818845,
              -44.636427
            ],
            [
              -62.013592,
              -44.724224
            ],
            [
              -62.195082,
              -44.824936
            ],
            [
              -62.361566,
              -44.937593
            ],
            [
              -62.511441,
              -45.061111
            ],
            [
              -62.643265,
              -45.194299
            ],
            [
              -62.755766,
              -45.335875
            ],
            [
              -62.847863,
              -45.484476
            ],
            [
              -62.918668,
              -45.63867
            ],
            [
              -62.967498,
              -45.796973
            ],
            [
              -62.993885,
              -45.95786
            ],
            [
              -62.997573,
              -46.119781
            ],
            [
              -62.978528,
              -46.281177
            ],
            [
              -62.936932,
              -46.440494
            ],
            [
              -62.873186,
              -46.596198
            ],
            [
              -62.787904,
              -46.746788
            ],
            [
              -62.681908,
              -46.890815
            ],
            [
              -62.556218,
              -47.026892
            ],
            [
              -62.412044,
              -47.153708
            ],
            [
              -62.250776,
              -47.270042
            ],
            [
              -62.073966,
              -47.374774
            ],
            [
              -61.883317,
              -47.466894
            ],
            [
              -61.680666,
              -47.545516
            ],
            [
              -61.467962,
              -47.609882
            ],
            [
              -61.247257,
              -47.659373
            ],
            [
              -61.020673,
              -47.693512
            ],
            [
              -60.790395,
              -47.71197
            ],
            [
              -60.558639,
              -47.71457
            ],
            [
              -60.327638,
              -47.701286
            ],
            [
              -60.099615,
              -47.672246
            ],
            [
              -59.876768,
              -47.627731
            ],
            [
              -59.661242,
              -47.568168
            ],
            [
              -59.455113,
              -47.494132
            ],
            [
              -59.260366,
              -47.406335
            ],
            [
              -59.078876,
              -47.305623
            ],
            [
              -58.912392,
              -47.192965
            ],
            [
              -58.762517,
              -47.069448
            ],
            [
              -58.630694,
              -46.93626
            ],
            [
              -58.518192,
              -46.794683
            ],
            [
              -58.426095,
              -46.646083
            ],
            [
              -58.355291,
              -46.491888
            ],
            [
              -58.30646,
              -46.333585
            ],
            [
              -58.280073,
              -46.172699
            ],
            [
              -58.276385,
              -46.010778
            ],
            [
              -58.295431,
              -45.849381
            ],
            [
              -58.337027,
              -45.690064
            ],
            [
              -58.400773,
              -45.534361
            ],
            [
              -58.486054,
              -45.38377
            ],
            [
              -58.59205,
              -45.239743
            ],
            [
              -58.717741,
              -45.103666
            ],
            [
              -58.861914,
              -44.97685
            ],
            [
              -59.023182,
              -44.860516
            ],
            [
              -59.199992,
              -44.755785
            ],
            [
              -59.390641,
              -44.663665
            ],
            [
              -59.593293,
              -44.585043
            ],
            [
              -59.805996,
              -44.520676
            ],
            [
              -60.026702,
              -44.471185
            ],
            [
              -60.253285,
              -44.437046
            ],
            [
              -60.483563,
              -44.418588
            ],
            [
              -60.715319,
              -44.415988
            ],
            [
              -60.946321,
              -44.429272
            ],
            [
              -61.174343,
              -44.458312
            ],
            [
              -61.39719,
              -44.502827
            ]
          ]
        ],
        "type": "Polygon"
      },
      "properties": {
        "kind": "reachableSet",
        "observationStatus": "estimated",
        "vessel": "A"
      },
      "type": "Feature"
    },
    {
      "geometry": {
        "coordinates": [
          [
            [
              -61.286141,
              -44.497414
            ],
            [
              -61.504647,
              -44.550853
            ],
            [
              -61.714599,
              -44.619
            ],
            [
              -61.913973,
              -44.701199
            ],
            [
              -62.100851,
              -44.796658
            ],
            [
              -62.273431,
              -44.904458
            ],
            [
              -62.430053,
              -45.023561
            ],
            [
              -62.569208,
              -45.152819
            ],
            [
              -62.689555,
              -45.290989
            ],
            [
              -62.789936,
              -45.436738
            ],
            [
              -62.869384,
              -45.588665
            ],
            [
              -62.927134,
              -45.745305
            ],
            [
              -62.962629,
              -45.905149
            ],
            [
              -62.975529,
              -46.06666
            ],
            [
              -62.965707,
              -46.22828
            ],
            [
              -62.93326,
              -46.388454
            ],
            [
              -62.8785,
              -46.545639
            ],
            [
              -62.801954,
              -46.698322
            ],
            [
              -62.704359,
              -46.845031
            ],
            [
              -62.586655,
              -46.984354
            ],
            [
              -62.449975,
              -47.11495
            ],
            [
              -62.295637,
              -47.23556
            ],
            [
              -62.125126,
              -47.345023
            ],
            [
              -61.940084,
              -47.442284
            ],
            [
              -61.742294,
              -47.526408
            ],
            [
              -61.53366,
              -47.596584
            ],
            [
              -61.316192,
              -47.652136
            ],
            [
              -61.091983,
              -47.692529
            ],
            [
              -60.863194,
              -47.717374
            ],
            [
              -60.632027,
              -47.726432
            ],
            [
              -60.40071,
              -47.719616
            ],
            [
              -60.171468,
              -47.69699
            ],
            [
              -59.946511,
              -47.658774
            ],
            [
              -59.728004,
              -47.605336
            ],
            [
              -59.518053,
              -47.537189
            ],
            [
              -59.318678,
              -47.45499
            ],
            [
              -59.131801,
              -47.359531
            ],
            [
              -58.95922,
              -47.25173
            ],
            [
              -58.802598,
              -47.132628
            ],
            [
              -58.663444,
              -47.003369
            ],
            [
              -58.543096,
              -46.8652
            ],
            [
              -58.442715,
              -46.71945
            ],
            [
              -58.363267,
              -46.567524
            ],
            [
              -58.305518,
              -46.410884
            ],
            [
              -58.270022,
              -46.251039
            ],
            [
              -58.257123,
              -46.089529
            ],
            [
              -58.266944,
              -45.927908
            ],
            [
              -58.299391,
              -45.767734
            ],
            [
              -58.354152,
              -45.610549
            ],
            [
              -58.430698,
              -45.457867
            ],
            [
              -58.528293,
              -45.311157
            ],
            [
              -58.645997,
              -45.171834
            ],
            [
              -58.782676,
              -45.041239
            ],
            [
              -58.937015,
              -44.920629
            ],
            [
              -59.107526,
              -44.811166
            ],
            [
              -59.292568,
              -44.713904
            ],
            [
              -59.490358,
              -44.62978
            ],
            [
              -59.698992,
              -44.559604
            ],
            [
              -59.91646,
              -44.504052
            ],
            [
              -60.140668,
              -44.463659
            ],
            [
              -60.369458,
              -44.438814
            ],
            [
              -60.600624,
              -44.429756
            ],
            [
              -60.831942,
              -44.436573
            ],
            [
              -61.061184,
              -44.459198
            ],
            [
              -61.286141,
              -44.497414
            ]
          ]
        ],
        "type": "Polygon"
      },
      "properties": {
        "kind": "reachableSet",
        "observationStatus": "estimated",
        "vessel": "B"
      },
      "type": "Feature"
    }
  ],
  "properties": {
    "dateline": false
  },
  "type": "FeatureCollection"
}
