{
  "features": [
    {
      "geometry": {
        "coordinates": [
          161.945138,
          48.835442
        ],
        "type": "Point"
      },
      "properties": {
        "mmsi": "416244800",
        "observationStatus": "observed",
        "role": "off",
        "time": "2018-08-11T04:10:42Z",
        "vessel": "A"
      },
      "type": "Feature"
    },
    {
      "geometry": {
        "coordinates": [
          161.970423,
          48.810902
        ],
        "type": "Point"
      },
      "properties": {
        "mmsi": "416229800",
        "observationStatus": "observed",
        "role": "off",
        "time": "2018-08-11T04:43:26Z",
        "vessel": "B"
      },
      "type": "Feature"
    },
    {
      "geometry": {
        "coordinates": [
          162.575842,
          48.67689
        ],
        "type": "Point"
      },
      "properties": {
        "mmsi": "416244800",
        "observationStatus": "observed",
        "role": "on",
        "time": "2018-08-11T17:42:01Z",
        "vessel": "A"
      },
      "type": "Feature"
    },
    {
      "geometry": {
        "coordinates": [
          162.446725,
          48.690142
        ],
        "type": "Point"
      },
      "properties": {
        "mmsi": "416229800",
        "observationStatus": "observed",
        "role": "on",
        "time": "2018-08-11T18:18:02Z",
        "vessel": "B"
      },
      "type": "Feature"
    },
    {
      "geometry": {
        "coordinates": [
          [
            161.945138,
            48.835442
          ],
          [
            162.519144,
            48.689158
          ],
          [
            162.575842,
            48.67689
          ]
        ],
        "type": "LineString"
      },
      "properties": {
        "confidence": "low",
        "lineStyle": "dashed",
        "observationStatus": "estimated",
        "source": "reachable-set heuristic",
        "vessel": "A"
      },
      "type": "Feature"
    },
    {
      "geometry": {
        "coordinates": [
          [
            161.970423,
            48.810902
          ],
          [
            162.519144,
            48.689158
          ],
          [
            162.446725,
            48.690142
          ]
        ],
        "type": "LineString"
      },
      "properties": {
        "confidence": "low",
        "lineStyle": "dashed",
        "observationStatus": "estimated",
        "source": "reachable-set heuristic",
        "vessel": "B"
      },
      "type": "Feature"
    },
    {
      "geometry": {
        "coordinates": [
          162.519144,
          48.689158
        ],
        "type": "Point"
      },
      "properties": {
        "kind": "meetingPoint",
        "observationStatus": "estimated"
      },
      "type": "Feature"
    },
    {
      "geometry": {
        "coordinates": [
          [
            [
              164.033545,
              48.31044
            ],
            [
              164.089781,
              48.426098
            ],
            [
              164.128399,
              48.544934
            ],
            [
              164.149028,
              48.665805
            ],
            [
              164.15147,
              48.787546
            ],
            [
              164.1357,
              48.908985
            ],
            [
              164.101871,
              49.028952
            ],
            [
              164.050309,
              49.146292
            ],
            [
              163.981509,
              49.259875
            ],
            [
              163.896136,
              49.368607
            ],
            [
              163.79501,
              49.471441
            ],
            [
              163.679106,
              49.567386
            ],
            [
              163.54954,
              49.655519
            ],
            [
              163.407559,
              49.734991
            ],
            [
              163.254532,
              49.805036
            ],
            [
              163.091931,
              49.864979
            ],
            [
              162.921324,
              49.914245
            ],
            [
              162.744352,
              49.952357
            ],
            [
              162.56272,
              49.978949
            ],
            [
              162.378177,
              49.993765
            ],
            [
              162.192502,
              49.996663
            ],
            [
              162.007481,
              49.987614
            ],
            [
              161.824896,
              49.966705
            ],
            [
              161.646507,
              49.934138
            ],
            [
              161.47403,
              49.890227
            ],
            [
              161.309128,
              49.835394
            ],
            [
              161.153388,
              49.770168
            ],
            [
              161.008309,
              49.695176
            ],
            [
              160.87529,
              49.611141
            ],
            [
              160.755612,
              49.518872
            ],
            [
              160.650426,
              49.419257
            ],
            [
              160.560745,
              49.313257
            ],
            [
              160.487435,
              49.201892
            ],
            [
              160.431199,
              49.086234
            ],
            [
              160.392581,
              48.967397
            ],
            [
              160.371952,
              48.846527
            ],
            [
              160.36951,
              48.724785
            ],
            [
              160.38528,
              48.603347
            ],
            [
              160.419109,
              48.483379
            ],
            [
              160.470671,
              48.366039
            ],
            [
              160.539471,
              48.252456
            ],
            [
              160.624844,
              48.143725
            ],
            [
              160.72597,
              48.040891
            ],
            [
              160.841874,
              47.944945
            ],
            [
              160.97144,
              47.856813
            ],
            [
              161.113421,
              47.777341
            ],
            [
              161.266448,
              47.707296
            ],
            [
              161.429049,
              47.647352
            ],
            [
              161.599656,
              47.598087
            ],
            [
              161.776628,
              47.559975
            ],
            [
              161.95826,
              47.533382
            ],
            [
              162.142803,
              47.518566
            ],
            [
              162.328478,
              47.515669
            ],
            [
              162.513499,
              47.524718
            ],
            [
              162.696084,
              47.545626
            ],
            [
              162.874473,
              47.578193
            ],
            [
              163.04695,
              47.622105
            ],
            [
              163.211852,
              47.676938
            ],
            [
              163.367592,
              47.742164
            ],
            [
              163.512671,
              47.817156
            ],
            [
              163.64569,
              47.901191
            ],
            [
              163.765368,
              47.99346
            ],
            [
              163.870554,
              48.093074
            ],
            [
              163.960235,
              48.199075
            ],
            [
              164.033545,
              48.31044
            ]
          ]
        ],
        "type": "Polygon"
      },
      "properties": {
        "kind": "reachableSet",
        "observationStatus": "estimated",
        "vessel": "A"
      },
      "type": "Feature"
    },
    {
      "geometry": {
        "coordinates": [
          [
            [
              163.98729,
              48.299552
            ],
            [
              164.044714,
              48.416413
            ],
            [
              164.084456,
              48.536492
            ],
            [
              164.106132,
              48.658633
            ],
            [
              164.109534,
              48.781658
            ],
            [
              164.094628,
              48.904383
            ],
            [
              164.061558,
              49.025627
            ],
            [
              164.010644,
              49.144221
            ],
            [
              163.942374,
              49.259024
            ],
            [
              163.857407,
              49.368929
            ],
            [
              163.75656,
              49.472879
            ],
            [
              163.640806,
              49.569872
            ],
            [
              163.511259,
              49.658975
            ],
            [
              163.369166,
              49.739328
            ],
            [
              163.215896,
              49.810159
            ],
            [
              163.052925,
              49.870785
            ],
            [
              162.881822,
              49.920622
            ],
            [
              162.704235,
              49.95919
            ],
            [
              162.521875,
              49.986119
            ],
            [
              162.336498,
              50.001148
            ],
            [
              162.149889,
              50.004132
            ],
            [
              161.963845,
              49.995044
            ],
            [
              161.780158,
              49.97397
            ],
            [
              161.600597,
              49.941114
            ],
            [
              161.42689,
              49.896791
            ],
            [
              161.260712,
              49.84143
            ],
            [
              161.103663,
              49.775562
            ],
            [
              160.957254,
              49.699823
            ],
            [
              160.822896,
              49.614941
            ],
            [
              160.701883,
              49.521735
            ],
            [
              160.59538,
              49.421101
            ],
            [
              160.504414,
              49.31401
            ],
            [
              160.429859,
              49.201491
            ],
            [
              160.372434,
              49.08463
            ],
            [
              160.332692,
              48.964551
            ],
            [
              160.311016,
              48.842411
            ],
            [
              160.307615,
              48.719385
            ],
            [
              160.32252,
              48.59666
            ],
            [
              160.35559,
              48.475416
            ],
            [
              160.406505,
              48.356822
            ],
            [
              160.474774,
              48.24202
            ],
            [
              160.559742,
              48.132114
            ],
            [
              160.660588,
              48.028164
            ],
            [
              160.776342,
              47.931171
            ],
            [
              160.90589,
              47.842069
            ],
            [
              161.047982,
              47.761715
            ],
            [
              161.201253,
              47.690884
            ],
            [
              161.364224,
              47.630258
            ],
            [
              161.535326,
              47.580421
            ],
            [
              161.712913,
              47.541853
            ],
            [
              161.895273,
              47.514925
            ],
            [
              162.08065,
              47.499896
            ],
            [
              162.267259,
              47.496911
            ],
            [
              162.453303,
              47.506
            ],
            [
              162.636991,
              47.527073
            ],
            [
              162.816552,
              47.55993
            ],
            [
              162.990258,
              47.604252
            ],
            [
              163.156436,
              47.659613
            ],
            [
              163.313486,
              47.725481
            ],
            [
              163.459894,
              47.80122
            ],
            [
              163.594252,
              47.886102
            ],
            [
              163.715265,
              47.979308
            ],
            [
              163.821768,
              48.079942
            ],
            [
              163.912735,
              48.187034
            ],
            [
              163.98729,
              48.299552
            ]
          ]
        ],
        "type": "Polygon"
      },
      "properties": {
        "kind": "reachableSet",
        "observationStatus": "estimated",
        "vessel": "B"
      },
      "type": "Feature"
    }
  ],
  "properties": {
    "dateline": false
  },
  "type": "FeatureCollection"
}
