{
  "features": [
    {
      "geometry": {
        "coordinates": [
          163.950113,
          47.091795
        ],
        "type": "Point"
      },
      "properties": {
        "mmsi": "416528000",
        "observationStatus": "observed",
        "role": "off",
        "time": "2019-07-11T04:03:21Z",
        "vessel": "A"
      },
      "type": "Feature"
    },
    {
      "geometry": {
        "coordinates": [
          163.975727,
          47.159348
        ],
        "type": "Point"
      },
      "properties": {
        "mmsi": "416253500",
        "observationStatus": "observed",
        "role": "off",
        "time": "2019-07-11T04:32:43Z",
        "vessel": "B"
      },
      "type": "Feature"
    },
    {
      "geometry": {
        "coordinates": [
          163.8464,
          46.71112
        ],
        "type": "Point"
      },
      "properties": {
        "mmsi": "416253500",
        "observationStatus": "observed",
        "role": "on",
        "time": "2019-07-11T16:59:07Z",
        "vessel": "B"
      },
      "type": "Feature"
    },
    {
      "geometry": {
        "coordinates": [
          163.76048,
          46.73976
        ],
        "type": "Point"
      },
      "properties": {
        "mmsi": "416528000",
        "observationStatus": "observed",
        "role": "on",
        "time": "2019-07-11T17:18:35Z",
        "vessel": "A"
      },
      "type": "Feature"
    },
    {
      "geometry": {
        "coordinates": [
          [
            163.950113,
            47.091795
          ],
          [
            163.889886,
            46.86137
          ],
          [
            163.76048,
            46.73976
          ]
        ],
        "type": "LineString"
      },
      "properties": {
        "confidence": "low",
        "lineStyle": "dashed",
        "observationStatus": "estimated",
        "source": "reachable-set heuristic",
        "vessel": "A"
      },
      "type": "Feature"
    },
    {
      "geometry": {
        "coordinates": [
          [
            163.975727,
            47.159348
          ],
          [
            163.889886,
            46.86137
          ],
          [
            163.8464,
            46.71112
          ]
        ],
        "type": "LineString"
      },
      "properties": {
        "confidence": "low",
        "lineStyle": "dashed",
        "observationStatus": "estimated",
        "source": "reachable-set heuristic",
        "vessel": "B"
      },
      "type": "Feature"
    },
    {
      "geometry": {
        "coordinates": [
          163.889886,
          46.86137
        ],
        "type": "Point"
      },
      "properties": {
        "kind": "meetingPoint",
        "observationStatus": "estimated"
      },
      "type": "Feature"
    },
    {
      "geometry": {
        "coordinates": [
          [
            [
              163.233236,
              45.760985
            ],
            [
              163.398898,
              45.725105
            ],
            [
              163.568956,
              45.700691
            ],
            [
              163.741771,
              45.687979
            ],
            [
              163.915679,
              45.687092
            ],
            [
              164.089006,
              45.698037
            ],
            [
              164.260082,
              45.72071
            ],
            [
              164.42726,
              45.754892
            ],
            [
              164.588929,
              45.800254
            ],
            [
              164.743533,
              45.856359
            ],
            [
              164.889583,
              45.922667
            ],
            [
              165.025673,
              45.998539
            ],
            [
              165.150491,
              46.083245
            ],
            [
              165.262835,
              46.175968
            ],
            [
              165.361624,
              46.275817
            ],
            [
              165.445906,
              46.381828
            ],
            [
              165.51487,
              46.492981
            ],
            [
              165.567852,
              46.608207
            ],
            [
              165.60434,
              46.726394
            ],
            [
              165.623984,
              46.846405
            ],
            [
              165.626595,
              46.967085
            ],
            [
              165.612147,
              47.08727
            ],
            [
              165.58078,
              47.205804
            ],
            [
              165.532796,
              47.321544
            ],
            [
              165.468656,
              47.433377
            ],
            [
              165.388978,
              47.540225
            ],
            [
              165.294531,
              47.641059
            ],
            [
              165.186223,
              47.734909
            ],
            [
              165.065097,
              47.820869
            ],
            [
              164.93232,
              47.898114
            ],
            [
              164.789171,
              47.965897
            ],
            [
              164.637029,
              48.023568
            ],
            [
              164.477357,
              48.07057
            ],
            [
              164.311695,
              48.10645
            ],
            [
              164.141638,
              48.130864
            ],
            [
              163.968823,
              48.143576
            ],
            [
              163.794914,
              48.144463
            ],
            [
              163.621587,
              48.133518
            ],
            [
              163.450511,
              48.110845
            ],
            [
              163.283334,
              48.076663
            ],
            [
              163.121664,
              48.031301
            ],
            [
              162.96706,
              47.975196
            ],
            [
              162.82101,
              47.908888
            ],
            [
              162.684921,
              47.833016
            ],
            [
              162.560103,
              47.74831
            ],
            [
              162.447758,
              47.655587
            ],
            [
              162.348969,
              47.555738
            ],
            [
              162.264687,
              47.449727
            ],
            [
              162.195723,
              47.338574
            ],
            [
              162.142742,
              47.223348
            ],
            [
              162.106253,
              47.105161
            ],
            [
              162.086609,
              46.98515
            ],
            [
              162.083998,
              46.86447
            ],
            [
              162.098446,
              46.744285
            ],
            [
              162.129813,
              46.625751
            ],
            [
              162.177798,
              46.510011
            ],
            [
              162.241938,
              46.398178
            ],
            [
              162.321615,
              46.29133
            ],
            [
              162.416062,
              46.190496
            ],
            [
              162.524371,
              46.096646
            ],
            [
              162.645496,
              46.010686
            ],
            [
              162.778273,
              45.933441
            ],
            [
              162.921422,
              45.865658
            ],
            [
              163.073565,
              45.807987
            ],
            [
              163.233236,
              45.760985
            ]
          ]
        ],
        "type": "Polygon"
      },
      "properties": {
        "kind": "reachableSet",
        "observationStatus": "estimated",
        "vessel": "A"
      },
      "type": "Feature"
    },
    {
      "geometry": {
        "coordinates": [
          [
            [
              163.585684,
              45.807514
            ],
            [
              163.744833,
              45.791456
            ],
            [
              163.905584,
              45.786414
            ],
            [
              164.066387,
              45.792436
            ],
            [
              164.225694,
              45.809463
            ],
            [
              164.381971,
              45.837333
            ],
            [
              164.533713,
              45.875775
            ],
            [
              164.679459,
              45.924421
            ],
            [
              164.817804,
              45.982802
            ],
            [
              164.947418,
              46.050354
            ],
            [
              165.06705,
              46.126429
            ],
            [
              165.17555,
              46.210293
            ],
            [
              165.271872,
              46.301139
            ],
            [
              165.355088,
              46.398091
            ],
            [
              165.424398,
              46.500217
            ],
            [
              165.479134,
              46.606531
            ],
            [
              165.518768,
              46.716012
            ],
            [
              165.54292,
              46.827603
            ],
            [
              165.551355,
              46.940231
            ],
            [
              165.543994,
              47.052811
            ],
            [
              165.520907,
              47.164259
            ],
            [
              165.482315,
              47.273501
            ],
            [
              165.428592,
              47.379485
            ],
            [
              165.360255,
              47.481191
            ],
            [
              165.277961,
              47.577639
            ],
            [
              165.182502,
              47.667901
            ],
            [
              165.0748,
              47.751106
            ],
            [
              164.955889,
              47.826454
            ],
            [
              164.826917,
              47.893219
            ],
            [
              164.689124,
              47.950758
            ],
            [
              164.543839,
              47.998518
            ],
            [
              164.392459,
              48.036037
            ],
            [
              164.236443,
              48.062955
            ],
            [
              164.077293,
              48.079012
            ],
            [
              163.916543,
              48.084054
            ],
            [
              163.75574,
              48.078032
            ],
            [
              163.596433,
              48.061005
            ],
            [
              163.440156,
              48.033136
            ],
            [
              163.288413,
              47.994693
            ],
            [
              163.142668,
              47.946047
            ],
            [
              163.004322,
              47.887667
            ],
            [
              162.874709,
              47.820114
            ],
            [
              162.755077,
              47.744039
            ],
            [
              162.646577,
              47.660175
            ],
            [
              162.550255,
              47.569329
            ],
            [
              162.467038,
              47.472377
            ],
            [
              162.397728,
              47.370252
            ],
            [
              162.342993,
              47.263937
            ],
            [
              162.303358,
              47.154457
            ],
            [
              162.279207,
              47.042865
            ],
            [
              162.270771,
              46.930237
            ],
            [
              162.278133,
              46.817657
            ],
            [
              162.30122,
              46.706209
            ],
            [
              162.339811,
              46.596967
            ],
            [
              162.393534,
              46.490983
            ],
            [
              162.461872,
              46.389277
            ],
            [
              162.544166,
              46.292829
            ],
            [
              162.639624,
              46.202568
            ],
            [
              162.747327,
              46.119362
            ],
            [
              162.866237,
              46.044014
            ],
            [
              162.99521,
              45.977249
            ],
            [
              163.133002,
              45.91971
            ],
            [
              163.278288,
              45.871951
            ],
            [
              163.429668,
              45.834431
            ],
            [
              163.585684,
              45.807514
            ]
          ]
        ],
        "type": "Polygon"
      },
      "properties": {
        "kind": "reachableSet",
        "observationStatus": "estimated",
        "vessel": "B"
      },
      "type": "Feature"
    }
  ],
  "properties": {
    "dateline": false
  },
  "type": "FeatureCollection"
}
