{
  "features": [
    {
      "geometry": {
        "coordinates": [
          -60.792147,
          -46.731473
        ],
        "type": "Point"
      },
      "properties": {
        "mmsi": "412329686",
        "observationStatus": "observed",
        "role": "off",
        "time": "2017-03-03T08:33:25Z",
        "vessel": "A"
      },
      "type": "Feature"
    },
    {
      "geometry": {
        "coordinates": [
          -60.825143,
          -46.725967
        ],
        "type": "Point"
      },
      "properties": {
        "mmsi": "441239687",
        "observationStatus": "observed",
        "role": "off",
        "time": "2017-03-03T08:35:19Z",
        "vessel": "B"
      },
      "type": "Feature"
    },
    {
      "geometry": {
        "coordinates": [
          -60.758843,
          -46.989837
        ],
        "type": "Point"
      },
      "properties": {
        "mmsi": "412329686",
        "observationStatus": "observed",
        "role": "on",
        "time": "2017-03-03T23:25:34Z",
        "vessel": "A"
      },
      "type": "Feature"
    },
    {
      "geometry": {
        "coordinates": [
          -60.772548,
          -47.004012
        ],
        "type": "Point"
      },
      "properties": {
        "mmsi": "441239687",
        "observationStatus": "observed",
        "role": "on",
        "time": "2017-03-03T23:34:00Z",
        "vessel": "B"
      },
      "type": "Feature"
    },
    {
      "geometry": {
        "coordinates": [
          [
            -60.792147,
            -46.731473
          ],
          [
            -60.800093,
            -46.825253
          ],
          [
            -60.758843,
            -46.989837
          ]
        ],
        "type": "LineString"
      },
      "properties": {
        "confidence": "low",
        "lineStyle": "dashed",
        "observationStatus": "estimated",
        "source": "reachable-set heuristic",
        "vessel": "A"
      },
      "type": "Feature"
    },
    {
      "geometry": {
        "coordinates": [
          [
            -60.825143,
            -46.725967
          ],
          [
            -60.800093,
            -46.825253
          ],
          [
            -60.772548,
            -47.004012
          ]
        ],
        "type": "LineString"
      },
      "properties": {
        "confidence": "low",
        "lineStyle": "dashed",
        "observationStatus": "estimated",
        "source": "reachable-set heuristic",
        "vessel": "B"
      },
      "type": "Feature"
    },
    {
      "geometry": {
        "coordinates": [
          -60.800093,
          -46.825253
        ],
        "type": "Point"
      },
      "properties": {
        "kind": "meetingPoint",
        "observationStatus": "estimated"
      },
      "type": "Feature"
    },
    {
      "geometry": {
        "coordinates": [
          [
            [
              -60.58162,
              -48.364712
            ],
            [
              -60.369196,
              -48.344436
            ],
            [
              -60.160684,
              -48.30987
            ],
            [
              -59.958093,
              -48.261348
            ],
            [
              -59.763374,
              -48.199336
            ],
            [
              -59.578403,
              -48.124432
            ],
            [
              -59.40496,
              -48.037357
            ],
            [
              -59.244716,
              -47.93895
            ],
            [
              -59.099215,
              -47.830158
            ],
            [
              -58.969857,
              -47.712029
            ],
            [
              -58.857888,
              -47.585701
            ],
            [
              -58.764387,
              -47.452391
            ],
            [
              -58.690253,
              -47.313382
            ],
            [
              -58.636202,
              -47.170013
            ],
            [
              -58.602754,
              -47.023664
            ],
            [
              -58.59023,
              -46.875746
            ],
            [
              -58.598751,
              -46.727682
            ],
            [
              -58.628236,
              -46.580899
            ],
            [
              -58.6784,
              -46.43681
            ],
            [
              -58.74876,
              -46.296803
            ],
            [
              -58.838639,
              -46.162227
            ],
            [
              -58.94717,
              -46.034376
            ],
            [
              -59.07331,
              -45.914483
            ],
            [
              -59.215842,
              -45.803702
            ],
            [
              -59.373395,
              -45.7031
            ],
            [
              -59.544451,
              -45.613646
            ],
            [
              -59.727362,
              -45.536202
            ],
            [
              -59.920367,
              -45.471513
            ],
            [
              -60.121608,
              -45.420201
            ],
            [
              -60.329146,
              -45.382763
            ],
            [
              -60.540983,
              -45.359557
            ],
            [
              -60.755078,
              -45.350807
            ],
            [
              -60.96937,
              -45.356598
            ],
            [
              -61.181794,
              -45.376874
            ],
            [
              -61.390306,
              -45.41144
            ],
            [
              -61.592897,
              -45.459962
            ],
            [
              -61.787616,
              -45.521974
            ],
            [
              -61.972587,
              -45.596878
            ],
            [
              -62.14603,
              -45.683953
            ],
            [
              -62.306274,
              -45.78236
            ],
            [
              -62.451775,
              -45.891152
            ],
            [
              -62.581133,
              -46.009281
            ],
            [
              -62.693102,
              -46.135609
            ],
            [
              -62.786603,
              -46.268919
            ],
            [
              -62.860737,
              -46.407928
            ],
            [
              -62.914788,
              -46.551297
            ],
            [
              -62.948236,
              -46.697646
            ],
            [
              -62.96076,
              -46.845564
            ],
            [
              -62.952239,
              -46.993628
            ],
            [
              -62.922754,
              -47.140411
            ],
            [
              -62.87259,
              -47.2845
            ],
            [
              -62.80223,
              -47.424507
            ],
            [
              -62.712351,
              -47.559083
            ],
            [
              -62.60382,
              -47.686934
            ],
            [
              -62.47768,
              -47.806827
            ],
            [
              -62.335148,
              -47.917608
            ],
            [
              -62.177595,
              -48.01821
            ],
            [
              -62.006539,
              -48.107664
            ],
            [
              -61.823628,
              -48.185108
            ],
            [
              -61.630623,
              -48.249797
            ],
            [
              -61.429382,
              -48.301109
            ],
            [
              -61.221844,
              -48.338547
            ],
            [
              -61.010007,
              -48.361753
            ],
            [
              -60.795912,
              -48.370503
            ],
            [
              -60.58162,
              -48.364712
            ]
          ]
        ],
        "type": "Polygon"
      },
      "properties": {
        "kind": "reachableSet",
        "observationStatus": "estimated",
        "vessel": "A"
      },
      "type": "Feature"
    },
    {
      "geometry": {
        "coordinates": [
          [
            [
              -60.513388,
              -48.374072
            ],
            [
              -60.300794,
              -48.347627
            ],
            [
              -60.092996,
              -48.306903
            ],
            [
              -59.891996,
              -48.252294
            ],
            [
              -59.69973,
              -48.184323
            ],
            [
              -59.518048,
              -48.103647
            ],
            [
              -59.348702,
              -48.011042
            ],
            [
              -59.193321,
              -47.907399
            ],
            [
              -59.053402,
              -47.793718
            ],
            [
              -58.930293,
              -47.671093
            ],
            [
              -58.825179,
              -47.540704
            ],
            [
              -58.739072,
              -47.403808
            ],
            [
              -58.672802,
              -47.261722
            ],
            [
              -58.627008,
              -47.115816
            ],
            [
              -58.602129,
              -46.967495
            ],
            [
              -58.598405,
              -46.818186
            ],
            [
              -58.615874,
              -46.669328
            ],
            [
              -58.654365,
              -46.522354
            ],
            [
              -58.713509,
              -46.37868
            ],
            [
              -58.792736,
              -46.239689
            ],
            [
              -58.891283,
              -46.10672
            ],
            [
              -59.0082,
              -45.981054
            ],
            [
              -59.142363,
              -45.863901
            ],
            [
              -59.292478,
              -45.756389
            ],
            [
              -59.457101,
              -45.659553
            ],
            [
              -59.634645,
              -45.574326
            ],
            [
              -59.823401,
              -45.501529
            ],
            [
              -60.021551,
              -45.441863
            ],
            [
              -60.227187,
              -45.395902
            ],
            [
              -60.438329,
              -45.36409
            ],
            [
              -60.652942,
              -45.346731
            ],
            [
              -60.868961,
              -45.343995
            ],
            [
              -61.084304,
              -45.355907
            ],
            [
              -61.296898,
              -45.382351
            ],
            [
              -61.504696,
              -45.423075
            ],
            [
              -61.705696,
              -45.477685
            ],
            [
              -61.897962,
              -45.545655
            ],
            [
              -62.079643,
              -45.626331
            ],
            [
              -62.24899,
              -45.718937
            ],
            [
              -62.404371,
              -45.822579
            ],
            [
              -62.54429,
              -45.93626
            ],
            [
              -62.667399,
              -46.058886
            ],
            [
              -62.772513,
              -46.189274
            ],
            [
              -62.858619,
              -46.326171
            ],
            [
              -62.924889,
              -46.468256
            ],
            [
              -62.970684,
              -46.614162
            ],
            [
              -62.995563,
              -46.762484
            ],
            [
              -62.999286,
              -46.911793
            ],
            [
              -62.981818,
              -47.060651
            ],
            [
              -62.943327,
              -47.207625
            ],
            [
              -62.884183,
              -47.351299
            ],
            [
              -62.804956,
              -47.490289
            ],
            [
              -62.706409,
              -47.623258
            ],
            [
              -62.589491,
              -47.748924
            ],
            [
              -62.455329,
              -47.866077
            ],
            [
              -62.305213,
              -47.97359
            ],
            [
              -62.140591,
              -48.070425
            ],
            [
              -61.963047,
              -48.155652
            ],
            [
              -61.77429,
              -48.228449
            ],
            [
              -61.57614,
              -48.288115
            ],
            [
              -61.370504,
              -48.334076
            ],
            [
              -61.159363,
              -48.365889
            ],
            [
              -60.944749,
              -48.383247
            ],
            [
              -60.728731,
              -48.385983
            ],
            [
              -60.513388,
              -48.374072
            ]
          ]
        ],
        "type": "Polygon"
      },
      "properties": {
        "kind": "reachableSet",
        "observationStatus": "estimated",
        "vessel": "B"
      },
      "type": "Feature"
    }
  ],
  "properties": {
    "dateline": false
  },
  "type": "FeatureCollection"
}
