{
  "features": [
    {
      "geometry": {
        "coordinates": [
          -62.844842,
          -44.239422
        ],
        "type": "Point"
      },
      "properties": {
        "mmsi": "701000708",
        "observationStatus": "observed",
        "role": "off",
        "time": "2018-09-08T21:05:18Z",
        "vessel": "A"
      },
      "type": "Feature"
    },
    {
      "geometry": {
        "coordinates": [
          -62.85856,
          -44.23072
        ],
        "type": "Point"
      },
      "properties": {
        "mmsi": "701000607",
        "observationStatus": "observed",
        "role": "off",
        "time": "2018-09-08T21:18:13Z",
        "vessel": "B"
      },
      "type": "Feature"
    },
    {
      "geometry": {
        "coordinates": [
          -62.644812,
          -44.44219
        ],
        "type": "Point"
      },
      "properties": {
        "mmsi": "701000708",
        "observationStatus": "observed",
        "role": "on",
        "time": "2018-09-09T09:07:16Z",
        "vessel": "A"
      },
      "type": "Feature"
    },
    {
      "geometry": {
        "coordinates": [
          -62.723217,
          -44.402375
        ],
        "type": "Point"
      },
      "properties": {
        "mmsi": "701000607",
        "observationStatus": "observed",
        "role": "on",
        "time": "2018-09-09T09:18:25Z",
        "vessel": "B"
      },
      "type": "Feature"
    },
    {
      "geometry": {
        "coordinates": [
          [
            -62.844842,
            -44.239422
          ],
          [
            -62.751686,
            -44.336455
          ],
          [
            -62.644812,
            -44.44219
          ]
        ],
        "type": "LineString"
      },
      "properties": {
        "confidence": "low",
        "lineStyle": "dashed",
        "observationStatus": "estimated",
        "source": "reachable-set heuristic",
        "vessel": "A"
      },
      "type": "Feature"
    },
    {
      "geometry": {
        "coordinates": [
          [
            -62.85856,
            -44.23072
          ],
          [
            -62.751686,
            -44.336455
          ],
          [
            -62.723217,
            -44.402375
          ]
        ],
        "type": "LineString"
      },
      "properties": {
        "confidence": "low",
        "lineStyle": "dashed",
        "observationStatus": "estimated",
        "source": "reachable-set heuristic",
        "vessel": "B"
      },
      "type": "Feature"
    },
    {
      "geometry": {
        "coordinates": [
          -62.751686,
          -44.336455
        ],
        "type": "Point"
      },
      "properties": {
        "kind": "meetingPoint",
        "observationStatus": "estimated"
      },
      "type": "Feature"
    },
    {
      "geometry": {
        "coordinates": [
          [
            [
              -61.778793,
              -45.320065
            ],
            [
              -61.650858,
              -45.247536
            ],
            [
              -61.533459,
              -45.166275
            ],
            [
              -61.427726,
              -45.077064
            ],
            [
              -61.334677,
              -44.980763
            ],
            [
              -61.255209,
              -44.878298
            ],
            [
              -61.190087,
              -44.770658
            ],
            [
              -61.139937,
              -44.658877
            ],
            [
              -61.105244,
              -44.544034
            ],
            [
              -61.086341,
              -44.427233
            ],
            [
              -61.08341,
              -44.309599
            ],
            [
              -61.096479,
              -44.192267
            ],
            [
              -61.125423,
              -44.076365
            ],
            [
              -61.169962,
              -43.963009
            ],
            [
              -61.229669,
              -43.853292
            ],
            [
              -61.303967,
              -43.74827
            ],
            [
              -61.392141,
              -43.648954
            ],
            [
              -61.493342,
              -43.556302
            ],
            [
              -61.606596,
              -43.471204
            ],
            [
              -61.730812,
              -43.394482
            ],
            [
              -61.864793,
              -43.326872
            ],
            [
              -62.00725,
              -43.269028
            ],
            [
              -62.156809,
              -43.221505
            ],
            [
              -62.312032,
              -43.184762
            ],
            [
              -62.471423,
              -43.159153
            ],
            [
              -62.633446,
              -43.144923
            ],
            [
              -62.796543,
              -43.14221
            ],
            [
              -62.959141,
              -43.15104
            ],
            [
              -63.119675,
              -43.171329
            ],
            [
              -63.2766,
              -43.20288
            ],
            [
              -63.428403,
              -43.24539
            ],
            [
              -63.573623,
              -43.298449
            ],
            [
              -63.710861,
              -43.361547
            ],
            [
              -63.838795,
              -43.434076
            ],
            [
              -63.956195,
              -43.515337
            ],
            [
              -64.061928,
              -43.604547
            ],
            [
              -64.154976,
              -43.700849
            ],
            [
              -64.234444,
              -43.803313
            ],
            [
              -64.299567,
              -43.910954
            ],
            [
              -64.349716,
              -44.022734
            ],
            [
              -64.384409,
              -44.137578
            ],
            [
              -64.403312,
              -44.254379
            ],
            [
              -64.406244,
              -44.372012
            ],
            [
              -64.393174,
              -44.489345
            ],
            [
              -64.364231,
              -44.605247
            ],
            [
              -64.319691,
              -44.718602
            ],
            [
              -64.259985,
              -44.82832
            ],
            [
              -64.185687,
              -44.933342
            ],
            [
              -64.097512,
              -45.032657
            ],
            [
              -63.996311,
              -45.12531
            ],
            [
              -63.883057,
              -45.210407
            ],
            [
              -63.758841,
              -45.28713
            ],
            [
              -63.62486,
              -45.354739
            ],
            [
              -63.482404,
              -45.412584
            ],
            [
              -63.332844,
              -45.460106
            ],
            [
              -63.177621,
              -45.496849
            ],
            [
              -63.018231,
              -45.522459
            ],
            [
              -62.856207,
              -45.536689
            ],
            [
              -62.693111,
              -45.539402
            ],
            [
              -62.530512,
              -45.530571
            ],
            [
              -62.369978,
              -45.510283
            ],
            [
              -62.213054,
              -45.478732
            ],
            [
              -62.061251,
              -45.436222
            ],
            [
              -61.916031,
              -45.383162
            ],
            [
              -61.778793,
              -45.320065
            ]
          ]
        ],
        "type": "Polygon"
      },
      "properties": {
        "kind": "reachableSet",
        "observationStatus": "estimated",
        "vessel": "A"
      },
      "type": "Feature"
    },
    {
      "geometry": {
        "coordinates": [
          [
            [
              -61.969572,
              -45.358217
            ],
            [
              -61.832269,
              -45.295408
            ],
            [
              -61.704198,
              -45.223173
            ],
            [
              -61.586593,
              -45.142206
            ],
            [
              -61.480585,
              -45.053287
            ],
            [
              -61.387197,
              -44.957274
            ],
            [
              -61.307326,
              -44.855089
            ],
            [
              -61.241744,
              -44.747719
            ],
            [
              -61.19108,
              -44.636196
            ],
            [
              -61.155823,
              -44.521594
            ],
            [
              -61.136313,
              -44.405018
            ],
            [
              -61.132738,
              -44.28759
            ],
            [
              -61.145131,
              -44.170441
            ],
            [
              -61.173374,
              -44.054698
            ],
            [
              -61.217194,
              -43.941478
            ],
            [
              -61.27617,
              -43.83187
            ],
            [
              -61.349734,
              -43.726929
            ],
            [
              -61.437176,
              -43.627667
            ],
            [
              -61.537656,
              -43.535039
            ],
            [
              -61.650205,
              -43.449937
            ],
            [
              -61.773739,
              -43.373181
            ],
            [
              -61.907069,
              -43.305511
            ],
            [
              -62.048911,
              -43.247577
            ],
            [
              -62.197898,
              -43.199938
            ],
            [
              -62.352596,
              -43.163053
            ],
            [
              -62.511515,
              -43.137276
            ],
            [
              -62.673125,
              -43.122857
            ],
            [
              -62.835869,
              -43.119933
            ],
            [
              -62.998179,
              -43.128533
            ],
            [
              -63.158494,
              -43.148575
            ],
            [
              -63.315268,
              -43.179865
            ],
            [
              -63.466992,
              -43.222101
            ],
            [
              -63.612204,
              -43.274878
            ],
            [
              -63.749507,
              -43.337687
            ],
            [
              -63.877578,
              -43.409922
            ],
            [
              -63.995184,
              -43.490889
            ],
            [
              -64.101191,
              -43.579808
            ],
            [
              -64.19458,
              -43.675821
            ],
            [
              -64.27445,
              -43.778006
            ],
            [
              -64.340033,
              -43.885376
            ],
            [
              -64.390697,
              -43.996899
            ],
            [
              -64.425953,
              -44.111501
            ],
            [
              -64.445464,
              -44.228077
            ],
            [
              -64.449039,
              -44.345505
            ],
            [
              -64.436646,
              -44.462654
            ],
            [
              -64.408403,
              -44.578397
            ],
            [
              -64.364583,
              -44.691617
            ],
            [
              -64.305607,
              -44.801225
            ],
            [
              -64.232043,
              -44.906166
            ],
            [
              -64.144601,
              -45.005428
            ],
            [
              -64.044121,
              -45.098056
            ],
            [
              -63.931572,
              -45.183158
            ],
            [
              -63.808038,
              -45.259914
            ],
            [
              -63.674708,
              -45.327584
            ],
            [
              -63.532866,
              -45.385518
            ],
            [
              -63.383879,
              -45.433157
            ],
            [
              -63.229181,
              -45.470042
            ],
            [
              -63.070261,
              -45.495819
            ],
            [
              -62.908652,
              -45.510238
            ],
            [
              -62.745908,
              -45.513162
            ],
            [
              -62.583597,
              -45.504562
            ],
            [
              -62.423283,
              -45.48452
            ],
            [
              -62.266509,
              -45.45323
            ],
            [
              -62.114785,
              -45.410994
            ],
            [
              -61.969572,
              -45.358217
            ]
          ]
        ],
        "type": "Polygon"
      },
      "properties": {
        "kind": "reachableSet",
        "observationStatus": "estimated",
        "vessel": "B"
      },
      "type": "Feature"
    }
  ],
  "properties": {
    "dateline": false
  },
  "type": "FeatureCollection"
}
