{
  "features": [
    {
      "geometry": {
        "coordinates": [
          -60.839723,
          -47.00438
        ],
        "type": "Point"
      },
      "properties": {
        "mmsi": "441410000",
        "observationStatus": "observed",
        "role": "off",
        "time": "2017-03-09T03:22:03Z",
        "vessel": "A"
      },
      "type": "Feature"
    },
    {
      "geometry": {
        "coordinates": [
          -60.824485,
          -46.93366
        ],
        "type": "Point"
      },
      "properties": {
        "mmsi": "440502000",
        "observationStatus": "observed",
        "role": "off",
        "time": "2017-03-09T03:22:09Z",
        "vessel": "B"
      },
      "type": "Feature"
    },
    {
      "geometry": {
        "coordinates": [
          -60.83595,
          -46.908365
        ],
        "type": "Point"
      },
      "properties": {
        "mmsi": "441410000",
        "observationStatus": "observed",
        "role": "on",
        "time": "2017-03-09T16:01:00Z",
        "vessel": "A"
      },
      "type": "Feature"
    },
    {
      "geometry": {
        "coordinates": [
          -60.851702,
          -46.878808
        ],
        "type": "Point"
      },
      "properties": {
        "mmsi": "440502000",
        "observationStatus": "observed",
        "role": "on",
        "time": "2017-03-09T16:01:28Z",
        "vessel": "B"
      },
      "type": "Feature"
    },
    {
      "geometry": {
        "coordinates": [
          [
            -60.839723,
            -47.00438
          ],
          [
            -60.844672,
            -46.952821
          ],
          [
            -60.83595,
            -46.908365
          ]
        ],
        "type": "LineString"
      },
      "properties": {
        "confidence": "low",
        "lineStyle": "dashed",
        "observationStatus": "estimated",
        "source": "reachable-set heuristic",
        "vessel": "A"
      },
      "type": "Feature"
    },
    {
      "geometry": {
        "coordinates": [
          [
            -60.824485,
            -46.93366
          ],
          [
            -60.844672,
            -46.952821
          ],
          [
            -60.851702,
            -46.878808
          ]
        ],
        "type": "LineString"
      },
      "properties": {
        "confidence": "low",
        "lineStyle": "dashed",
        "observationStatus": "estimated",
        "source": "reachable-set heuristic",
        "vessel": "B"
      },
      "type": "Feature"
    },
    {
      "geometry": {
        "coordinates": [
          -60.844672,
          -46.952821
        ],
        "type": "Point"
      },
      "properties": {
        "kind": "meetingPoint",
        "observationStatus": "estimated"
      },
      "type": "Feature"
    },
    {
      "geometry": {
        "coordinates": [
          [
            [
              -60.791845,
              -45.786088
            ],
            [
              -60.958851,
              -45.788628
            ],
            [
              -61.124691,
              -45.802414
            ],
            [
              -61.287768,
              -45.827313
            ],
            [
              -61.446512,
              -45.863086
            ],
            [
              -61.599395,
              -45.909388
            ],
            [
              -61.744943,
              -45.965773
            ],
            [
              -61.881755,
              -46.031697
            ],
            [
              -62.008514,
              -46.106527
            ],
            [
              -62.123998,
              -46.189542
            ],
            [
              -62.227097,
              -46.279941
            ],
            [
              -62.316815,
              -46.376855
            ],
            [
              -62.392291,
              -46.47935
            ],
            [
              -62.452796,
              -46.586439
            ],
            [
              -62.497748,
              -46.69709
            ],
            [
              -62.526714,
              -46.810239
            ],
            [
              -62.539416,
              -46.924794
            ],
            [
              -62.53573,
              -47.039654
            ],
            [
              -62.515693,
              -47.153712
            ],
            [
              -62.479497,
              -47.26587
            ],
            [
              -62.427491,
              -47.375047
            ],
            [
              -62.360176,
              -47.480191
            ],
            [
              -62.2782,
              -47.580292
            ],
            [
              -62.182352,
              -47.674383
            ],
            [
              -62.073556,
              -47.76156
            ],
            [
              -61.952859,
              -47.840982
            ],
            [
              -61.821424,
              -47.911885
            ],
            [
              -61.680516,
              -47.973586
            ],
            [
              -61.531493,
              -48.02549
            ],
            [
              -61.37579,
              -48.067098
            ],
            [
              -61.214906,
              -48.09801
            ],
            [
              -61.050391,
              -48.117927
            ],
            [
              -60.883828,
              -48.126657
            ],
            [
              -60.716823,
              -48.124117
            ],
            [
              -60.550983,
              -48.110331
            ],
            [
              -60.387905,
              -48.085432
            ],
            [
              -60.229161,
              -48.049659
            ],
            [
              -60.076279,
              -48.003357
            ],
            [
              -59.93073,
              -47.946972
            ],
            [
              -59.793918,
              -47.881048
            ],
            [
              -59.667159,
              -47.806218
            ],
            [
              -59.551675,
              -47.723203
            ],
            [
              -59.448577,
              -47.632804
            ],
            [
              -59.358858,
              -47.53589
            ],
            [
              -59.283383,
              -47.433395
            ],
            [
              -59.222878,
              -47.326306
            ],
            [
              -59.177925,
              -47.215655
            ],
            [
              -59.148959,
              -47.102506
            ],
            [
              -59.136257,
              -46.987951
            ],
            [
              -59.139943,
              -46.873091
            ],
            [
              -59.15998,
              -46.759033
            ],
            [
              -59.196176,
              -46.646875
            ],
            [
              -59.248182,
              -46.537698
            ],
            [
              -59.315498,
              -46.432554
            ],
            [
              -59.397474,
              -46.332453
            ],
            [
              -59.493321,
              -46.238362
            ],
            [
              -59.602118,
              -46.151185
            ],
            [
              -59.722814,
              -46.071763
            ],
            [
              -59.854249,
              -46.00086
            ],
            [
              -59.995157,
              -45.939159
            ],
            [
              -60.14418,
              -45.887255
            ],
            [
              -60.299883,
              -45.845647
            ],
            [
              -60.460767,
              -45.814735
            ],
            [
              -60.625283,
              -45.794818
            ],
            [
              -60.791845,
              -45.786088
            ]
          ]
        ],
        "type": "Polygon"
      },
      "properties": {
        "kind": "reachableSet",
        "observationStatus": "estimated",
        "vessel": "A"
      },
      "type": "Feature"
    },
    {
      "geometry": {
        "coordinates": [
          [
            [
              -61.388137,
              -45.797692
            ],
            [
              -61.54341,
              -45.840102
            ],
            [
              -61.69189,
              -45.89278
            ],
            [
              -61.832148,
              -45.955217
            ],
            [
              -61.962832,
              -46.026813
            ],
            [
              -62.082685,
              -46.106879
            ],
            [
              -62.190551,
              -46.194643
            ],
            [
              -62.285393,
              -46.28926
            ],
            [
              -62.366296,
              -46.389819
            ],
            [
              -62.432482,
              -46.495351
            ],
            [
              -62.483313,
              -46.60484
            ],
            [
              -62.5183,
              -46.717231
            ],
            [
              -62.537105,
              -46.831443
            ],
            [
              -62.539548,
              -46.946375
            ],
            [
              -62.525605,
              -47.060921
            ],
            [
              -62.49541,
              -47.173977
            ],
            [
              -62.449255,
              -47.284454
            ],
            [
              -62.387583,
              -47.391289
            ],
            [
              -62.310988,
              -47.493453
            ],
            [
              -62.220209,
              -47.589961
            ],
            [
              -62.11612,
              -47.679884
            ],
            [
              -61.999722,
              -47.762357
            ],
            [
              -61.872137,
              -47.836585
            ],
            [
              -61.734594,
              -47.901854
            ],
            [
              -61.588417,
              -47.957534
            ],
            [
              -61.435014,
              -48.003089
            ],
            [
              -61.275862,
              -48.038081
            ],
            [
              -61.112494,
              -48.062173
            ],
            [
              -60.946484,
              -48.075132
            ],
            [
              -60.77943,
              -48.076834
            ],
            [
              -60.612941,
              -48.067263
            ],
            [
              -60.44862,
              -48.04651
            ],
            [
              -60.28805,
              -48.014776
            ],
            [
              -60.132777,
              -47.972366
            ],
            [
              -59.984297,
              -47.919689
            ],
            [
              -59.844039,
              -47.857251
            ],
            [
              -59.713354,
              -47.785655
            ],
            [
              -59.593502,
              -47.705589
            ],
            [
              -59.485635,
              -47.617825
            ],
            [
              -59.390794,
              -47.523208
            ],
            [
              -59.309891,
              -47.42265
            ],
            [
              -59.243705,
              -47.317118
            ],
            [
              -59.192874,
              -47.207629
            ],
            [
              -59.157887,
              -47.095237
            ],
            [
              -59.139082,
              -46.981025
            ],
            [
              -59.136639,
              -46.866093
            ],
            [
              -59.150582,
              -46.751547
            ],
            [
              -59.180776,
              -46.638492
            ],
            [
              -59.226932,
              -46.528014
            ],
            [
              -59.288604,
              -46.421179
            ],
            [
              -59.365198,
              -46.319016
            ],
            [
              -59.455977,
              -46.222508
            ],
            [
              -59.560067,
              -46.132584
            ],
            [
              -59.676465,
              -46.050111
            ],
            [
              -59.80405,
              -45.975883
            ],
            [
              -59.941593,
              -45.910615
            ],
            [
              -60.08777,
              -45.854935
            ],
            [
              -60.241173,
              -45.809379
            ],
            [
              -60.400325,
              -45.774388
            ],
            [
              -60.563692,
              -45.750296
            ],
            [
              -60.729703,
              -45.737336
            ],
            [
              -60.896757,
              -45.735634
            ],
            [
              -61.063246,
              -45.745206
            ],
            [
              -61.227567,
              -45.765958
            ],
            [
              -61.388137,
              -45.797692
            ]
          ]
        ],
        "type": "Polygon"
      },
      "properties": {
        "kind": "reachableSet",
        "observationStatus": "estimated",
        "vessel": "B"
      },
      "type": "Feature"
    }
  ],
  "properties": {
    "dateline": false
  },
  "type": "FeatureCollection"
}
