{
  "features": [
    {
      "geometry": {
        "coordinates": [
          -57.82881,
          -42.00337
        ],
        "type": "Point"
      },
      "properties": {
        "mmsi": "412439575",
        "observationStatus": "observed",
        "role": "off",
        "time": "2018-04-06T18:16:44Z",
        "vessel": "A"
      },
      "type": "Feature"
    },
    {
      "geometry": {
        "coordinates": [
          -57.895178,
          -42.006773
        ],
        "type": "Point"
      },
      "properties": {
        "mmsi": "412200335",
        "observationStatus": "observed",
        "role": "off",
        "time": "2018-04-06T18:36:16Z",
        "vessel": "B"
      },
      "type": "Feature"
    },
    {
      "geometry": {
        "coordinates": [
          -57.843265,
          -42.055485
        ],
        "type": "Point"
      },
      "properties": {
        "mmsi": "412439575",
        "observationStatus": "observed",
        "role": "on",
        "time": "2018-04-07T10:53:43Z",
        "vessel": "A"
      },
      "type": "Feature"
    },
    {
      "geometry": {
        "coordinates": [
          -57.914133,
          -42.042
        ],
        "type": "Point"
      },
      "properties": {
        "mmsi": "412200335",
        "observationStatus": "observed",
        "role": "on",
        "time": "2018-04-07T10:56:20Z",
        "vessel": "B"
      },
      "type": "Feature"
    },
    {
      "geometry": {
        "coordinates": [
          [
            -57.82881,
            -42.00337
          ],
          [
            -57.890197,
            -42.011232
          ],
          [
            -57.843265,
            -42.055485
          ]
        ],
        "type": "LineString"
      },
      "properties": {
        "confidence": "low",
        "lineStyle": "dashed",
        "observationStatus": "estimated",
        "source": "reachable-set heuristic",
        "vessel": "A"
      },
      "type": "Feature"
    },
    {
      "geometry": {
        "coordinates": [
          [
            -57.895178,
            -42.006773
          ],
          [
            -57.890197,
            -42.011232
          ],
          [
            -57.914133,
            -42.042
          ]
        ],
        "type": "LineString"
      },
      "properties": {
        "confidence": "low",
        "lineStyle": "dashed",
        "observationStatus": "estimated",
        "source": "reachable-set heuristic",
        "vessel": "B"
      },
      "type": "Feature"
    },
    {
      "geometry": {
        "coordinates": [
          -57.890197,
          -42.011232
        ],
        "type": "Point"
      },
      "properties": {
        "kind": "meetingPoint",
        "observationStatus": "estimated"
      },
      "type": "Feature"
    },
    {
      "geometry": {
        "coordinates": [
          [
            [
              -58.262267,
              -43.566124
            ],
            [
              -58.058833,
              -43.589963
            ],
            [
              -57.853254,
              -43.598773
            ],
            [
              -57.647509,
              -43.592469
            ],
            [
              -57.443579,
              -43.571113
            ],
            [
              -57.243429,
              -43.534909
            ],
            [
              -57.048986,
              -43.484207
            ],
            [
              -56.862123,
              -43.419494
            ],
            [
              -56.684639,
              -43.341395
            ],
            [
              -56.518244,
              -43.25066
            ],
            [
              -56.36454,
              -43.148164
            ],
            [
              -56.225007,
              -43.034894
            ],
            [
              -56.10099,
              -42.911941
            ],
            [
              -55.993681,
              -42.780489
            ],
            [
              -55.904116,
              -42.641804
            ],
            [
              -55.833156,
              -42.497221
            ],
            [
              -55.781485,
              -42.348133
            ],
            [
              -55.749601,
              -42.195976
            ],
            [
              -55.73781,
              -42.042214
            ],
            [
              -55.746226,
              -41.88833
            ],
            [
              -55.774768,
              -41.735805
            ],
            [
              -55.823161,
              -41.586107
            ],
            [
              -55.890939,
              -41.440679
            ],
            [
              -55.97745,
              -41.30092
            ],
            [
              -56.08186,
              -41.168178
            ],
            [
              -56.203164,
              -41.04373
            ],
            [
              -56.340193,
              -40.928774
            ],
            [
              -56.491627,
              -40.824419
            ],
            [
              -56.65601,
              -40.731669
            ],
            [
              -56.831756,
              -40.651416
            ],
            [
              -57.017175,
              -40.584435
            ],
            [
              -57.210479,
              -40.531369
            ],
            [
              -57.409808,
              -40.492731
            ],
            [
              -57.613242,
              -40.468892
            ],
            [
              -57.818821,
              -40.460082
            ],
            [
              -58.024566,
              -40.466386
            ],
            [
              -58.228496,
              -40.487742
            ],
            [
              -58.428646,
              -40.523946
            ],
            [
              -58.623089,
              -40.574648
            ],
            [
              -58.809952,
              -40.639361
            ],
            [
              -58.987436,
              -40.71746
            ],
            [
              -59.153831,
              -40.808195
            ],
            [
              -59.307535,
              -40.910691
            ],
            [
              -59.447068,
              -41.023961
            ],
            [
              -59.571085,
              -41.146914
            ],
            [
              -59.678394,
              -41.278366
            ],
            [
              -59.767959,
              -41.417051
            ],
            [
              -59.838919,
              -41.561634
            ],
            [
              -59.89059,
              -41.710722
            ],
            [
              -59.922474,
              -41.862879
            ],
            [
              -59.934265,
              -42.016641
            ],
            [
              -59.925849,
              -42.170525
            ],
            [
              -59.897307,
              -42.32305
            ],
            [
              -59.848914,
              -42.472748
            ],
            [
              -59.781136,
              -42.618176
            ],
            [
              -59.694625,
              -42.757935
            ],
            [
              -59.590215,
              -42.890677
            ],
            [
              -59.468911,
              -43.015125
            ],
            [
              -59.331882,
              -43.130081
            ],
            [
              -59.180448,
              -43.234436
            ],
            [
              -59.016065,
              -43.327186
            ],
            [
              -58.840319,
              -43.407439
            ],
            [
              -58.6549,
              -43.47442
            ],
            [
              -58.461596,
              -43.527486
            ],
            [
              -58.262267,
              -43.566124
            ]
          ]
        ],
        "type": "Polygon"
      },
      "properties": {
        "kind": "reachableSet",
        "observationStatus": "estimated",
        "vessel": "A"
      },
      "type": "Feature"
    },
    {
      "geometry": {
        "coordinates": [
          [
            [
              -58.673929,
              -43.454033
            ],
            [
              -58.482875,
              -43.503538
            ],
            [
              -58.286251,
              -43.538797
            ],
            [
              -58.085953,
              -43.559472
            ],
            [
              -57.883909,
              -43.565364
            ],
            [
              -57.682064,
              -43.556414
            ],
            [
              -57.482364,
              -43.532711
            ],
            [
              -57.28673,
              -43.494482
            ],
            [
              -57.097047,
              -43.442094
            ],
            [
              -56.915142,
              -43.376054
            ],
            [
              -56.742766,
              -43.296996
            ],
            [
              -56.58158,
              -43.205682
            ],
            [
              -56.433136,
              -43.102992
            ],
            [
              -56.298863,
              -42.989914
            ],
            [
              -56.180055,
              -42.867538
            ],
            [
              -56.077856,
              -42.737041
            ],
            [
              -55.99325,
              -42.599682
            ],
            [
              -55.927052,
              -42.456782
            ],
            [
              -55.8799,
              -42.309718
            ],
            [
              -55.852247,
              -42.159905
            ],
            [
              -55.844359,
              -42.008788
            ],
            [
              -55.856314,
              -41.857821
            ],
            [
              -55.887995,
              -41.708458
            ],
            [
              -55.939097,
              -41.562138
            ],
            [
              -56.00913,
              -41.420269
            ],
            [
              -56.097417,
              -41.284219
            ],
            [
              -56.203108,
              -41.155296
            ],
            [
              -56.325187,
              -41.034743
            ],
            [
              -56.462476,
              -40.923722
            ],
            [
              -56.613655,
              -40.8233
            ],
            [
              -56.777267,
              -40.734445
            ],
            [
              -56.951736,
              -40.658013
            ],
            [
              -57.135382,
              -40.59474
            ],
            [
              -57.326437,
              -40.545236
            ],
            [
              -57.52306,
              -40.509976
            ],
            [
              -57.723359,
              -40.489301
            ],
            [
              -57.925403,
              -40.48341
            ],
            [
              -58.127247,
              -40.492359
            ],
            [
              -58.326948,
              -40.516062
            ],
            [
              -58.522582,
              -40.554292
            ],
            [
              -58.712265,
              -40.606679
            ],
            [
              -58.89417,
              -40.672719
            ],
            [
              -59.066546,
              -40.751777
            ],
            [
              -59.227732,
              -40.843091
            ],
            [
              -59.376176,
              -40.945781
            ],
            [
              -59.510448,
              -41.058859
            ],
            [
              -59.629256,
              -41.181235
            ],
            [
              -59.731455,
              -41.311732
            ],
            [
              -59.816061,
              -41.449092
            ],
            [
              -59.882259,
              -41.591992
            ],
            [
              -59.929412,
              -41.739056
            ],
            [
              -59.957065,
              -41.888868
            ],
            [
              -59.964952,
              -42.039985
            ],
            [
              -59.952998,
              -42.190952
            ],
            [
              -59.921317,
              -42.340315
            ],
            [
              -59.870214,
              -42.486636
            ],
            [
              -59.800182,
              -42.628504
            ],
            [
              -59.711895,
              -42.764555
            ],
            [
              -59.606203,
              -42.893477
            ],
            [
              -59.484125,
              -43.01403
            ],
            [
              -59.346835,
              -43.125052
            ],
            [
              -59.195657,
              -43.225474
            ],
            [
              -59.032045,
              -43.314328
            ],
            [
              -58.857576,
              -43.39076
            ],
            [
              -58.673929,
              -43.454033
            ]
          ]
        ],
        "type": "Polygon"
      },
      "properties": {
        "kind": "reachableSet",
        "observationStatus": "estimated",
        "vessel": "B"
      },
      "type": "Feature"
    }
  ],
  "properties": {
    "dateline": false
  },
  "type": "FeatureCollection"
}
