{
  "features": [
    {
      "geometry": {
        "coordinates": [
          -60.533192,
          -45.784368
        ],
        "type": "Point"
      },
      "properties": {
        "mmsi": "412329684",
        "observationStatus": "observed",
        "role": "off",
        "time": "2019-01-13T07:02:48Z",
        "vessel": "A"
      },
      "type": "Feature"
    },
    {
      "geometry": {
        "coordinates": [
          -60.601562,
          -45.841868
        ],
        "type": "Point"
      },
      "properties": {
        "mmsi": "412329694",
        "observationStatus": "observed",
        "role": "off",
        "time": "2019-01-13T07:32:44Z",
        "vessel": "B"
      },
      "type": "Feature"
    },
    {
      "geometry": {
        "coordinates": [
          -60.592293,
          -45.817832
        ],
        "type": "Point"
      },
      "properties": {
        "mmsi": "412329684",
        "observationStatus": "observed",
        "role": "on",
        "time": "2019-01-13T23:09:54Z",
        "vessel": "A"
      },
      "type": "Feature"
    },
    {
      "geometry": {
        "coordinates": [
          -60.565203,
          -45.817175
        ],
        "type": "Point"
      },
      "properties": {
        "mmsi": "412329694",
        "observationStatus": "observed",
        "role": "on",
        "time": "2019-01-13T23:14:14Z",
        "vessel": "B"
      },
      "type": "Feature"
    },
    {
      "geometry": {
        "coordinates": [
          [
            -60.533192,
            -45.784368
          ],
          [
            -60.599259,
            -45.835976
          ],
          [
            -60.592293,
            -45.817832
          ]
        ],
        "type": "LineString"
      },
      "properties": {
        "confidence": "low",
        "lineStyle": "dashed",
        "observationStatus": "estimated",
        "source": "reachable-set heuristic",
        "vessel": "A"
      },
      "type": "Feature"
    },
    {
      "geometry": {
        "coordinates": [
          [
            -60.601562,
            -45.841868
          ],
          [
            -60.599259,
            -45.835976
          ],
          [
            -60.565203,
            -45.817175
          ]
        ],
        "type": "LineString"
      },
      "properties": {
        "confidence": "low",
        "lineStyle": "dashed",
        "observationStatus": "estimated",
        "source": "reachable-set heuristic",
        "vessel": "B"
      },
      "type": "Feature"
    },
    {
      "geometry": {
        "coordinates": [
          -60.599259,
          -45.835976
        ],
        "type": "Point"
      },
      "properties": {
        "kind": "meetingPoint",
        "observationStatus": "estimated"
      },
      "type": "Feature"
    },
    {
      "geometry": {
        "coordinates": [
          [
            [
              -62.387972,
              -46.834544
            ],
            [
              -62.234882,
              -46.95512
            ],
            [
              -62.065689,
              -47.064583
            ],
            [
              -61.882021,
              -47.161877
            ],
            [
              -61.685648,
              -47.246067
            ],
            [
              -61.478461,
              -47.31634
            ],
            [
              -61.262455,
              -47.372021
            ],
            [
              -61.03971,
              -47.412573
            ],
            [
              -60.812371,
              -47.437606
            ],
            [
              -60.582629,
              -47.446878
            ],
            [
              -60.352695,
              -47.440301
            ],
            [
              -60.124784,
              -47.417937
            ],
            [
              -59.901091,
              -47.380002
            ],
            [
              -59.68377,
              -47.326862
            ],
            [
              -59.474914,
              -47.259027
            ],
            [
              -59.276534,
              -47.177152
            ],
            [
              -59.090541,
              -47.082025
            ],
            [
              -58.918727,
              -46.974561
            ],
            [
              -58.762745,
              -46.855797
            ],
            [
              -58.624098,
              -46.726875
            ],
            [
              -58.504121,
              -46.589038
            ],
            [
              -58.40397,
              -46.443612
            ],
            [
              -58.324609,
              -46.291999
            ],
            [
              -58.266802,
              -46.135658
            ],
            [
              -58.231107,
              -45.976095
            ],
            [
              -58.217866,
              -45.814847
            ],
            [
              -58.227208,
              -45.653466
            ],
            [
              -58.259043,
              -45.493507
            ],
            [
              -58.313063,
              -45.336511
            ],
            [
              -58.388749,
              -45.183988
            ],
            [
              -58.485372,
              -45.037409
            ],
            [
              -58.602001,
              -44.898185
            ],
            [
              -58.737513,
              -44.767656
            ],
            [
              -58.890603,
              -44.64708
            ],
            [
              -59.059796,
              -44.537617
            ],
            [
              -59.243464,
              -44.440323
            ],
            [
              -59.439837,
              -44.356133
            ],
            [
              -59.647024,
              -44.28586
            ],
            [
              -59.86303,
              -44.230179
            ],
            [
              -60.085775,
              -44.189627
            ],
            [
              -60.313114,
              -44.164594
            ],
            [
              -60.542856,
              -44.155322
            ],
            [
              -60.77279,
              -44.161899
            ],
            [
              -61.000701,
              -44.184263
            ],
            [
              -61.224394,
              -44.222198
            ],
            [
              -61.441715,
              -44.275338
            ],
            [
              -61.650571,
              -44.343173
            ],
            [
              -61.848951,
              -44.425048
            ],
            [
              -62.034944,
              -44.520175
            ],
            [
              -62.206758,
              -44.627639
            ],
            [
              -62.36274,
              -44.746403
            ],
            [
              -62.501387,
              -44.875325
            ],
            [
              -62.621364,
              -45.013162
            ],
            [
              -62.721515,
              -45.158588
            ],
            [
              -62.800876,
              -45.310201
            ],
            [
              -62.858683,
              -45.466542
            ],
            [
              -62.894378,
              -45.626105
            ],
            [
              -62.907619,
              -45.787353
            ],
            [
              -62.898277,
              -45.948734
            ],
            [
              -62.866442,
              -46.108693
            ],
            [
              -62.812422,
              -46.265689
            ],
            [
              -62.736736,
              -46.418212
            ],
            [
              -62.640113,
              -46.564791
            ],
            [
              -62.523484,
              -46.704015
            ],
            [
              -62.387972,
              -46.834544
            ]
          ]
        ],
        "type": "Polygon"
      },
      "properties": {
        "kind": "reachableSet",
        "observationStatus": "estimated",
        "vessel": "A"
      },
      "type": "Feature"
    },
    {
      "geometry": {
        "coordinates": [
          [
            [
              -58.945244,
              -44.716954
            ],
            [
              -59.108571,
              -44.609678
            ],
            [
              -59.286101,
              -44.514149
            ],
            [
              -59.476125,
              -44.431289
            ],
            [
              -59.676813,
              -44.361894
            ],
            [
              -59.886231,
              -44.306633
            ],
            [
              -60.102363,
              -44.266039
            ],
            [
              -60.323128,
              -44.240501
            ],
            [
              -60.546399,
              -44.230267
            ],
            [
              -60.770026,
              -44.235435
            ],
            [
              -60.991856,
              -44.255954
            ],
            [
              -61.209752,
              -44.291628
            ],
            [
              -61.421616,
              -44.342112
            ],
            [
              -61.625407,
              -44.406921
            ],
            [
              -61.819163,
              -44.485431
            ],
            [
              -62.001017,
              -44.576885
            ],
            [
              -62.169219,
              -44.680402
            ],
            [
              -62.322148,
              -44.794986
            ],
            [
              -62.458333,
              -44.919533
            ],
            [
              -62.57646,
              -45.052844
            ],
            [
              -62.675393,
              -45.193635
            ],
            [
              -62.754179,
              -45.340549
            ],
            [
              -62.812059,
              -45.492173
            ],
            [
              -62.848475,
              -45.647046
            ],
            [
              -62.863077,
              -45.803676
            ],
            [
              -62.855725,
              -45.960554
            ],
            [
              -62.826489,
              -46.116171
            ],
            [
              -62.77565,
              -46.269028
            ],
            [
              -62.703699,
              -46.417651
            ],
            [
              -62.611328,
              -46.560611
            ],
            [
              -62.499426,
              -46.69653
            ],
            [
              -62.369072,
              -46.824099
            ],
            [
              -62.221521,
              -46.942089
            ],
            [
              -62.058194,
              -47.049365
            ],
            [
              -61.880664,
              -47.144894
            ],
            [
              -61.69064,
              -47.227754
            ],
            [
              -61.489952,
              -47.297149
            ],
            [
              -61.280534,
              -47.35241
            ],
            [
              -61.064402,
              -47.393005
            ],
            [
              -60.843637,
              -47.418542
            ],
            [
              -60.620366,
              -47.428776
            ],
            [
              -60.396739,
              -47.423609
            ],
            [
              -60.174909,
              -47.403089
            ],
            [
              -59.957013,
              -47.367416
            ],
            [
              -59.745149,
              -47.316931
            ],
            [
              -59.541358,
              -47.252122
            ],
            [
              -59.347602,
              -47.173613
            ],
            [
              -59.165748,
              -47.082159
            ],
            [
              -58.997546,
              -46.978641
            ],
            [
              -58.844617,
              -46.864057
            ],
            [
              -58.708432,
              -46.73951
            ],
            [
              -58.590305,
              -46.606199
            ],
            [
              -58.491372,
              -46.465409
            ],
            [
              -58.412586,
              -46.318494
            ],
            [
              -58.354706,
              -46.16687
            ],
            [
              -58.31829,
              -46.011998
            ],
            [
              -58.303688,
              -45.855368
            ],
            [
              -58.31104,
              -45.698489
            ],
            [
              -58.340276,
              -45.542872
            ],
            [
              -58.391115,
              -45.390016
            ],
            [
              -58.463066,
              -45.241392
            ],
            [
              -58.555437,
              -45.098433
            ],
            [
              -58.667339,
              -44.962514
            ],
            [
              -58.797693,
              -44.834945
            ],
            [
              -58.945244,
              -44.716954
            ]
          ]
        ],
        "type": "Polygon"
      },
      "properties": {
        "kind": "reachableSet",
        "observationStatus": "estimated",
        "vessel": "B"
      },
      "type": "Feature"
    }
  ],
  "properties": {
    "dateline": false
  },
  "type": "FeatureCollection"
}
