{
  "features": [
    {
      "geometry": {
        "coordinates": [
          158.576008,
          41.967413
        ],
        "type": "Point"
      },
      "properties": {
        "mmsi": "416005007",
        "observationStatus": "observed",
        "role": "off",
        "time": "2017-09-12T04:29:19Z",
        "vessel": "A"
      },
      "type": "Feature"
    },
    {
      "geometry": {
        "coordinates": [
          158.56378,
          41.928808
        ],
        "type": "Point"
      },
      "properties": {
        "mmsi": "416240600",
        "observationStatus": "observed",
        "role": "off",
        "time": "2017-09-12T05:03:21Z",
        "vessel": "B"
      },
      "type": "Feature"
    },
    {
      "geometry": {
        "coordinates": [
          158.623163,
          42.06346
        ],
        "type": "Point"
      },
      "properties": {
        "mmsi": "416005007",
        "observationStatus": "observed",
        "role": "on",
        "time": "2017-09-12T18:31:04Z",
        "vessel": "A"
      },
      "type": "Feature"
    },
    {
      "geometry": {
        "coordinates": [
          158.651242,
          42.081955
        ],
        "type": "Point"
      },
      "properties": {
        "mmsi": "416240600",
        "observationStatus": "observed",
        "role": "on",
        "time": "2017-09-12T18:32:04Z",
        "vessel": "B"
      },
      "type": "Feature"
    },
    {
      "geometry": {
        "coordinates": [
          [
            158.576008,
            41.967413
          ],
          [
            158.607511,
            42.005382
          ],
          [
            158.623163,
            42.06346
          ]
        ],
        "type": "LineString"
      },
      "properties": {
        "confidence": "low",
        "lineStyle": "dashed",
        "observationStatus": "estimated",
        "source": "reachable-set heuristic",
        "vessel": "A"
      },
      "type": "Feature"
    },
    {
      "geometry": {
        "coordinates": [
          [
            158.56378,
            41.928808
          ],
          [
            158.607511,
            42.005382
          ],
          [
            158.651242,
            42.081955
          ]
        ],
        "type": "LineString"
      },
      "properties": {
        "confidence": "low",
        "lineStyle": "dashed",
        "observationStatus": "estimated",
        "source": "reachable-set heuristic",
        "vessel": "B"
      },
      "type": "Feature"
    },
    {
      "geometry": {
        "coordinates": [
          158.607511,
          42.005382
        ],
        "type": "Point"
      },
      "properties": {
        "kind": "meetingPoint",
        "observationStatus": "estimated"
      },
      "type": "Feature"
    },
    {
      "geometry": {
        "coordinates": [
          [
            [
              159.203041,
              43.244571
            ],
            [
              159.039194,
              43.282863
            ],
            [
              158.871114,
              43.308948
            ],
            [
              158.700419,
              43.322576
            ],
            [
              158.528753,
              43.323615
            ],
            [
              158.357769,
              43.312057
            ],
            [
              158.189114,
              43.28801
            ],
            [
              158.024412,
              43.251709
            ],
            [
              157.865249,
              43.203501
            ],
            [
              157.713158,
              43.143852
            ],
            [
              157.569604,
              43.073335
            ],
            [
              157.435969,
              42.99263
            ],
            [
              157.313541,
              42.902515
            ],
            [
              157.203497,
              42.803856
            ],
            [
              157.106899,
              42.697604
            ],
            [
              157.024677,
              42.584783
            ],
            [
              156.957621,
              42.466479
            ],
            [
              156.906379,
              42.343831
            ],
            [
              156.871443,
              42.21802
            ],
            [
              156.85315,
              42.090258
            ],
            [
              156.851676,
              41.961776
            ],
            [
              156.867036,
              41.83381
            ],
            [
              156.89908,
              41.707594
            ],
            [
              156.947502,
              41.584342
            ],
            [
              157.011834,
              41.465242
            ],
            [
              157.091457,
              41.351441
            ],
            [
              157.185605,
              41.244034
            ],
            [
              157.293369,
              41.144056
            ],
            [
              157.413713,
              41.052471
            ],
            [
              157.545478,
              40.970159
            ],
            [
              157.687395,
              40.897913
            ],
            [
              157.838096,
              40.83643
            ],
            [
              157.996131,
              40.786302
            ],
            [
              158.159977,
              40.748011
            ],
            [
              158.328057,
              40.721925
            ],
            [
              158.498753,
              40.708297
            ],
            [
              158.670419,
              40.707258
            ],
            [
              158.841403,
              40.718817
            ],
            [
              159.010058,
              40.742863
            ],
            [
              159.17476,
              40.779165
            ],
            [
              159.333923,
              40.827372
            ],
            [
              159.486014,
              40.887022
            ],
            [
              159.629568,
              40.957538
            ],
            [
              159.763203,
              41.038243
            ],
            [
              159.885631,
              41.128359
            ],
            [
              159.995674,
              41.227017
            ],
            [
              160.092272,
              41.333269
            ],
            [
              160.174495,
              41.44609
            ],
            [
              160.24155,
              41.564394
            ],
            [
              160.292793,
              41.687043
            ],
            [
              160.327729,
              41.812853
            ],
            [
              160.346022,
              41.940615
            ],
            [
              160.347496,
              42.069098
            ],
            [
              160.332136,
              42.197063
            ],
            [
              160.300091,
              42.323279
            ],
            [
              160.251669,
              42.446531
            ],
            [
              160.187337,
              42.565631
            ],
            [
              160.107714,
              42.679433
            ],
            [
              160.013567,
              42.786839
            ],
            [
              159.905802,
              42.886817
            ],
            [
              159.785458,
              42.978403
            ],
            [
              159.653693,
              43.060715
            ],
            [
              159.511777,
              43.13296
            ],
            [
              159.361076,
              43.194443
            ],
            [
              159.203041,
              43.244571
            ]
          ]
        ],
        "type": "Polygon"
      },
      "properties": {
        "kind": "reachableSet",
        "observationStatus": "estimated",
        "vessel": "A"
      },
      "type": "Feature"
    },
    {
      "geometry": {
        "coordinates": [
          [
            [
              159.266113,
              43.158603
            ],
            [
              159.112182,
              43.201238
            ],
            [
              158.953392,
              43.232356
            ],
            [
              158.791271,
              43.251658
            ],
            [
              158.62738,
              43.258957
            ],
            [
              158.463297,
              43.254184
            ],
            [
              158.300603,
              43.237384
            ],
            [
              158.140866,
              43.208719
            ],
            [
              157.985622,
              43.168465
            ],
            [
              157.836367,
              43.117011
            ],
            [
              157.694539,
              43.05485
            ],
            [
              157.561503,
              42.982583
            ],
            [
              157.438541,
              42.900905
            ],
            [
              157.326836,
              42.810602
            ],
            [
              157.227466,
              42.712545
            ],
            [
              157.141386,
              42.607677
            ],
            [
              157.069425,
              42.497009
            ],
            [
              157.012277,
              42.381606
            ],
            [
              156.970492,
              42.26258
            ],
            [
              156.944473,
              42.141077
            ],
            [
              156.934469,
              42.018267
            ],
            [
              156.940578,
              41.895333
            ],
            [
              156.96274,
              41.773459
            ],
            [
              157.000742,
              41.653819
            ],
            [
              157.054218,
              41.537564
            ],
            [
              157.122654,
              41.425815
            ],
            [
              157.205389,
              41.319647
            ],
            [
              157.301627,
              41.220083
            ],
            [
              157.410442,
              41.128082
            ],
            [
              157.530786,
              41.04453
            ],
            [
              157.661498,
              40.970231
            ],
            [
              157.801322,
              40.905901
            ],
            [
              157.948909,
              40.85216
            ],
            [
              158.102839,
              40.809526
            ],
            [
              158.26163,
              40.778407
            ],
            [
              158.423751,
              40.759106
            ],
            [
              158.587642,
              40.751806
            ],
            [
              158.751725,
              40.75658
            ],
            [
              158.914418,
              40.77338
            ],
            [
              159.074156,
              40.802044
            ],
            [
              159.2294,
              40.842298
            ],
            [
              159.378655,
              40.893753
            ],
            [
              159.520483,
              40.955913
            ],
            [
              159.653519,
              41.02818
            ],
            [
              159.776481,
              41.109859
            ],
            [
              159.888185,
              41.200161
            ],
            [
              159.987556,
              41.298219
            ],
            [
              160.073636,
              41.403086
            ],
            [
              160.145597,
              41.513754
            ],
            [
              160.202745,
              41.629157
            ],
            [
              160.24453,
              41.748183
            ],
            [
              160.270549,
              41.869686
            ],
            [
              160.280553,
              41.992496
            ],
            [
              160.274444,
              42.11543
            ],
            [
              160.252282,
              42.237304
            ],
            [
              160.21428,
              42.356944
            ],
            [
              160.160803,
              42.473199
            ],
            [
              160.092368,
              42.584949
            ],
            [
              160.009633,
              42.691117
            ],
            [
              159.913394,
              42.790681
            ],
            [
              159.804579,
              42.882682
            ],
            [
              159.684236,
              42.966234
            ],
            [
              159.553523,
              43.040532
            ],
            [
              159.4137,
              43.104862
            ],
            [
              159.266113,
              43.158603
            ]
          ]
        ],
        "type": "Polygon"
      },
      "properties": {
        "kind": "reachableSet",
        "observationStatus": "estimated",
        "vessel": "B"
      },
      "type": "Feature"
    }
  ],
  "properties": {
    "dateline": false
  },
  "type": "FeatureCollection"
}
