{
  "features": [
    {
      "geometry": {
        "coordinates": [
          -60.736027,
          -47.269413
        ],
        "type": "Point"
      },
      "properties": {
        "mmsi": "412371205",
        "observationStatus": "observed",
        "role": "off",
        "time": "2019-02-26T15:29:01Z",
        "vessel": "A"
      },
      "type": "Feature"
    },
    {
      "geometry": {
        "coordinates": [
          -60.706723,
          -47.20739
        ],
        "type": "Point"
      },
      "properties": {
        "mmsi": "412420532",
        "observationStatus": "observed",
        "role": "off",
        "time": "2019-02-26T15:44:10Z",
        "vessel": "B"
      },
      "type": "Feature"
    },
    {
      "geometry": {
        "coordinates": [
          -60.755893,
          -47.176267
        ],
        "type": "Point"
      },
      "properties": {
        "mmsi": "412371205",
        "observationStatus": "observed",
        "role": "on",
        "time": "2019-02-27T11:27:54Z",
        "vessel": "A"
      },
      "type": "Feature"
    },
    {
      "geometry": {
        "coordinates": [
          -60.782588,
          -47.18002
        ],
        "type": "Point"
      },
      "properties": {
        "mmsi": "412420532",
        "observationStatus": "observed",
        "role": "on",
        "time": "2019-02-27T12:01:23Z",
        "vessel": "B"
      },
      "type": "Feature"
    },
    {
      "geometry": {
        "coordinates": [
          [
            -60.736027,
            -47.269413
          ],
          [
            -60.744656,
            -47.18702
          ],
          [
            -60.755893,
            -47.176267
          ]
        ],
        "type": "LineString"
      },
      "properties": {
        "confidence": "low",
        "lineStyle": "dashed",
        "observationStatus": "estimated",
        "source": "reachable-set heuristic",
        "vessel": "A"
      },
      "type": "Feature"
    },
    {
      "geometry": {
        "coordinates": [
          [
            -60.706723,
            -47.20739
          ],
          [
            -60.744656,
            -47.18702
          ],
          [
            -60.782588,
            -47.18002
          ]
        ],
        "type": "LineString"
      },
      "properties": {
        "confidence": "low",
        "lineStyle": "dashed",
        "observationStatus": "estimated",
        "source": "reachable-set heuristic",
        "vessel": "B"
      },
      "type": "Feature"
    },
    {
      "geometry": {
        "coordinates": [
          -60.744656,
          -47.18702
        ],
        "type": "Point"
      },
      "properties": {
        "kind": "meetingPoint",
        "observationStatus": "estimated"
      },
      "type": "Feature"
    },
    {
      "geometry": {
        "coordinates": [
          [
            [
              -61.148557,
              -45.335226
            ],
            [
              -61.417128,
              -45.371289
            ],
            [
              -61.679235,
              -45.425184
            ],
            [
              -61.932354,
              -45.496391
            ],
            [
              -62.174047,
              -45.584225
            ],
            [
              -62.401987,
              -45.687839
            ],
            [
              -62.613979,
              -45.806236
            ],
            [
              -62.807981,
              -45.938276
            ],
            [
              -62.982124,
              -46.082687
            ],
            [
              -63.134732,
              -46.238079
            ],
            [
              -63.264334,
              -46.402954
            ],
            [
              -63.369683,
              -46.575725
            ],
            [
              -63.449765,
              -46.754728
            ],
            [
              -63.503807,
              -46.938239
            ],
            [
              -63.53129,
              -47.124491
            ],
            [
              -63.531948,
              -47.311691
            ],
            [
              -63.505776,
              -47.498034
            ],
            [
              -63.453025,
              -47.681728
            ],
            [
              -63.374204,
              -47.861002
            ],
            [
              -63.270071,
              -48.03413
            ],
            [
              -63.14163,
              -48.199445
            ],
            [
              -62.990117,
              -48.355355
            ],
            [
              -62.816992,
              -48.500358
            ],
            [
              -62.623922,
              -48.633058
            ],
            [
              -62.412765,
              -48.752176
            ],
            [
              -62.185557,
              -48.856567
            ],
            [
              -61.944484,
              -48.945223
            ],
            [
              -61.691869,
              -49.017292
            ],
            [
              -61.430144,
              -49.07208
            ],
            [
              -61.161831,
              -49.109058
            ],
            [
              -60.889512,
              -49.127872
            ],
            [
              -60.615811,
              -49.128338
            ],
            [
              -60.343363,
              -49.110454
            ],
            [
              -60.074792,
              -49.074391
            ],
            [
              -59.812685,
              -49.020496
            ],
            [
              -59.559566,
              -48.949289
            ],
            [
              -59.317873,
              -48.861455
            ],
            [
              -59.089933,
              -48.757841
            ],
            [
              -58.877941,
              -48.639444
            ],
            [
              -58.683939,
              -48.507404
            ],
            [
              -58.509796,
              -48.362993
            ],
            [
              -58.357188,
              -48.207601
            ],
            [
              -58.227586,
              -48.042726
            ],
            [
              -58.122237,
              -47.869955
            ],
            [
              -58.042155,
              -47.690952
            ],
            [
              -57.988113,
              -47.507441
            ],
            [
              -57.96063,
              -47.321189
            ],
            [
              -57.959972,
              -47.133989
            ],
            [
              -57.986144,
              -46.947646
            ],
            [
              -58.038895,
              -46.763952
            ],
            [
              -58.117716,
              -46.584678
            ],
            [
              -58.221849,
              -46.41155
            ],
            [
              -58.35029,
              -46.246235
            ],
            [
              -58.501803,
              -46.090325
            ],
            [
              -58.674928,
              -45.945322
            ],
            [
              -58.867998,
              -45.812622
            ],
            [
              -59.079155,
              -45.693504
            ],
            [
              -59.306363,
              -45.589113
            ],
            [
              -59.547436,
              -45.500457
            ],
            [
              -59.800051,
              -45.428388
            ],
            [
              -60.061776,
              -45.3736
            ],
            [
              -60.330089,
              -45.336622
            ],
            [
              -60.602408,
              -45.317808
            ],
            [
              -60.876109,
              -45.317342
            ],
            [
              -61.148557,
              -45.335226
            ]
          ]
        ],
        "type": "Polygon"
      },
      "properties": {
        "kind": "reachableSet",
        "observationStatus": "estimated",
        "vessel": "A"
      },
      "type": "Feature"
    },
    {
      "geometry": {
        "coordinates": [
          [
            [
              -63.250754,
              -46.289574
            ],
            [
              -63.368208,
              -46.461959
            ],
            [
              -63.460397,
              -46.641391
            ],
            [
              -63.526431,
              -46.826142
            ],
            [
              -63.565675,
              -47.014432
            ],
            [
              -63.577752,
              -47.20445
            ],
            [
              -63.562544,
              -47.394363
            ],
            [
              -63.520198,
              -47.582345
            ],
            [
              -63.451122,
              -47.766583
            ],
            [
              -63.355982,
              -47.945305
            ],
            [
              -63.235693,
              -48.116788
            ],
            [
              -63.091414,
              -48.279381
            ],
            [
              -62.924535,
              -48.431519
            ],
            [
              -62.736662,
              -48.571735
            ],
            [
              -62.529605,
              -48.698681
            ],
            [
              -62.305357,
              -48.811133
            ],
            [
              -62.06608,
              -48.908008
            ],
            [
              -61.814076,
              -48.988374
            ],
            [
              -61.551774,
              -49.051455
            ],
            [
              -61.281698,
              -49.096646
            ],
            [
              -61.00645,
              -49.12351
            ],
            [
              -60.728682,
              -49.13179
            ],
            [
              -60.451067,
              -49.121404
            ],
            [
              -60.176279,
              -49.092454
            ],
            [
              -59.906965,
              -49.045217
            ],
            [
              -59.645719,
              -48.98015
            ],
            [
              -59.395056,
              -48.897878
            ],
            [
              -59.15739,
              -48.799194
            ],
            [
              -58.935011,
              -48.685048
            ],
            [
              -58.730059,
              -48.55654
            ],
            [
              -58.544509,
              -48.414907
            ],
            [
              -58.380148,
              -48.261513
            ],
            [
              -58.238558,
              -48.097836
            ],
            [
              -58.121103,
              -47.925451
            ],
            [
              -58.028915,
              -47.746019
            ],
            [
              -57.962881,
              -47.561268
            ],
            [
              -57.923636,
              -47.372978
            ],
            [
              -57.91156,
              -47.18296
            ],
            [
              -57.926768,
              -46.993047
            ],
            [
              -57.969114,
              -46.805065
            ],
            [
              -58.038189,
              -46.620827
            ],
            [
              -58.13333,
              -46.442105
            ],
            [
              -58.253619,
              -46.270622
            ],
            [
              -58.397898,
              -46.108029
            ],
            [
              -58.564777,
              -45.955891
            ],
            [
              -58.75265,
              -45.815675
            ],
            [
              -58.959707,
              -45.688729
            ],
            [
              -59.183954,
              -45.576277
            ],
            [
              -59.423232,
              -45.479402
            ],
            [
              -59.675235,
              -45.399036
            ],
            [
              -59.937538,
              -45.335955
            ],
            [
              -60.207614,
              -45.290764
            ],
            [
              -60.482861,
              -45.2639
            ],
            [
              -60.76063,
              -45.25562
            ],
            [
              -61.038245,
              -45.266006
            ],
            [
              -61.313033,
              -45.294956
            ],
            [
              -61.582347,
              -45.342193
            ],
            [
              -61.843593,
              -45.40726
            ],
            [
              -62.094256,
              -45.489532
            ],
            [
              -62.331922,
              -45.588216
            ],
            [
              -62.554301,
              -45.702362
            ],
            [
              -62.759253,
              -45.83087
            ],
            [
              -62.944803,
              -45.972503
            ],
            [
              -63.109164,
              -46.125897
            ],
            [
              -63.250754,
              -46.289574
            ]
          ]
        ],
        "type": "Polygon"
      },
      "properties": {
        "kind": "reachableSet",
        "observationStatus": "estimated",
        "vessel": "B"
      },
      "type": "Feature"
    }
  ],
  "properties": {
    "dateline": false
  },
  "type": "FeatureCollection"
}
