{
  "features": [
    {
      "geometry": {
        "coordinates": [
          -98.92064,
          -2.459757
        ],
        "type": "Point"
      },
      "properties": {
        "mmsi": "412420816",
        "observationStatus": "observed",
        "role": "off",
        "time": "2018-08-12T10:54:44Z",
        "vessel": "A"
      },
      "type": "Feature"
    },
    {
      "geometry": {
        "coordinates": [
          -98.835198,
          -2.437787
        ],
        "type": "Point"
      },
      "properties": {
        "mmsi": "412420563",
        "observationStatus": "observed",
        "role": "off",
        "time": "2018-08-12T11:12:51Z",
        "vessel": "B"
      },
      "type": "Feature"
    },
    {
      "geometry": {
        "coordinates": [
          -98.815845,
          -2.522163
        ],
        "type": "Point"
      },
      "properties": {
        "mmsi": "412420816",
        "observationStatus": "observed",
        "role": "on",
        "time": "2018-08-13T00:07:19Z",
        "vessel": "A"
      },
      "type": "Feature"
    },
    {
      "geometry": {
        "coordinates": [
          -98.786967,
          -2.455317
        ],
        "type": "Point"
      },
      "properties": {
        "mmsi": "412420563",
        "observationStatus": "observed",
        "role": "on",
        "time": "2018-08-13T00:12:50Z",
        "vessel": "B"
      },
      "type": "Feature"
    },
    {
      "geometry": {
        "coordinates": [
          [
            -98.92064,
            -2.459757
          ],
          [
            -98.825223,
            -2.479975
          ],
          [
            -98.815845,
            -2.522163
          ]
        ],
        "type": "LineString"
      },
      "properties": {
        "confidence": "low",
        "lineStyle": "dashed",
        "observationStatus": "estimated",
        "source": "reachable-set heuristic",
        "vessel": "A"
      },
      "type": "Feature"
    },
    {
      "geometry": {
        "coordinates": [
          [
            -98.835198,
            -2.437787
          ],
          [
            -98.825223,
            -2.479975
          ],
          [
            -98.786967,
            -2.455317
          ]
        ],
        "type": "LineString"
      },
      "properties": {
        "confidence": "low",
        "lineStyle": "dashed",
        "observationStatus": "estimated",
        "source": "reachable-set heuristic",
        "vessel": "B"
      },
      "type": "Feature"
    },
    {
      "geometry": {
        "coordinates": [
          -98.825223,
          -2.479975
        ],
        "type": "Point"
      },
      "properties": {
        "kind": "meetingPoint",
        "observationStatus": "estimated"
      },
      "type": "Feature"
    },
    {
      "geometry": {
        "coordinates": [
          [
            [
              -97.8185,
              -3.116094
            ],
            [
              -97.762713,
              -3.00972
            ],
            [
              -97.717572,
              -2.89835
            ],
            [
              -97.683512,
              -2.783057
            ],
            [
              -97.660862,
              -2.66495
            ],
            [
              -97.64984,
              -2.545168
            ],
            [
              -97.650552,
              -2.424864
            ],
            [
              -97.662991,
              -2.305197
            ],
            [
              -97.687037,
              -2.187319
            ],
            [
              -97.722459,
              -2.072364
            ],
            [
              -97.768915,
              -1.961441
            ],
            [
              -97.825958,
              -1.855618
            ],
            [
              -97.89304,
              -1.755913
            ],
            [
              -97.969512,
              -1.663288
            ],
            [
              -98.054641,
              -1.578633
            ],
            [
              -98.147604,
              -1.502764
            ],
            [
              -98.247508,
              -1.436412
            ],
            [
              -98.35339,
              -1.380216
            ],
            [
              -98.46423,
              -1.334718
            ],
            [
              -98.57896,
              -1.300354
            ],
            [
              -98.696477,
              -1.277457
            ],
            [
              -98.815648,
              -1.266246
            ],
            [
              -98.935326,
              -1.26683
            ],
            [
              -99.054357,
              -1.279203
            ],
            [
              -99.171597,
              -1.303246
            ],
            [
              -99.285914,
              -1.338727
            ],
            [
              -99.396209,
              -1.385305
            ],
            [
              -99.50142,
              -1.442531
            ],
            [
              -99.600533,
              -1.509854
            ],
            [
              -99.692593,
              -1.586625
            ],
            [
              -99.776715,
              -1.672106
            ],
            [
              -99.852087,
              -1.765473
            ],
            [
              -99.917985,
              -1.865826
            ],
            [
              -99.973772,
              -1.9722
            ],
            [
              -100.018913,
              -2.08357
            ],
            [
              -100.052973,
              -2.198863
            ],
            [
              -100.075623,
              -2.31697
            ],
            [
              -100.086645,
              -2.436752
            ],
            [
              -100.085933,
              -2.557056
            ],
            [
              -100.073494,
              -2.676723
            ],
            [
              -100.049448,
              -2.794601
            ],
            [
              -100.014026,
              -2.909556
            ],
            [
              -99.96757,
              -3.020479
            ],
            [
              -99.910527,
              -3.126302
            ],
            [
              -99.843445,
              -3.226007
            ],
            [
              -99.766973,
              -3.318632
            ],
            [
              -99.681844,
              -3.403287
            ],
            [
              -99.588881,
              -3.479156
            ],
            [
              -99.488977,
              -3.545508
            ],
            [
              -99.383095,
              -3.601704
            ],
            [
              -99.272255,
              -3.647202
            ],
            [
              -99.157525,
              -3.681566
            ],
            [
              -99.040008,
              -3.704463
            ],
            [
              -98.920837,
              -3.715674
            ],
            [
              -98.801159,
              -3.71509
            ],
            [
              -98.682128,
              -3.702717
            ],
            [
              -98.564888,
              -3.678674
            ],
            [
              -98.450571,
              -3.643193
            ],
            [
              -98.340276,
              -3.596615
            ],
            [
              -98.235065,
              -3.539389
            ],
            [
              -98.135952,
              -3.472066
            ],
            [
              -98.043892,
              -3.395295
            ],
            [
              -97.95977,
              -3.309814
            ],
            [
              -97.884398,
              -3.216447
            ],
            [
              -97.8185,
              -3.116094
            ]
          ]
        ],
        "type": "Polygon"
      },
      "properties": {
        "kind": "reachableSet",
        "observationStatus": "estimated",
        "vessel": "A"
      },
      "type": "Feature"
    },
    {
      "geometry": {
        "coordinates": [
          [
            [
              -97.683524,
              -2.856367
            ],
            [
              -97.649028,
              -2.743251
            ],
            [
              -97.625723,
              -2.627278
            ],
            [
              -97.613834,
              -2.509563
            ],
            [
              -97.613475,
              -2.391243
            ],
            [
              -97.62465,
              -2.273454
            ],
            [
              -97.64725,
              -2.157333
            ],
            [
              -97.681059,
              -2.043997
            ],
            [
              -97.725751,
              -1.934538
            ],
            [
              -97.780895,
              -1.83001
            ],
            [
              -97.84596,
              -1.73142
            ],
            [
              -97.92032,
              -1.639716
            ],
            [
              -98.003258,
              -1.555783
            ],
            [
              -98.093976,
              -1.480429
            ],
            [
              -98.191601,
              -1.414378
            ],
            [
              -98.295191,
              -1.358269
            ],
            [
              -98.40375,
              -1.31264
            ],
            [
              -98.516231,
              -1.277931
            ],
            [
              -98.631552,
              -1.254476
            ],
            [
              -98.748602,
              -1.242502
            ],
            [
              -98.866254,
              -1.242124
            ],
            [
              -98.983374,
              -1.253345
            ],
            [
              -99.098835,
              -1.276057
            ],
            [
              -99.211525,
              -1.310041
            ],
            [
              -99.320359,
              -1.354971
            ],
            [
              -99.424287,
              -1.410414
            ],
            [
              -99.522311,
              -1.475835
            ],
            [
              -99.613485,
              -1.550604
            ],
            [
              -99.696931,
              -1.634002
            ],
            [
              -99.771846,
              -1.725225
            ],
            [
              -99.837508,
              -1.823395
            ],
            [
              -99.893285,
              -1.927567
            ],
            [
              -99.938641,
              -2.036736
            ],
            [
              -99.973137,
              -2.149852
            ],
            [
              -99.996442,
              -2.265826
            ],
            [
              -100.008331,
              -2.38354
            ],
            [
              -100.00869,
              -2.501861
            ],
            [
              -99.997515,
              -2.619649
            ],
            [
              -99.974915,
              -2.73577
            ],
            [
              -99.941106,
              -2.849106
            ],
            [
              -99.896414,
              -2.958565
            ],
            [
              -99.84127,
              -3.063093
            ],
            [
              -99.776205,
              -3.161684
            ],
            [
              -99.701845,
              -3.253387
            ],
            [
              -99.618907,
              -3.33732
            ],
            [
              -99.528189,
              -3.412675
            ],
            [
              -99.430564,
              -3.478725
            ],
            [
              -99.326974,
              -3.534835
            ],
            [
              -99.218415,
              -3.580464
            ],
            [
              -99.105934,
              -3.615173
            ],
            [
              -98.990613,
              -3.638627
            ],
            [
              -98.873563,
              -3.650601
            ],
            [
              -98.755911,
              -3.65098
            ],
            [
              -98.638791,
              -3.639759
            ],
            [
              -98.52333,
              -3.617047
            ],
            [
              -98.41064,
              -3.583062
            ],
            [
              -98.301806,
              -3.538132
            ],
            [
              -98.197878,
              -3.48269
            ],
            [
              -98.099854,
              -3.417269
            ],
            [
              -98.00868,
              -3.342499
            ],
            [
              -97.925234,
              -3.259101
            ],
            [
              -97.850319,
              -3.167878
            ],
            [
              -97.784657,
              -3.069708
            ],
            [
              -97.72888,
              -2.965537
            ],
            [
              -97.683524,
              -2.856367
            ]
          ]
        ],
        "type": "Polygon"
      },
      "properties": {
        "kind": "reachableSet",
        "observationStatus": "estimated",
        "vessel": "B"
      },
      "type": "Feature"
    }
  ],
  "properties": {
    "dateline": false
  },
  "type": "FeatureCollection"
}
