{
  "features": [
    {
      "geometry": {
        "coordinates": [
          162.057473,
          42.07744
        ],
        "type": "Point"
      },
      "properties": {
        "mmsi": "416233800",
        "observationStatus": "observed",
        "role": "off",
        "time": "2019-09-09T04:45:22Z",
        "vessel": "A"
      },
      "type": "Feature"
    },
    {
      "geometry": {
        "coordinates": [
          162.139337,
          42.02689
        ],
        "type": "Point"
      },
      "properties": {
        "mmsi": "416242500",
        "observationStatus": "observed",
        "role": "off",
        "time": "2019-09-09T05:01:52Z",
        "vessel": "B"
      },
      "type": "Feature"
    },
    {
      "geometry": {
        "coordinates": [
          162.144168,
          42.130255
        ],
        "type": "Point"
      },
      "properties": {
        "mmsi": "416242500",
        "observationStatus": "observed",
        "role": "on",
        "time": "2019-09-09T19:05:15Z",
        "vessel": "B"
      },
      "type": "Feature"
    },
    {
      "geometry": {
        "coordinates": [
          162.074915,
          42.103568
        ],
        "type": "Point"
      },
      "properties": {
        "mmsi": "416233800",
        "observationStatus": "observed",
        "role": "on",
        "time": "2019-09-09T19:28:12Z",
        "vessel": "A"
      },
      "type": "Feature"
    },
    {
      "geometry": {
        "coordinates": [
          [
            162.057473,
            42.07744
          ],
          [
            162.140006,
            42.078572
          ],
          [
            162.074915,
            42.103568
          ]
        ],
        "type": "LineString"
      },
      "properties": {
        "confidence": "low",
        "lineStyle": "dashed",
        "observationStatus": "estimated",
        "source": "reachable-set heuristic",
        "vessel": "A"
      },
      "type": "Feature"
    },
    {
      "geometry": {
        "coordinates": [
          [
            162.139337,
            42.02689
          ],
          [
            162.140006,
            42.078572
          ],
          [
            162.144168,
            42.130255
          ]
        ],
        "type": "LineString"
      },
      "properties": {
        "confidence": "low",
        "lineStyle": "dashed",
        "observationStatus": "estimated",
        "source": "reachable-set heuristic",
        "vessel": "B"
      },
      "type": "Feature"
    },
    {
      "geometry": {
        "coordinates": [
          162.140006,
          42.078572
        ],
        "type": "Point"
      },
      "properties": {
        "kind": "meetingPoint",
        "observationStatus": "estimated"
      },
      "type": "Feature"
    },
    {
      "geometry": {
        "coordinates": [
          [
            [
              162.889492,
              43.323838
            ],
            [
              162.723732,
              43.378187
            ],
            [
              162.551639,
              43.420134
            ],
            [
              162.374871,
              43.449276
            ],
            [
              162.19513,
              43.465333
            ],
            [
              162.014148,
              43.468149
            ],
            [
              161.833667,
              43.457698
            ],
            [
              161.655425,
              43.434079
            ],
            [
              161.481139,
              43.397522
            ],
            [
              161.312488,
              43.348377
            ],
            [
              161.151095,
              43.287118
            ],
            [
              160.998515,
              43.214336
            ],
            [
              160.856217,
              43.13073
            ],
            [
              160.725573,
              43.037106
            ],
            [
              160.607839,
              42.934366
            ],
            [
              160.504149,
              42.823499
            ],
            [
              160.415504,
              42.705572
            ],
            [
              160.342755,
              42.581723
            ],
            [
              160.286604,
              42.453143
            ],
            [
              160.247591,
              42.32107
            ],
            [
              160.226093,
              42.186777
            ],
            [
              160.222315,
              42.051556
            ],
            [
              160.236295,
              41.916711
            ],
            [
              160.267899,
              41.78354
            ],
            [
              160.31682,
              41.653324
            ],
            [
              160.382589,
              41.527319
            ],
            [
              160.464572,
              41.406738
            ],
            [
              160.56198,
              41.292742
            ],
            [
              160.673874,
              41.186429
            ],
            [
              160.799177,
              41.088822
            ],
            [
              160.936682,
              41.000862
            ],
            [
              161.085065,
              40.923396
            ],
            [
              161.242896,
              40.85717
            ],
            [
              161.408657,
              40.802822
            ],
            [
              161.58075,
              40.760874
            ],
            [
              161.757517,
              40.731732
            ],
            [
              161.937258,
              40.715676
            ],
            [
              162.11824,
              40.71286
            ],
            [
              162.298722,
              40.723311
            ],
            [
              162.476963,
              40.746929
            ],
            [
              162.651249,
              40.783486
            ],
            [
              162.819901,
              40.832631
            ],
            [
              162.981293,
              40.89389
            ],
            [
              163.133873,
              40.966673
            ],
            [
              163.276171,
              41.050279
            ],
            [
              163.406816,
              41.143903
            ],
            [
              163.52455,
              41.246643
            ],
            [
              163.628239,
              41.35751
            ],
            [
              163.716885,
              41.475436
            ],
            [
              163.789633,
              41.599286
            ],
            [
              163.845785,
              41.727866
            ],
            [
              163.884797,
              41.859939
            ],
            [
              163.906296,
              41.994232
            ],
            [
              163.910073,
              42.129452
            ],
            [
              163.896093,
              42.264297
            ],
            [
              163.86449,
              42.397469
            ],
            [
              163.815568,
              42.527684
            ],
            [
              163.749799,
              42.653689
            ],
            [
              163.667816,
              42.77427
            ],
            [
              163.570408,
              42.888266
            ],
            [
              163.458514,
              42.99458
            ],
            [
              163.333211,
              43.092186
            ],
            [
              163.195706,
              43.180146
            ],
            [
              163.047324,
              43.257612
            ],
            [
              162.889492,
              43.323838
            ]
          ]
        ],
        "type": "Polygon"
      },
      "properties": {
        "kind": "reachableSet",
        "observationStatus": "estimated",
        "vessel": "A"
      },
      "type": "Feature"
    },
    {
      "geometry": {
        "coordinates": [
          [
            [
              162.203049,
              43.389906
            ],
            [
              162.030882,
              43.388078
            ],
            [
              161.859782,
              43.373638
            ],
            [
              161.691398,
              43.346727
            ],
            [
              161.527352,
              43.307602
            ],
            [
              161.369222,
              43.256641
            ],
            [
              161.218532,
              43.194335
            ],
            [
              161.076733,
              43.121283
            ],
            [
              160.945191,
              43.038189
            ],
            [
              160.825173,
              42.945854
            ],
            [
              160.717833,
              42.845166
            ],
            [
              160.624207,
              42.737096
            ],
            [
              160.545196,
              42.622683
            ],
            [
              160.481561,
              42.503031
            ],
            [
              160.433914,
              42.379291
            ],
            [
              160.402714,
              42.252654
            ],
            [
              160.388262,
              42.124342
            ],
            [
              160.390698,
              41.995588
            ],
            [
              160.409997,
              41.867634
            ],
            [
              160.445974,
              41.741711
            ],
            [
              160.498282,
              41.619032
            ],
            [
              160.566417,
              41.500779
            ],
            [
              160.649724,
              41.38809
            ],
            [
              160.7474,
              41.282051
            ],
            [
              160.858505,
              41.183683
            ],
            [
              160.981967,
              41.093933
            ],
            [
              161.116599,
              41.013666
            ],
            [
              161.261104,
              40.943655
            ],
            [
              161.41409,
              40.884573
            ],
            [
              161.574084,
              40.83699
            ],
            [
              161.739545,
              40.801365
            ],
            [
              161.908879,
              40.778039
            ],
            [
              162.080456,
              40.767239
            ],
            [
              162.252623,
              40.769067
            ],
            [
              162.423723,
              40.783507
            ],
            [
              162.592107,
              40.810418
            ],
            [
              162.756153,
              40.849543
            ],
            [
              162.914283,
              40.900504
            ],
            [
              163.064973,
              40.96281
            ],
            [
              163.206772,
              41.035862
            ],
            [
              163.338314,
              41.118956
            ],
            [
              163.458332,
              41.211291
            ],
            [
              163.565672,
              41.311979
            ],
            [
              163.659298,
              41.420049
            ],
            [
              163.738309,
              41.534462
            ],
            [
              163.801944,
              41.654114
            ],
            [
              163.849591,
              41.777854
            ],
            [
              163.880791,
              41.904491
            ],
            [
              163.895243,
              42.032803
            ],
            [
              163.892807,
              42.161557
            ],
            [
              163.873508,
              42.289511
            ],
            [
              163.837531,
              42.415434
            ],
            [
              163.785223,
              42.538113
            ],
            [
              163.717088,
              42.656366
            ],
            [
              163.633781,
              42.769055
            ],
            [
              163.536105,
              42.875094
            ],
            [
              163.425,
              42.973462
            ],
            [
              163.301538,
              43.063212
            ],
            [
              163.166906,
              43.143479
            ],
            [
              163.022401,
              43.21349
            ],
            [
              162.869415,
              43.272572
            ],
            [
              162.709421,
              43.320155
            ],
            [
              162.54396,
              43.35578
            ],
            [
              162.374626,
              43.379106
            ],
            [
              162.203049,
              43.389906
            ]
          ]
        ],
        "type": "Polygon"
      },
      "properties": {
        "kind": "reachableSet",
        "observationStatus": "estimated",
        "vessel": "B"
      },
      "type": "Feature"
    }
  ],
  "properties": {
    "dateline": false
  },
  "type": "FeatureCollection"
}
