{
  "features": [
    {
      "geometry": {
        "coordinates": [
          -60.396747,
          -45.528453
        ],
        "type": "Point"
      },
      "properties": {
        "mmsi": "412329687",
        "observationStatus": "observed",
        "role": "off",
        "time": "2018-02-13T06:24:59Z",
        "vessel": "A"
      },
      "type": "Feature"
    },
    {
      "geometry": {
        "coordinates": [
          -60.372987,
          -45.574773
        ],
        "type": "Point"
      },
      "properties": {
        "mmsi": "412329692",
        "observationStatus": "observed",
        "role": "off",
        "time": "2018-02-13T06:25:17Z",
        "vessel": "B"
      },
      "type": "Feature"
    },
    {
      "geometry": {
        "coordinates": [
          -60.460073,
          -45.519978
        ],
        "type": "Point"
      },
      "properties": {
        "mmsi": "412329692",
        "observationStatus": "observed",
        "role": "on",
        "time": "2018-02-13T22:46:50Z",
        "vessel": "B"
      },
      "type": "Feature"
    },
    {
      "geometry": {
        "coordinates": [
          -60.566473,
          -45.500315
        ],
        "type": "Point"
      },
      "properties": {
        "mmsi": "412329687",
        "observationStatus": "observed",
        "role": "on",
        "time": "2018-02-13T22:52:54Z",
        "vessel": "A"
      },
      "type": "Feature"
    },
    {
      "geometry": {
        "coordinates": [
          [
            -60.396747,
            -45.528453
          ],
          [
            -60.46973,
            -45.537544
          ],
          [
            -60.566473,
            -45.500315
          ]
        ],
        "type": "LineString"
      },
      "properties": {
        "confidence": "low",
        "lineStyle": "dashed",
        "observationStatus": "estimated",
        "source": "reachable-set heuristic",
        "vessel": "A"
      },
      "type": "Feature"
    },
    {
      "geometry": {
        "coordinates": [
          [
            -60.372987,
            -45.574773
          ],
          [
            -60.46973,
            -45.537544
          ],
          [
            -60.460073,
            -45.519978
          ]
        ],
        "type": "LineString"
      },
      "properties": {
        "confidence": "low",
        "lineStyle": "dashed",
        "observationStatus": "estimated",
        "source": "reachable-set heuristic",
        "vessel": "B"
      },
      "type": "Feature"
    },
    {
      "geometry": {
        "coordinates": [
          -60.46973,
          -45.537544
        ],
        "type": "Point"
      },
      "properties": {
        "kind": "meetingPoint",
        "observationStatus": "estimated"
      },
      "type": "Feature"
    },
    {
      "geometry": {
        "coordinates": [
          [
            [
              -62.804966,
              -45.129204
            ],
            [
              -62.847259,
              -45.29161
            ],
            [
              -62.866768,
              -45.456162
            ],
            [
              -62.863308,
              -45.621274
            ],
            [
              -62.83691,
              -45.785358
            ],
            [
              -62.787829,
              -45.946831
            ],
            [
              -62.716539,
              -46.10414
            ],
            [
              -62.623724,
              -46.255769
            ],
            [
              -62.51028,
              -46.400258
            ],
            [
              -62.377299,
              -46.536216
            ],
            [
              -62.226061,
              -46.662333
            ],
            [
              -62.058023,
              -46.777394
            ],
            [
              -61.874804,
              -46.880292
            ],
            [
              -61.678167,
              -46.970036
            ],
            [
              -61.470007,
              -47.045761
            ],
            [
              -61.252328,
              -47.106738
            ],
            [
              -61.027227,
              -47.152379
            ],
            [
              -60.79687,
              -47.182246
            ],
            [
              -60.563478,
              -47.196051
            ],
            [
              -60.329298,
              -47.19366
            ],
            [
              -60.096584,
              -47.175097
            ],
            [
              -59.867578,
              -47.14054
            ],
            [
              -59.644486,
              -47.090322
            ],
            [
              -59.429456,
              -47.024927
            ],
            [
              -59.224558,
              -46.944985
            ],
            [
              -59.031767,
              -46.851266
            ],
            [
              -58.852938,
              -46.744671
            ],
            [
              -58.689794,
              -46.626229
            ],
            [
              -58.543907,
              -46.497078
            ],
            [
              -58.416681,
              -46.358464
            ],
            [
              -58.309341,
              -46.21172
            ],
            [
              -58.222921,
              -46.058261
            ],
            [
              -58.158254,
              -45.899565
            ],
            [
              -58.115961,
              -45.737158
            ],
            [
              -58.096452,
              -45.572606
            ],
            [
              -58.099912,
              -45.407494
            ],
            [
              -58.12631,
              -45.243411
            ],
            [
              -58.175391,
              -45.081937
            ],
            [
              -58.246681,
              -44.924629
            ],
            [
              -58.339496,
              -44.772999
            ],
            [
              -58.45294,
              -44.62851
            ],
            [
              -58.585921,
              -44.492553
            ],
            [
              -58.737159,
              -44.366436
            ],
            [
              -58.905197,
              -44.251374
            ],
            [
              -59.088416,
              -44.148476
            ],
            [
              -59.285053,
              -44.058732
            ],
            [
              -59.493213,
              -43.983007
            ],
            [
              -59.710892,
              -43.922031
            ],
            [
              -59.935993,
              -43.876389
            ],
            [
              -60.16635,
              -43.846522
            ],
            [
              -60.399742,
              -43.832718
            ],
            [
              -60.633922,
              -43.835108
            ],
            [
              -60.866636,
              -43.853672
            ],
            [
              -61.095642,
              -43.888229
            ],
            [
              -61.318734,
              -43.938446
            ],
            [
              -61.533764,
              -44.003841
            ],
            [
              -61.738662,
              -44.083783
            ],
            [
              -61.931453,
              -44.177503
            ],
            [
              -62.110282,
              -44.284097
            ],
            [
              -62.273426,
              -44.40254
            ],
            [
              -62.419313,
              -44.53169
            ],
            [
              -62.546539,
              -44.670305
            ],
            [
              -62.653879,
              -44.817048
            ],
            [
              -62.740299,
              -44.970507
            ],
            [
              -62.804966,
              -45.129204
            ]
          ]
        ],
        "type": "Polygon"
      },
      "properties": {
        "kind": "reachableSet",
        "observationStatus": "estimated",
        "vessel": "A"
      },
      "type": "Feature"
    },
    {
      "geometry": {
        "coordinates": [
          [
            [
              -62.186048,
              -44.433994
            ],
            [
              -62.33226,
              -44.561608
            ],
            [
              -62.460022,
              -44.698715
            ],
            [
              -62.568105,
              -44.843995
            ],
            [
              -62.655467,
              -44.996049
            ],
            [
              -62.721267,
              -45.153413
            ],
            [
              -62.764871,
              -45.31457
            ],
            [
              -62.785859,
              -45.47797
            ],
            [
              -62.784029,
              -45.642039
            ],
            [
              -62.759398,
              -45.805195
            ],
            [
              -62.712205,
              -45.965869
            ],
            [
              -62.642903,
              -46.122512
            ],
            [
              -62.55216,
              -46.273617
            ],
            [
              -62.44085,
              -46.417727
            ],
            [
              -62.310044,
              -46.553455
            ],
            [
              -62.161003,
              -46.679495
            ],
            [
              -61.995161,
              -46.794631
            ],
            [
              -61.814117,
              -46.897756
            ],
            [
              -61.619612,
              -46.987875
            ],
            [
              -61.413522,
              -47.064122
            ],
            [
              -61.19783,
              -47.125762
            ],
            [
              -60.974614,
              -47.172201
            ],
            [
              -60.746023,
              -47.202992
            ],
            [
              -60.514258,
              -47.217839
            ],
            [
              -60.281553,
              -47.216598
            ],
            [
              -60.050147,
              -47.199282
            ],
            [
              -59.82227,
              -47.166057
            ],
            [
              -59.600116,
              -47.117243
            ],
            [
              -59.385825,
              -47.05331
            ],
            [
              -59.18146,
              -46.974875
            ],
            [
              -58.988989,
              -46.882692
            ],
            [
              -58.810266,
              -46.777649
            ],
            [
              -58.647012,
              -46.660758
            ],
            [
              -58.5008,
              -46.533144
            ],
            [
              -58.373038,
              -46.396037
            ],
            [
              -58.264955,
              -46.250757
            ],
            [
              -58.177593,
              -46.098703
            ],
            [
              -58.111793,
              -45.941339
            ],
            [
              -58.068189,
              -45.780181
            ],
            [
              -58.047201,
              -45.616781
            ],
            [
              -58.049031,
              -45.452713
            ],
            [
              -58.073662,
              -45.289557
            ],
            [
              -58.120855,
              -45.128883
            ],
            [
              -58.190157,
              -44.97224
            ],
            [
              -58.2809,
              -44.821135
            ],
            [
              -58.39221,
              -44.677025
            ],
            [
              -58.523016,
              -44.541296
            ],
            [
              -58.672057,
              -44.415257
            ],
            [
              -58.837899,
              -44.300121
            ],
            [
              -59.018943,
              -44.196996
            ],
            [
              -59.213448,
              -44.106876
            ],
            [
              -59.419538,
              -44.030629
            ],
            [
              -59.63523,
              -43.968989
            ],
            [
              -59.858446,
              -43.92255
            ],
            [
              -60.087037,
              -43.891759
            ],
            [
              -60.318802,
              -43.876913
            ],
            [
              -60.551507,
              -43.878153
            ],
            [
              -60.782913,
              -43.89547
            ],
            [
              -61.01079,
              -43.928695
            ],
            [
              -61.232944,
              -43.977509
            ],
            [
              -61.447235,
              -44.041441
            ],
            [
              -61.6516,
              -44.119877
            ],
            [
              -61.844071,
              -44.21206
            ],
            [
              -62.022794,
              -44.317103
            ],
            [
              -62.186048,
              -44.433994
            ]
          ]
        ],
        "type": "Polygon"
      },
      "properties": {
        "kind": "reachableSet",
        "observationStatus": "estimated",
        "vessel": "B"
      },
      "type": "Feature"
    }
  ],
  "properties": {
    "dateline": false
  },
  "type": "FeatureCollection"
}
