{
  "features": [
    {
      "geometry": {
        "coordinates": [
          -57.616747,
          -41.983973
        ],
        "type": "Point"
      },
      "properties": {
        "mmsi": "412329684",
        "observationStatus": "observed",
        "role": "off",
        "time": "2019-07-02T05:01:27Z",
        "vessel": "A"
      },
      "type": "Feature"
    },
    {
      "geometry": {
        "coordinates": [
          -57.55078,
          -42.04009
        ],
        "type": "Point"
      },
      "properties": {
        "mmsi": "412329693",
        "observationStatus": "observed",
        "role": "off",
        "time": "2019-07-02T05:18:03Z",
        "vessel": "B"
      },
      "type": "Feature"
    },
    {
      "geometry": {
        "coordinates": [
          -57.805,
          -41.975
        ],
        "type": "Point"
      },
      "properties": {
        "mmsi": "412329693",
        "observationStatus": "observed",
        "role": "on",
        "time": "2019-07-02T22:10:28Z",
        "vessel": "B"
      },
      "type": "Feature"
    },
    {
      "geometry": {
        "coordinates": [
          -57.692,
          -41.949093
        ],
        "type": "Point"
      },
      "properties": {
        "mmsi": "412329684",
        "observationStatus": "observed",
        "role": "on",
        "time": "2019-07-02T22:20:31Z",
        "vessel": "A"
      },
      "type": "Feature"
    },
    {
      "geometry": {
        "coordinates": [
          [
            -57.616747,
            -41.983973
          ],
          [
            -57.686714,
            -42.005773
          ],
          [
            -57.692,
            -41.949093
          ]
        ],
        "type": "LineString"
      },
      "properties": {
        "confidence": "low",
        "lineStyle": "dashed",
        "observationStatus": "estimated",
        "source": "reachable-set heuristic",
        "vessel": "A"
      },
      "type": "Feature"
    },
    {
      "geometry": {
        "coordinates": [
          [
            -57.55078,
            -42.04009
          ],
          [
            -57.686714,
            -42.005773
          ],
          [
            -57.805,
            -41.975
          ]
        ],
        "type": "LineString"
      },
      "properties": {
        "confidence": "low",
        "lineStyle": "dashed",
        "observationStatus": "estimated",
        "source": "reachable-set heuristic",
        "vessel": "B"
      },
      "type": "Feature"
    },
    {
      "geometry": {
        "coordinates": [
          -57.686714,
          -42.005773
        ],
        "type": "Point"
      },
      "properties": {
        "kind": "meetingPoint",
        "observationStatus": "estimated"
      },
      "type": "Feature"
    },
    {
      "geometry": {
        "coordinates": [
          [
            [
              -59.672136,
              -41.031298
            ],
            [
              -59.784856,
              -41.183826
            ],
            [
              -59.877059,
              -41.343892
            ],
            [
              -59.947855,
              -41.509955
            ],
            [
              -59.996565,
              -41.680414
            ],
            [
              -60.022717,
              -41.853629
            ],
            [
              -60.026061,
              -42.027931
            ],
            [
              -60.006565,
              -42.201643
            ],
            [
              -59.964416,
              -42.373089
            ],
            [
              -59.900019,
              -42.540621
            ],
            [
              -59.813996,
              -42.702623
            ],
            [
              -59.707175,
              -42.857537
            ],
            [
              -59.580584,
              -43.00387
            ],
            [
              -59.435442,
              -43.140213
            ],
            [
              -59.273148,
              -43.265252
            ],
            [
              -59.095264,
              -43.377784
            ],
            [
              -58.903504,
              -43.476726
            ],
            [
              -58.699713,
              -43.561123
            ],
            [
              -58.485856,
              -43.630163
            ],
            [
              -58.263991,
              -43.683182
            ],
            [
              -58.036255,
              -43.719668
            ],
            [
              -57.804841,
              -43.739271
            ],
            [
              -57.571978,
              -43.741801
            ],
            [
              -57.339909,
              -43.727235
            ],
            [
              -57.110868,
              -43.695712
            ],
            [
              -56.887061,
              -43.647536
            ],
            [
              -56.670644,
              -43.583171
            ],
            [
              -56.463701,
              -43.503237
            ],
            [
              -56.268225,
              -43.408504
            ],
            [
              -56.086098,
              -43.299883
            ],
            [
              -55.919074,
              -43.178422
            ],
            [
              -55.768763,
              -43.04529
            ],
            [
              -55.63661,
              -42.901769
            ],
            [
              -55.52389,
              -42.74924
            ],
            [
              -55.431688,
              -42.589174
            ],
            [
              -55.360891,
              -42.423112
            ],
            [
              -55.312182,
              -42.252652
            ],
            [
              -55.286029,
              -42.079437
            ],
            [
              -55.282685,
              -41.905135
            ],
            [
              -55.302182,
              -41.731424
            ],
            [
              -55.344331,
              -41.559977
            ],
            [
              -55.408727,
              -41.392446
            ],
            [
              -55.494751,
              -41.230443
            ],
            [
              -55.601572,
              -41.07553
            ],
            [
              -55.728163,
              -40.929197
            ],
            [
              -55.873305,
              -40.792854
            ],
            [
              -56.035599,
              -40.667814
            ],
            [
              -56.213483,
              -40.555282
            ],
            [
              -56.405243,
              -40.456341
            ],
            [
              -56.609033,
              -40.371944
            ],
            [
              -56.822891,
              -40.302904
            ],
            [
              -57.044756,
              -40.249885
            ],
            [
              -57.272492,
              -40.213399
            ],
            [
              -57.503906,
              -40.193796
            ],
            [
              -57.736768,
              -40.191266
            ],
            [
              -57.968838,
              -40.205832
            ],
            [
              -58.197879,
              -40.237355
            ],
            [
              -58.421685,
              -40.285531
            ],
            [
              -58.638102,
              -40.349896
            ],
            [
              -58.845045,
              -40.42983
            ],
            [
              -59.040522,
              -40.524563
            ],
            [
              -59.222649,
              -40.633183
            ],
            [
              -59.389672,
              -40.754645
            ],
            [
              -59.539984,
              -40.887777
            ],
            [
              -59.672136,
              -41.031298
            ]
          ]
        ],
        "type": "Polygon"
      },
      "properties": {
        "kind": "reachableSet",
        "observationStatus": "estimated",
        "vessel": "A"
      },
      "type": "Feature"
    },
    {
      "geometry": {
        "coordinates": [
          [
            [
              -59.863546,
              -41.447934
            ],
            [
              -59.926218,
              -41.610623
            ],
            [
              -59.967238,
              -41.777136
            ],
            [
              -59.986211,
              -41.945867
            ],
            [
              -59.982953,
              -42.115192
            ],
            [
              -59.957496,
              -42.28348
            ],
            [
              -59.910085,
              -42.449111
            ],
            [
              -59.841177,
              -42.610489
            ],
            [
              -59.751435,
              -42.766061
            ],
            [
              -59.641724,
              -42.914328
            ],
            [
              -59.5131,
              -43.053862
            ],
            [
              -59.366802,
              -43.183319
            ],
            [
              -59.204239,
              -43.301453
            ],
            [
              -59.026976,
              -43.407126
            ],
            [
              -58.836721,
              -43.499321
            ],
            [
              -58.635306,
              -43.577148
            ],
            [
              -58.42467,
              -43.63986
            ],
            [
              -58.206843,
              -43.686851
            ],
            [
              -57.983921,
              -43.71767
            ],
            [
              -57.758052,
              -43.732019
            ],
            [
              -57.531411,
              -43.729761
            ],
            [
              -57.30618,
              -43.710917
            ],
            [
              -57.08453,
              -43.675668
            ],
            [
              -56.868594,
              -43.624355
            ],
            [
              -56.660451,
              -43.557471
            ],
            [
              -56.462108,
              -43.47566
            ],
            [
              -56.275473,
              -43.37971
            ],
            [
              -56.102344,
              -43.270546
            ],
            [
              -55.944388,
              -43.149218
            ],
            [
              -55.803127,
              -43.016895
            ],
            [
              -55.679921,
              -42.874852
            ],
            [
              -55.575956,
              -42.724456
            ],
            [
              -55.492234,
              -42.567156
            ],
            [
              -55.429562,
              -42.404467
            ],
            [
              -55.388542,
              -42.237954
            ],
            [
              -55.369569,
              -42.069223
            ],
            [
              -55.372827,
              -41.899898
            ],
            [
              -55.398284,
              -41.73161
            ],
            [
              -55.445695,
              -41.565979
            ],
            [
              -55.514603,
              -41.404601
            ],
            [
              -55.604345,
              -41.249029
            ],
            [
              -55.714056,
              -41.100762
            ],
            [
              -55.84268,
              -40.961228
            ],
            [
              -55.988978,
              -40.831771
            ],
            [
              -56.151541,
              -40.713637
            ],
            [
              -56.328804,
              -40.607964
            ],
            [
              -56.519059,
              -40.515769
            ],
            [
              -56.720474,
              -40.437942
            ],
            [
              -56.93111,
              -40.37523
            ],
            [
              -57.148937,
              -40.328239
            ],
            [
              -57.371859,
              -40.29742
            ],
            [
              -57.597728,
              -40.283071
            ],
            [
              -57.824369,
              -40.285329
            ],
            [
              -58.0496,
              -40.304173
            ],
            [
              -58.27125,
              -40.339422
            ],
            [
              -58.487186,
              -40.390735
            ],
            [
              -58.695329,
              -40.457619
            ],
            [
              -58.893672,
              -40.53943
            ],
            [
              -59.080307,
              -40.63538
            ],
            [
              -59.253436,
              -40.744544
            ],
            [
              -59.411392,
              -40.865872
            ],
            [
              -59.552653,
              -40.998195
            ],
            [
              -59.675859,
              -41.140238
            ],
            [
              -59.779824,
              -41.290634
            ],
            [
              -59.863546,
              -41.447934
            ]
          ]
        ],
        "type": "Polygon"
      },
      "properties": {
        "kind": "reachableSet",
        "observationStatus": "estimated",
        "vessel": "B"
      },
      "type": "Feature"
    }
  ],
  "properties": {
    "dateline": false
  },
  "type": "FeatureCollection"
}
