{
  "features": [
    {
      "geometry": {
        "coordinates": [
          158.511147,
          42.31944
        ],
        "type": "Point"
      },
      "properties": {
        "mmsi": "416241700",
        "observationStatus": "observed",
        "role": "off",
        "time": "2018-08-30T03:52:03Z",
        "vessel": "A"
      },
      "type": "Feature"
    },
    {
      "geometry": {
        "coordinates": [
          158.570783,
          42.274082
        ],
        "type": "Point"
      },
      "properties": {
        "mmsi": "416242500",
        "observationStatus": "observed",
        "role": "off",
        "time": "2018-08-30T04:46:28Z",
        "vessel": "B"
      },
      "type": "Feature"
    },
    {
      "geometry": {
        "coordinates": [
          158.681667,
          42.483333
        ],
        "type": "Point"
      },
      "properties": {
        "mmsi": "416242500",
        "observationStatus": "observed",
        "role": "on",
        "time": "2018-08-30T17:52:02Z",
        "vessel": "B"
      },
      "type": "Feature"
    },
    {
      "geometry": {
        "coordinates": [
          158.764373,
          42.474987
        ],
        "type": "Point"
      },
      "properties": {
        "mmsi": "416241700",
        "observationStatus": "observed",
        "role": "on",
        "time": "2018-08-30T17:56:37Z",
        "vessel": "A"
      },
      "type": "Feature"
    },
    {
      "geometry": {
        "coordinates": [
          [
            158.511147,
            42.31944
          ],
          [
            158.610808,
            42.316659
          ],
          [
            158.764373,
            42.474987
          ]
        ],
        "type": "LineString"
      },
      "properties": {
        "confidence": "low",
        "lineStyle": "dashed",
        "observationStatus": "estimated",
        "source": "reachable-set heuristic",
        "vessel": "A"
      },
      "type": "Feature"
    },
    {
      "geometry": {
        "coordinates": [
          [
            158.570783,
            42.274082
          ],
          [
            158.610808,
            42.316659
          ],
          [
            158.681667,
            42.483333
          ]
        ],
        "type": "LineString"
      },
      "properties": {
        "confidence": "low",
        "lineStyle": "dashed",
        "observationStatus": "estimated",
        "source": "reachable-set heuristic",
        "vessel": "B"
      },
      "type": "Feature"
    },
    {
      "geometry": {
        "coordinates": [
          158.610808,
          42.316659
        ],
        "type": "Point"
      },
      "properties": {
        "kind": "meetingPoint",
        "observationStatus": "estimated"
      },
      "type": "Feature"
    },
    {
      "geometry": {
        "coordinates": [
          [
            [
              160.00036,
              43.234202
            ],
            [
              159.883933,
              43.329042
            ],
            [
              159.755506,
              43.414908
            ],
            [
              159.616314,
              43.490973
            ],
            [
              159.467698,
              43.556505
            ],
            [
              159.311089,
              43.610872
            ],
            [
              159.147996,
              43.653551
            ],
            [
              158.979988,
              43.684131
            ],
            [
              158.808685,
              43.702317
            ],
            [
              158.635736,
              43.707934
            ],
            [
              158.462806,
              43.700928
            ],
            [
              158.291562,
              43.681366
            ],
            [
              158.123651,
              43.649438
            ],
            [
              157.960692,
              43.60545
            ],
            [
              157.804253,
              43.549826
            ],
            [
              157.655841,
              43.483101
            ],
            [
              157.516885,
              43.405919
            ],
            [
              157.388724,
              43.319023
            ],
            [
              157.272593,
              43.223249
            ],
            [
              157.169608,
              43.11952
            ],
            [
              157.080763,
              43.008835
            ],
            [
              157.006912,
              42.892259
            ],
            [
              156.948767,
              42.770916
            ],
            [
              156.906888,
              42.645974
            ],
            [
              156.881678,
              42.518636
            ],
            [
              156.873381,
              42.390129
            ],
            [
              156.882075,
              42.26169
            ],
            [
              156.907678,
              42.134556
            ],
            [
              156.949942,
              42.009952
            ],
            [
              157.008461,
              41.889077
            ],
            [
              157.082671,
              41.773096
            ],
            [
              157.171857,
              41.663126
            ],
            [
              157.27516,
              41.560225
            ],
            [
              157.391587,
              41.465385
            ],
            [
              157.520014,
              41.379518
            ],
            [
              157.659206,
              41.303453
            ],
            [
              157.807822,
              41.237922
            ],
            [
              157.964431,
              41.183555
            ],
            [
              158.127524,
              41.140876
            ],
            [
              158.295532,
              41.110296
            ],
            [
              158.466835,
              41.09211
            ],
            [
              158.639784,
              41.086493
            ],
            [
              158.812714,
              41.093499
            ],
            [
              158.983958,
              41.11306
            ],
            [
              159.151869,
              41.144989
            ],
            [
              159.314828,
              41.188977
            ],
            [
              159.471267,
              41.244601
            ],
            [
              159.619679,
              41.311325
            ],
            [
              159.758635,
              41.388507
            ],
            [
              159.886796,
              41.475404
            ],
            [
              160.002927,
              41.571178
            ],
            [
              160.105912,
              41.674907
            ],
            [
              160.194757,
              41.785592
            ],
            [
              160.268608,
              41.902168
            ],
            [
              160.326753,
              42.023511
            ],
            [
              160.368632,
              42.148453
            ],
            [
              160.393842,
              42.275791
            ],
            [
              160.402139,
              42.404298
            ],
            [
              160.393445,
              42.532737
            ],
            [
              160.367842,
              42.659871
            ],
            [
              160.325578,
              42.784475
            ],
            [
              160.267059,
              42.90535
            ],
            [
              160.192849,
              43.021331
            ],
            [
              160.103663,
              43.131301
            ],
            [
              160.00036,
              43.234202
            ]
          ]
        ],
        "type": "Polygon"
      },
      "properties": {
        "kind": "reachableSet",
        "observationStatus": "estimated",
        "vessel": "A"
      },
      "type": "Feature"
    },
    {
      "geometry": {
        "coordinates": [
          [
            [
              159.225365,
              43.509365
            ],
            [
              159.074106,
              43.547409
            ],
            [
              158.918533,
              43.574197
            ],
            [
              158.760146,
              43.589472
            ],
            [
              158.600468,
              43.593087
            ],
            [
              158.441039,
              43.585007
            ],
            [
              158.283393,
              43.565309
            ],
            [
              158.129049,
              43.534184
            ],
            [
              157.979493,
              43.491931
            ],
            [
              157.836165,
              43.438957
            ],
            [
              157.700446,
              43.375772
            ],
            [
              157.573643,
              43.302985
            ],
            [
              157.456977,
              43.221297
            ],
            [
              157.351571,
              43.131494
            ],
            [
              157.258441,
              43.034441
            ],
            [
              157.178483,
              42.931073
            ],
            [
              157.112468,
              42.822386
            ],
            [
              157.061031,
              42.709426
            ],
            [
              157.024668,
              42.593281
            ],
            [
              157.003729,
              42.475069
            ],
            [
              156.998415,
              42.355929
            ],
            [
              157.008778,
              42.237009
            ],
            [
              157.034718,
              42.119453
            ],
            [
              157.075984,
              42.004394
            ],
            [
              157.132181,
              41.89294
            ],
            [
              157.202766,
              41.786164
            ],
            [
              157.28706,
              41.685095
            ],
            [
              157.38425,
              41.590705
            ],
            [
              157.493402,
              41.503905
            ],
            [
              157.613463,
              41.425529
            ],
            [
              157.743278,
              41.356333
            ],
            [
              157.881596,
              41.296983
            ],
            [
              158.027085,
              41.24805
            ],
            [
              158.178344,
              41.210006
            ],
            [
              158.333917,
              41.183218
            ],
            [
              158.492304,
              41.167943
            ],
            [
              158.651982,
              41.164328
            ],
            [
              158.811411,
              41.172408
            ],
            [
              158.969057,
              41.192106
            ],
            [
              159.123401,
              41.223231
            ],
            [
              159.272957,
              41.265484
            ],
            [
              159.416285,
              41.318458
            ],
            [
              159.552004,
              41.381643
            ],
            [
              159.678807,
              41.45443
            ],
            [
              159.795473,
              41.536118
            ],
            [
              159.900879,
              41.625921
            ],
            [
              159.994009,
              41.722974
            ],
            [
              160.073967,
              41.826342
            ],
            [
              160.139982,
              41.935029
            ],
            [
              160.191419,
              42.047989
            ],
            [
              160.227782,
              42.164134
            ],
            [
              160.248721,
              42.282346
            ],
            [
              160.254035,
              42.401486
            ],
            [
              160.243672,
              42.520406
            ],
            [
              160.217732,
              42.637962
            ],
            [
              160.176466,
              42.753021
            ],
            [
              160.120269,
              42.864475
            ],
            [
              160.049684,
              42.971251
            ],
            [
              159.96539,
              43.07232
            ],
            [
              159.8682,
              43.16671
            ],
            [
              159.759048,
              43.25351
            ],
            [
              159.638987,
              43.331886
            ],
            [
              159.509172,
              43.401082
            ],
            [
              159.370854,
              43.460432
            ],
            [
              159.225365,
              43.509365
            ]
          ]
        ],
        "type": "Polygon"
      },
      "properties": {
        "kind": "reachableSet",
        "observationStatus": "estimated",
        "vessel": "B"
      },
      "type": "Feature"
    }
  ],
  "properties": {
    "dateline": false
  },
  "type": "FeatureCollection"
}
