{
  "features": [
    {
      "geometry": {
        "coordinates": [
          -60.86415,
          -46.920483
        ],
        "type": "Point"
      },
      "properties": {
        "mmsi": "440216000",
        "observationStatus": "observed",
        "role": "off",
        "time": "2017-03-09T03:20:42Z",
        "vessel": "A"
      },
      "type": "Feature"
    },
    {
      "geometry": {
        "coordinates": [
          -60.846313,
          -46.948472
        ],
        "type": "Point"
      },
      "properties": {
        "mmsi": "440684000",
        "observationStatus": "observed",
        "role": "off",
        "time": "2017-03-09T03:22:14Z",
        "vessel": "B"
      },
      "type": "Feature"
    },
    {
      "geometry": {
        "coordinates": [
          -60.864785,
          -46.870627
        ],
        "type": "Point"
      },
      "properties": {
        "mmsi": "440684000",
        "observationStatus": "observed",
        "role": "on",
        "time": "2017-03-09T16:01:01Z",
        "vessel": "B"
      },
      "type": "Feature"
    },
    {
      "geometry": {
        "coordinates": [
          -60.83115,
          -46.877167
        ],
        "type": "Point"
      },
      "properties": {
        "mmsi": "440216000",
        "observationStatus": "observed",
        "role": "on",
        "time": "2017-03-09T16:01:34Z",
        "vessel": "A"
      },
      "type": "Feature"
    },
    {
      "geometry": {
        "coordinates": [
          [
            -60.86415,
            -46.920483
          ],
          [
            -60.854255,
            -46.914432
          ],
          [
            -60.83115,
            -46.877167
          ]
        ],
        "type": "LineString"
      },
      "properties": {
        "confidence": "low",
        "lineStyle": "dashed",
        "observationStatus": "estimated",
        "source": "reachable-set heuristic",
        "vessel": "A"
      },
      "type": "Feature"
    },
    {
      "geometry": {
        "coordinates": [
          [
            -60.846313,
            -46.948472
          ],
          [
            -60.854255,
            -46.914432
          ],
          [
            -60.864785,
            -46.870627
          ]
        ],
        "type": "LineString"
      },
      "properties": {
        "confidence": "low",
        "lineStyle": "dashed",
        "observationStatus": "estimated",
        "source": "reachable-set heuristic",
        "vessel": "B"
      },
      "type": "Feature"
    },
    {
      "geometry": {
        "coordinates": [
          -60.854255,
          -46.914432
        ],
        "type": "Point"
      },
      "properties": {
        "kind": "meetingPoint",
        "observationStatus": "estimated"
      },
      "type": "Feature"
    },
    {
      "geometry": {
        "coordinates": [
          [
            [
              -60.055513,
              -45.859045
            ],
            [
              -60.207445,
              -45.810651
            ],
            [
              -60.365544,
              -45.772736
            ],
            [
              -60.528285,
              -45.745667
            ],
            [
              -60.694102,
              -45.729703
            ],
            [
              -60.861398,
              -45.724998
            ],
            [
              -61.028561,
              -45.731598
            ],
            [
              -61.193982,
              -45.749439
            ],
            [
              -61.356068,
              -45.778349
            ],
            [
              -61.513257,
              -45.81805
            ],
            [
              -61.664036,
              -45.86816
            ],
            [
              -61.806953,
              -45.928195
            ],
            [
              -61.940632,
              -45.997578
            ],
            [
              -62.063784,
              -46.07564
            ],
            [
              -62.175224,
              -46.161631
            ],
            [
              -62.273879,
              -46.25472
            ],
            [
              -62.358799,
              -46.354013
            ],
            [
              -62.429165,
              -46.458553
            ],
            [
              -62.484301,
              -46.567333
            ],
            [
              -62.523675,
              -46.679305
            ],
            [
              -62.546907,
              -46.793391
            ],
            [
              -62.553775,
              -46.908493
            ],
            [
              -62.544212,
              -47.023502
            ],
            [
              -62.51831,
              -47.13731
            ],
            [
              -62.476319,
              -47.248821
            ],
            [
              -62.418643,
              -47.356961
            ],
            [
              -62.345837,
              -47.46069
            ],
            [
              -62.258603,
              -47.559007
            ],
            [
              -62.157781,
              -47.650966
            ],
            [
              -62.044342,
              -47.735682
            ],
            [
              -61.919377,
              -47.812339
            ],
            [
              -61.784092,
              -47.880198
            ],
            [
              -61.639787,
              -47.938605
            ],
            [
              -61.487855,
              -47.986999
            ],
            [
              -61.329756,
              -48.024914
            ],
            [
              -61.167015,
              -48.051983
            ],
            [
              -61.001198,
              -48.067947
            ],
            [
              -60.833902,
              -48.072652
            ],
            [
              -60.666739,
              -48.066052
            ],
            [
              -60.501318,
              -48.048211
            ],
            [
              -60.339232,
              -48.019301
            ],
            [
              -60.182043,
              -47.9796
            ],
            [
              -60.031264,
              -47.92949
            ],
            [
              -59.888347,
              -47.869455
            ],
            [
              -59.754668,
              -47.800072
            ],
            [
              -59.631516,
              -47.72201
            ],
            [
              -59.520076,
              -47.636019
            ],
            [
              -59.421421,
              -47.54293
            ],
            [
              -59.336501,
              -47.443637
            ],
            [
              -59.266135,
              -47.339097
            ],
            [
              -59.210999,
              -47.230317
            ],
            [
              -59.171625,
              -47.118345
            ],
            [
              -59.148393,
              -47.004259
            ],
            [
              -59.141525,
              -46.889157
            ],
            [
              -59.151088,
              -46.774148
            ],
            [
              -59.17699,
              -46.66034
            ],
            [
              -59.218981,
              -46.548829
            ],
            [
              -59.276657,
              -46.440689
            ],
            [
              -59.349463,
              -46.33696
            ],
            [
              -59.436697,
              -46.238643
            ],
            [
              -59.537519,
              -46.146684
            ],
            [
              -59.650958,
              -46.061968
            ],
            [
              -59.775923,
              -45.985311
            ],
            [
              -59.911208,
              -45.917452
            ],
            [
              -60.055513,
              -45.859045
            ]
          ]
        ],
        "type": "Polygon"
      },
      "properties": {
        "kind": "reachableSet",
        "observationStatus": "estimated",
        "vessel": "A"
      },
      "type": "Feature"
    },
    {
      "geometry": {
        "coordinates": [
          [
            [
              -61.129652,
              -45.7544
            ],
            [
              -61.29286,
              -45.77843
            ],
            [
              -61.451857,
              -45.813354
            ],
            [
              -61.605111,
              -45.858835
            ],
            [
              -61.751146,
              -45.914434
            ],
            [
              -61.888556,
              -45.979618
            ],
            [
              -62.016018,
              -46.053757
            ],
            [
              -62.132304,
              -46.136137
            ],
            [
              -62.236294,
              -46.225966
            ],
            [
              -62.326986,
              -46.322379
            ],
            [
              -62.403508,
              -46.424446
            ],
            [
              -62.465123,
              -46.531185
            ],
            [
              -62.511236,
              -46.641567
            ],
            [
              -62.541404,
              -46.754531
            ],
            [
              -62.555336,
              -46.868987
            ],
            [
              -62.552898,
              -46.983834
            ],
            [
              -62.534114,
              -47.097966
            ],
            [
              -62.499165,
              -47.210283
            ],
            [
              -62.448386,
              -47.319704
            ],
            [
              -62.382268,
              -47.425175
            ],
            [
              -62.301446,
              -47.52568
            ],
            [
              -62.2067,
              -47.620252
            ],
            [
              -62.098942,
              -47.707979
            ],
            [
              -61.979208,
              -47.788016
            ],
            [
              -61.848654,
              -47.859594
            ],
            [
              -61.708535,
              -47.922022
            ],
            [
              -61.560202,
              -47.9747
            ],
            [
              -61.405082,
              -48.017119
            ],
            [
              -61.24467,
              -48.048872
            ],
            [
              -61.080511,
              -48.069653
            ],
            [
              -60.914185,
              -48.079261
            ],
            [
              -60.747294,
              -48.077604
            ],
            [
              -60.581446,
              -48.064698
            ],
            [
              -60.418238,
              -48.040668
            ],
            [
              -60.259241,
              -48.005744
            ],
            [
              -60.105987,
              -47.960264
            ],
            [
              -59.959952,
              -47.904664
            ],
            [
              -59.822542,
              -47.839481
            ],
            [
              -59.69508,
              -47.765342
            ],
            [
              -59.578794,
              -47.682961
            ],
            [
              -59.474805,
              -47.593132
            ],
            [
              -59.384112,
              -47.49672
            ],
            [
              -59.30759,
              -47.394653
            ],
            [
              -59.245976,
              -47.287914
            ],
            [
              -59.199863,
              -47.177531
            ],
            [
              -59.169695,
              -47.064567
            ],
            [
              -59.155763,
              -46.950111
            ],
            [
              -59.1582,
              -46.835264
            ],
            [
              -59.176984,
              -46.721132
            ],
            [
              -59.211934,
              -46.608815
            ],
            [
              -59.262712,
              -46.499394
            ],
            [
              -59.32883,
              -46.393923
            ],
            [
              -59.409652,
              -46.293418
            ],
            [
              -59.504398,
              -46.198847
            ],
            [
              -59.612157,
              -46.11112
            ],
            [
              -59.73189,
              -46.031082
            ],
            [
              -59.862444,
              -45.959504
            ],
            [
              -60.002563,
              -45.897076
            ],
            [
              -60.150897,
              -45.844399
            ],
            [
              -60.306016,
              -45.801979
            ],
            [
              -60.466428,
              -45.770226
            ],
            [
              -60.630587,
              -45.749446
            ],
            [
              -60.796913,
              -45.739837
            ],
            [
              -60.963804,
              -45.741494
            ],
            [
              -61.129652,
              -45.7544
            ]
          ]
        ],
        "type": "Polygon"
      },
      "properties": {
        "kind": "reachableSet",
        "observationStatus": "estimated",
        "vessel": "B"
      },
      "type": "Feature"
    }
  ],
  "properties": {
    "dateline": false
  },
  "type": "FeatureCollection"
}
