{
  "features": [
    {
      "geometry": {
        "coordinates": [
          -60.86415,
          -46.920483
        ],
        "type": "Point"
      },
      "properties": {
        "mmsi": "440216000",
        "observationStatus": "observed",
        "role": "off",
        "time": "2017-03-09T03:20:42Z",
        "vessel": "A"
      },
      "type": "Feature"
    },
    {
      "geometry": {
        "coordinates": [
          -60.824485,
          -46.93366
        ],
        "type": "Point"
      },
      "properties": {
        "mmsi": "440502000",
        "observationStatus": "observed",
        "role": "off",
        "time": "2017-03-09T03:22:09Z",
        "vessel": "B"
      },
      "type": "Feature"
    },
    {
      "geometry": {
        "coordinates": [
          -60.851702,
          -46.878808
        ],
        "type": "Point"
      },
      "properties": {
        "mmsi": "440502000",
        "observationStatus": "observed",
        "role": "on",
        "time": "2017-03-09T16:01:28Z",
        "vessel": "B"
      },
      "type": "Feature"
    },
    {
      "geometry": {
        "coordinates": [
          -60.83115,
          -46.877167
        ],
        "type": "Point"
      },
      "properties": {
        "mmsi": "440216000",
        "observationStatus": "observed",
        "role": "on",
        "time": "2017-03-09T16:01:34Z",
        "vessel": "A"
      },
      "type": "Feature"
    },
    {
      "geometry": {
        "coordinates": [
          [
            -60.86415,
            -46.920483
          ],
          [
            -60.831937,
            -46.914526
          ],
          [
            -60.83115,
            -46.877167
          ]
        ],
        "type": "LineString"
      },
      "properties": {
        "confidence": "low",
        "lineStyle": "dashed",
        "observationStatus": "estimated",
        "source": "reachable-set heuristic",
        "vessel": "A"
      },
      "type": "Feature"
    },
    {
      "geometry": {
        "coordinates": [
          [
            -60.824485,
            -46.93366
          ],
          [
            -60.831937,
            -46.914526
          ],
          [
            -60.851702,
            -46.878808
          ]
        ],
        "type": "LineString"
      },
      "properties": {
        "confidence": "low",
        "lineStyle": "dashed",
        "observationStatus": "estimated",
        "source": "reachable-set heuristic",
        "vessel": "B"
      },
      "type": "Feature"
    },
    {
      "geometry": {
        "coordinates": [
          -60.831937,
          -46.914526
        ],
        "type": "Point"
      },
      "properties": {
        "kind": "meetingPoint",
        "observationStatus": "estimated"
      },
      "type": "Feature"
    },
    {
      "geometry": {
        "coordinates": [
          [
            [
              -60.055513,
              -45.859045
            ],
            [
              -60.207445,
              -45.810651
            ],
            [
              -60.365544,
              -45.772736
            ],
            [
              -60.528285,
              -45.745667
            ],
            [
              -60.694102,
              -45.729703
            ],
            [
              -60.861398,
              -45.724998
            ],
            [
              -61.028561,
              -45.731598
            ],
            [
              -61.193982,
              -45.749439
            ],
            [
              -61.356068,
              -45.778349
            ],
            [
              -61.513257,
              -45.81805
            ],
            [
              -61.664036,
              -45.86816
            ],
            [
              -61.806953,
              -45.928195
            ],
            [
              -61.940632,
              -45.997578
            ],
            [
              -62.063784,
              -46.07564
            ],
            [
              -62.175224,
              -46.161631
            ],
            [
              -62.273879,
              -46.25472
            ],
            [
              -62.358799,
              -46.354013
            ],
            [
              -62.429165,
              -46.458553
            ],
            [
              -62.484301,
              -46.567333
            ],
            [
              -62.523675,
              -46.679305
            ],
            [
              -62.546907,
              -46.793391
            ],
            [
              -62.553775,
              -46.908493
            ],
            [
              -62.544212,
              -47.023502
            ],
            [
              -62.51831,
              -47.13731
            ],
            [
              -62.476319,
              -47.248821
            ],
            [
              -62.418643,
              -47.356961
            ],
            [
              -62.345837,
              -47.46069
            ],
            [
              -62.258603,
              -47.559007
            ],
            [
              -62.157781,
              -47.650966
            ],
            [
              -62.044342,
              -47.735682
            ],
            [
              -61.919377,
              -47.812339
            ],
            [
              -61.784092,
              -47.880198
            ],
            [
              -61.639787,
              -47.938605
            ],
            [
              -61.487855,
              -47.986999
            ],
            [
              -61.329756,
              -48.024914
            ],
            [
              -61.167015,
              -48.051983
            ],
            [
              -61.001198,
              -48.067947
            ],
            [
              -60.833902,
              -48.072652
            ],
            [
              -60.666739,
              -48.066052
            ],
            [
              -60.501318,
              -48.048211
            ],
            [
              -60.339232,
              -48.019301
            ],
            [
              -60.182043,
              -47.9796
            ],
            [
              -60.031264,
              -47.92949
            ],
            [
              -59.888347,
              -47.869455
            ],
            [
              -59.754668,
              -47.800072
            ],
            [
              -59.631516,
              -47.72201
            ],
            [
              -59.520076,
              -47.636019
            ],
            [
              -59.421421,
              -47.54293
            ],
            [
              -59.336501,
              -47.443637
            ],
            [
              -59.266135,
              -47.339097
            ],
            [
              -59.210999,
              -47.230317
            ],
            [
              -59.171625,
              -47.118345
            ],
            [
              -59.148393,
              -47.004259
            ],
            [
              -59.141525,
              -46.889157
            ],
            [
              -59.151088,
              -46.774148
            ],
            [
              -59.17699,
              -46.66034
            ],
            [
              -59.218981,
              -46.548829
            ],
            [
              -59.276657,
              -46.440689
            ],
            [
              -59.349463,
              -46.33696
            ],
            [
              -59.436697,
              -46.238643
            ],
            [
              -59.537519,
              -46.146684
            ],
            [
              -59.650958,
              -46.061968
            ],
            [
              -59.775923,
              -45.985311
            ],
            [
              -59.911208,
              -45.917452
            ],
            [
              -60.055513,
              -45.859045
            ]
          ]
        ],
        "type": "Polygon"
      },
      "properties": {
        "kind": "reachableSet",
        "observationStatus": "estimated",
        "vessel": "A"
      },
      "type": "Feature"
    },
    {
      "geometry": {
        "coordinates": [
          [
            [
              -61.388137,
              -45.797692
            ],
            [
              -61.54341,
              -45.840102
            ],
            [
              -61.69189,
              -45.89278
            ],
            [
              -61.832148,
              -45.955217
            ],
            [
              -61.962832,
              -46.026813
            ],
            [
              -62.082685,
              -46.106879
            ],
            [
              -62.190551,
              -46.194643
            ],
            [
              -62.285393,
              -46.28926
            ],
            [
              -62.366296,
              -46.389819
            ],
            [
              -62.432482,
              -46.495351
            ],
            [
              -62.483313,
              -46.60484
            ],
            [
              -62.5183,
              -46.717231
            ],
            [
              -62.537105,
              -46.831443
            ],
            [
              -62.539548,
              -46.946375
            ],
            [
              -62.525605,
              -47.060921
            ],
            [
              -62.49541,
              -47.173977
            ],
            [
              -62.449255,
              -47.284454
            ],
            [
              -62.387583,
              -47.391289
            ],
            [
              -62.310988,
              -47.493453
            ],
            [
              -62.220209,
              -47.589961
            ],
            [
              -62.11612,
              -47.679884
            ],
            [
              -61.999722,
              -47.762357
            ],
            [
              -61.872137,
              -47.836585
            ],
            [
              -61.734594,
              -47.901854
            ],
            [
              -61.588417,
              -47.957534
            ],
            [
              -61.435014,
              -48.003089
            ],
            [
              -61.275862,
              -48.038081
            ],
            [
              -61.112494,
              -48.062173
            ],
            [
              -60.946484,
              -48.075132
            ],
            [
              -60.77943,
              -48.076834
            ],
            [
              -60.612941,
              -48.067263
            ],
            [
              -60.44862,
              -48.04651
            ],
            [
              -60.28805,
              -48.014776
            ],
            [
              -60.132777,
              -47.972366
            ],
            [
              -59.984297,
              -47.919689
            ],
            [
              -59.844039,
              -47.857251
            ],
            [
              -59.713354,
              -47.785655
            ],
            [
              -59.593502,
              -47.705589
            ],
            [
              -59.485635,
              -47.617825
            ],
            [
              -59.390794,
              -47.523208
            ],
            [
              -59.309891,
              -47.42265
            ],
            [
              -59.243705,
              -47.317118
            ],
            [
              -59.192874,
              -47.207629
            ],
            [
              -59.157887,
              -47.095237
            ],
            [
              -59.139082,
              -46.981025
            ],
            [
              -59.136639,
              -46.866093
            ],
            [
              -59.150582,
              -46.751547
            ],
            [
              -59.180776,
              -46.638492
            ],
            [
              -59.226932,
              -46.528014
            ],
            [
              -59.288604,
              -46.421179
            ],
            [
              -59.365198,
              -46.319016
            ],
            [
              -59.455977,
              -46.222508
            ],
            [
              -59.560067,
              -46.132584
            ],
            [
              -59.676465,
              -46.050111
            ],
            [
              -59.80405,
              -45.975883
            ],
            [
              -59.941593,
              -45.910615
            ],
            [
              -60.08777,
              -45.854935
            ],
            [
              -60.241173,
              -45.809379
            ],
            [
              -60.400325,
              -45.774388
            ],
            [
              -60.563692,
              -45.750296
            ],
            [
              -60.729703,
              -45.737336
            ],
            [
              -60.896757,
              -45.735634
            ],
            [
              -61.063246,
              -45.745206
            ],
            [
              -61.227567,
              -45.765958
            ],
            [
              -61.388137,
              -45.797692
            ]
          ]
        ],
        "type": "Polygon"
      },
      "properties": {
        "kind": "reachableSet",
        "observationStatus": "estimated",
        "vessel": "B"
      },
      "type": "Feature"
    }
  ],
  "properties": {
    "dateline": false
  },
  "type": "FeatureCollection"
}
