{
  "features": [
    {
      "geometry": {
        "coordinates": [
          -57.886353,
          -42.009512
        ],
        "type": "Point"
      },
      "properties": {
        "mmsi": "412420578",
        "observationStatus": "observed",
        "role": "off",
        "time": "2018-04-13T17:07:31Z",
        "vessel": "A"
      },
      "type": "Feature"
    },
    {
      "geometry": {
        "coordinates": [
          -57.796358,
          -42.039287
        ],
        "type": "Point"
      },
      "properties": {
        "mmsi": "412424491",
        "observationStatus": "observed",
        "role": "off",
        "time": "2018-04-13T17:09:06Z",
        "vessel": "B"
      },
      "type": "Feature"
    },
    {
      "geometry": {
        "coordinates": [
          -57.980565,
          -42.10039
        ],
        "type": "Point"
      },
      "properties": {
        "mmsi": "412424491",
        "observationStatus": "observed",
        "role": "on",
        "time": "2018-04-14T10:30:20Z",
        "vessel": "B"
      },
      "type": "Feature"
    },
    {
      "geometry": {
        "coordinates": [
          -57.952405,
          -42.074715
        ],
        "type": "Point"
      },
      "properties": {
        "mmsi": "412420578",
        "observationStatus": "observed",
        "role": "on",
        "time": "2018-04-14T11:03:06Z",
        "vessel": "A"
      },
      "type": "Feature"
    },
    {
      "geometry": {
        "coordinates": [
          [
            -57.886353,
            -42.009512
          ],
          [
            -57.888462,
            -42.070915
          ],
          [
            -57.952405,
            -42.074715
          ]
        ],
        "type": "LineString"
      },
      "properties": {
        "confidence": "low",
        "lineStyle": "dashed",
        "observationStatus": "estimated",
        "source": "reachable-set heuristic",
        "vessel": "A"
      },
      "type": "Feature"
    },
    {
      "geometry": {
        "coordinates": [
          [
            -57.796358,
            -42.039287
          ],
          [
            -57.888462,
            -42.070915
          ],
          [
            -57.980565,
            -42.10039
          ]
        ],
        "type": "LineString"
      },
      "properties": {
        "confidence": "low",
        "lineStyle": "dashed",
        "observationStatus": "estimated",
        "source": "reachable-set heuristic",
        "vessel": "B"
      },
      "type": "Feature"
    },
    {
      "geometry": {
        "coordinates": [
          -57.888462,
          -42.070915
        ],
        "type": "Point"
      },
      "properties": {
        "kind": "meetingPoint",
        "observationStatus": "estimated"
      },
      "type": "Feature"
    },
    {
      "geometry": {
        "coordinates": [
          [
            [
              -59.293025,
              -43.398117
            ],
            [
              -59.108699,
              -43.492228
            ],
            [
              -58.912919,
              -43.572373
            ],
            [
              -58.707571,
              -43.637782
            ],
            [
              -58.494632,
              -43.687823
            ],
            [
              -58.276153,
              -43.722015
            ],
            [
              -58.054239,
              -43.740029
            ],
            [
              -57.831025,
              -43.741691
            ],
            [
              -57.608663,
              -43.726985
            ],
            [
              -57.389292,
              -43.696052
            ],
            [
              -57.175027,
              -43.649192
            ],
            [
              -56.96793,
              -43.586854
            ],
            [
              -56.769997,
              -43.50964
            ],
            [
              -56.583132,
              -43.418293
            ],
            [
              -56.409136,
              -43.313692
            ],
            [
              -56.249685,
              -43.196845
            ],
            [
              -56.106314,
              -43.068878
            ],
            [
              -55.980403,
              -42.931022
            ],
            [
              -55.873166,
              -42.784606
            ],
            [
              -55.785636,
              -42.631039
            ],
            [
              -55.718654,
              -42.4718
            ],
            [
              -55.672866,
              -42.308423
            ],
            [
              -55.648714,
              -42.142482
            ],
            [
              -55.646429,
              -41.975574
            ],
            [
              -55.666034,
              -41.809306
            ],
            [
              -55.70734,
              -41.645281
            ],
            [
              -55.769949,
              -41.485078
            ],
            [
              -55.853259,
              -41.330239
            ],
            [
              -55.956466,
              -41.182255
            ],
            [
              -56.078577,
              -41.042553
            ],
            [
              -56.218416,
              -40.912477
            ],
            [
              -56.374637,
              -40.79328
            ],
            [
              -56.545734,
              -40.68611
            ],
            [
              -56.73006,
              -40.591999
            ],
            [
              -56.925839,
              -40.511854
            ],
            [
              -57.131187,
              -40.446445
            ],
            [
              -57.344126,
              -40.396404
            ],
            [
              -57.562605,
              -40.362212
            ],
            [
              -57.78452,
              -40.344198
            ],
            [
              -58.007733,
              -40.342536
            ],
            [
              -58.230096,
              -40.357242
            ],
            [
              -58.449466,
              -40.388174
            ],
            [
              -58.663731,
              -40.435035
            ],
            [
              -58.870828,
              -40.497372
            ],
            [
              -59.068762,
              -40.574587
            ],
            [
              -59.255626,
              -40.665934
            ],
            [
              -59.429622,
              -40.770535
            ],
            [
              -59.589073,
              -40.887381
            ],
            [
              -59.732444,
              -41.015349
            ],
            [
              -59.858355,
              -41.153205
            ],
            [
              -59.965592,
              -41.299621
            ],
            [
              -60.053123,
              -41.453188
            ],
            [
              -60.120105,
              -41.612427
            ],
            [
              -60.165892,
              -41.775803
            ],
            [
              -60.190044,
              -41.941745
            ],
            [
              -60.192329,
              -42.108653
            ],
            [
              -60.172724,
              -42.27492
            ],
            [
              -60.131418,
              -42.438945
            ],
            [
              -60.068809,
              -42.599149
            ],
            [
              -59.9855,
              -42.753988
            ],
            [
              -59.882292,
              -42.901971
            ],
            [
              -59.760181,
              -43.041673
            ],
            [
              -59.620342,
              -43.17175
            ],
            [
              -59.464122,
              -43.290946
            ],
            [
              -59.293025,
              -43.398117
            ]
          ]
        ],
        "type": "Polygon"
      },
      "properties": {
        "kind": "reachableSet",
        "observationStatus": "estimated",
        "vessel": "A"
      },
      "type": "Feature"
    },
    {
      "geometry": {
        "coordinates": [
          [
            [
              -59.898469,
              -42.736579
            ],
            [
              -59.801439,
              -42.880456
            ],
            [
              -59.685986,
              -43.016526
            ],
            [
              -59.553221,
              -43.14348
            ],
            [
              -59.404424,
              -43.260093
            ],
            [
              -59.241028,
              -43.365243
            ],
            [
              -59.064605,
              -43.457918
            ],
            [
              -58.876856,
              -43.537225
            ],
            [
              -58.679587,
              -43.602401
            ],
            [
              -58.4747,
              -43.652817
            ],
            [
              -58.264167,
              -43.687987
            ],
            [
              -58.050016,
              -43.707575
            ],
            [
              -57.834309,
              -43.71139
            ],
            [
              -57.619124,
              -43.699396
            ],
            [
              -57.406532,
              -43.671708
            ],
            [
              -57.198581,
              -43.628594
            ],
            [
              -56.997275,
              -43.570468
            ],
            [
              -56.804551,
              -43.49789
            ],
            [
              -56.622266,
              -43.411559
            ],
            [
              -56.452175,
              -43.312306
            ],
            [
              -56.295916,
              -43.201088
            ],
            [
              -56.154994,
              -43.078976
            ],
            [
              -56.030767,
              -42.947144
            ],
            [
              -55.92443,
              -42.806864
            ],
            [
              -55.837007,
              -42.659486
            ],
            [
              -55.769342,
              -42.50643
            ],
            [
              -55.722085,
              -42.349168
            ],
            [
              -55.695691,
              -42.189217
            ],
            [
              -55.690414,
              -42.028116
            ],
            [
              -55.706306,
              -41.867417
            ],
            [
              -55.743214,
              -41.708667
            ],
            [
              -55.800781,
              -41.553395
            ],
            [
              -55.878454,
              -41.403097
            ],
            [
              -55.975484,
              -41.25922
            ],
            [
              -56.090938,
              -41.12315
            ],
            [
              -56.223702,
              -40.996197
            ],
            [
              -56.372499,
              -40.879584
            ],
            [
              -56.535896,
              -40.774433
            ],
            [
              -56.712318,
              -40.681758
            ],
            [
              -56.900068,
              -40.602451
            ],
            [
              -57.097336,
              -40.537276
            ],
            [
              -57.302223,
              -40.48686
            ],
            [
              -57.512756,
              -40.451689
            ],
            [
              -57.726907,
              -40.432102
            ],
            [
              -57.942614,
              -40.428287
            ],
            [
              -58.1578,
              -40.440281
            ],
            [
              -58.370391,
              -40.467969
            ],
            [
              -58.578342,
              -40.511083
            ],
            [
              -58.779648,
              -40.569209
            ],
            [
              -58.972372,
              -40.641787
            ],
            [
              -59.154658,
              -40.728118
            ],
            [
              -59.324749,
              -40.82737
            ],
            [
              -59.481007,
              -40.938588
            ],
            [
              -59.621929,
              -41.060701
            ],
            [
              -59.746157,
              -41.192532
            ],
            [
              -59.852494,
              -41.332812
            ],
            [
              -59.939916,
              -41.48019
            ],
            [
              -60.007581,
              -41.633247
            ],
            [
              -60.054839,
              -41.790508
            ],
            [
              -60.081233,
              -41.95046
            ],
            [
              -60.086509,
              -42.111561
            ],
            [
              -60.070617,
              -42.27226
            ],
            [
              -60.033709,
              -42.43101
            ],
            [
              -59.976142,
              -42.586282
            ],
            [
              -59.898469,
              -42.736579
            ]
          ]
        ],
        "type": "Polygon"
      },
      "properties": {
        "kind": "reachableSet",
        "observationStatus": "estimated",
        "vessel": "B"
      },
      "type": "Feature"
    }
  ],
  "properties": {
    "dateline": false
  },
  "type": "FeatureCollection"
}
