{
  "features": [
    {
      "geometry": {
        "coordinates": [
          -60.59144,
          -46.022693
        ],
        "type": "Point"
      },
      "properties": {
        "mmsi": "412329689",
        "observationStatus": "observed",
        "role": "off",
        "time": "2019-01-18T06:00:44Z",
        "vessel": "A"
      },
      "type": "Feature"
    },
    {
      "geometry": {
        "coordinates": [
          -60.598148,
          -46.04534
        ],
        "type": "Point"
      },
      "properties": {
        "mmsi": "412329693",
        "observationStatus": "observed",
        "role": "off",
        "time": "2019-01-18T06:21:15Z",
        "vessel": "B"
      },
      "type": "Feature"
    },
    {
      "geometry": {
        "coordinates": [
          -60.666423,
          -45.920058
        ],
        "type": "Point"
      },
      "properties": {
        "mmsi": "412329693",
        "observationStatus": "observed",
        "role": "on",
        "time": "2019-01-19T00:23:55Z",
        "vessel": "B"
      },
      "type": "Feature"
    },
    {
      "geometry": {
        "coordinates": [
          -60.660693,
          -45.93064
        ],
        "type": "Point"
      },
      "properties": {
        "mmsi": "412329689",
        "observationStatus": "observed",
        "role": "on",
        "time": "2019-01-19T00:25:43Z",
        "vessel": "A"
      },
      "type": "Feature"
    },
    {
      "geometry": {
        "coordinates": [
          [
            -60.59144,
            -46.022693
          ],
          [
            -60.628932,
            -45.988308
          ],
          [
            -60.660693,
            -45.93064
          ]
        ],
        "type": "LineString"
      },
      "properties": {
        "confidence": "low",
        "lineStyle": "dashed",
        "observationStatus": "estimated",
        "source": "reachable-set heuristic",
        "vessel": "A"
      },
      "type": "Feature"
    },
    {
      "geometry": {
        "coordinates": [
          [
            -60.598148,
            -46.04534
          ],
          [
            -60.628932,
            -45.988308
          ],
          [
            -60.666423,
            -45.920058
          ]
        ],
        "type": "LineString"
      },
      "properties": {
        "confidence": "low",
        "lineStyle": "dashed",
        "observationStatus": "estimated",
        "source": "reachable-set heuristic",
        "vessel": "B"
      },
      "type": "Feature"
    },
    {
      "geometry": {
        "coordinates": [
          -60.628932,
          -45.988308
        ],
        "type": "Point"
      },
      "properties": {
        "kind": "meetingPoint",
        "observationStatus": "estimated"
      },
      "type": "Feature"
    },
    {
      "geometry": {
        "coordinates": [
          [
            [
              -61.888387,
              -44.298757
            ],
            [
              -62.117281,
              -44.393373
            ],
            [
              -62.331814,
              -44.503237
            ],
            [
              -62.52992,
              -44.627291
            ],
            [
              -62.70969,
              -44.76434
            ],
            [
              -62.869394,
              -44.913064
            ],
            [
              -63.007493,
              -45.072032
            ],
            [
              -63.122658,
              -45.239712
            ],
            [
              -63.21378,
              -45.414488
            ],
            [
              -63.27998,
              -45.594679
            ],
            [
              -63.320622,
              -45.778549
            ],
            [
              -63.335314,
              -45.964327
            ],
            [
              -63.323914,
              -46.150223
            ],
            [
              -63.286532,
              -46.334449
            ],
            [
              -63.223529,
              -46.515228
            ],
            [
              -63.135511,
              -46.690821
            ],
            [
              -63.023325,
              -46.859536
            ],
            [
              -62.888052,
              -47.019749
            ],
            [
              -62.730996,
              -47.169916
            ],
            [
              -62.553667,
              -47.308591
            ],
            [
              -62.357775,
              -47.43444
            ],
            [
              -62.145206,
              -47.546249
            ],
            [
              -61.918006,
              -47.642942
            ],
            [
              -61.678365,
              -47.723588
            ],
            [
              -61.428589,
              -47.787411
            ],
            [
              -61.171084,
              -47.833795
            ],
            [
              -60.908331,
              -47.862293
            ],
            [
              -60.642859,
              -47.872632
            ],
            [
              -60.377225,
              -47.864712
            ],
            [
              -60.113988,
              -47.838609
            ],
            [
              -59.855683,
              -47.794575
            ],
            [
              -59.604797,
              -47.733033
            ],
            [
              -59.363746,
              -47.654576
            ],
            [
              -59.134852,
              -47.55996
            ],
            [
              -58.920319,
              -47.450096
            ],
            [
              -58.722214,
              -47.326042
            ],
            [
              -58.542443,
              -47.188993
            ],
            [
              -58.38274,
              -47.040269
            ],
            [
              -58.24464,
              -46.881301
            ],
            [
              -58.129475,
              -46.713622
            ],
            [
              -58.038354,
              -46.538845
            ],
            [
              -57.972153,
              -46.358654
            ],
            [
              -57.931511,
              -46.174784
            ],
            [
              -57.91682,
              -45.989006
            ],
            [
              -57.92822,
              -45.80311
            ],
            [
              -57.965601,
              -45.618885
            ],
            [
              -58.028604,
              -45.438105
            ],
            [
              -58.116623,
              -45.262512
            ],
            [
              -58.228808,
              -45.093797
            ],
            [
              -58.364081,
              -44.933585
            ],
            [
              -58.521138,
              -44.783417
            ],
            [
              -58.698466,
              -44.644742
            ],
            [
              -58.894358,
              -44.518894
            ],
            [
              -59.106927,
              -44.407084
            ],
            [
              -59.334127,
              -44.310391
            ],
            [
              -59.573769,
              -44.229745
            ],
            [
              -59.823545,
              -44.165923
            ],
            [
              -60.081049,
              -44.119539
            ],
            [
              -60.343803,
              -44.09104
            ],
            [
              -60.609274,
              -44.080701
            ],
            [
              -60.874908,
              -44.088621
            ],
            [
              -61.138145,
              -44.114724
            ],
            [
              -61.39645,
              -44.158759
            ],
            [
              -61.647336,
              -44.2203
            ],
            [
              -61.888387,
              -44.298757
            ]
          ]
        ],
        "type": "Polygon"
      },
      "properties": {
        "kind": "reachableSet",
        "observationStatus": "estimated",
        "vessel": "A"
      },
      "type": "Feature"
    },
    {
      "geometry": {
        "coordinates": [
          [
            [
              -61.577225,
              -44.248777
            ],
            [
              -61.81545,
              -44.32188
            ],
            [
              -62.042281,
              -44.410978
            ],
            [
              -62.255533,
              -44.515212
            ],
            [
              -62.453152,
              -44.633579
            ],
            [
              -62.633236,
              -44.764939
            ],
            [
              -62.794049,
              -44.908026
            ],
            [
              -62.934043,
              -45.061463
            ],
            [
              -63.051869,
              -45.223772
            ],
            [
              -63.146394,
              -45.39339
            ],
            [
              -63.216707,
              -45.568684
            ],
            [
              -63.26213,
              -45.747964
            ],
            [
              -63.282227,
              -45.929505
            ],
            [
              -63.276803,
              -46.111559
            ],
            [
              -63.245911,
              -46.292371
            ],
            [
              -63.189848,
              -46.470201
            ],
            [
              -63.109155,
              -46.643336
            ],
            [
              -63.004608,
              -46.810109
            ],
            [
              -62.877214,
              -46.968914
            ],
            [
              -62.7282,
              -47.118221
            ],
            [
              -62.559002,
              -47.256592
            ],
            [
              -62.371248,
              -47.382694
            ],
            [
              -62.166747,
              -47.495314
            ],
            [
              -61.947469,
              -47.593367
            ],
            [
              -61.715524,
              -47.675908
            ],
            [
              -61.473147,
              -47.742143
            ],
            [
              -61.222673,
              -47.791433
            ],
            [
              -60.966512,
              -47.823304
            ],
            [
              -60.707133,
              -47.837449
            ],
            [
              -60.447033,
              -47.833732
            ],
            [
              -60.188717,
              -47.812188
            ],
            [
              -59.934673,
              -47.773026
            ],
            [
              -59.687347,
              -47.716621
            ],
            [
              -59.449121,
              -47.643518
            ],
            [
              -59.22229,
              -47.55442
            ],
            [
              -59.009039,
              -47.450186
            ],
            [
              -58.811419,
              -47.331819
            ],
            [
              -58.631336,
              -47.20046
            ],
            [
              -58.470523,
              -47.057372
            ],
            [
              -58.330529,
              -46.903935
            ],
            [
              -58.212702,
              -46.741626
            ],
            [
              -58.118177,
              -46.572008
            ],
            [
              -58.047865,
              -46.396715
            ],
            [
              -58.002441,
              -46.217434
            ],
            [
              -57.982345,
              -46.035893
            ],
            [
              -57.987769,
              -45.85384
            ],
            [
              -58.018661,
              -45.673027
            ],
            [
              -58.074723,
              -45.495197
            ],
            [
              -58.155417,
              -45.322062
            ],
            [
              -58.259964,
              -45.155289
            ],
            [
              -58.387358,
              -44.996484
            ],
            [
              -58.536371,
              -44.847178
            ],
            [
              -58.70557,
              -44.708807
            ],
            [
              -58.893323,
              -44.582704
            ],
            [
              -59.097824,
              -44.470084
            ],
            [
              -59.317103,
              -44.372031
            ],
            [
              -59.549048,
              -44.28949
            ],
            [
              -59.791424,
              -44.223256
            ],
            [
              -60.041899,
              -44.173965
            ],
            [
              -60.29806,
              -44.142094
            ],
            [
              -60.557439,
              -44.127949
            ],
            [
              -60.817539,
              -44.131666
            ],
            [
              -61.075855,
              -44.15321
            ],
            [
              -61.329899,
              -44.192373
            ],
            [
              -61.577225,
              -44.248777
            ]
          ]
        ],
        "type": "Polygon"
      },
      "properties": {
        "kind": "reachableSet",
        "observationStatus": "estimated",
        "vessel": "B"
      },
      "type": "Feature"
    }
  ],
  "properties": {
    "dateline": false
  },
  "type": "FeatureCollection"
}
