{
  "features": [
    {
      "geometry": {
        "coordinates": [
          -57.66304,
          -42.046293
        ],
        "type": "Point"
      },
      "properties": {
        "mmsi": "412329686",
        "observationStatus": "observed",
        "role": "off",
        "time": "2019-04-09T07:30:50Z",
        "vessel": "A"
      },
      "type": "Feature"
    },
    {
      "geometry": {
        "coordinates": [
          -57.67518,
          -42.00731
        ],
        "type": "Point"
      },
      "properties": {
        "mmsi": "412329689",
        "observationStatus": "observed",
        "role": "off",
        "time": "2019-04-09T07:47:36Z",
        "vessel": "B"
      },
      "type": "Feature"
    },
    {
      "geometry": {
        "coordinates": [
          -57.821087,
          -41.964423
        ],
        "type": "Point"
      },
      "properties": {
        "mmsi": "412329689",
        "observationStatus": "observed",
        "role": "on",
        "time": "2019-04-09T23:22:01Z",
        "vessel": "B"
      },
      "type": "Feature"
    },
    {
      "geometry": {
        "coordinates": [
          -57.85616,
          -42.012933
        ],
        "type": "Point"
      },
      "properties": {
        "mmsi": "412329686",
        "observationStatus": "observed",
        "role": "on",
        "time": "2019-04-10T00:03:53Z",
        "vessel": "A"
      },
      "type": "Feature"
    },
    {
      "geometry": {
        "coordinates": [
          [
            -57.66304,
            -42.046293
          ],
          [
            -57.806942,
            -41.968511
          ],
          [
            -57.85616,
            -42.012933
          ]
        ],
        "type": "LineString"
      },
      "properties": {
        "confidence": "low",
        "lineStyle": "dashed",
        "observationStatus": "estimated",
        "source": "reachable-set heuristic",
        "vessel": "A"
      },
      "type": "Feature"
    },
    {
      "geometry": {
        "coordinates": [
          [
            -57.67518,
            -42.00731
          ],
          [
            -57.806942,
            -41.968511
          ],
          [
            -57.821087,
            -41.964423
          ]
        ],
        "type": "LineString"
      },
      "properties": {
        "confidence": "low",
        "lineStyle": "dashed",
        "observationStatus": "estimated",
        "source": "reachable-set heuristic",
        "vessel": "B"
      },
      "type": "Feature"
    },
    {
      "geometry": {
        "coordinates": [
          -57.806942,
          -41.968511
        ],
        "type": "Point"
      },
      "properties": {
        "kind": "meetingPoint",
        "observationStatus": "estimated"
      },
      "type": "Feature"
    },
    {
      "geometry": {
        "coordinates": [
          [
            [
              -59.96545,
              -41.64857
            ],
            [
              -60.004723,
              -41.81194
            ],
            [
              -60.022374,
              -41.977407
            ],
            [
              -60.018233,
              -42.143377
            ],
            [
              -59.99234,
              -42.308251
            ],
            [
              -59.944945,
              -42.470441
            ],
            [
              -59.876504,
              -42.628387
            ],
            [
              -59.787676,
              -42.780565
            ],
            [
              -59.679316,
              -42.925512
            ],
            [
              -59.552469,
              -43.061831
            ],
            [
              -59.408355,
              -43.188208
            ],
            [
              -59.248363,
              -43.303428
            ],
            [
              -59.074033,
              -43.406381
            ],
            [
              -58.887044,
              -43.496074
            ],
            [
              -58.689198,
              -43.571645
            ],
            [
              -58.482399,
              -43.632364
            ],
            [
              -58.268639,
              -43.677649
            ],
            [
              -58.049977,
              -43.707062
            ],
            [
              -57.828518,
              -43.72032
            ],
            [
              -57.606396,
              -43.717296
            ],
            [
              -57.385749,
              -43.698019
            ],
            [
              -57.168702,
              -43.662674
            ],
            [
              -56.957346,
              -43.611601
            ],
            [
              -56.753716,
              -43.545294
            ],
            [
              -56.559774,
              -43.464389
            ],
            [
              -56.377386,
              -43.369667
            ],
            [
              -56.20831,
              -43.262039
            ],
            [
              -56.054173,
              -43.142543
            ],
            [
              -55.916461,
              -43.012328
            ],
            [
              -55.796499,
              -42.872649
            ],
            [
              -55.695443,
              -42.724851
            ],
            [
              -55.614266,
              -42.570358
            ],
            [
              -55.55375,
              -42.410657
            ],
            [
              -55.514477,
              -42.247286
            ],
            [
              -55.496826,
              -42.08182
            ],
            [
              -55.500967,
              -41.91585
            ],
            [
              -55.52686,
              -41.750976
            ],
            [
              -55.574255,
              -41.588785
            ],
            [
              -55.642696,
              -41.43084
            ],
            [
              -55.731524,
              -41.278661
            ],
            [
              -55.839884,
              -41.133715
            ],
            [
              -55.966731,
              -40.997396
            ],
            [
              -56.110845,
              -40.871018
            ],
            [
              -56.270837,
              -40.755798
            ],
            [
              -56.445167,
              -40.652846
            ],
            [
              -56.632156,
              -40.563153
            ],
            [
              -56.830002,
              -40.487582
            ],
            [
              -57.036801,
              -40.426862
            ],
            [
              -57.250561,
              -40.381578
            ],
            [
              -57.469223,
              -40.352165
            ],
            [
              -57.690682,
              -40.338906
            ],
            [
              -57.912804,
              -40.34193
            ],
            [
              -58.133451,
              -40.361208
            ],
            [
              -58.350498,
              -40.396553
            ],
            [
              -58.561854,
              -40.447625
            ],
            [
              -58.765484,
              -40.513933
            ],
            [
              -58.959426,
              -40.594838
            ],
            [
              -59.141814,
              -40.68956
            ],
            [
              -59.31089,
              -40.797188
            ],
            [
              -59.465027,
              -40.916684
            ],
            [
              -59.602739,
              -41.046899
            ],
            [
              -59.722701,
              -41.186578
            ],
            [
              -59.823757,
              -41.334375
            ],
            [
              -59.904934,
              -41.488869
            ],
            [
              -59.96545,
              -41.64857
            ]
          ]
        ],
        "type": "Polygon"
      },
      "properties": {
        "kind": "reachableSet",
        "observationStatus": "estimated",
        "vessel": "A"
      },
      "type": "Feature"
    },
    {
      "geometry": {
        "coordinates": [
          [
            [
              -59.721577,
              -41.405808
            ],
            [
              -59.787996,
              -41.553257
            ],
            [
              -59.834771,
              -41.704872
            ],
            [
              -59.861451,
              -41.859193
            ],
            [
              -59.867778,
              -42.014734
            ],
            [
              -59.853692,
              -42.169998
            ],
            [
              -59.819328,
              -42.323487
            ],
            [
              -59.765017,
              -42.473726
            ],
            [
              -59.691283,
              -42.619266
            ],
            [
              -59.598835,
              -42.758706
            ],
            [
              -59.488563,
              -42.890703
            ],
            [
              -59.361531,
              -43.013986
            ],
            [
              -59.218961,
              -43.127368
            ],
            [
              -59.062225,
              -43.229756
            ],
            [
              -58.892835,
              -43.320166
            ],
            [
              -58.71242,
              -43.397725
            ],
            [
              -58.522718,
              -43.461687
            ],
            [
              -58.325557,
              -43.511436
            ],
            [
              -58.122835,
              -43.546493
            ],
            [
              -57.916505,
              -43.566521
            ],
            [
              -57.708552,
              -43.571326
            ],
            [
              -57.500982,
              -43.560862
            ],
            [
              -57.295791,
              -43.53523
            ],
            [
              -57.094956,
              -43.494676
            ],
            [
              -56.900413,
              -43.439592
            ],
            [
              -56.714033,
              -43.370508
            ],
            [
              -56.537612,
              -43.288089
            ],
            [
              -56.372849,
              -43.193129
            ],
            [
              -56.22133,
              -43.086543
            ],
            [
              -56.084516,
              -42.969356
            ],
            [
              -55.963723,
              -42.842698
            ],
            [
              -55.860115,
              -42.707788
            ],
            [
              -55.77469,
              -42.565925
            ],
            [
              -55.70827,
              -42.418476
            ],
            [
              -55.661495,
              -42.266861
            ],
            [
              -55.634816,
              -42.11254
            ],
            [
              -55.628489,
              -41.956999
            ],
            [
              -55.642575,
              -41.801736
            ],
            [
              -55.676939,
              -41.648246
            ],
            [
              -55.73125,
              -41.498008
            ],
            [
              -55.804984,
              -41.352467
            ],
            [
              -55.897432,
              -41.213027
            ],
            [
              -56.007703,
              -41.08103
            ],
            [
              -56.134736,
              -40.957747
            ],
            [
              -56.277306,
              -40.844365
            ],
            [
              -56.434041,
              -40.741977
            ],
            [
              -56.603432,
              -40.651568
            ],
            [
              -56.783847,
              -40.574009
            ],
            [
              -56.973548,
              -40.510046
            ],
            [
              -57.170709,
              -40.460297
            ],
            [
              -57.373431,
              -40.42524
            ],
            [
              -57.579762,
              -40.405213
            ],
            [
              -57.787714,
              -40.400408
            ],
            [
              -57.995285,
              -40.410872
            ],
            [
              -58.200476,
              -40.436504
            ],
            [
              -58.40131,
              -40.477057
            ],
            [
              -58.595854,
              -40.532141
            ],
            [
              -58.782234,
              -40.601225
            ],
            [
              -58.958655,
              -40.683644
            ],
            [
              -59.123418,
              -40.778604
            ],
            [
              -59.274936,
              -40.885191
            ],
            [
              -59.411751,
              -41.002377
            ],
            [
              -59.532543,
              -41.129036
            ],
            [
              -59.636151,
              -41.263946
            ],
            [
              -59.721577,
              -41.405808
            ]
          ]
        ],
        "type": "Polygon"
      },
      "properties": {
        "kind": "reachableSet",
        "observationStatus": "estimated",
        "vessel": "B"
      },
      "type": "Feature"
    }
  ],
  "properties": {
    "dateline": false
  },
  "type": "FeatureCollection"
}
