{
  "features": [
    {
      "geometry": {
        "coordinates": [
          160.65116,
          41.83428
        ],
        "type": "Point"
      },
      "properties": {
        "mmsi": "416253700",
        "observationStatus": "observed",
        "role": "off",
        "time": "2018-09-06T03:09:42Z",
        "vessel": "A"
      },
      "type": "Feature"
    },
    {
      "geometry": {
        "coordinates": [
          160.75036,
          41.81145
        ],
        "type": "Point"
      },
      "properties": {
        "mmsi": "416251900",
        "observationStatus": "observed",
        "role": "off",
        "time": "2018-09-06T03:12:47Z",
        "vessel": "B"
      },
      "type": "Feature"
    },
    {
      "geometry": {
        "coordinates": [
          161.051947,
          41.922567
        ],
        "type": "Point"
      },
      "properties": {
        "mmsi": "416251900",
        "observationStatus": "observed",
        "role": "on",
        "time": "2018-09-06T17:49:06Z",
        "vessel": "B"
      },
      "type": "Feature"
    },
    {
      "geometry": {
        "coordinates": [
          161.056227,
          41.88899
        ],
        "type": "Point"
      },
      "properties": {
        "mmsi": "416253700",
        "observationStatus": "observed",
        "role": "on",
        "time": "2018-09-06T17:49:25Z",
        "vessel": "A"
      },
      "type": "Feature"
    },
    {
      "geometry": {
        "coordinates": [
          [
            160.65116,
            41.83428
          ],
          [
            160.74246,
            41.854259
          ],
          [
            161.056227,
            41.88899
          ]
        ],
        "type": "LineString"
      },
      "properties": {
        "confidence": "low",
        "lineStyle": "dashed",
        "observationStatus": "estimated",
        "source": "reachable-set heuristic",
        "vessel": "A"
      },
      "type": "Feature"
    },
    {
      "geometry": {
        "coordinates": [
          [
            160.75036,
            41.81145
          ],
          [
            160.74246,
            41.854259
          ],
          [
            161.051947,
            41.922567
          ]
        ],
        "type": "LineString"
      },
      "properties": {
        "confidence": "low",
        "lineStyle": "dashed",
        "observationStatus": "estimated",
        "source": "reachable-set heuristic",
        "vessel": "B"
      },
      "type": "Feature"
    },
    {
      "geometry": {
        "coordinates": [
          160.74246,
          41.854259
        ],
        "type": "Point"
      },
      "properties": {
        "kind": "meetingPoint",
        "observationStatus": "estimated"
      },
      "type": "Feature"
    },
    {
      "geometry": {
        "coordinates": [
          [
            [
              162.655807,
              42.105036
            ],
            [
              162.615513,
              42.23547
            ],
            [
              162.558251,
              42.362303
            ],
            [
              162.484574,
              42.484315
            ],
            [
              162.395191,
              42.600331
            ],
            [
              162.290962,
              42.709232
            ],
            [
              162.172891,
              42.80997
            ],
            [
              162.042116,
              42.901575
            ],
            [
              161.899895,
              42.983165
            ],
            [
              161.7476,
              43.053955
            ],
            [
              161.586695,
              43.113261
            ],
            [
              161.418731,
              43.160514
            ],
            [
              161.245326,
              43.195257
            ],
            [
              161.068148,
              43.217158
            ],
            [
              160.888906,
              43.226003
            ],
            [
              160.709324,
              43.22171
            ],
            [
              160.531133,
              43.204317
            ],
            [
              160.356048,
              43.173995
            ],
            [
              160.185756,
              43.131033
            ],
            [
              160.021897,
              43.075846
            ],
            [
              159.866048,
              43.008966
            ],
            [
              159.71971,
              42.931037
            ],
            [
              159.584294,
              42.842808
            ],
            [
              159.461102,
              42.745131
            ],
            [
              159.351322,
              42.638944
            ],
            [
              159.256011,
              42.525272
            ],
            [
              159.176086,
              42.405209
            ],
            [
              159.112317,
              42.279911
            ],
            [
              159.065319,
              42.150584
            ],
            [
              159.035544,
              42.018475
            ],
            [
              159.023279,
              41.884855
            ],
            [
              159.028641,
              41.751012
            ],
            [
              159.05158,
              41.618234
            ],
            [
              159.091874,
              41.4878
            ],
            [
              159.149135,
              41.360967
            ],
            [
              159.222813,
              41.238955
            ],
            [
              159.312196,
              41.122939
            ],
            [
              159.416425,
              41.014038
            ],
            [
              159.534496,
              40.9133
            ],
            [
              159.665271,
              40.821695
            ],
            [
              159.807491,
              40.740105
            ],
            [
              159.959787,
              40.669315
            ],
            [
              160.120692,
              40.610009
            ],
            [
              160.288656,
              40.562756
            ],
            [
              160.462061,
              40.528013
            ],
            [
              160.639238,
              40.506112
            ],
            [
              160.818481,
              40.497267
            ],
            [
              160.998062,
              40.50156
            ],
            [
              161.176254,
              40.518953
            ],
            [
              161.351338,
              40.549275
            ],
            [
              161.52163,
              40.592237
            ],
            [
              161.68549,
              40.647424
            ],
            [
              161.841339,
              40.714304
            ],
            [
              161.987676,
              40.792233
            ],
            [
              162.123093,
              40.880462
            ],
            [
              162.246284,
              40.978139
            ],
            [
              162.356064,
              41.084326
            ],
            [
              162.451376,
              41.197998
            ],
            [
              162.531301,
              41.318061
            ],
            [
              162.595069,
              41.443359
            ],
            [
              162.642067,
              41.572686
            ],
            [
              162.671843,
              41.704795
            ],
            [
              162.684108,
              41.838415
            ],
            [
              162.678745,
              41.972258
            ],
            [
              162.655807,
              42.105036
            ]
          ]
        ],
        "type": "Polygon"
      },
      "properties": {
        "kind": "reachableSet",
        "observationStatus": "estimated",
        "vessel": "A"
      },
      "type": "Feature"
    },
    {
      "geometry": {
        "coordinates": [
          [
            [
              162.537877,
              42.470043
            ],
            [
              162.451494,
              42.586907
            ],
            [
              162.350181,
              42.696839
            ],
            [
              162.234912,
              42.798778
            ],
            [
              162.106799,
              42.891745
            ],
            [
              161.967075,
              42.974842
            ],
            [
              161.817085,
              43.04727
            ],
            [
              161.658274,
              43.108332
            ],
            [
              161.492172,
              43.157439
            ],
            [
              161.320378,
              43.194119
            ],
            [
              161.144547,
              43.218017
            ],
            [
              160.966372,
              43.228905
            ],
            [
              160.787568,
              43.226677
            ],
            [
              160.609859,
              43.211355
            ],
            [
              160.434955,
              43.183086
            ],
            [
              160.26454,
              43.142142
            ],
            [
              160.100257,
              43.088918
            ],
            [
              159.943686,
              43.023927
            ],
            [
              159.796337,
              42.947793
            ],
            [
              159.659627,
              42.861251
            ],
            [
              159.534874,
              42.765134
            ],
            [
              159.423279,
              42.660368
            ],
            [
              159.325917,
              42.547961
            ],
            [
              159.243725,
              42.428996
            ],
            [
              159.177496,
              42.304619
            ],
            [
              159.127866,
              42.176028
            ],
            [
              159.095313,
              42.04446
            ],
            [
              159.080152,
              41.911183
            ],
            [
              159.082528,
              41.777481
            ],
            [
              159.102419,
              41.644642
            ],
            [
              159.139632,
              41.513943
            ],
            [
              159.193809,
              41.386645
            ],
            [
              159.26443,
              41.263974
            ],
            [
              159.350813,
              41.147109
            ],
            [
              159.452126,
              41.037178
            ],
            [
              159.567395,
              40.935238
            ],
            [
              159.695508,
              40.842272
            ],
            [
              159.835232,
              40.759175
            ],
            [
              159.985222,
              40.686746
            ],
            [
              160.144032,
              40.625685
            ],
            [
              160.310134,
              40.576578
            ],
            [
              160.481928,
              40.539898
            ],
            [
              160.65776,
              40.515999
            ],
            [
              160.835935,
              40.505111
            ],
            [
              161.014738,
              40.507339
            ],
            [
              161.192448,
              40.522662
            ],
            [
              161.367352,
              40.550931
            ],
            [
              161.537766,
              40.591875
            ],
            [
              161.70205,
              40.645098
            ],
            [
              161.85862,
              40.71009
            ],
            [
              162.00597,
              40.786223
            ],
            [
              162.142679,
              40.872765
            ],
            [
              162.267432,
              40.968882
            ],
            [
              162.379027,
              41.073649
            ],
            [
              162.476389,
              41.186056
            ],
            [
              162.558581,
              41.30502
            ],
            [
              162.624811,
              41.429398
            ],
            [
              162.674441,
              41.557989
            ],
            [
              162.706994,
              41.689557
            ],
            [
              162.722155,
              41.822833
            ],
            [
              162.719779,
              41.956535
            ],
            [
              162.699888,
              42.089375
            ],
            [
              162.662675,
              42.220073
            ],
            [
              162.608497,
              42.347371
            ],
            [
              162.537877,
              42.470043
            ]
          ]
        ],
        "type": "Polygon"
      },
      "properties": {
        "kind": "reachableSet",
        "observationStatus": "estimated",
        "vessel": "B"
      },
      "type": "Feature"
    }
  ],
  "properties": {
    "dateline": false
  },
  "type": "FeatureCollection"
}
