{
  "features": [
    {
      "geometry": {
        "coordinates": [
          -60.690967,
          -46.145457
        ],
        "type": "Point"
      },
      "properties": {
        "mmsi": "412329693",
        "observationStatus": "observed",
        "role": "off",
        "time": "2017-02-05T07:25:16Z",
        "vessel": "A"
      },
      "type": "Feature"
    },
    {
      "geometry": {
        "coordinates": [
          -60.698387,
          -46.207283
        ],
        "type": "Point"
      },
      "properties": {
        "mmsi": "412329685",
        "observationStatus": "observed",
        "role": "off",
        "time": "2017-02-05T07:26:11Z",
        "vessel": "B"
      },
      "type": "Feature"
    },
    {
      "geometry": {
        "coordinates": [
          -60.517663,
          -45.364132
        ],
        "type": "Point"
      },
      "properties": {
        "mmsi": "412329693",
        "observationStatus": "observed",
        "role": "on",
        "time": "2017-02-05T23:32:35Z",
        "vessel": "A"
      },
      "type": "Feature"
    },
    {
      "geometry": {
        "coordinates": [
          -60.515867,
          -45.354178
        ],
        "type": "Point"
      },
      "properties": {
        "mmsi": "412329685",
        "observationStatus": "observed",
        "role": "on",
        "time": "2017-02-06T00:10:21Z",
        "vessel": "B"
      },
      "type": "Feature"
    },
    {
      "geometry": {
        "coordinates": [
          [
            -60.690967,
            -46.145457
          ],
          [
            -60.607127,
            -45.780731
          ],
          [
            -60.517663,
            -45.364132
          ]
        ],
        "type": "LineString"
      },
      "properties": {
        "confidence": "low",
        "lineStyle": "dashed",
        "observationStatus": "estimated",
        "source": "reachable-set heuristic",
        "vessel": "A"
      },
      "type": "Feature"
    },
    {
      "geometry": {
        "coordinates": [
          [
            -60.698387,
            -46.207283
          ],
          [
            -60.607127,
            -45.780731
          ],
          [
            -60.515867,
            -45.354178
          ]
        ],
        "type": "LineString"
      },
      "properties": {
        "confidence": "low",
        "lineStyle": "dashed",
        "observationStatus": "estimated",
        "source": "reachable-set heuristic",
        "vessel": "B"
      },
      "type": "Feature"
    },
    {
      "geometry": {
        "coordinates": [
          -60.607127,
          -45.780731
        ],
        "type": "Point"
      },
      "properties": {
        "kind": "meetingPoint",
        "observationStatus": "estimated"
      },
      "type": "Feature"
    },
    {
      "geometry": {
        "coordinates": [
          [
            [
              -60.243495,
              -44.128062
            ],
            [
              -60.465573,
              -44.111779
            ],
            [
              -60.688988,
              -44.111319
            ],
            [
              -60.911587,
              -44.126686
            ],
            [
              -61.131227,
              -44.157732
            ],
            [
              -61.345792,
              -44.20416
            ],
            [
              -61.553217,
              -44.265521
            ],
            [
              -61.751503,
              -44.341224
            ],
            [
              -61.938741,
              -44.430541
            ],
            [
              -62.113128,
              -44.532611
            ],
            [
              -62.272984,
              -44.646451
            ],
            [
              -62.41677,
              -44.770965
            ],
            [
              -62.543101,
              -44.904954
            ],
            [
              -62.650761,
              -45.047128
            ],
            [
              -62.738712,
              -45.196117
            ],
            [
              -62.806107,
              -45.350486
            ],
            [
              -62.852299,
              -45.508749
            ],
            [
              -62.876841,
              -45.669381
            ],
            [
              -62.879497,
              -45.830836
            ],
            [
              -62.860242,
              -45.991559
            ],
            [
              -62.819261,
              -46.150001
            ],
            [
              -62.756949,
              -46.304637
            ],
            [
              -62.673906,
              -46.453978
            ],
            [
              -62.570932,
              -46.596586
            ],
            [
              -62.449018,
              -46.731087
            ],
            [
              -62.309339,
              -46.856185
            ],
            [
              -62.153239,
              -46.970677
            ],
            [
              -61.982222,
              -47.073458
            ],
            [
              -61.797936,
              -47.163541
            ],
            [
              -61.602154,
              -47.240056
            ],
            [
              -61.396762,
              -47.302268
            ],
            [
              -61.183739,
              -47.349576
            ],
            [
              -60.965135,
              -47.381526
            ],
            [
              -60.743057,
              -47.397809
            ],
            [
              -60.519642,
              -47.39827
            ],
            [
              -60.297043,
              -47.382903
            ],
            [
              -60.077403,
              -47.351856
            ],
            [
              -59.862838,
              -47.305429
            ],
            [
              -59.655413,
              -47.244068
            ],
            [
              -59.457127,
              -47.168364
            ],
            [
              -59.269889,
              -47.079048
            ],
            [
              -59.095502,
              -46.976978
            ],
            [
              -58.935646,
              -46.863137
            ],
            [
              -58.79186,
              -46.738623
            ],
            [
              -58.665529,
              -46.604634
            ],
            [
              -58.557869,
              -46.46246
            ],
            [
              -58.469918,
              -46.313472
            ],
            [
              -58.402523,
              -46.159103
            ],
            [
              -58.356331,
              -46.00084
            ],
            [
              -58.331789,
              -45.840207
            ],
            [
              -58.329133,
              -45.678752
            ],
            [
              -58.348388,
              -45.51803
            ],
            [
              -58.389369,
              -45.359587
            ],
            [
              -58.451681,
              -45.204951
            ],
            [
              -58.534724,
              -45.05561
            ],
            [
              -58.637698,
              -44.913002
            ],
            [
              -58.759612,
              -44.778502
            ],
            [
              -58.899291,
              -44.653403
            ],
            [
              -59.055391,
              -44.538912
            ],
            [
              -59.226408,
              -44.43613
            ],
            [
              -59.410694,
              -44.346048
            ],
            [
              -59.606476,
              -44.269532
            ],
            [
              -59.811868,
              -44.207321
            ],
            [
              -60.024891,
              -44.160012
            ],
            [
              -60.243495,
              -44.128062
            ]
          ]
        ],
        "type": "Polygon"
      },
      "properties": {
        "kind": "reachableSet",
        "observationStatus": "estimated",
        "vessel": "A"
      },
      "type": "Feature"
    },
    {
      "geometry": {
        "coordinates": [
          [
            [
              -60.244653,
              -44.086515
            ],
            [
              -60.475289,
              -44.070531
            ],
            [
              -60.707196,
              -44.071017
            ],
            [
              -60.938138,
              -44.087968
            ],
            [
              -61.165893,
              -44.121222
            ],
            [
              -61.388266,
              -44.170457
            ],
            [
              -61.603117,
              -44.235201
            ],
            [
              -61.808375,
              -44.314828
            ],
            [
              -62.002065,
              -44.408573
            ],
            [
              -62.182321,
              -44.515533
            ],
            [
              -62.347407,
              -44.634678
            ],
            [
              -62.495734,
              -44.764859
            ],
            [
              -62.625871,
              -44.904824
            ],
            [
              -62.736568,
              -45.053224
            ],
            [
              -62.826756,
              -45.208631
            ],
            [
              -62.895568,
              -45.369547
            ],
            [
              -62.942342,
              -45.534423
            ],
            [
              -62.966626,
              -45.701671
            ],
            [
              -62.968186,
              -45.869681
            ],
            [
              -62.947009,
              -46.036834
            ],
            [
              -62.903297,
              -46.20152
            ],
            [
              -62.837471,
              -46.362155
            ],
            [
              -62.750167,
              -46.517189
            ],
            [
              -62.642223,
              -46.665131
            ],
            [
              -62.514681,
              -46.804556
            ],
            [
              -62.368768,
              -46.934121
            ],
            [
              -62.205889,
              -47.052578
            ],
            [
              -62.027613,
              -47.158787
            ],
            [
              -61.835657,
              -47.251724
            ],
            [
              -61.63187,
              -47.330495
            ],
            [
              -61.418214,
              -47.39434
            ],
            [
              -61.196746,
              -47.442646
            ],
            [
              -60.969601,
              -47.474947
            ],
            [
              -60.738964,
              -47.490931
            ],
            [
              -60.507058,
              -47.490445
            ],
            [
              -60.276115,
              -47.473494
            ],
            [
              -60.048361,
              -47.44024
            ],
            [
              -59.825987,
              -47.391004
            ],
            [
              -59.611137,
              -47.326261
            ],
            [
              -59.405878,
              -47.246633
            ],
            [
              -59.212188,
              -47.152888
            ],
            [
              -59.031932,
              -47.045928
            ],
            [
              -58.866846,
              -46.926784
            ],
            [
              -58.71852,
              -46.796603
            ],
            [
              -58.588382,
              -46.656638
            ],
            [
              -58.477686,
              -46.508238
            ],
            [
              -58.387497,
              -46.352831
            ],
            [
              -58.318685,
              -46.191915
            ],
            [
              -58.271912,
              -46.027039
            ],
            [
              -58.247628,
              -45.85979
            ],
            [
              -58.246067,
              -45.691781
            ],
            [
              -58.267245,
              -45.524628
            ],
            [
              -58.310957,
              -45.359941
            ],
            [
              -58.376782,
              -45.199307
            ],
            [
              -58.464087,
              -45.044272
            ],
            [
              -58.57203,
              -44.89633
            ],
            [
              -58.699573,
              -44.756905
            ],
            [
              -58.845486,
              -44.62734
            ],
            [
              -59.008365,
              -44.508883
            ],
            [
              -59.18664,
              -44.402675
            ],
            [
              -59.378596,
              -44.309737
            ],
            [
              -59.582384,
              -44.230967
            ],
            [
              -59.79604,
              -44.167121
            ],
            [
              -60.017507,
              -44.118816
            ],
            [
              -60.244653,
              -44.086515
            ]
          ]
        ],
        "type": "Polygon"
      },
      "properties": {
        "kind": "reachableSet",
        "observationStatus": "estimated",
        "vessel": "B"
      },
      "type": "Feature"
    }
  ],
  "properties": {
    "dateline": false
  },
  "type": "FeatureCollection"
}
