{
  "features": [
    {
      "geometry": {
        "coordinates": [
          158.848147,
          42.216253
        ],
        "type": "Point"
      },
      "properties": {
        "mmsi": "416253700",
        "observationStatus": "observed",
        "role": "off",
        "time": "2018-09-04T03:22:32Z",
        "vessel": "A"
      },
      "type": "Feature"
    },
    {
      "geometry": {
        "coordinates": [
          158.828082,
          42.13915
        ],
        "type": "Point"
      },
      "properties": {
        "mmsi": "416242500",
        "observationStatus": "observed",
        "role": "off",
        "time": "2018-09-04T03:30:15Z",
        "vessel": "B"
      },
      "type": "Feature"
    },
    {
      "geometry": {
        "coordinates": [
          160.341667,
          41.986667
        ],
        "type": "Point"
      },
      "properties": {
        "mmsi": "416253700",
        "observationStatus": "observed",
        "role": "on",
        "time": "2018-09-04T18:21:51Z",
        "vessel": "A"
      },
      "type": "Feature"
    },
    {
      "geometry": {
        "coordinates": [
          160.425,
          41.963333
        ],
        "type": "Point"
      },
      "properties": {
        "mmsi": "416242500",
        "observationStatus": "observed",
        "role": "on",
        "time": "2018-09-04T18:24:31Z",
        "vessel": "B"
      },
      "type": "Feature"
    },
    {
      "geometry": {
        "coordinates": [
          [
            158.848147,
            42.216253
          ],
          [
            159.949747,
            42.015628
          ],
          [
            160.341667,
            41.986667
          ]
        ],
        "type": "LineString"
      },
      "properties": {
        "confidence": "low",
        "lineStyle": "dashed",
        "observationStatus": "estimated",
        "source": "reachable-set heuristic",
        "vessel": "A"
      },
      "type": "Feature"
    },
    {
      "geometry": {
        "coordinates": [
          [
            158.828082,
            42.13915
          ],
          [
            159.949747,
            42.015628
          ],
          [
            160.425,
            41.963333
          ]
        ],
        "type": "LineString"
      },
      "properties": {
        "confidence": "low",
        "lineStyle": "dashed",
        "observationStatus": "estimated",
        "source": "reachable-set heuristic",
        "vessel": "B"
      },
      "type": "Feature"
    },
    {
      "geometry": {
        "coordinates": [
          159.949747,
          42.015628
        ],
        "type": "Point"
      },
      "properties": {
        "kind": "meetingPoint",
        "observationStatus": "estimated"
      },
      "type": "Feature"
    },
    {
      "geometry": {
        "coordinates": [
          [
            [
              161.438255,
              41.818097
            ],
            [
              161.463373,
              41.942857
            ],
            [
              161.470496,
              42.069144
            ],
            [
              161.459557,
              42.195742
            ],
            [
              161.430659,
              42.321433
            ],
            [
              161.384083,
              42.445005
            ],
            [
              161.320276,
              42.565268
            ],
            [
              161.239853,
              42.681065
            ],
            [
              161.143587,
              42.791279
            ],
            [
              161.032408,
              42.894851
            ],
            [
              160.907384,
              42.990781
            ],
            [
              160.76972,
              43.078147
            ],
            [
              160.620743,
              43.156107
            ],
            [
              160.461886,
              43.223911
            ],
            [
              160.294679,
              43.280904
            ],
            [
              160.120734,
              43.326538
            ],
            [
              159.941724,
              43.360375
            ],
            [
              159.759374,
              43.382087
            ],
            [
              159.575441,
              43.391467
            ],
            [
              159.391694,
              43.388422
            ],
            [
              159.209905,
              43.372984
            ],
            [
              159.031824,
              43.3453
            ],
            [
              158.859165,
              43.305637
            ],
            [
              158.693592,
              43.254378
            ],
            [
              158.5367,
              43.192015
            ],
            [
              158.389998,
              43.11915
            ],
            [
              158.2549,
              43.036483
            ],
            [
              158.132707,
              42.944812
            ],
            [
              158.024596,
              42.845019
            ],
            [
              157.931608,
              42.738065
            ],
            [
              157.854639,
              42.62498
            ],
            [
              157.794429,
              42.506854
            ],
            [
              157.751559,
              42.384823
            ],
            [
              157.726441,
              42.260063
            ],
            [
              157.719317,
              42.133776
            ],
            [
              157.730257,
              42.007178
            ],
            [
              157.759154,
              41.881487
            ],
            [
              157.80573,
              41.757915
            ],
            [
              157.869537,
              41.637652
            ],
            [
              157.949961,
              41.521855
            ],
            [
              158.046226,
              41.411641
            ],
            [
              158.157406,
              41.308069
            ],
            [
              158.282429,
              41.212139
            ],
            [
              158.420093,
              41.124773
            ],
            [
              158.569071,
              41.046813
            ],
            [
              158.727928,
              40.979009
            ],
            [
              158.895134,
              40.922016
            ],
            [
              159.06908,
              40.876382
            ],
            [
              159.248089,
              40.842545
            ],
            [
              159.430439,
              40.820833
            ],
            [
              159.614373,
              40.811453
            ],
            [
              159.798119,
              40.814498
            ],
            [
              159.979908,
              40.829936
            ],
            [
              160.157989,
              40.85762
            ],
            [
              160.330648,
              40.897283
            ],
            [
              160.496221,
              40.948542
            ],
            [
              160.653114,
              41.010905
            ],
            [
              160.799815,
              41.08377
            ],
            [
              160.934913,
              41.166437
            ],
            [
              161.057106,
              41.258108
            ],
            [
              161.165217,
              41.357901
            ],
            [
              161.258205,
              41.464855
            ],
            [
              161.335175,
              41.57794
            ],
            [
              161.395385,
              41.696066
            ],
            [
              161.438255,
              41.818097
            ]
          ]
        ],
        "type": "Polygon"
      },
      "properties": {
        "kind": "reachableSet",
        "observationStatus": "estimated",
        "vessel": "A"
      },
      "type": "Feature"
    },
    {
      "geometry": {
        "coordinates": [
          [
            [
              161.475767,
              41.847647
            ],
            [
              161.490939,
              41.970848
            ],
            [
              161.488157,
              42.094825
            ],
            [
              161.467446,
              42.218381
            ],
            [
              161.429006,
              42.340328
            ],
            [
              161.373208,
              42.45949
            ],
            [
              161.300588,
              42.574721
            ],
            [
              161.211846,
              42.684911
            ],
            [
              161.107837,
              42.788998
            ],
            [
              160.989562,
              42.88598
            ],
            [
              160.85816,
              42.974923
            ],
            [
              160.714898,
              43.054971
            ],
            [
              160.561153,
              43.125352
            ],
            [
              160.398408,
              43.185388
            ],
            [
              160.22823,
              43.234503
            ],
            [
              160.052257,
              43.272222
            ],
            [
              159.872184,
              43.298182
            ],
            [
              159.689745,
              43.312133
            ],
            [
              159.506698,
              43.313942
            ],
            [
              159.324805,
              43.303589
            ],
            [
              159.145817,
              43.281177
            ],
            [
              158.97146,
              43.246919
            ],
            [
              158.803411,
              43.201146
            ],
            [
              158.643289,
              43.144299
            ],
            [
              158.492637,
              43.076925
            ],
            [
              158.352904,
              42.999673
            ],
            [
              158.225438,
              42.913288
            ],
            [
              158.111465,
              42.8186
            ],
            [
              158.012082,
              42.716522
            ],
            [
              157.928249,
              42.608038
            ],
            [
              157.86077,
              42.494191
            ],
            [
              157.810297,
              42.376078
            ],
            [
              157.777315,
              42.254837
            ],
            [
              157.762142,
              42.131635
            ],
            [
              157.764925,
              42.007659
            ],
            [
              157.785636,
              41.884102
            ],
            [
              157.824076,
              41.762156
            ],
            [
              157.879874,
              41.642993
            ],
            [
              157.952494,
              41.527762
            ],
            [
              158.041236,
              41.417572
            ],
            [
              158.145245,
              41.313485
            ],
            [
              158.26352,
              41.216503
            ],
            [
              158.394921,
              41.12756
            ],
            [
              158.538184,
              41.047513
            ],
            [
              158.691928,
              40.977132
            ],
            [
              158.854673,
              40.917095
            ],
            [
              159.024852,
              40.867981
            ],
            [
              159.200825,
              40.830262
            ],
            [
              159.380898,
              40.804302
            ],
            [
              159.563337,
              40.79035
            ],
            [
              159.746384,
              40.788542
            ],
            [
              159.928277,
              40.798894
            ],
            [
              160.107264,
              40.821307
            ],
            [
              160.281622,
              40.855565
            ],
            [
              160.449671,
              40.901338
            ],
            [
              160.609793,
              40.958185
            ],
            [
              160.760445,
              41.025558
            ],
            [
              160.900177,
              41.10281
            ],
            [
              161.027644,
              41.189196
            ],
            [
              161.141617,
              41.283883
            ],
            [
              161.240999,
              41.385961
            ],
            [
              161.324833,
              41.494446
            ],
            [
              161.392312,
              41.608293
            ],
            [
              161.442785,
              41.726405
            ],
            [
              161.475767,
              41.847647
            ]
          ]
        ],
        "type": "Polygon"
      },
      "properties": {
        "kind": "reachableSet",
        "observationStatus": "estimated",
        "vessel": "B"
      },
      "type": "Feature"
    }
  ],
  "properties": {
    "dateline": false
  },
  "type": "FeatureCollection"
}
