{
  "features": [
    {
      "geometry": {
        "coordinates": [
          -60.56601,
          -45.709213
        ],
        "type": "Point"
      },
      "properties": {
        "mmsi": "224388201",
        "observationStatus": "observed",
        "role": "off",
        "time": "2017-01-17T07:08:19Z",
        "vessel": "A"
      },
      "type": "Feature"
    },
    {
      "geometry": {
        "coordinates": [
          -60.613027,
          -45.702852
        ],
        "type": "Point"
      },
      "properties": {
        "mmsi": "412329686",
        "observationStatus": "observed",
        "role": "off",
        "time": "2017-01-17T07:11:10Z",
        "vessel": "B"
      },
      "type": "Feature"
    },
    {
      "geometry": {
        "coordinates": [
          -60.624513,
          -45.641285
        ],
        "type": "Point"
      },
      "properties": {
        "mmsi": "412329686",
        "observationStatus": "observed",
        "role": "on",
        "time": "2017-01-18T00:02:35Z",
        "vessel": "B"
      },
      "type": "Feature"
    },
    {
      "geometry": {
        "coordinates": [
          -60.56869,
          -45.644673
        ],
        "type": "Point"
      },
      "properties": {
        "mmsi": "224388201",
        "observationStatus": "observed",
        "role": "on",
        "time": "2017-01-18T00:40:05Z",
        "vessel": "A"
      },
      "type": "Feature"
    },
    {
      "geometry": {
        "coordinates": [
          [
            -60.56601,
            -45.709213
          ],
          [
            -60.607936,
            -45.661056
          ],
          [
            -60.56869,
            -45.644673
          ]
        ],
        "type": "LineString"
      },
      "properties": {
        "confidence": "low",
        "lineStyle": "dashed",
        "observationStatus": "estimated",
        "source": "reachable-set heuristic",
        "vessel": "A"
      },
      "type": "Feature"
    },
    {
      "geometry": {
        "coordinates": [
          [
            -60.613027,
            -45.702852
          ],
          [
            -60.607936,
            -45.661056
          ],
          [
            -60.624513,
            -45.641285
          ]
        ],
        "type": "LineString"
      },
      "properties": {
        "confidence": "low",
        "lineStyle": "dashed",
        "observationStatus": "estimated",
        "source": "reachable-set heuristic",
        "vessel": "B"
      },
      "type": "Feature"
    },
    {
      "geometry": {
        "coordinates": [
          -60.607936,
          -45.661056
        ],
        "type": "Point"
      },
      "properties": {
        "kind": "meetingPoint",
        "observationStatus": "estimated"
      },
      "type": "Feature"
    },
    {
      "geometry": {
        "coordinates": [
          [
            [
              -60.642046,
              -43.878113
            ],
            [
              -60.892293,
              -43.891925
            ],
            [
              -61.139411,
              -43.922927
            ],
            [
              -61.38102,
              -43.970821
            ],
            [
              -61.614793,
              -44.035146
            ],
            [
              -61.838479,
              -44.115282
            ],
            [
              -62.049922,
              -44.210458
            ],
            [
              -62.247088,
              -44.319757
            ],
            [
              -62.428077,
              -44.442127
            ],
            [
              -62.591146,
              -44.576388
            ],
            [
              -62.734725,
              -44.721249
            ],
            [
              -62.857431,
              -44.875313
            ],
            [
              -62.958082,
              -45.037098
            ],
            [
              -63.035709,
              -45.205044
            ],
            [
              -63.089564,
              -45.377535
            ],
            [
              -63.119129,
              -45.55291
            ],
            [
              -63.124119,
              -45.729479
            ],
            [
              -63.104486,
              -45.905542
            ],
            [
              -63.060419,
              -46.079404
            ],
            [
              -62.992343,
              -46.24939
            ],
            [
              -62.900912,
              -46.413862
            ],
            [
              -62.787008,
              -46.571238
            ],
            [
              -62.651727,
              -46.720002
            ],
            [
              -62.496373,
              -46.85872
            ],
            [
              -62.322441,
              -46.986056
            ],
            [
              -62.131607,
              -47.100786
            ],
            [
              -61.925708,
              -47.201803
            ],
            [
              -61.706727,
              -47.288135
            ],
            [
              -61.476773,
              -47.35895
            ],
            [
              -61.238062,
              -47.413566
            ],
            [
              -60.99289,
              -47.451458
            ],
            [
              -60.743621,
              -47.472261
            ],
            [
              -60.492654,
              -47.475773
            ],
            [
              -60.242407,
              -47.461962
            ],
            [
              -59.995289,
              -47.43096
            ],
            [
              -59.75368,
              -47.383066
            ],
            [
              -59.519907,
              -47.318741
            ],
            [
              -59.296221,
              -47.238604
            ],
            [
              -59.084778,
              -47.143428
            ],
            [
              -58.887612,
              -47.034129
            ],
            [
              -58.706623,
              -46.91176
            ],
            [
              -58.543554,
              -46.777498
            ],
            [
              -58.399975,
              -46.632638
            ],
            [
              -58.277269,
              -46.478573
            ],
            [
              -58.176618,
              -46.316789
            ],
            [
              -58.098991,
              -46.148843
            ],
            [
              -58.045136,
              -45.976351
            ],
            [
              -58.015571,
              -45.800977
            ],
            [
              -58.010581,
              -45.624408
            ],
            [
              -58.030214,
              -45.448344
            ],
            [
              -58.074281,
              -45.274483
            ],
            [
              -58.142357,
              -45.104497
            ],
            [
              -58.233788,
              -44.940024
            ],
            [
              -58.347692,
              -44.782648
            ],
            [
              -58.482973,
              -44.633885
            ],
            [
              -58.638327,
              -44.495167
            ],
            [
              -58.812259,
              -44.36783
            ],
            [
              -59.003093,
              -44.253101
            ],
            [
              -59.208992,
              -44.152084
            ],
            [
              -59.427973,
              -44.065752
            ],
            [
              -59.657927,
              -43.994937
            ],
            [
              -59.896638,
              -43.94032
            ],
            [
              -60.14181,
              -43.902428
            ],
            [
              -60.391079,
              -43.881626
            ],
            [
              -60.642046,
              -43.878113
            ]
          ]
        ],
        "type": "Polygon"
      },
      "properties": {
        "kind": "reachableSet",
        "observationStatus": "estimated",
        "vessel": "A"
      },
      "type": "Feature"
    },
    {
      "geometry": {
        "coordinates": [
          [
            [
              -60.938127,
              -43.960369
            ],
            [
              -61.175036,
              -43.990629
            ],
            [
              -61.406589,
              -44.037083
            ],
            [
              -61.630554,
              -44.099282
            ],
            [
              -61.844776,
              -44.176628
            ],
            [
              -62.04719,
              -44.268375
            ],
            [
              -62.235848,
              -44.373642
            ],
            [
              -62.408932,
              -44.491412
            ],
            [
              -62.564776,
              -44.620553
            ],
            [
              -62.701879,
              -44.759821
            ],
            [
              -62.818921,
              -44.907874
            ],
            [
              -62.914774,
              -45.063287
            ],
            [
              -62.988515,
              -45.224563
            ],
            [
              -63.039435,
              -45.390148
            ],
            [
              -63.067042,
              -45.558448
            ],
            [
              -63.07107,
              -45.727843
            ],
            [
              -63.051482,
              -45.896701
            ],
            [
              -63.008465,
              -46.063395
            ],
            [
              -62.942435,
              -46.22632
            ],
            [
              -62.854026,
              -46.383908
            ],
            [
              -62.74409,
              -46.53464
            ],
            [
              -62.613687,
              -46.677066
            ],
            [
              -62.464071,
              -46.809812
            ],
            [
              -62.296684,
              -46.931602
            ],
            [
              -62.113138,
              -47.041261
            ],
            [
              -61.9152,
              -47.137735
            ],
            [
              -61.704777,
              -47.220093
            ],
            [
              -61.483895,
              -47.287543
            ],
            [
              -61.254682,
              -47.339435
            ],
            [
              -61.019344,
              -47.37527
            ],
            [
              -60.780148,
              -47.394701
            ],
            [
              -60.539399,
              -47.397543
            ],
            [
              -60.299413,
              -47.383767
            ],
            [
              -60.062504,
              -47.353507
            ],
            [
              -59.830951,
              -47.307054
            ],
            [
              -59.606986,
              -47.244855
            ],
            [
              -59.392764,
              -47.167509
            ],
            [
              -59.19035,
              -47.075761
            ],
            [
              -59.001692,
              -46.970495
            ],
            [
              -58.828608,
              -46.852724
            ],
            [
              -58.672764,
              -46.723583
            ],
            [
              -58.535661,
              -46.584316
            ],
            [
              -58.418619,
              -46.436263
            ],
            [
              -58.322766,
              -46.28085
            ],
            [
              -58.249025,
              -46.119574
            ],
            [
              -58.198105,
              -45.953989
            ],
            [
              -58.170498,
              -45.785688
            ],
            [
              -58.16647,
              -45.616294
            ],
            [
              -58.186058,
              -45.447436
            ],
            [
              -58.229075,
              -45.280742
            ],
            [
              -58.295105,
              -45.117816
            ],
            [
              -58.383514,
              -44.960229
            ],
            [
              -58.49345,
              -44.809496
            ],
            [
              -58.623853,
              -44.667071
            ],
            [
              -58.773469,
              -44.534324
            ],
            [
              -58.940856,
              -44.412535
            ],
            [
              -59.124402,
              -44.302875
            ],
            [
              -59.32234,
              -44.206402
            ],
            [
              -59.532763,
              -44.124044
            ],
            [
              -59.753645,
              -44.056594
            ],
            [
              -59.982858,
              -44.004702
            ],
            [
              -60.218196,
              -43.968867
            ],
            [
              -60.457392,
              -43.949435
            ],
            [
              -60.698141,
              -43.946594
            ],
            [
              -60.938127,
              -43.960369
            ]
          ]
        ],
        "type": "Polygon"
      },
      "properties": {
        "kind": "reachableSet",
        "observationStatus": "estimated",
        "vessel": "B"
      },
      "type": "Feature"
    }
  ],
  "properties": {
    "dateline": false
  },
  "type": "FeatureCollection"
}
