{
  "features": [
    {
      "geometry": {
        "coordinates": [
          -60.569332,
          -45.667475
        ],
        "type": "Point"
      },
      "properties": {
        "mmsi": "412329685",
        "observationStatus": "observed",
        "role": "off",
        "time": "2017-01-04T05:59:43Z",
        "vessel": "A"
      },
      "type": "Feature"
    },
    {
      "geometry": {
        "coordinates": [
          -60.629847,
          -45.656753
        ],
        "type": "Point"
      },
      "properties": {
        "mmsi": "412329686",
        "observationStatus": "observed",
        "role": "off",
        "time": "2017-01-04T06:13:16Z",
        "vessel": "B"
      },
      "type": "Feature"
    },
    {
      "geometry": {
        "coordinates": [
          -60.232478,
          -45.12113
        ],
        "type": "Point"
      },
      "properties": {
        "mmsi": "412329685",
        "observationStatus": "observed",
        "role": "on",
        "time": "2017-01-05T00:09:56Z",
        "vessel": "A"
      },
      "type": "Feature"
    },
    {
      "geometry": {
        "coordinates": [
          -60.166933,
          -45.075665
        ],
        "type": "Point"
      },
      "properties": {
        "mmsi": "412329686",
        "observationStatus": "observed",
        "role": "on",
        "time": "2017-01-05T00:21:40Z",
        "vessel": "B"
      },
      "type": "Feature"
    },
    {
      "geometry": {
        "coordinates": [
          [
            -60.569332,
            -45.667475
          ],
          [
            -60.341536,
            -45.295071
          ],
          [
            -60.232478,
            -45.12113
          ]
        ],
        "type": "LineString"
      },
      "properties": {
        "confidence": "low",
        "lineStyle": "dashed",
        "observationStatus": "estimated",
        "source": "reachable-set heuristic",
        "vessel": "A"
      },
      "type": "Feature"
    },
    {
      "geometry": {
        "coordinates": [
          [
            -60.629847,
            -45.656753
          ],
          [
            -60.341536,
            -45.295071
          ],
          [
            -60.166933,
            -45.075665
          ]
        ],
        "type": "LineString"
      },
      "properties": {
        "confidence": "low",
        "lineStyle": "dashed",
        "observationStatus": "estimated",
        "source": "reachable-set heuristic",
        "vessel": "B"
      },
      "type": "Feature"
    },
    {
      "geometry": {
        "coordinates": [
          -60.341536,
          -45.295071
        ],
        "type": "Point"
      },
      "properties": {
        "kind": "meetingPoint",
        "observationStatus": "estimated"
      },
      "type": "Feature"
    },
    {
      "geometry": {
        "coordinates": [
          [
            [
              -59.344347,
              -43.680663
            ],
            [
              -59.583977,
              -43.616635
            ],
            [
              -59.831474,
              -43.569726
            ],
            [
              -60.084455,
              -43.54039
            ],
            [
              -60.340483,
              -43.528907
            ],
            [
              -60.597094,
              -43.535389
            ],
            [
              -60.851815,
              -43.559774
            ],
            [
              -61.102194,
              -43.601826
            ],
            [
              -61.345818,
              -43.661141
            ],
            [
              -61.580343,
              -43.737147
            ],
            [
              -61.803509,
              -43.829112
            ],
            [
              -62.013168,
              -43.936151
            ],
            [
              -62.207299,
              -44.057233
            ],
            [
              -62.384034,
              -44.191191
            ],
            [
              -62.54167,
              -44.336736
            ],
            [
              -62.678689,
              -44.492466
            ],
            [
              -62.793772,
              -44.656882
            ],
            [
              -62.885811,
              -44.828399
            ],
            [
              -62.953918,
              -45.005365
            ],
            [
              -62.997439,
              -45.186078
            ],
            [
              -63.015953,
              -45.368796
            ],
            [
              -63.009284,
              -45.551759
            ],
            [
              -62.977494,
              -45.733207
            ],
            [
              -62.92089,
              -45.91139
            ],
            [
              -62.840017,
              -46.084593
            ],
            [
              -62.735654,
              -46.251149
            ],
            [
              -62.608807,
              -46.409453
            ],
            [
              -62.460696,
              -46.55798
            ],
            [
              -62.292748,
              -46.6953
            ],
            [
              -62.106581,
              -46.820091
            ],
            [
              -61.903987,
              -46.931151
            ],
            [
              -61.686917,
              -47.027411
            ],
            [
              -61.457463,
              -47.107942
            ],
            [
              -61.217833,
              -47.17197
            ],
            [
              -60.970336,
              -47.218879
            ],
            [
              -60.717355,
              -47.248215
            ],
            [
              -60.461327,
              -47.259698
            ],
            [
              -60.204716,
              -47.253216
            ],
            [
              -59.949995,
              -47.228831
            ],
            [
              -59.699616,
              -47.186779
            ],
            [
              -59.455992,
              -47.127464
            ],
            [
              -59.221467,
              -47.051458
            ],
            [
              -58.998301,
              -46.959493
            ],
            [
              -58.788642,
              -46.852454
            ],
            [
              -58.594511,
              -46.731372
            ],
            [
              -58.417776,
              -46.597414
            ],
            [
              -58.26014,
              -46.451869
            ],
            [
              -58.123121,
              -46.296139
            ],
            [
              -58.008038,
              -46.131723
            ],
            [
              -57.915999,
              -45.960206
            ],
            [
              -57.847892,
              -45.78324
            ],
            [
              -57.804371,
              -45.602527
            ],
            [
              -57.785857,
              -45.419809
            ],
            [
              -57.792526,
              -45.236846
            ],
            [
              -57.824316,
              -45.055398
            ],
            [
              -57.88092,
              -44.877215
            ],
            [
              -57.961793,
              -44.704012
            ],
            [
              -58.066156,
              -44.537456
            ],
            [
              -58.193003,
              -44.379152
            ],
            [
              -58.341114,
              -44.230625
            ],
            [
              -58.509062,
              -44.093305
            ],
            [
              -58.695229,
              -43.968514
            ],
            [
              -58.897823,
              -43.857454
            ],
            [
              -59.114893,
              -43.761194
            ],
            [
              -59.344347,
              -43.680663
            ]
          ]
        ],
        "type": "Polygon"
      },
      "properties": {
        "kind": "reachableSet",
        "observationStatus": "estimated",
        "vessel": "A"
      },
      "type": "Feature"
    },
    {
      "geometry": {
        "coordinates": [
          [
            [
              -59.103279,
              -43.740475
            ],
            [
              -59.331169,
              -43.659958
            ],
            [
              -59.569338,
              -43.595872
            ],
            [
              -59.81549,
              -43.548836
            ],
            [
              -60.067256,
              -43.519302
            ],
            [
              -60.322211,
              -43.507554
            ],
            [
              -60.5779,
              -43.513707
            ],
            [
              -60.83186,
              -43.5377
            ],
            [
              -61.081645,
              -43.579303
            ],
            [
              -61.32485,
              -43.638114
            ],
            [
              -61.559133,
              -43.713568
            ],
            [
              -61.782238,
              -43.804938
            ],
            [
              -61.992015,
              -43.911344
            ],
            [
              -62.186444,
              -44.031761
            ],
            [
              -62.363654,
              -44.16503
            ],
            [
              -62.521937,
              -44.309866
            ],
            [
              -62.65977,
              -44.464876
            ],
            [
              -62.775823,
              -44.628566
            ],
            [
              -62.868981,
              -44.799359
            ],
            [
              -62.938346,
              -44.975612
            ],
            [
              -62.98325,
              -45.155627
            ],
            [
              -63.00326,
              -45.33767
            ],
            [
              -62.998183,
              -45.519987
            ],
            [
              -62.96807,
              -45.700824
            ],
            [
              -62.913208,
              -45.878438
            ],
            [
              -62.834128,
              -46.051118
            ],
            [
              -62.731591,
              -46.217203
            ],
            [
              -62.606583,
              -46.375093
            ],
            [
              -62.460309,
              -46.523266
            ],
            [
              -62.294178,
              -46.660296
            ],
            [
              -62.109789,
              -46.784863
            ],
            [
              -61.908919,
              -46.895768
            ],
            [
              -61.693501,
              -46.991943
            ],
            [
              -61.465611,
              -47.072461
            ],
            [
              -61.227442,
              -47.136546
            ],
            [
              -60.98129,
              -47.183583
            ],
            [
              -60.729524,
              -47.213117
            ],
            [
              -60.474569,
              -47.224864
            ],
            [
              -60.21888,
              -47.218711
            ],
            [
              -59.96492,
              -47.194718
            ],
            [
              -59.715135,
              -47.153116
            ],
            [
              -59.47193,
              -47.094304
            ],
            [
              -59.237647,
              -47.01885
            ],
            [
              -59.014542,
              -46.92748
            ],
            [
              -58.804765,
              -46.821074
            ],
            [
              -58.610336,
              -46.700657
            ],
            [
              -58.433126,
              -46.567389
            ],
            [
              -58.274843,
              -46.422552
            ],
            [
              -58.13701,
              -46.267543
            ],
            [
              -58.020957,
              -46.103853
            ],
            [
              -57.927799,
              -45.933059
            ],
            [
              -57.858434,
              -45.756806
            ],
            [
              -57.81353,
              -45.576791
            ],
            [
              -57.79352,
              -45.394749
            ],
            [
              -57.798597,
              -45.212431
            ],
            [
              -57.82871,
              -45.031595
            ],
            [
              -57.883572,
              -44.853981
            ],
            [
              -57.962652,
              -44.6813
            ],
            [
              -58.065189,
              -44.515215
            ],
            [
              -58.190197,
              -44.357326
            ],
            [
              -58.336471,
              -44.209152
            ],
            [
              -58.502602,
              -44.072122
            ],
            [
              -58.686991,
              -43.947555
            ],
            [
              -58.887861,
              -43.83665
            ],
            [
              -59.103279,
              -43.740475
            ]
          ]
        ],
        "type": "Polygon"
      },
      "properties": {
        "kind": "reachableSet",
        "observationStatus": "estimated",
        "vessel": "B"
      },
      "type": "Feature"
    }
  ],
  "properties": {
    "dateline": false
  },
  "type": "FeatureCollection"
}
