{
  "features": [
    {
      "geometry": {
        "coordinates": [
          164.265893,
          47.125637
        ],
        "type": "Point"
      },
      "properties": {
        "mmsi": "416251900",
        "observationStatus": "observed",
        "role": "off",
        "time": "2018-07-25T02:43:38Z",
        "vessel": "A"
      },
      "type": "Feature"
    },
    {
      "geometry": {
        "coordinates": [
          164.221613,
          47.140757
        ],
        "type": "Point"
      },
      "properties": {
        "mmsi": "416253700",
        "observationStatus": "observed",
        "role": "off",
        "time": "2018-07-25T03:12:13Z",
        "vessel": "B"
      },
      "type": "Feature"
    },
    {
      "geometry": {
        "coordinates": [
          164.300267,
          47.21024
        ],
        "type": "Point"
      },
      "properties": {
        "mmsi": "416251900",
        "observationStatus": "observed",
        "role": "on",
        "time": "2018-07-25T16:58:56Z",
        "vessel": "A"
      },
      "type": "Feature"
    },
    {
      "geometry": {
        "coordinates": [
          164.293693,
          47.155577
        ],
        "type": "Point"
      },
      "properties": {
        "mmsi": "416253700",
        "observationStatus": "observed",
        "role": "on",
        "time": "2018-07-25T17:04:34Z",
        "vessel": "B"
      },
      "type": "Feature"
    },
    {
      "geometry": {
        "coordinates": [
          [
            164.265893,
            47.125637
          ],
          [
            164.274591,
            47.187884
          ],
          [
            164.300267,
            47.21024
          ]
        ],
        "type": "LineString"
      },
      "properties": {
        "confidence": "low",
        "lineStyle": "dashed",
        "observationStatus": "estimated",
        "source": "reachable-set heuristic",
        "vessel": "A"
      },
      "type": "Feature"
    },
    {
      "geometry": {
        "coordinates": [
          [
            164.221613,
            47.140757
          ],
          [
            164.274591,
            47.187884
          ],
          [
            164.293693,
            47.155577
          ]
        ],
        "type": "LineString"
      },
      "properties": {
        "confidence": "low",
        "lineStyle": "dashed",
        "observationStatus": "estimated",
        "source": "reachable-set heuristic",
        "vessel": "B"
      },
      "type": "Feature"
    },
    {
      "geometry": {
        "coordinates": [
          164.274591,
          47.187884
        ],
        "type": "Point"
      },
      "properties": {
        "kind": "meetingPoint",
        "observationStatus": "estimated"
      },
      "type": "Feature"
    },
    {
      "geometry": {
        "coordinates": [
          [
            [
              164.804507,
              48.451331
            ],
            [
              164.618311,
              48.480114
            ],
            [
              164.428886,
              48.49626
            ],
            [
              164.238057,
              48.499614
            ],
            [
              164.047661,
              48.490143
            ],
            [
              163.859533,
              48.467939
            ],
            [
              163.675483,
              48.433214
            ],
            [
              163.497285,
              48.386305
            ],
            [
              163.326655,
              48.327662
            ],
            [
              163.165236,
              48.25785
            ],
            [
              163.014582,
              48.177541
            ],
            [
              162.876144,
              48.08751
            ],
            [
              162.751256,
              47.988623
            ],
            [
              162.641121,
              47.881832
            ],
            [
              162.546798,
              47.768166
            ],
            [
              162.469196,
              47.648719
            ],
            [
              162.409064,
              47.524642
            ],
            [
              162.366979,
              47.39713
            ],
            [
              162.343347,
              47.267411
            ],
            [
              162.338396,
              47.136733
            ],
            [
              162.352173,
              47.006357
            ],
            [
              162.384546,
              46.877536
            ],
            [
              162.435203,
              46.751512
            ],
            [
              162.503656,
              46.629498
            ],
            [
              162.589246,
              46.51267
            ],
            [
              162.691148,
              46.402153
            ],
            [
              162.808381,
              46.29901
            ],
            [
              162.939817,
              46.204236
            ],
            [
              163.084189,
              46.118743
            ],
            [
              163.240107,
              46.043354
            ],
            [
              163.406069,
              45.978795
            ],
            [
              163.580478,
              45.925689
            ],
            [
              163.761653,
              45.884546
            ],
            [
              163.947849,
              45.855763
            ],
            [
              164.137274,
              45.839616
            ],
            [
              164.328103,
              45.836263
            ],
            [
              164.518499,
              45.845733
            ],
            [
              164.706627,
              45.867938
            ],
            [
              164.890677,
              45.902662
            ],
            [
              165.068875,
              45.949572
            ],
            [
              165.239505,
              46.008215
            ],
            [
              165.400924,
              46.078027
            ],
            [
              165.551578,
              46.158335
            ],
            [
              165.690016,
              46.248367
            ],
            [
              165.814904,
              46.347254
            ],
            [
              165.925039,
              46.454045
            ],
            [
              166.019362,
              46.567711
            ],
            [
              166.096964,
              46.687158
            ],
            [
              166.157096,
              46.811234
            ],
            [
              166.199181,
              46.938747
            ],
            [
              166.222813,
              47.068466
            ],
            [
              166.227764,
              47.199143
            ],
            [
              166.213987,
              47.32952
            ],
            [
              166.181614,
              47.458341
            ],
            [
              166.130957,
              47.584365
            ],
            [
              166.062504,
              47.706378
            ],
            [
              165.976914,
              47.823206
            ],
            [
              165.875012,
              47.933724
            ],
            [
              165.757779,
              48.036866
            ],
            [
              165.626343,
              48.131641
            ],
            [
              165.481971,
              48.217134
            ],
            [
              165.326053,
              48.292523
            ],
            [
              165.160091,
              48.357081
            ],
            [
              164.985682,
              48.410188
            ],
            [
              164.804507,
              48.451331
            ]
          ]
        ],
        "type": "Polygon"
      },
      "properties": {
        "kind": "reachableSet",
        "observationStatus": "estimated",
        "vessel": "A"
      },
      "type": "Feature"
    },
    {
      "geometry": {
        "coordinates": [
          [
            [
              166.067158,
              47.52021
            ],
            [
              166.005198,
              47.639837
            ],
            [
              165.926407,
              47.75473
            ],
            [
              165.831546,
              47.863781
            ],
            [
              165.721527,
              47.965941
            ],
            [
              165.59741,
              48.060224
            ],
            [
              165.460391,
              48.145724
            ],
            [
              165.311789,
              48.221618
            ],
            [
              165.153035,
              48.287173
            ],
            [
              164.985657,
              48.341759
            ],
            [
              164.811269,
              48.38485
            ],
            [
              164.631549,
              48.416031
            ],
            [
              164.448228,
              48.435002
            ],
            [
              164.263072,
              48.441579
            ],
            [
              164.077864,
              48.435701
            ],
            [
              163.894387,
              48.417423
            ],
            [
              163.714409,
              48.386921
            ],
            [
              163.539662,
              48.34449
            ],
            [
              163.37183,
              48.290537
            ],
            [
              163.212529,
              48.225583
            ],
            [
              163.063293,
              48.150252
            ],
            [
              162.92556,
              48.065271
            ],
            [
              162.800655,
              47.971458
            ],
            [
              162.689782,
              47.869715
            ],
            [
              162.594008,
              47.761024
            ],
            [
              162.514257,
              47.646431
            ],
            [
              162.451295,
              47.527039
            ],
            [
              162.405729,
              47.403999
            ],
            [
              162.377998,
              47.278495
            ],
            [
              162.36837,
              47.151735
            ],
            [
              162.376936,
              47.024941
            ],
            [
              162.403614,
              46.899334
            ],
            [
              162.448148,
              46.776124
            ],
            [
              162.510109,
              46.656496
            ],
            [
              162.588899,
              46.541603
            ],
            [
              162.683761,
              46.432552
            ],
            [
              162.793779,
              46.330393
            ],
            [
              162.917896,
              46.236109
            ],
            [
              163.054915,
              46.150609
            ],
            [
              163.203518,
              46.074716
            ],
            [
              163.362272,
              46.009161
            ],
            [
              163.529649,
              45.954575
            ],
            [
              163.704038,
              45.911484
            ],
            [
              163.883757,
              45.880303
            ],
            [
              164.067078,
              45.861332
            ],
            [
              164.252234,
              45.854754
            ],
            [
              164.437443,
              45.860632
            ],
            [
              164.620919,
              45.87891
            ],
            [
              164.800898,
              45.909412
            ],
            [
              164.975644,
              45.951843
            ],
            [
              165.143476,
              46.005796
            ],
            [
              165.302777,
              46.070751
            ],
            [
              165.452013,
              46.146081
            ],
            [
              165.589747,
              46.231062
            ],
            [
              165.714652,
              46.324876
            ],
            [
              165.825525,
              46.426618
            ],
            [
              165.921298,
              46.535309
            ],
            [
              166.00105,
              46.649902
            ],
            [
              166.064012,
              46.769294
            ],
            [
              166.109578,
              46.892334
            ],
            [
              166.137308,
              47.017839
            ],
            [
              166.146937,
              47.144598
            ],
            [
              166.138371,
              47.271392
            ],
            [
              166.111692,
              47.396999
            ],
            [
              166.067158,
              47.52021
            ]
          ]
        ],
        "type": "Polygon"
      },
      "properties": {
        "kind": "reachableSet",
        "observationStatus": "estimated",
        "vessel": "B"
      },
      "type": "Feature"
    }
  ],
  "properties": {
    "dateline": false
  },
  "type": "FeatureCollection"
}
