{
  "features": [
    {
      "geometry": {
        "coordinates": [
          -60.547857,
          -45.67994
        ],
        "type": "Point"
      },
      "properties": {
        "mmsi": "412329685",
        "observationStatus": "observed",
        "role": "off",
        "time": "2018-01-31T07:00:12Z",
        "vessel": "A"
      },
      "type": "Feature"
    },
    {
      "geometry": {
        "coordinates": [
          -60.51455,
          -45.629892
        ],
        "type": "Point"
      },
      "properties": {
        "mmsi": "412329694",
        "observationStatus": "observed",
        "role": "off",
        "time": "2018-01-31T07:08:03Z",
        "vessel": "B"
      },
      "type": "Feature"
    },
    {
      "geometry": {
        "coordinates": [
          -60.615727,
          -45.730585
        ],
        "type": "Point"
      },
      "properties": {
        "mmsi": "412329694",
        "observationStatus": "observed",
        "role": "on",
        "time": "2018-01-31T22:29:38Z",
        "vessel": "B"
      },
      "type": "Feature"
    },
    {
      "geometry": {
        "coordinates": [
          -60.603723,
          -45.700605
        ],
        "type": "Point"
      },
      "properties": {
        "mmsi": "412329685",
        "observationStatus": "observed",
        "role": "on",
        "time": "2018-01-31T23:03:35Z",
        "vessel": "A"
      },
      "type": "Feature"
    },
    {
      "geometry": {
        "coordinates": [
          [
            -60.547857,
            -45.67994
          ],
          [
            -60.565138,
            -45.680238
          ],
          [
            -60.603723,
            -45.700605
          ]
        ],
        "type": "LineString"
      },
      "properties": {
        "confidence": "low",
        "lineStyle": "dashed",
        "observationStatus": "estimated",
        "source": "reachable-set heuristic",
        "vessel": "A"
      },
      "type": "Feature"
    },
    {
      "geometry": {
        "coordinates": [
          [
            -60.51455,
            -45.629892
          ],
          [
            -60.565138,
            -45.680238
          ],
          [
            -60.615727,
            -45.730585
          ]
        ],
        "type": "LineString"
      },
      "properties": {
        "confidence": "low",
        "lineStyle": "dashed",
        "observationStatus": "estimated",
        "source": "reachable-set heuristic",
        "vessel": "B"
      },
      "type": "Feature"
    },
    {
      "geometry": {
        "coordinates": [
          -60.565138,
          -45.680238
        ],
        "type": "Point"
      },
      "properties": {
        "kind": "meetingPoint",
        "observationStatus": "estimated"
      },
      "type": "Feature"
    },
    {
      "geometry": {
        "coordinates": [
          [
            [
              -62.638691,
              -46.453337
            ],
            [
              -62.522418,
              -46.591851
            ],
            [
              -62.387397,
              -46.721683
            ],
            [
              -62.234929,
              -46.841582
            ],
            [
              -62.066483,
              -46.950393
            ],
            [
              -61.883681,
              -47.047069
            ],
            [
              -61.688283,
              -47.130677
            ],
            [
              -61.482171,
              -47.200414
            ],
            [
              -61.26733,
              -47.255608
            ],
            [
              -61.045829,
              -47.295726
            ],
            [
              -60.819802,
              -47.320383
            ],
            [
              -60.591424,
              -47.329341
            ],
            [
              -60.362896,
              -47.322514
            ],
            [
              -60.136419,
              -47.299968
            ],
            [
              -59.914172,
              -47.261919
            ],
            [
              -59.698298,
              -47.208734
            ],
            [
              -59.490874,
              -47.140926
            ],
            [
              -59.293898,
              -47.059148
            ],
            [
              -59.109268,
              -46.964186
            ],
            [
              -58.938761,
              -46.856956
            ],
            [
              -58.78402,
              -46.73849
            ],
            [
              -58.646535,
              -46.609929
            ],
            [
              -58.527629,
              -46.472511
            ],
            [
              -58.428448,
              -46.32756
            ],
            [
              -58.349947,
              -46.176472
            ],
            [
              -58.292882,
              -46.020701
            ],
            [
              -58.257803,
              -45.861748
            ],
            [
              -58.245048,
              -45.701143
            ],
            [
              -58.254738,
              -45.540434
            ],
            [
              -58.286782,
              -45.381168
            ],
            [
              -58.34087,
              -45.224879
            ],
            [
              -58.416482,
              -45.073072
            ],
            [
              -58.512889,
              -44.927208
            ],
            [
              -58.629162,
              -44.788694
            ],
            [
              -58.764183,
              -44.658862
            ],
            [
              -58.916651,
              -44.538963
            ],
            [
              -59.085097,
              -44.430152
            ],
            [
              -59.267899,
              -44.333476
            ],
            [
              -59.463297,
              -44.249868
            ],
            [
              -59.669409,
              -44.180131
            ],
            [
              -59.88425,
              -44.124937
            ],
            [
              -60.105751,
              -44.084819
            ],
            [
              -60.331778,
              -44.060162
            ],
            [
              -60.560156,
              -44.051204
            ],
            [
              -60.788684,
              -44.058031
            ],
            [
              -61.015161,
              -44.080577
            ],
            [
              -61.237408,
              -44.118626
            ],
            [
              -61.453282,
              -44.171811
            ],
            [
              -61.660706,
              -44.239619
            ],
            [
              -61.857682,
              -44.321397
            ],
            [
              -62.042312,
              -44.416359
            ],
            [
              -62.212819,
              -44.523589
            ],
            [
              -62.36756,
              -44.642055
            ],
            [
              -62.505045,
              -44.770616
            ],
            [
              -62.623951,
              -44.908034
            ],
            [
              -62.723132,
              -45.052985
            ],
            [
              -62.801633,
              -45.204073
            ],
            [
              -62.858698,
              -45.359844
            ],
            [
              -62.893777,
              -45.518797
            ],
            [
              -62.906532,
              -45.679402
            ],
            [
              -62.896842,
              -45.840111
            ],
            [
              -62.864798,
              -45.999377
            ],
            [
              -62.81071,
              -46.155666
            ],
            [
              -62.735098,
              -46.307473
            ],
            [
              -62.638691,
              -46.453337
            ]
          ]
        ],
        "type": "Polygon"
      },
      "properties": {
        "kind": "reachableSet",
        "observationStatus": "estimated",
        "vessel": "A"
      },
      "type": "Feature"
    },
    {
      "geometry": {
        "coordinates": [
          [
            [
              -61.847955,
              -46.956927
            ],
            [
              -61.664013,
              -47.039154
            ],
            [
              -61.469488,
              -47.108295
            ],
            [
              -61.266254,
              -47.163683
            ],
            [
              -61.056268,
              -47.204784
            ],
            [
              -60.841552,
              -47.231203
            ],
            [
              -60.624174,
              -47.242686
            ],
            [
              -60.406227,
              -47.239121
            ],
            [
              -60.189811,
              -47.220544
            ],
            [
              -59.977009,
              -47.187132
            ],
            [
              -59.769872,
              -47.139208
            ],
            [
              -59.570393,
              -47.077234
            ],
            [
              -59.380494,
              -47.001806
            ],
            [
              -59.202004,
              -46.91365
            ],
            [
              -59.036642,
              -46.813616
            ],
            [
              -58.886,
              -46.702667
            ],
            [
              -58.751529,
              -46.581871
            ],
            [
              -58.634524,
              -46.452392
            ],
            [
              -58.536112,
              -46.315477
            ],
            [
              -58.45724,
              -46.172444
            ],
            [
              -58.398669,
              -46.024671
            ],
            [
              -58.360962,
              -45.873581
            ],
            [
              -58.344482,
              -45.720628
            ],
            [
              -58.349389,
              -45.567287
            ],
            [
              -58.375634,
              -45.415034
            ],
            [
              -58.422966,
              -45.265335
            ],
            [
              -58.490928,
              -45.119631
            ],
            [
              -58.578866,
              -44.979327
            ],
            [
              -58.685932,
              -44.845772
            ],
            [
              -58.811097,
              -44.720254
            ],
            [
              -58.953153,
              -44.603981
            ],
            [
              -59.110734,
              -44.498073
            ],
            [
              -59.282322,
              -44.40355
            ],
            [
              -59.466264,
              -44.321322
            ],
            [
              -59.660789,
              -44.252182
            ],
            [
              -59.864023,
              -44.196794
            ],
            [
              -60.074009,
              -44.155692
            ],
            [
              -60.288725,
              -44.129273
            ],
            [
              -60.506103,
              -44.117791
            ],
            [
              -60.72405,
              -44.121355
            ],
            [
              -60.940466,
              -44.139933
            ],
            [
              -61.153267,
              -44.173344
            ],
            [
              -61.360405,
              -44.221268
            ],
            [
              -61.559884,
              -44.283243
            ],
            [
              -61.749783,
              -44.358671
            ],
            [
              -61.928273,
              -44.446827
            ],
            [
              -62.093635,
              -44.546861
            ],
            [
              -62.244277,
              -44.65781
            ],
            [
              -62.378748,
              -44.778606
            ],
            [
              -62.495753,
              -44.908085
            ],
            [
              -62.594165,
              -45.045
            ],
            [
              -62.673037,
              -45.188033
            ],
            [
              -62.731608,
              -45.335806
            ],
            [
              -62.769315,
              -45.486896
            ],
            [
              -62.785794,
              -45.639848
            ],
            [
              -62.780888,
              -45.793189
            ],
            [
              -62.754642,
              -45.945443
            ],
            [
              -62.707311,
              -46.095142
            ],
            [
              -62.639349,
              -46.240846
            ],
            [
              -62.551411,
              -46.38115
            ],
            [
              -62.444344,
              -46.514705
            ],
            [
              -62.31918,
              -46.640223
            ],
            [
              -62.177123,
              -46.756496
            ],
            [
              -62.019542,
              -46.862403
            ],
            [
              -61.847955,
              -46.956927
            ]
          ]
        ],
        "type": "Polygon"
      },
      "properties": {
        "kind": "reachableSet",
        "observationStatus": "estimated",
        "vessel": "B"
      },
      "type": "Feature"
    }
  ],
  "properties": {
    "dateline": false
  },
  "type": "FeatureCollection"
}
