{
  "features": [
    {
      "geometry": {
        "coordinates": [
          -60.723432,
          -47.174063
        ],
        "type": "Point"
      },
      "properties": {
        "mmsi": "412420653",
        "observationStatus": "observed",
        "role": "off",
        "time": "2019-03-12T17:48:02Z",
        "vessel": "A"
      },
      "type": "Feature"
    },
    {
      "geometry": {
        "coordinates": [
          -60.727487,
          -47.141427
        ],
        "type": "Point"
      },
      "properties": {
        "mmsi": "412421182",
        "observationStatus": "observed",
        "role": "off",
        "time": "2019-03-12T18:40:17Z",
        "vessel": "B"
      },
      "type": "Feature"
    },
    {
      "geometry": {
        "coordinates": [
          -60.763845,
          -47.189478
        ],
        "type": "Point"
      },
      "properties": {
        "mmsi": "412420653",
        "observationStatus": "observed",
        "role": "on",
        "time": "2019-03-13T07:57:16Z",
        "vessel": "A"
      },
      "type": "Feature"
    },
    {
      "geometry": {
        "coordinates": [
          -60.736317,
          -47.246917
        ],
        "type": "Point"
      },
      "properties": {
        "mmsi": "412421182",
        "observationStatus": "observed",
        "role": "on",
        "time": "2019-03-13T07:58:07Z",
        "vessel": "B"
      },
      "type": "Feature"
    },
    {
      "geometry": {
        "coordinates": [
          [
            -60.723432,
            -47.174063
          ],
          [
            -60.73045,
            -47.178253
          ],
          [
            -60.763845,
            -47.189478
          ]
        ],
        "type": "LineString"
      },
      "properties": {
        "confidence": "low",
        "lineStyle": "dashed",
        "observationStatus": "estimated",
        "source": "reachable-set heuristic",
        "vessel": "A"
      },
      "type": "Feature"
    },
    {
      "geometry": {
        "coordinates": [
          [
            -60.727487,
            -47.141427
          ],
          [
            -60.73045,
            -47.178253
          ],
          [
            -60.736317,
            -47.246917
          ]
        ],
        "type": "LineString"
      },
      "properties": {
        "confidence": "low",
        "lineStyle": "dashed",
        "observationStatus": "estimated",
        "source": "reachable-set heuristic",
        "vessel": "B"
      },
      "type": "Feature"
    },
    {
      "geometry": {
        "coordinates": [
          -60.73045,
          -47.178253
        ],
        "type": "Point"
      },
      "properties": {
        "kind": "meetingPoint",
        "observationStatus": "estimated"
      },
      "type": "Feature"
    },
    {
      "geometry": {
        "coordinates": [
          [
            [
              -62.431037,
              -47.825401
            ],
            [
              -62.330725,
              -47.935471
            ],
            [
              -62.215128,
              -48.038281
            ],
            [
              -62.08536,
              -48.132843
            ],
            [
              -61.94267,
              -48.218246
            ],
            [
              -61.788433,
              -48.293667
            ],
            [
              -61.624134,
              -48.35838
            ],
            [
              -61.451355,
              -48.411761
            ],
            [
              -61.271761,
              -48.453297
            ],
            [
              -61.08708,
              -48.482587
            ],
            [
              -60.899092,
              -48.49935
            ],
            [
              -60.709607,
              -48.503424
            ],
            [
              -60.52045,
              -48.494769
            ],
            [
              -60.333442,
              -48.47347
            ],
            [
              -60.150384,
              -48.439731
            ],
            [
              -59.97304,
              -48.393877
            ],
            [
              -59.803117,
              -48.33635
            ],
            [
              -59.642252,
              -48.267703
            ],
            [
              -59.491994,
              -48.188599
            ],
            [
              -59.35379,
              -48.099798
            ],
            [
              -59.228971,
              -48.002156
            ],
            [
              -59.118738,
              -47.896613
            ],
            [
              -59.024155,
              -47.784186
            ],
            [
              -58.946131,
              -47.665958
            ],
            [
              -58.885418,
              -47.543066
            ],
            [
              -58.842601,
              -47.416695
            ],
            [
              -58.818092,
              -47.288061
            ],
            [
              -58.812127,
              -47.158404
            ],
            [
              -58.824763,
              -47.028972
            ],
            [
              -58.855879,
              -46.901011
            ],
            [
              -58.905176,
              -46.775755
            ],
            [
              -58.972177,
              -46.654408
            ],
            [
              -59.056239,
              -46.53814
            ],
            [
              -59.156552,
              -46.428071
            ],
            [
              -59.272149,
              -46.32526
            ],
            [
              -59.401917,
              -46.230698
            ],
            [
              -59.544607,
              -46.145296
            ],
            [
              -59.698844,
              -46.069875
            ],
            [
              -59.863143,
              -46.005162
            ],
            [
              -60.035921,
              -45.951781
            ],
            [
              -60.215516,
              -45.910245
            ],
            [
              -60.400196,
              -45.880954
            ],
            [
              -60.588184,
              -45.864192
            ],
            [
              -60.777669,
              -45.860118
            ],
            [
              -60.966827,
              -45.868772
            ],
            [
              -61.153835,
              -45.890072
            ],
            [
              -61.336892,
              -45.923811
            ],
            [
              -61.514236,
              -45.969665
            ],
            [
              -61.684159,
              -46.027192
            ],
            [
              -61.845024,
              -46.095838
            ],
            [
              -61.995283,
              -46.174943
            ],
            [
              -62.133487,
              -46.263744
            ],
            [
              -62.258306,
              -46.361386
            ],
            [
              -62.368538,
              -46.466928
            ],
            [
              -62.463122,
              -46.579355
            ],
            [
              -62.541145,
              -46.697584
            ],
            [
              -62.601858,
              -46.820476
            ],
            [
              -62.644676,
              -46.946847
            ],
            [
              -62.669185,
              -47.07548
            ],
            [
              -62.67515,
              -47.205138
            ],
            [
              -62.662514,
              -47.33457
            ],
            [
              -62.631397,
              -47.46253
            ],
            [
              -62.582101,
              -47.587787
            ],
            [
              -62.515099,
              -47.709134
            ],
            [
              -62.431037,
              -47.825401
            ]
          ]
        ],
        "type": "Polygon"
      },
      "properties": {
        "kind": "reachableSet",
        "observationStatus": "estimated",
        "vessel": "A"
      },
      "type": "Feature"
    },
    {
      "geometry": {
        "coordinates": [
          [
            [
              -60.835178,
              -48.427989
            ],
            [
              -60.658069,
              -48.428967
            ],
            [
              -60.48167,
              -48.418053
            ],
            [
              -60.307682,
              -48.395353
            ],
            [
              -60.137779,
              -48.361084
            ],
            [
              -59.973598,
              -48.315577
            ],
            [
              -59.816719,
              -48.259271
            ],
            [
              -59.668655,
              -48.192707
            ],
            [
              -59.53083,
              -48.116527
            ],
            [
              -59.404572,
              -48.031464
            ],
            [
              -59.291097,
              -47.938337
            ],
            [
              -59.191497,
              -47.838044
            ],
            [
              -59.106733,
              -47.731549
            ],
            [
              -59.03762,
              -47.61988
            ],
            [
              -58.984823,
              -47.504111
            ],
            [
              -58.948852,
              -47.385356
            ],
            [
              -58.930053,
              -47.264761
            ],
            [
              -58.928607,
              -47.143486
            ],
            [
              -58.944527,
              -47.022699
            ],
            [
              -58.977661,
              -46.903563
            ],
            [
              -59.027689,
              -46.787226
            ],
            [
              -59.094129,
              -46.674808
            ],
            [
              -59.176342,
              -46.567392
            ],
            [
              -59.273536,
              -46.466012
            ],
            [
              -59.384775,
              -46.371645
            ],
            [
              -59.508987,
              -46.285199
            ],
            [
              -59.644977,
              -46.207507
            ],
            [
              -59.791435,
              -46.139317
            ],
            [
              -59.946949,
              -46.081286
            ],
            [
              -60.110023,
              -46.033973
            ],
            [
              -60.279087,
              -45.997833
            ],
            [
              -60.452511,
              -45.973214
            ],
            [
              -60.628625,
              -45.960354
            ],
            [
              -60.805735,
              -45.959376
            ],
            [
              -60.982133,
              -45.97029
            ],
            [
              -61.156122,
              -45.992991
            ],
            [
              -61.326024,
              -46.027259
            ],
            [
              -61.490206,
              -46.072766
            ],
            [
              -61.647084,
              -46.129072
            ],
            [
              -61.795149,
              -46.195636
            ],
            [
              -61.932974,
              -46.271817
            ],
            [
              -62.059232,
              -46.35688
            ],
            [
              -62.172707,
              -46.450006
            ],
            [
              -62.272306,
              -46.5503
            ],
            [
              -62.357071,
              -46.656794
            ],
            [
              -62.426184,
              -46.768464
            ],
            [
              -62.47898,
              -46.884233
            ],
            [
              -62.514951,
              -47.002987
            ],
            [
              -62.53375,
              -47.123582
            ],
            [
              -62.535197,
              -47.244858
            ],
            [
              -62.519276,
              -47.365645
            ],
            [
              -62.486143,
              -47.48478
            ],
            [
              -62.436115,
              -47.601117
            ],
            [
              -62.369674,
              -47.713535
            ],
            [
              -62.287461,
              -47.820951
            ],
            [
              -62.190267,
              -47.922331
            ],
            [
              -62.079028,
              -48.016698
            ],
            [
              -61.954816,
              -48.103144
            ],
            [
              -61.818826,
              -48.180836
            ],
            [
              -61.672369,
              -48.249026
            ],
            [
              -61.516854,
              -48.307057
            ],
            [
              -61.35378,
              -48.354371
            ],
            [
              -61.184717,
              -48.390511
            ],
            [
              -61.011293,
              -48.415129
            ],
            [
              -60.835178,
              -48.427989
            ]
          ]
        ],
        "type": "Polygon"
      },
      "properties": {
        "kind": "reachableSet",
        "observationStatus": "estimated",
        "vessel": "B"
      },
      "type": "Feature"
    }
  ],
  "properties": {
    "dateline": false
  },
  "type": "FeatureCollection"
}
