{
  "features": [
    {
      "geometry": {
        "coordinates": [
          -60.60079,
          -45.730187
        ],
        "type": "Point"
      },
      "properties": {
        "mmsi": "412329686",
        "observationStatus": "observed",
        "role": "off",
        "time": "2017-01-19T07:07:58Z",
        "vessel": "A"
      },
      "type": "Feature"
    },
    {
      "geometry": {
        "coordinates": [
          -60.613207,
          -45.642833
        ],
        "type": "Point"
      },
      "properties": {
        "mmsi": "412329685",
        "observationStatus": "observed",
        "role": "off",
        "time": "2017-01-19T07:32:51Z",
        "vessel": "B"
      },
      "type": "Feature"
    },
    {
      "geometry": {
        "coordinates": [
          -60.574052,
          -45.651767
        ],
        "type": "Point"
      },
      "properties": {
        "mmsi": "412329686",
        "observationStatus": "observed",
        "role": "on",
        "time": "2017-01-20T00:24:58Z",
        "vessel": "A"
      },
      "type": "Feature"
    },
    {
      "geometry": {
        "coordinates": [
          -60.596302,
          -45.666443
        ],
        "type": "Point"
      },
      "properties": {
        "mmsi": "412329685",
        "observationStatus": "observed",
        "role": "on",
        "time": "2017-01-20T00:25:36Z",
        "vessel": "B"
      },
      "type": "Feature"
    },
    {
      "geometry": {
        "coordinates": [
          [
            -60.60079,
            -45.730187
          ],
          [
            -60.59991,
            -45.646282
          ],
          [
            -60.574052,
            -45.651767
          ]
        ],
        "type": "LineString"
      },
      "properties": {
        "confidence": "low",
        "lineStyle": "dashed",
        "observationStatus": "estimated",
        "source": "reachable-set heuristic",
        "vessel": "A"
      },
      "type": "Feature"
    },
    {
      "geometry": {
        "coordinates": [
          [
            -60.613207,
            -45.642833
          ],
          [
            -60.59991,
            -45.646282
          ],
          [
            -60.596302,
            -45.666443
          ]
        ],
        "type": "LineString"
      },
      "properties": {
        "confidence": "low",
        "lineStyle": "dashed",
        "observationStatus": "estimated",
        "source": "reachable-set heuristic",
        "vessel": "B"
      },
      "type": "Feature"
    },
    {
      "geometry": {
        "coordinates": [
          -60.59991,
          -45.646282
        ],
        "type": "Point"
      },
      "properties": {
        "kind": "meetingPoint",
        "observationStatus": "estimated"
      },
      "type": "Feature"
    },
    {
      "geometry": {
        "coordinates": [
          [
            [
              -59.999623,
              -43.967043
            ],
            [
              -60.242663,
              -43.934837
            ],
            [
              -60.489023,
              -43.919543
            ],
            [
              -60.736331,
              -43.921309
            ],
            [
              -60.982205,
              -43.940118
            ],
            [
              -61.224277,
              -43.975788
            ],
            [
              -61.460215,
              -44.027977
            ],
            [
              -61.687748,
              -44.096181
            ],
            [
              -61.904685,
              -44.179745
            ],
            [
              -62.108935,
              -44.277862
            ],
            [
              -62.298532,
              -44.389588
            ],
            [
              -62.471651,
              -44.513847
            ],
            [
              -62.626623,
              -44.649443
            ],
            [
              -62.761957,
              -44.795069
            ],
            [
              -62.876348,
              -44.949323
            ],
            [
              -62.968696,
              -45.11072
            ],
            [
              -63.038111,
              -45.277705
            ],
            [
              -63.083925,
              -45.44867
            ],
            [
              -63.105696,
              -45.621969
            ],
            [
              -63.103214,
              -45.795932
            ],
            [
              -63.076504,
              -45.968884
            ],
            [
              -63.025823,
              -46.13916
            ],
            [
              -62.951658,
              -46.30512
            ],
            [
              -62.854725,
              -46.465165
            ],
            [
              -62.735957,
              -46.617755
            ],
            [
              -62.596496,
              -46.761419
            ],
            [
              -62.437688,
              -46.894774
            ],
            [
              -62.26106,
              -47.016536
            ],
            [
              -62.068314,
              -47.125531
            ],
            [
              -61.861306,
              -47.220712
            ],
            [
              -61.64203,
              -47.30116
            ],
            [
              -61.412598,
              -47.366101
            ],
            [
              -61.175219,
              -47.41491
            ],
            [
              -60.932179,
              -47.447117
            ],
            [
              -60.685818,
              -47.462411
            ],
            [
              -60.43851,
              -47.460645
            ],
            [
              -60.192637,
              -47.441836
            ],
            [
              -59.950565,
              -47.406165
            ],
            [
              -59.714626,
              -47.353976
            ],
            [
              -59.487093,
              -47.285772
            ],
            [
              -59.270157,
              -47.202209
            ],
            [
              -59.065907,
              -47.104092
            ],
            [
              -58.876309,
              -46.992365
            ],
            [
              -58.703191,
              -46.868106
            ],
            [
              -58.548219,
              -46.73251
            ],
            [
              -58.412885,
              -46.586884
            ],
            [
              -58.298493,
              -46.43263
            ],
            [
              -58.206145,
              -46.271233
            ],
            [
              -58.13673,
              -46.104248
            ],
            [
              -58.090917,
              -45.933283
            ],
            [
              -58.069146,
              -45.759984
            ],
            [
              -58.071628,
              -45.586021
            ],
            [
              -58.098338,
              -45.413069
            ],
            [
              -58.149019,
              -45.242793
            ],
            [
              -58.223183,
              -45.076833
            ],
            [
              -58.320116,
              -44.916788
            ],
            [
              -58.438885,
              -44.764199
            ],
            [
              -58.578345,
              -44.620535
            ],
            [
              -58.737154,
              -44.48718
            ],
            [
              -58.913782,
              -44.365418
            ],
            [
              -59.106528,
              -44.256422
            ],
            [
              -59.313535,
              -44.161241
            ],
            [
              -59.532811,
              -44.080793
            ],
            [
              -59.762244,
              -44.015852
            ],
            [
              -59.999623,
              -43.967043
            ]
          ]
        ],
        "type": "Polygon"
      },
      "properties": {
        "kind": "reachableSet",
        "observationStatus": "estimated",
        "vessel": "A"
      },
      "type": "Feature"
    },
    {
      "geometry": {
        "coordinates": [
          [
            [
              -59.499316,
              -47.198525
            ],
            [
              -59.289607,
              -47.114843
            ],
            [
              -59.092563,
              -47.017099
            ],
            [
              -58.910083,
              -46.906233
            ],
            [
              -58.743924,
              -46.783314
            ],
            [
              -58.595685,
              -46.649525
            ],
            [
              -58.466794,
              -46.506155
            ],
            [
              -58.358494,
              -46.354585
            ],
            [
              -58.271826,
              -46.196273
            ],
            [
              -58.207625,
              -46.032745
            ],
            [
              -58.166511,
              -45.865576
            ],
            [
              -58.148877,
              -45.696375
            ],
            [
              -58.154896,
              -45.526773
            ],
            [
              -58.184507,
              -45.358401
            ],
            [
              -58.237427,
              -45.192883
            ],
            [
              -58.313146,
              -45.031812
            ],
            [
              -58.410934,
              -44.876739
            ],
            [
              -58.52985,
              -44.729157
            ],
            [
              -58.668748,
              -44.590488
            ],
            [
              -58.826291,
              -44.462068
            ],
            [
              -59.000962,
              -44.345133
            ],
            [
              -59.191078,
              -44.240809
            ],
            [
              -59.394808,
              -44.150101
            ],
            [
              -59.610191,
              -44.073882
            ],
            [
              -59.835152,
              -44.012887
            ],
            [
              -60.067525,
              -43.967704
            ],
            [
              -60.305072,
              -43.938766
            ],
            [
              -60.545504,
              -43.926353
            ],
            [
              -60.786508,
              -43.930584
            ],
            [
              -61.02576,
              -43.951419
            ],
            [
              -61.260959,
              -43.988656
            ],
            [
              -61.489838,
              -44.041938
            ],
            [
              -61.710193,
              -44.110752
            ],
            [
              -61.919902,
              -44.194433
            ],
            [
              -62.116945,
              -44.292178
            ],
            [
              -62.299425,
              -44.403043
            ],
            [
              -62.465585,
              -44.525962
            ],
            [
              -62.613824,
              -44.659751
            ],
            [
              -62.742714,
              -44.803121
            ],
            [
              -62.851014,
              -44.954692
            ],
            [
              -62.937682,
              -45.113004
            ],
            [
              -63.001883,
              -45.276532
            ],
            [
              -63.042998,
              -45.443701
            ],
            [
              -63.060631,
              -45.612901
            ],
            [
              -63.054613,
              -45.782504
            ],
            [
              -63.025001,
              -45.950875
            ],
            [
              -62.972081,
              -46.116394
            ],
            [
              -62.896362,
              -46.277465
            ],
            [
              -62.798574,
              -46.432538
            ],
            [
              -62.679659,
              -46.58012
            ],
            [
              -62.54076,
              -46.718788
            ],
            [
              -62.383217,
              -46.847209
            ],
            [
              -62.208547,
              -46.964144
            ],
            [
              -62.018431,
              -47.068468
            ],
            [
              -61.8147,
              -47.159176
            ],
            [
              -61.599317,
              -47.235394
            ],
            [
              -61.374356,
              -47.296389
            ],
            [
              -61.141983,
              -47.341573
            ],
            [
              -60.904437,
              -47.370511
            ],
            [
              -60.664004,
              -47.382924
            ],
            [
              -60.423001,
              -47.378693
            ],
            [
              -60.183748,
              -47.357858
            ],
            [
              -59.948549,
              -47.32062
            ],
            [
              -59.719671,
              -47.267338
            ],
            [
              -59.499316,
              -47.198525
            ]
          ]
        ],
        "type": "Polygon"
      },
      "properties": {
        "kind": "reachableSet",
        "observationStatus": "estimated",
        "vessel": "B"
      },
      "type": "Feature"
    }
  ],
  "properties": {
    "dateline": false
  },
  "type": "FeatureCollection"
}
