{
  "features": [
    {
      "geometry": {
        "coordinates": [
          -60.503013,
          -45.82816
        ],
        "type": "Point"
      },
      "properties": {
        "mmsi": "412329684",
        "observationStatus": "observed",
        "role": "off",
        "time": "2019-02-13T06:24:44Z",
        "vessel": "A"
      },
      "type": "Feature"
    },
    {
      "geometry": {
        "coordinates": [
          -60.518373,
          -45.840782
        ],
        "type": "Point"
      },
      "properties": {
        "mmsi": "412329693",
        "observationStatus": "observed",
        "role": "off",
        "time": "2019-02-13T07:03:26Z",
        "vessel": "B"
      },
      "type": "Feature"
    },
    {
      "geometry": {
        "coordinates": [
          -60.62034,
          -45.84559
        ],
        "type": "Point"
      },
      "properties": {
        "mmsi": "412329693",
        "observationStatus": "observed",
        "role": "on",
        "time": "2019-02-13T22:35:47Z",
        "vessel": "B"
      },
      "type": "Feature"
    },
    {
      "geometry": {
        "coordinates": [
          -60.66548,
          -45.908697
        ],
        "type": "Point"
      },
      "properties": {
        "mmsi": "412329684",
        "observationStatus": "observed",
        "role": "on",
        "time": "2019-02-13T23:15:57Z",
        "vessel": "A"
      },
      "type": "Feature"
    },
    {
      "geometry": {
        "coordinates": [
          [
            -60.503013,
            -45.82816
          ],
          [
            -60.560993,
            -45.842956
          ],
          [
            -60.66548,
            -45.908697
          ]
        ],
        "type": "LineString"
      },
      "properties": {
        "confidence": "low",
        "lineStyle": "dashed",
        "observationStatus": "estimated",
        "source": "reachable-set heuristic",
        "vessel": "A"
      },
      "type": "Feature"
    },
    {
      "geometry": {
        "coordinates": [
          [
            -60.518373,
            -45.840782
          ],
          [
            -60.560993,
            -45.842956
          ],
          [
            -60.62034,
            -45.84559
          ]
        ],
        "type": "LineString"
      },
      "properties": {
        "confidence": "low",
        "lineStyle": "dashed",
        "observationStatus": "estimated",
        "source": "reachable-set heuristic",
        "vessel": "B"
      },
      "type": "Feature"
    },
    {
      "geometry": {
        "coordinates": [
          -60.560993,
          -45.842956
        ],
        "type": "Point"
      },
      "properties": {
        "kind": "meetingPoint",
        "observationStatus": "estimated"
      },
      "type": "Feature"
    },
    {
      "geometry": {
        "coordinates": [
          [
            [
              -62.594542,
              -46.864956
            ],
            [
              -62.445642,
              -46.998178
            ],
            [
              -62.278817,
              -47.12052
            ],
            [
              -62.095672,
              -47.230804
            ],
            [
              -61.897971,
              -47.327967
            ],
            [
              -61.687618,
              -47.411074
            ],
            [
              -61.466639,
              -47.479325
            ],
            [
              -61.237162,
              -47.532062
            ],
            [
              -61.001398,
              -47.568777
            ],
            [
              -60.761615,
              -47.589117
            ],
            [
              -60.520125,
              -47.592886
            ],
            [
              -60.279252,
              -47.580047
            ],
            [
              -60.041317,
              -47.550724
            ],
            [
              -59.80861,
              -47.5052
            ],
            [
              -59.583373,
              -47.443913
            ],
            [
              -59.367775,
              -47.367454
            ],
            [
              -59.163892,
              -47.276557
            ],
            [
              -58.973688,
              -47.1721
            ],
            [
              -58.798995,
              -47.055088
            ],
            [
              -58.641494,
              -46.926647
            ],
            [
              -58.502704,
              -46.788015
            ],
            [
              -58.383959,
              -46.640528
            ],
            [
              -58.286405,
              -46.485604
            ],
            [
              -58.21098,
              -46.324737
            ],
            [
              -58.158411,
              -46.159475
            ],
            [
              -58.129204,
              -45.99141
            ],
            [
              -58.123641,
              -45.822161
            ],
            [
              -58.141774,
              -45.653357
            ],
            [
              -58.18343,
              -45.486625
            ],
            [
              -58.248207,
              -45.32357
            ],
            [
              -58.335481,
              -45.165761
            ],
            [
              -58.444413,
              -45.01472
            ],
            [
              -58.573952,
              -44.871901
            ],
            [
              -58.722851,
              -44.738679
            ],
            [
              -58.889676,
              -44.616337
            ],
            [
              -59.072821,
              -44.506053
            ],
            [
              -59.270522,
              -44.40889
            ],
            [
              -59.480875,
              -44.325782
            ],
            [
              -59.701854,
              -44.257532
            ],
            [
              -59.931331,
              -44.204795
            ],
            [
              -60.167096,
              -44.16808
            ],
            [
              -60.406878,
              -44.14774
            ],
            [
              -60.648368,
              -44.143971
            ],
            [
              -60.889241,
              -44.15681
            ],
            [
              -61.127177,
              -44.186132
            ],
            [
              -61.359883,
              -44.231656
            ],
            [
              -61.58512,
              -44.292943
            ],
            [
              -61.800719,
              -44.369403
            ],
            [
              -62.004601,
              -44.460299
            ],
            [
              -62.194805,
              -44.564757
            ],
            [
              -62.369499,
              -44.681769
            ],
            [
              -62.526999,
              -44.810209
            ],
            [
              -62.66579,
              -44.948841
            ],
            [
              -62.784534,
              -45.096329
            ],
            [
              -62.882088,
              -45.251253
            ],
            [
              -62.957513,
              -45.41212
            ],
            [
              -63.010082,
              -45.577382
            ],
            [
              -63.039289,
              -45.745447
            ],
            [
              -63.044853,
              -45.914696
            ],
            [
              -63.026719,
              -46.083499
            ],
            [
              -62.985063,
              -46.250232
            ],
            [
              -62.920286,
              -46.413287
            ],
            [
              -62.833012,
              -46.571095
            ],
            [
              -62.724081,
              -46.722136
            ],
            [
              -62.594542,
              -46.864956
            ]
          ]
        ],
        "type": "Polygon"
      },
      "properties": {
        "kind": "reachableSet",
        "observationStatus": "estimated",
        "vessel": "A"
      },
      "type": "Feature"
    },
    {
      "geometry": {
        "coordinates": [
          [
            [
              -62.821222,
              -45.949375
            ],
            [
              -62.795542,
              -46.103627
            ],
            [
              -62.748423,
              -46.25537
            ],
            [
              -62.680318,
              -46.403144
            ],
            [
              -62.591883,
              -46.545526
            ],
            [
              -62.483971,
              -46.681143
            ],
            [
              -62.357619,
              -46.808691
            ],
            [
              -62.214046,
              -46.92694
            ],
            [
              -62.054633,
              -47.034752
            ],
            [
              -61.880916,
              -47.131089
            ],
            [
              -61.694569,
              -47.215022
            ],
            [
              -61.497384,
              -47.285744
            ],
            [
              -61.291263,
              -47.342573
            ],
            [
              -61.078189,
              -47.384963
            ],
            [
              -60.860215,
              -47.412504
            ],
            [
              -60.639439,
              -47.424932
            ],
            [
              -60.417989,
              -47.422126
            ],
            [
              -60.197997,
              -47.404115
            ],
            [
              -59.98158,
              -47.371071
            ],
            [
              -59.770825,
              -47.323313
            ],
            [
              -59.56776,
              -47.2613
            ],
            [
              -59.37434,
              -47.18563
            ],
            [
              -59.19243,
              -47.097032
            ],
            [
              -59.02378,
              -46.996358
            ],
            [
              -58.870014,
              -46.884579
            ],
            [
              -58.732615,
              -46.76277
            ],
            [
              -58.612904,
              -46.632105
            ],
            [
              -58.512034,
              -46.493843
            ],
            [
              -58.430978,
              -46.349315
            ],
            [
              -58.370516,
              -46.199912
            ],
            [
              -58.33123,
              -46.047073
            ],
            [
              -58.313498,
              -45.892272
            ],
            [
              -58.317491,
              -45.736997
            ],
            [
              -58.343171,
              -45.582745
            ],
            [
              -58.39029,
              -45.431001
            ],
            [
              -58.458395,
              -45.283227
            ],
            [
              -58.54683,
              -45.140846
            ],
            [
              -58.654743,
              -45.005228
            ],
            [
              -58.781094,
              -44.877681
            ],
            [
              -58.924668,
              -44.759432
            ],
            [
              -59.08408,
              -44.651619
            ],
            [
              -59.257797,
              -44.555283
            ],
            [
              -59.444145,
              -44.471349
            ],
            [
              -59.641329,
              -44.400628
            ],
            [
              -59.84745,
              -44.343798
            ],
            [
              -60.060524,
              -44.301409
            ],
            [
              -60.278499,
              -44.273868
            ],
            [
              -60.499274,
              -44.26144
            ],
            [
              -60.720724,
              -44.264245
            ],
            [
              -60.940717,
              -44.282257
            ],
            [
              -61.157133,
              -44.315301
            ],
            [
              -61.367888,
              -44.363059
            ],
            [
              -61.570954,
              -44.425072
            ],
            [
              -61.764373,
              -44.500742
            ],
            [
              -61.946284,
              -44.58934
            ],
            [
              -62.114934,
              -44.690014
            ],
            [
              -62.268699,
              -44.801793
            ],
            [
              -62.406099,
              -44.923602
            ],
            [
              -62.52581,
              -45.054266
            ],
            [
              -62.626679,
              -45.192529
            ],
            [
              -62.707735,
              -45.337057
            ],
            [
              -62.768197,
              -45.48646
            ],
            [
              -62.807484,
              -45.639298
            ],
            [
              -62.825215,
              -45.7941
            ],
            [
              -62.821222,
              -45.949375
            ]
          ]
        ],
        "type": "Polygon"
      },
      "properties": {
        "kind": "reachableSet",
        "observationStatus": "estimated",
        "vessel": "B"
      },
      "type": "Feature"
    }
  ],
  "properties": {
    "dateline": false
  },
  "type": "FeatureCollection"
}
