{
  "features": [
    {
      "geometry": {
        "coordinates": [
          -57.841633,
          -42.004978
        ],
        "type": "Point"
      },
      "properties": {
        "mmsi": "412439575",
        "observationStatus": "observed",
        "role": "off",
        "time": "2018-04-11T17:01:39Z",
        "vessel": "A"
      },
      "type": "Feature"
    },
    {
      "geometry": {
        "coordinates": [
          -57.793275,
          -42.036847
        ],
        "type": "Point"
      },
      "properties": {
        "mmsi": "412424702",
        "observationStatus": "observed",
        "role": "off",
        "time": "2018-04-11T17:06:54Z",
        "vessel": "B"
      },
      "type": "Feature"
    },
    {
      "geometry": {
        "coordinates": [
          -58.04178,
          -42.216597
        ],
        "type": "Point"
      },
      "properties": {
        "mmsi": "412439575",
        "observationStatus": "observed",
        "role": "on",
        "time": "2018-04-12T10:25:27Z",
        "vessel": "A"
      },
      "type": "Feature"
    },
    {
      "geometry": {
        "coordinates": [
          -58.007292,
          -42.152215
        ],
        "type": "Point"
      },
      "properties": {
        "mmsi": "412424702",
        "observationStatus": "observed",
        "role": "on",
        "time": "2018-04-12T10:35:05Z",
        "vessel": "B"
      },
      "type": "Feature"
    },
    {
      "geometry": {
        "coordinates": [
          [
            -57.841633,
            -42.004978
          ],
          [
            -57.95322,
            -42.152371
          ],
          [
            -58.04178,
            -42.216597
          ]
        ],
        "type": "LineString"
      },
      "properties": {
        "confidence": "low",
        "lineStyle": "dashed",
        "observationStatus": "estimated",
        "source": "reachable-set heuristic",
        "vessel": "A"
      },
      "type": "Feature"
    },
    {
      "geometry": {
        "coordinates": [
          [
            -57.793275,
            -42.036847
          ],
          [
            -57.95322,
            -42.152371
          ],
          [
            -58.007292,
            -42.152215
          ]
        ],
        "type": "LineString"
      },
      "properties": {
        "confidence": "low",
        "lineStyle": "dashed",
        "observationStatus": "estimated",
        "source": "reachable-set heuristic",
        "vessel": "B"
      },
      "type": "Feature"
    },
    {
      "geometry": {
        "coordinates": [
          -57.95322,
          -42.152371
        ],
        "type": "Point"
      },
      "properties": {
        "kind": "meetingPoint",
        "observationStatus": "estimated"
      },
      "type": "Feature"
    },
    {
      "geometry": {
        "coordinates": [
          [
            [
              -59.214641,
              -43.456681
            ],
            [
              -59.032429,
              -43.5431
            ],
            [
              -58.839713,
              -43.615725
            ],
            [
              -58.638349,
              -43.673856
            ],
            [
              -58.430276,
              -43.716934
            ],
            [
              -58.217498,
              -43.744544
            ],
            [
              -58.002064,
              -43.75642
            ],
            [
              -57.786048,
              -43.752448
            ],
            [
              -57.571532,
              -43.732666
            ],
            [
              -57.36058,
              -43.697264
            ],
            [
              -57.155225,
              -43.646583
            ],
            [
              -56.957445,
              -43.581112
            ],
            [
              -56.769143,
              -43.501481
            ],
            [
              -56.592134,
              -43.408457
            ],
            [
              -56.428121,
              -43.302935
            ],
            [
              -56.278686,
              -43.185933
            ],
            [
              -56.145266,
              -43.058576
            ],
            [
              -56.029147,
              -42.922091
            ],
            [
              -55.931447,
              -42.777794
            ],
            [
              -55.853107,
              -42.627072
            ],
            [
              -55.794881,
              -42.471379
            ],
            [
              -55.757331,
              -42.312212
            ],
            [
              -55.740817,
              -42.151106
            ],
            [
              -55.745499,
              -41.989612
            ],
            [
              -55.771331,
              -41.829284
            ],
            [
              -55.818066,
              -41.671668
            ],
            [
              -55.885252,
              -41.518281
            ],
            [
              -55.972243,
              -41.370599
            ],
            [
              -56.078201,
              -41.230047
            ],
            [
              -56.202106,
              -41.097976
            ],
            [
              -56.342764,
              -40.975659
            ],
            [
              -56.49882,
              -40.864274
            ],
            [
              -56.668773,
              -40.764894
            ],
            [
              -56.850984,
              -40.678475
            ],
            [
              -57.0437,
              -40.60585
            ],
            [
              -57.245064,
              -40.547719
            ],
            [
              -57.453137,
              -40.504641
            ],
            [
              -57.665915,
              -40.477031
            ],
            [
              -57.88135,
              -40.465155
            ],
            [
              -58.097365,
              -40.469127
            ],
            [
              -58.311882,
              -40.488909
            ],
            [
              -58.522833,
              -40.524311
            ],
            [
              -58.728188,
              -40.574992
            ],
            [
              -58.925969,
              -40.640463
            ],
            [
              -59.11427,
              -40.720094
            ],
            [
              -59.29128,
              -40.813118
            ],
            [
              -59.455292,
              -40.91864
            ],
            [
              -59.604727,
              -41.035642
            ],
            [
              -59.738147,
              -41.162999
            ],
            [
              -59.854266,
              -41.299484
            ],
            [
              -59.951966,
              -41.443781
            ],
            [
              -60.030306,
              -41.594503
            ],
            [
              -60.088532,
              -41.750196
            ],
            [
              -60.126083,
              -41.909363
            ],
            [
              -60.142597,
              -42.070469
            ],
            [
              -60.137915,
              -42.231963
            ],
            [
              -60.112082,
              -42.392291
            ],
            [
              -60.065348,
              -42.549907
            ],
            [
              -59.998161,
              -42.703294
            ],
            [
              -59.91117,
              -42.850976
            ],
            [
              -59.805212,
              -42.991528
            ],
            [
              -59.681308,
              -43.123599
            ],
            [
              -59.54065,
              -43.245916
            ],
            [
              -59.384593,
              -43.357301
            ],
            [
              -59.214641,
              -43.456681
            ]
          ]
        ],
        "type": "Polygon"
      },
      "properties": {
        "kind": "reachableSet",
        "observationStatus": "estimated",
        "vessel": "A"
      },
      "type": "Feature"
    },
    {
      "geometry": {
        "coordinates": [
          [
            [
              -59.696929,
              -43.063035
            ],
            [
              -59.561434,
              -43.189699
            ],
            [
              -59.409941,
              -43.305816
            ],
            [
              -59.24391,
              -43.410267
            ],
            [
              -59.064938,
              -43.502048
            ],
            [
              -58.87475,
              -43.580273
            ],
            [
              -58.675178,
              -43.644189
            ],
            [
              -58.468143,
              -43.693182
            ],
            [
              -58.255639,
              -43.726779
            ],
            [
              -58.039713,
              -43.744656
            ],
            [
              -57.822444,
              -43.746642
            ],
            [
              -57.605925,
              -43.732716
            ],
            [
              -57.392241,
              -43.703015
            ],
            [
              -57.183449,
              -43.657822
            ],
            [
              -56.981561,
              -43.597575
            ],
            [
              -56.78852,
              -43.522852
            ],
            [
              -56.606187,
              -43.434374
            ],
            [
              -56.436316,
              -43.332992
            ],
            [
              -56.280544,
              -43.219683
            ],
            [
              -56.140371,
              -43.095539
            ],
            [
              -56.017147,
              -42.961754
            ],
            [
              -55.912059,
              -42.819617
            ],
            [
              -55.826119,
              -42.670497
            ],
            [
              -55.760153,
              -42.515831
            ],
            [
              -55.714799,
              -42.357107
            ],
            [
              -55.690491,
              -42.195854
            ],
            [
              -55.687466,
              -42.033626
            ],
            [
              -55.70575,
              -41.871984
            ],
            [
              -55.74517,
              -41.712485
            ],
            [
              -55.805344,
              -41.556666
            ],
            [
              -55.885694,
              -41.406027
            ],
            [
              -55.985445,
              -41.262018
            ],
            [
              -56.103638,
              -41.126027
            ],
            [
              -56.239133,
              -40.999363
            ],
            [
              -56.390625,
              -40.883246
            ],
            [
              -56.556657,
              -40.778794
            ],
            [
              -56.735628,
              -40.687014
            ],
            [
              -56.925816,
              -40.608789
            ],
            [
              -57.125389,
              -40.544872
            ],
            [
              -57.332424,
              -40.49588
            ],
            [
              -57.544927,
              -40.462283
            ],
            [
              -57.760854,
              -40.444406
            ],
            [
              -57.978122,
              -40.44242
            ],
            [
              -58.194642,
              -40.456345
            ],
            [
              -58.408326,
              -40.486047
            ],
            [
              -58.617118,
              -40.531239
            ],
            [
              -58.819006,
              -40.591487
            ],
            [
              -59.012046,
              -40.66621
            ],
            [
              -59.19438,
              -40.754688
            ],
            [
              -59.364251,
              -40.85607
            ],
            [
              -59.520022,
              -40.969378
            ],
            [
              -59.660195,
              -41.093523
            ],
            [
              -59.783419,
              -41.227308
            ],
            [
              -59.888507,
              -41.369445
            ],
            [
              -59.974448,
              -41.518564
            ],
            [
              -60.040413,
              -41.673231
            ],
            [
              -60.085768,
              -41.831955
            ],
            [
              -60.110075,
              -41.993207
            ],
            [
              -60.113101,
              -42.155436
            ],
            [
              -60.094816,
              -42.317078
            ],
            [
              -60.055397,
              -42.476576
            ],
            [
              -59.995222,
              -42.632396
            ],
            [
              -59.914873,
              -42.783035
            ],
            [
              -59.815121,
              -42.927044
            ],
            [
              -59.696929,
              -43.063035
            ]
          ]
        ],
        "type": "Polygon"
      },
      "properties": {
        "kind": "reachableSet",
        "observationStatus": "estimated",
        "vessel": "B"
      },
      "type": "Feature"
    }
  ],
  "properties": {
    "dateline": false
  },
  "type": "FeatureCollection"
}
