{
  "features": [
    {
      "geometry": {
        "coordinates": [
          -60.86415,
          -46.920483
        ],
        "type": "Point"
      },
      "properties": {
        "mmsi": "440216000",
        "observationStatus": "observed",
        "role": "off",
        "time": "2017-03-09T03:20:42Z",
        "vessel": "A"
      },
      "type": "Feature"
    },
    {
      "geometry": {
        "coordinates": [
          -60.839723,
          -47.00438
        ],
        "type": "Point"
      },
      "properties": {
        "mmsi": "441410000",
        "observationStatus": "observed",
        "role": "off",
        "time": "2017-03-09T03:22:03Z",
        "vessel": "B"
      },
      "type": "Feature"
    },
    {
      "geometry": {
        "coordinates": [
          -60.83595,
          -46.908365
        ],
        "type": "Point"
      },
      "properties": {
        "mmsi": "441410000",
        "observationStatus": "observed",
        "role": "on",
        "time": "2017-03-09T16:01:00Z",
        "vessel": "B"
      },
      "type": "Feature"
    },
    {
      "geometry": {
        "coordinates": [
          -60.83115,
          -46.877167
        ],
        "type": "Point"
      },
      "properties": {
        "mmsi": "440216000",
        "observationStatus": "observed",
        "role": "on",
        "time": "2017-03-09T16:01:34Z",
        "vessel": "A"
      },
      "type": "Feature"
    },
    {
      "geometry": {
        "coordinates": [
          [
            -60.86415,
            -46.920483
          ],
          [
            -60.834351,
            -46.923858
          ],
          [
            -60.83115,
            -46.877167
          ]
        ],
        "type": "LineString"
      },
      "properties": {
        "confidence": "low",
        "lineStyle": "dashed",
        "observationStatus": "estimated",
        "source": "reachable-set heuristic",
        "vessel": "A"
      },
      "type": "Feature"
    },
    {
      "geometry": {
        "coordinates": [
          [
            -60.839723,
            -47.00438
          ],
          [
            -60.834351,
            -46.923858
          ],
          [
            -60.83595,
            -46.908365
          ]
        ],
        "type": "LineString"
      },
      "properties": {
        "confidence": "low",
        "lineStyle": "dashed",
        "observationStatus": "estimated",
        "source": "reachable-set heuristic",
        "vessel": "B"
      },
      "type": "Feature"
    },
    {
      "geometry": {
        "coordinates": [
          -60.834351,
          -46.923858
        ],
        "type": "Point"
      },
      "properties": {
        "kind": "meetingPoint",
        "observationStatus": "estimated"
      },
      "type": "Feature"
    },
    {
      "geometry": {
        "coordinates": [
          [
            [
              -60.055513,
              -45.859045
            ],
            [
              -60.207445,
              -45.810651
            ],
            [
              -60.365544,
              -45.772736
            ],
            [
              -60.528285,
              -45.745667
            ],
            [
              -60.694102,
              -45.729703
            ],
            [
              -60.861398,
              -45.724998
            ],
            [
              -61.028561,
              -45.731598
            ],
            [
              -61.193982,
              -45.749439
            ],
            [
              -61.356068,
              -45.778349
            ],
            [
              -61.513257,
              -45.81805
            ],
            [
              -61.664036,
              -45.86816
            ],
            [
              -61.806953,
              -45.928195
            ],
            [
              -61.940632,
              -45.997578
            ],
            [
              -62.063784,
              -46.07564
            ],
            [
              -62.175224,
              -46.161631
            ],
            [
              -62.273879,
              -46.25472
            ],
            [
              -62.358799,
              -46.354013
            ],
            [
              -62.429165,
              -46.458553
            ],
            [
              -62.484301,
              -46.567333
            ],
            [
              -62.523675,
              -46.679305
            ],
            [
              -62.546907,
              -46.793391
            ],
            [
              -62.553775,
              -46.908493
            ],
            [
              -62.544212,
              -47.023502
            ],
            [
              -62.51831,
              -47.13731
            ],
            [
              -62.476319,
              -47.248821
            ],
            [
              -62.418643,
              -47.356961
            ],
            [
              -62.345837,
              -47.46069
            ],
            [
              -62.258603,
              -47.559007
            ],
            [
              -62.157781,
              -47.650966
            ],
            [
              -62.044342,
              -47.735682
            ],
            [
              -61.919377,
              -47.812339
            ],
            [
              -61.784092,
              -47.880198
            ],
            [
              -61.639787,
              -47.938605
            ],
            [
              -61.487855,
              -47.986999
            ],
            [
              -61.329756,
              -48.024914
            ],
            [
              -61.167015,
              -48.051983
            ],
            [
              -61.001198,
              -48.067947
            ],
            [
              -60.833902,
              -48.072652
            ],
            [
              -60.666739,
              -48.066052
            ],
            [
              -60.501318,
              -48.048211
            ],
            [
              -60.339232,
              -48.019301
            ],
            [
              -60.182043,
              -47.9796
            ],
            [
              -60.031264,
              -47.92949
            ],
            [
              -59.888347,
              -47.869455
            ],
            [
              -59.754668,
              -47.800072
            ],
            [
              -59.631516,
              -47.72201
            ],
            [
              -59.520076,
              -47.636019
            ],
            [
              -59.421421,
              -47.54293
            ],
            [
              -59.336501,
              -47.443637
            ],
            [
              -59.266135,
              -47.339097
            ],
            [
              -59.210999,
              -47.230317
            ],
            [
              -59.171625,
              -47.118345
            ],
            [
              -59.148393,
              -47.004259
            ],
            [
              -59.141525,
              -46.889157
            ],
            [
              -59.151088,
              -46.774148
            ],
            [
              -59.17699,
              -46.66034
            ],
            [
              -59.218981,
              -46.548829
            ],
            [
              -59.276657,
              -46.440689
            ],
            [
              -59.349463,
              -46.33696
            ],
            [
              -59.436697,
              -46.238643
            ],
            [
              -59.537519,
              -46.146684
            ],
            [
              -59.650958,
              -46.061968
            ],
            [
              -59.775923,
              -45.985311
            ],
            [
              -59.911208,
              -45.917452
            ],
            [
              -60.055513,
              -45.859045
            ]
          ]
        ],
        "type": "Polygon"
      },
      "properties": {
        "kind": "reachableSet",
        "observationStatus": "estimated",
        "vessel": "A"
      },
      "type": "Feature"
    },
    {
      "geometry": {
        "coordinates": [
          [
            [
              -60.791845,
              -45.786088
            ],
            [
              -60.958851,
              -45.788628
            ],
            [
              -61.124691,
              -45.802414
            ],
            [
              -61.287768,
              -45.827313
            ],
            [
              -61.446512,
              -45.863086
            ],
            [
              -61.599395,
              -45.909388
            ],
            [
              -61.744943,
              -45.965773
            ],
            [
              -61.881755,
              -46.031697
            ],
            [
              -62.008514,
              -46.106527
            ],
            [
              -62.123998,
              -46.189542
            ],
            [
              -62.227097,
              -46.279941
            ],
            [
              -62.316815,
              -46.376855
            ],
            [
              -62.392291,
              -46.47935
            ],
            [
              -62.452796,
              -46.586439
            ],
            [
              -62.497748,
              -46.69709
            ],
            [
              -62.526714,
              -46.810239
            ],
            [
              -62.539416,
              -46.924794
            ],
            [
              -62.53573,
              -47.039654
            ],
            [
              -62.515693,
              -47.153712
            ],
            [
              -62.479497,
              -47.26587
            ],
            [
              -62.427491,
              -47.375047
            ],
            [
              -62.360176,
              -47.480191
            ],
            [
              -62.2782,
              -47.580292
            ],
            [
              -62.182352,
              -47.674383
            ],
            [
              -62.073556,
              -47.76156
            ],
            [
              -61.952859,
              -47.840982
            ],
            [
              -61.821424,
              -47.911885
            ],
            [
              -61.680516,
              -47.973586
            ],
            [
              -61.531493,
              -48.02549
            ],
            [
              -61.37579,
              -48.067098
            ],
            [
              -61.214906,
              -48.09801
            ],
            [
              -61.050391,
              -48.117927
            ],
            [
              -60.883828,
              -48.126657
            ],
            [
              -60.716823,
              -48.124117
            ],
            [
              -60.550983,
              -48.110331
            ],
            [
              -60.387905,
              -48.085432
            ],
            [
              -60.229161,
              -48.049659
            ],
            [
              -60.076279,
              -48.003357
            ],
            [
              -59.93073,
              -47.946972
            ],
            [
              -59.793918,
              -47.881048
            ],
            [
              -59.667159,
              -47.806218
            ],
            [
              -59.551675,
              -47.723203
            ],
            [
              -59.448577,
              -47.632804
            ],
            [
              -59.358858,
              -47.53589
            ],
            [
              -59.283383,
              -47.433395
            ],
            [
              -59.222878,
              -47.326306
            ],
            [
              -59.177925,
              -47.215655
            ],
            [
              -59.148959,
              -47.102506
            ],
            [
              -59.136257,
              -46.987951
            ],
            [
              -59.139943,
              -46.873091
            ],
            [
              -59.15998,
              -46.759033
            ],
            [
              -59.196176,
              -46.646875
            ],
            [
              -59.248182,
              -46.537698
            ],
            [
              -59.315498,
              -46.432554
            ],
            [
              -59.397474,
              -46.332453
            ],
            [
              -59.493321,
              -46.238362
            ],
            [
              -59.602118,
              -46.151185
            ],
            [
              -59.722814,
              -46.071763
            ],
            [
              -59.854249,
              -46.00086
            ],
            [
              -59.995157,
              -45.939159
            ],
            [
              -60.14418,
              -45.887255
            ],
            [
              -60.299883,
              -45.845647
            ],
            [
              -60.460767,
              -45.814735
            ],
            [
              -60.625283,
              -45.794818
            ],
            [
              -60.791845,
              -45.786088
            ]
          ]
        ],
        "type": "Polygon"
      },
      "properties": {
        "kind": "reachableSet",
        "observationStatus": "estimated",
        "vessel": "B"
      },
      "type": "Feature"
    }
  ],
  "properties": {
    "dateline": false
  },
  "type": "FeatureCollection"
}
