{
  "features": [
    {
      "geometry": {
        "coordinates": [
          -60.864065,
          -46.818852
        ],
        "type": "Point"
      },
      "properties": {
        "mmsi": "441007000",
        "observationStatus": "observed",
        "role": "off",
        "time": "2017-03-09T03:22:03Z",
        "vessel": "A"
      },
      "type": "Feature"
    },
    {
      "geometry": {
        "coordinates": [
          -60.768833,
          -46.842517
        ],
        "type": "Point"
      },
      "properties": {
        "mmsi": "441766000",
        "observationStatus": "observed",
        "role": "off",
        "time": "2017-03-09T03:22:19Z",
        "vessel": "B"
      },
      "type": "Feature"
    },
    {
      "geometry": {
        "coordinates": [
          -60.835922,
          -46.792268
        ],
        "type": "Point"
      },
      "properties": {
        "mmsi": "441007000",
        "observationStatus": "observed",
        "role": "on",
        "time": "2017-03-09T15:56:25Z",
        "vessel": "A"
      },
      "type": "Feature"
    },
    {
      "geometry": {
        "coordinates": [
          -60.848683,
          -46.8358
        ],
        "type": "Point"
      },
      "properties": {
        "mmsi": "441766000",
        "observationStatus": "observed",
        "role": "on",
        "time": "2017-03-09T16:01:04Z",
        "vessel": "B"
      },
      "type": "Feature"
    },
    {
      "geometry": {
        "coordinates": [
          [
            -60.864065,
            -46.818852
          ],
          [
            -60.809633,
            -46.812854
          ],
          [
            -60.835922,
            -46.792268
          ]
        ],
        "type": "LineString"
      },
      "properties": {
        "confidence": "low",
        "lineStyle": "dashed",
        "observationStatus": "estimated",
        "source": "reachable-set heuristic",
        "vessel": "A"
      },
      "type": "Feature"
    },
    {
      "geometry": {
        "coordinates": [
          [
            -60.768833,
            -46.842517
          ],
          [
            -60.809633,
            -46.812854
          ],
          [
            -60.848683,
            -46.8358
          ]
        ],
        "type": "LineString"
      },
      "properties": {
        "confidence": "low",
        "lineStyle": "dashed",
        "observationStatus": "estimated",
        "source": "reachable-set heuristic",
        "vessel": "B"
      },
      "type": "Feature"
    },
    {
      "geometry": {
        "coordinates": [
          -60.809633,
          -46.812854
        ],
        "type": "Point"
      },
      "properties": {
        "kind": "meetingPoint",
        "observationStatus": "estimated"
      },
      "type": "Feature"
    },
    {
      "geometry": {
        "coordinates": [
          [
            [
              -59.855292,
              -45.865995
            ],
            [
              -59.993707,
              -45.803338
            ],
            [
              -60.14037,
              -45.750334
            ],
            [
              -60.293866,
              -45.707491
            ],
            [
              -60.452718,
              -45.675224
            ],
            [
              -60.615396,
              -45.653843
            ],
            [
              -60.780334,
              -45.643553
            ],
            [
              -60.945942,
              -45.644454
            ],
            [
              -61.110626,
              -45.656537
            ],
            [
              -61.2728,
              -45.679685
            ],
            [
              -61.430903,
              -45.713677
            ],
            [
              -61.583411,
              -45.758184
            ],
            [
              -61.728855,
              -45.812777
            ],
            [
              -61.865836,
              -45.876932
            ],
            [
              -61.993034,
              -45.95003
            ],
            [
              -62.109223,
              -46.031367
            ],
            [
              -62.213286,
              -46.12016
            ],
            [
              -62.304219,
              -46.215554
            ],
            [
              -62.381147,
              -46.31663
            ],
            [
              -62.44333,
              -46.422415
            ],
            [
              -62.490167,
              -46.531889
            ],
            [
              -62.521209,
              -46.643999
            ],
            [
              -62.536156,
              -46.757665
            ],
            [
              -62.534865,
              -46.871793
            ],
            [
              -62.517347,
              -46.985282
            ],
            [
              -62.483772,
              -47.097041
            ],
            [
              -62.434462,
              -47.205992
            ],
            [
              -62.369894,
              -47.311087
            ],
            [
              -62.290687,
              -47.411314
            ],
            [
              -62.197607,
              -47.505707
            ],
            [
              -62.091547,
              -47.593357
            ],
            [
              -61.973531,
              -47.67342
            ],
            [
              -61.844695,
              -47.745125
            ],
            [
              -61.706279,
              -47.807782
            ],
            [
              -61.559617,
              -47.860786
            ],
            [
              -61.406121,
              -47.903629
            ],
            [
              -61.247269,
              -47.935896
            ],
            [
              -61.08459,
              -47.957277
            ],
            [
              -60.919653,
              -47.967567
            ],
            [
              -60.754045,
              -47.966666
            ],
            [
              -60.58936,
              -47.954583
            ],
            [
              -60.427186,
              -47.931435
            ],
            [
              -60.269084,
              -47.897443
            ],
            [
              -60.116576,
              -47.852936
            ],
            [
              -59.971131,
              -47.798343
            ],
            [
              -59.834151,
              -47.734188
            ],
            [
              -59.706953,
              -47.66109
            ],
            [
              -59.590763,
              -47.579753
            ],
            [
              -59.486701,
              -47.49096
            ],
            [
              -59.395768,
              -47.395566
            ],
            [
              -59.31884,
              -47.29449
            ],
            [
              -59.256657,
              -47.188705
            ],
            [
              -59.209819,
              -47.079231
            ],
            [
              -59.178778,
              -46.967121
            ],
            [
              -59.16383,
              -46.853455
            ],
            [
              -59.165122,
              -46.739327
            ],
            [
              -59.18264,
              -46.625838
            ],
            [
              -59.216215,
              -46.514079
            ],
            [
              -59.265524,
              -46.405128
            ],
            [
              -59.330093,
              -46.300033
            ],
            [
              -59.409299,
              -46.199806
            ],
            [
              -59.50238,
              -46.105413
            ],
            [
              -59.608439,
              -46.017763
            ],
            [
              -59.726455,
              -45.9377
            ],
            [
              -59.855292,
              -45.865995
            ]
          ]
        ],
        "type": "Polygon"
      },
      "properties": {
        "kind": "reachableSet",
        "observationStatus": "estimated",
        "vessel": "A"
      },
      "type": "Feature"
    },
    {
      "geometry": {
        "coordinates": [
          [
            [
              -62.49565,
              -46.697264
            ],
            [
              -62.507716,
              -46.811786
            ],
            [
              -62.503421,
              -46.926571
            ],
            [
              -62.482805,
              -47.040515
            ],
            [
              -62.446067,
              -47.15252
            ],
            [
              -62.393561,
              -47.261507
            ],
            [
              -62.325792,
              -47.366426
            ],
            [
              -62.243414,
              -47.466268
            ],
            [
              -62.147219,
              -47.56007
            ],
            [
              -62.038134,
              -47.646929
            ],
            [
              -61.91721,
              -47.726009
            ],
            [
              -61.78561,
              -47.796548
            ],
            [
              -61.644603,
              -47.857867
            ],
            [
              -61.495546,
              -47.909376
            ],
            [
              -61.339875,
              -47.950577
            ],
            [
              -61.179089,
              -47.981075
            ],
            [
              -61.014737,
              -48.000576
            ],
            [
              -60.8484,
              -48.008891
            ],
            [
              -60.681683,
              -48.005942
            ],
            [
              -60.516189,
              -47.991755
            ],
            [
              -60.353512,
              -47.966469
            ],
            [
              -60.19522,
              -47.930326
            ],
            [
              -60.042836,
              -47.883674
            ],
            [
              -59.897829,
              -47.826963
            ],
            [
              -59.761595,
              -47.760739
            ],
            [
              -59.635445,
              -47.68564
            ],
            [
              -59.520595,
              -47.602388
            ],
            [
              -59.418151,
              -47.511787
            ],
            [
              -59.329099,
              -47.414707
            ],
            [
              -59.254296,
              -47.312085
            ],
            [
              -59.194465,
              -47.204908
            ],
            [
              -59.150179,
              -47.094209
            ],
            [
              -59.121867,
              -46.981053
            ],
            [
              -59.109801,
              -46.866531
            ],
            [
              -59.114096,
              -46.751745
            ],
            [
              -59.134712,
              -46.637801
            ],
            [
              -59.17145,
              -46.525797
            ],
            [
              -59.223956,
              -46.41681
            ],
            [
              -59.291724,
              -46.31189
            ],
            [
              -59.374103,
              -46.212049
            ],
            [
              -59.470298,
              -46.118247
            ],
            [
              -59.579383,
              -46.031388
            ],
            [
              -59.700307,
              -45.952307
            ],
            [
              -59.831907,
              -45.881768
            ],
            [
              -59.972914,
              -45.820449
            ],
            [
              -60.121971,
              -45.768941
            ],
            [
              -60.277642,
              -45.727739
            ],
            [
              -60.438428,
              -45.697242
            ],
            [
              -60.60278,
              -45.677741
            ],
            [
              -60.769116,
              -45.669425
            ],
            [
              -60.935834,
              -45.672375
            ],
            [
              -61.101328,
              -45.686561
            ],
            [
              -61.264005,
              -45.711848
            ],
            [
              -61.422297,
              -45.747991
            ],
            [
              -61.57468,
              -45.794643
            ],
            [
              -61.719687,
              -45.851354
            ],
            [
              -61.855922,
              -45.917578
            ],
            [
              -61.982072,
              -45.992677
            ],
            [
              -62.096922,
              -46.075928
            ],
            [
              -62.199366,
              -46.16653
            ],
            [
              -62.288418,
              -46.26361
            ],
            [
              -62.36322,
              -46.366232
            ],
            [
              -62.423052,
              -46.473409
            ],
            [
              -62.467337,
              -46.584108
            ],
            [
              -62.49565,
              -46.697264
            ]
          ]
        ],
        "type": "Polygon"
      },
      "properties": {
        "kind": "reachableSet",
        "observationStatus": "estimated",
        "vessel": "B"
      },
      "type": "Feature"
    }
  ],
  "properties": {
    "dateline": false
  },
  "type": "FeatureCollection"
}
