{
  "features": [
    {
      "geometry": {
        "coordinates": [
          -60.841117,
          -46.941633
        ],
        "type": "Point"
      },
      "properties": {
        "mmsi": "441330000",
        "observationStatus": "observed",
        "role": "off",
        "time": "2017-03-09T03:21:21Z",
        "vessel": "A"
      },
      "type": "Feature"
    },
    {
      "geometry": {
        "coordinates": [
          -60.82705,
          -46.919965
        ],
        "type": "Point"
      },
      "properties": {
        "mmsi": "440683000",
        "observationStatus": "observed",
        "role": "off",
        "time": "2017-03-09T03:22:12Z",
        "vessel": "B"
      },
      "type": "Feature"
    },
    {
      "geometry": {
        "coordinates": [
          -60.816307,
          -46.859368
        ],
        "type": "Point"
      },
      "properties": {
        "mmsi": "440683000",
        "observationStatus": "observed",
        "role": "on",
        "time": "2017-03-09T15:59:20Z",
        "vessel": "B"
      },
      "type": "Feature"
    },
    {
      "geometry": {
        "coordinates": [
          -60.838683,
          -46.92395
        ],
        "type": "Point"
      },
      "properties": {
        "mmsi": "441330000",
        "observationStatus": "observed",
        "role": "on",
        "time": "2017-03-09T16:01:58Z",
        "vessel": "A"
      },
      "type": "Feature"
    },
    {
      "geometry": {
        "coordinates": [
          [
            -60.841117,
            -46.941633
          ],
          [
            -60.828712,
            -46.900501
          ],
          [
            -60.838683,
            -46.92395
          ]
        ],
        "type": "LineString"
      },
      "properties": {
        "confidence": "low",
        "lineStyle": "dashed",
        "observationStatus": "estimated",
        "source": "reachable-set heuristic",
        "vessel": "A"
      },
      "type": "Feature"
    },
    {
      "geometry": {
        "coordinates": [
          [
            -60.82705,
            -46.919965
          ],
          [
            -60.828712,
            -46.900501
          ],
          [
            -60.816307,
            -46.859368
          ]
        ],
        "type": "LineString"
      },
      "properties": {
        "confidence": "low",
        "lineStyle": "dashed",
        "observationStatus": "estimated",
        "source": "reachable-set heuristic",
        "vessel": "B"
      },
      "type": "Feature"
    },
    {
      "geometry": {
        "coordinates": [
          -60.828712,
          -46.900501
        ],
        "type": "Point"
      },
      "properties": {
        "kind": "meetingPoint",
        "observationStatus": "estimated"
      },
      "type": "Feature"
    },
    {
      "geometry": {
        "coordinates": [
          [
            [
              -60.679137,
              -45.764505
            ],
            [
              -60.846472,
              -45.759298
            ],
            [
              -61.013744,
              -45.765392
            ],
            [
              -61.179342,
              -45.782729
            ],
            [
              -61.341671,
              -45.811142
            ],
            [
              -61.499168,
              -45.850356
            ],
            [
              -61.650315,
              -45.899995
            ],
            [
              -61.793658,
              -45.959581
            ],
            [
              -61.927815,
              -46.028539
            ],
            [
              -62.051496,
              -46.106206
            ],
            [
              -62.163508,
              -46.191833
            ],
            [
              -62.262773,
              -46.284596
            ],
            [
              -62.348334,
              -46.383601
            ],
            [
              -62.419369,
              -46.487895
            ],
            [
              -62.475193,
              -46.596474
            ],
            [
              -62.515268,
              -46.708292
            ],
            [
              -62.539208,
              -46.822272
            ],
            [
              -62.546783,
              -46.937316
            ],
            [
              -62.53792,
              -47.052317
            ],
            [
              -62.512703,
              -47.166167
            ],
            [
              -62.471377,
              -47.277769
            ],
            [
              -62.414339,
              -47.386049
            ],
            [
              -62.342138,
              -47.489963
            ],
            [
              -62.25547,
              -47.588512
            ],
            [
              -62.155169,
              -47.680746
            ],
            [
              -62.042201,
              -47.765777
            ],
            [
              -61.917655,
              -47.842785
            ],
            [
              -61.782729,
              -47.91103
            ],
            [
              -61.638723,
              -47.969854
            ],
            [
              -61.487024,
              -48.01869
            ],
            [
              -61.329093,
              -48.057069
            ],
            [
              -61.16645,
              -48.08462
            ],
            [
              -61.000663,
              -48.101078
            ],
            [
              -60.833328,
              -48.106285
            ],
            [
              -60.666056,
              -48.100191
            ],
            [
              -60.500458,
              -48.082854
            ],
            [
              -60.338129,
              -48.054442
            ],
            [
              -60.180632,
              -48.015227
            ],
            [
              -60.029485,
              -47.965588
            ],
            [
              -59.886142,
              -47.906002
            ],
            [
              -59.751985,
              -47.837044
            ],
            [
              -59.628304,
              -47.759378
            ],
            [
              -59.516292,
              -47.673751
            ],
            [
              -59.417027,
              -47.580988
            ],
            [
              -59.331466,
              -47.481982
            ],
            [
              -59.260431,
              -47.377688
            ],
            [
              -59.204607,
              -47.269109
            ],
            [
              -59.164532,
              -47.157291
            ],
            [
              -59.140592,
              -47.043311
            ],
            [
              -59.133017,
              -46.928267
            ],
            [
              -59.14188,
              -46.813266
            ],
            [
              -59.167097,
              -46.699417
            ],
            [
              -59.208423,
              -46.587815
            ],
            [
              -59.265461,
              -46.479535
            ],
            [
              -59.337662,
              -46.37562
            ],
            [
              -59.42433,
              -46.277071
            ],
            [
              -59.524631,
              -46.184837
            ],
            [
              -59.637599,
              -46.099807
            ],
            [
              -59.762145,
              -46.022798
            ],
            [
              -59.897071,
              -45.954553
            ],
            [
              -60.041077,
              -45.89573
            ],
            [
              -60.192776,
              -45.846893
            ],
            [
              -60.350707,
              -45.808515
            ],
            [
              -60.51335,
              -45.780963
            ],
            [
              -60.679137,
              -45.764505
            ]
          ]
        ],
        "type": "Polygon"
      },
      "properties": {
        "kind": "reachableSet",
        "observationStatus": "estimated",
        "vessel": "A"
      },
      "type": "Feature"
    },
    {
      "geometry": {
        "coordinates": [
          [
            [
              -60.616183,
              -45.73059
            ],
            [
              -60.782236,
              -45.722318
            ],
            [
              -60.948669,
              -45.725287
            ],
            [
              -61.113879,
              -45.73947
            ],
            [
              -61.276275,
              -45.764731
            ],
            [
              -61.434293,
              -45.800825
            ],
            [
              -61.586411,
              -45.847405
            ],
            [
              -61.731164,
              -45.904023
            ],
            [
              -61.867159,
              -45.970133
            ],
            [
              -61.993085,
              -46.045098
            ],
            [
              -62.107729,
              -46.128197
            ],
            [
              -62.209989,
              -46.21863
            ],
            [
              -62.298878,
              -46.315525
            ],
            [
              -62.373541,
              -46.41795
            ],
            [
              -62.433258,
              -46.524917
            ],
            [
              -62.477455,
              -46.635397
            ],
            [
              -62.505707,
              -46.748326
            ],
            [
              -62.51774,
              -46.862616
            ],
            [
              -62.513439,
              -46.977166
            ],
            [
              -62.492845,
              -47.090874
            ],
            [
              -62.456157,
              -47.202644
            ],
            [
              -62.403729,
              -47.3114
            ],
            [
              -62.336064,
              -47.416094
            ],
            [
              -62.253815,
              -47.515719
            ],
            [
              -62.157773,
              -47.609314
            ],
            [
              -62.048865,
              -47.695979
            ],
            [
              -61.928138,
              -47.774879
            ],
            [
              -61.796755,
              -47.845253
            ],
            [
              -61.655981,
              -47.906425
            ],
            [
              -61.507173,
              -47.957805
            ],
            [
              -61.351763,
              -47.998898
            ],
            [
              -61.191248,
              -48.029308
            ],
            [
              -61.027174,
              -48.048743
            ],
            [
              -60.861121,
              -48.057016
            ],
            [
              -60.694688,
              -48.054046
            ],
            [
              -60.529478,
              -48.039863
            ],
            [
              -60.367082,
              -48.014603
            ],
            [
              -60.209064,
              -47.978509
            ],
            [
              -60.056946,
              -47.931929
            ],
            [
              -59.912192,
              -47.875311
            ],
            [
              -59.776198,
              -47.809201
            ],
            [
              -59.650272,
              -47.734235
            ],
            [
              -59.535627,
              -47.651136
            ],
            [
              -59.433368,
              -47.560703
            ],
            [
              -59.344479,
              -47.463808
            ],
            [
              -59.269816,
              -47.361384
            ],
            [
              -59.210098,
              -47.254417
            ],
            [
              -59.165901,
              -47.143937
            ],
            [
              -59.13765,
              -47.031008
            ],
            [
              -59.125617,
              -46.916718
            ],
            [
              -59.129918,
              -46.802167
            ],
            [
              -59.150512,
              -46.688459
            ],
            [
              -59.187199,
              -46.576689
            ],
            [
              -59.239628,
              -46.467933
            ],
            [
              -59.307293,
              -46.363239
            ],
            [
              -59.389542,
              -46.263614
            ],
            [
              -59.485583,
              -46.170019
            ],
            [
              -59.594492,
              -46.083354
            ],
            [
              -59.715219,
              -46.004455
            ],
            [
              -59.846602,
              -45.93408
            ],
            [
              -59.987375,
              -45.872908
            ],
            [
              -60.136184,
              -45.821529
            ],
            [
              -60.291594,
              -45.780436
            ],
            [
              -60.452109,
              -45.750025
            ],
            [
              -60.616183,
              -45.73059
            ]
          ]
        ],
        "type": "Polygon"
      },
      "properties": {
        "kind": "reachableSet",
        "observationStatus": "estimated",
        "vessel": "B"
      },
      "type": "Feature"
    }
  ],
  "properties": {
    "dateline": false
  },
  "type": "FeatureCollection"
}
