{
  "features": [
    {
      "geometry": {
        "coordinates": [
          -60.773577,
          -47.35271
        ],
        "type": "Point"
      },
      "properties": {
        "mmsi": "412421108",
        "observationStatus": "observed",
        "role": "off",
        "time": "2019-03-17T18:15:23Z",
        "vessel": "A"
      },
      "type": "Feature"
    },
    {
      "geometry": {
        "coordinates": [
          -60.707838,
          -47.298603
        ],
        "type": "Point"
      },
      "properties": {
        "mmsi": "412420801",
        "observationStatus": "observed",
        "role": "off",
        "time": "2019-03-17T19:00:42Z",
        "vessel": "B"
      },
      "type": "Feature"
    },
    {
      "geometry": {
        "coordinates": [
          -60.744718,
          -47.303235
        ],
        "type": "Point"
      },
      "properties": {
        "mmsi": "412421108",
        "observationStatus": "observed",
        "role": "on",
        "time": "2019-03-18T09:30:38Z",
        "vessel": "A"
      },
      "type": "Feature"
    },
    {
      "geometry": {
        "coordinates": [
          -60.744888,
          -47.245575
        ],
        "type": "Point"
      },
      "properties": {
        "mmsi": "412420801",
        "observationStatus": "observed",
        "role": "on",
        "time": "2019-03-18T09:35:00Z",
        "vessel": "B"
      },
      "type": "Feature"
    },
    {
      "geometry": {
        "coordinates": [
          [
            -60.773577,
            -47.35271
          ],
          [
            -60.720073,
            -47.283149
          ],
          [
            -60.744718,
            -47.303235
          ]
        ],
        "type": "LineString"
      },
      "properties": {
        "confidence": "low",
        "lineStyle": "dashed",
        "observationStatus": "estimated",
        "source": "reachable-set heuristic",
        "vessel": "A"
      },
      "type": "Feature"
    },
    {
      "geometry": {
        "coordinates": [
          [
            -60.707838,
            -47.298603
          ],
          [
            -60.720073,
            -47.283149
          ],
          [
            -60.744888,
            -47.245575
          ]
        ],
        "type": "LineString"
      },
      "properties": {
        "confidence": "low",
        "lineStyle": "dashed",
        "observationStatus": "estimated",
        "source": "reachable-set heuristic",
        "vessel": "B"
      },
      "type": "Feature"
    },
    {
      "geometry": {
        "coordinates": [
          -60.720073,
          -47.283149
        ],
        "type": "Point"
      },
      "properties": {
        "kind": "meetingPoint",
        "observationStatus": "estimated"
      },
      "type": "Feature"
    },
    {
      "geometry": {
        "coordinates": [
          [
            [
              -59.982817,
              -45.997024
            ],
            [
              -60.177695,
              -45.951516
            ],
            [
              -60.378172,
              -45.919263
            ],
            [
              -60.582318,
              -45.900578
            ],
            [
              -60.788168,
              -45.895639
            ],
            [
              -60.993738,
              -45.904494
            ],
            [
              -61.197048,
              -45.927058
            ],
            [
              -61.396142,
              -45.963113
            ],
            [
              -61.5891,
              -46.012313
            ],
            [
              -61.774066,
              -46.074183
            ],
            [
              -61.949258,
              -46.148128
            ],
            [
              -62.112988,
              -46.233436
            ],
            [
              -62.26368,
              -46.329285
            ],
            [
              -62.399883,
              -46.434751
            ],
            [
              -62.520284,
              -46.54882
            ],
            [
              -62.623725,
              -46.670392
            ],
            [
              -62.709209,
              -46.798297
            ],
            [
              -62.775912,
              -46.931304
            ],
            [
              -62.823193,
              -47.06813
            ],
            [
              -62.850597,
              -47.207459
            ],
            [
              -62.857858,
              -47.347948
            ],
            [
              -62.844908,
              -47.488245
            ],
            [
              -62.81187,
              -47.626999
            ],
            [
              -62.759064,
              -47.762873
            ],
            [
              -62.686998,
              -47.894558
            ],
            [
              -62.596365,
              -48.020787
            ],
            [
              -62.488039,
              -48.140344
            ],
            [
              -62.363062,
              -48.252077
            ],
            [
              -62.222639,
              -48.354911
            ],
            [
              -62.068122,
              -48.447854
            ],
            [
              -61.900999,
              -48.530013
            ],
            [
              -61.722879,
              -48.600595
            ],
            [
              -61.535478,
              -48.658921
            ],
            [
              -61.3406,
              -48.704429
            ],
            [
              -61.140123,
              -48.736682
            ],
            [
              -60.935977,
              -48.755367
            ],
            [
              -60.730127,
              -48.760306
            ],
            [
              -60.524557,
              -48.751451
            ],
            [
              -60.321247,
              -48.728887
            ],
            [
              -60.122153,
              -48.692832
            ],
            [
              -59.929195,
              -48.643632
            ],
            [
              -59.744229,
              -48.581762
            ],
            [
              -59.569037,
              -48.507817
            ],
            [
              -59.405307,
              -48.422509
            ],
            [
              -59.254615,
              -48.32666
            ],
            [
              -59.118412,
              -48.221194
            ],
            [
              -58.998011,
              -48.107125
            ],
            [
              -58.89457,
              -47.985553
            ],
            [
              -58.809086,
              -47.857648
            ],
            [
              -58.742383,
              -47.724641
            ],
            [
              -58.695102,
              -47.587815
            ],
            [
              -58.667698,
              -47.448486
            ],
            [
              -58.660437,
              -47.307997
            ],
            [
              -58.673387,
              -47.1677
            ],
            [
              -58.706425,
              -47.028946
            ],
            [
              -58.759231,
              -46.893072
            ],
            [
              -58.831297,
              -46.761387
            ],
            [
              -58.92193,
              -46.635158
            ],
            [
              -59.030256,
              -46.515601
            ],
            [
              -59.155233,
              -46.403868
            ],
            [
              -59.295656,
              -46.301034
            ],
            [
              -59.450173,
              -46.208091
            ],
            [
              -59.617296,
              -46.125932
            ],
            [
              -59.795416,
              -46.05535
            ],
            [
              -59.982817,
              -45.997024
            ]
          ]
        ],
        "type": "Polygon"
      },
      "properties": {
        "kind": "reachableSet",
        "observationStatus": "estimated",
        "vessel": "A"
      },
      "type": "Feature"
    },
    {
      "geometry": {
        "coordinates": [
          [
            [
              -61.586375,
              -46.041185
            ],
            [
              -61.758809,
              -46.104683
            ],
            [
              -61.921299,
              -46.179424
            ],
            [
              -62.072282,
              -46.264688
            ],
            [
              -62.210303,
              -46.359653
            ],
            [
              -62.334032,
              -46.463406
            ],
            [
              -62.442279,
              -46.574947
            ],
            [
              -62.534,
              -46.693201
            ],
            [
              -62.608314,
              -46.817031
            ],
            [
              -62.664502,
              -46.945243
            ],
            [
              -62.702026,
              -47.076603
            ],
            [
              -62.720523,
              -47.209846
            ],
            [
              -62.719815,
              -47.343688
            ],
            [
              -62.699909,
              -47.47684
            ],
            [
              -62.660996,
              -47.608021
            ],
            [
              -62.603452,
              -47.735966
            ],
            [
              -62.527831,
              -47.859444
            ],
            [
              -62.43486,
              -47.977266
            ],
            [
              -62.325436,
              -48.088296
            ],
            [
              -62.200612,
              -48.191465
            ],
            [
              -62.06159,
              -48.285781
            ],
            [
              -61.909709,
              -48.370334
            ],
            [
              -61.746432,
              -48.444311
            ],
            [
              -61.573331,
              -48.506998
            ],
            [
              -61.392073,
              -48.557793
            ],
            [
              -61.204404,
              -48.596205
            ],
            [
              -61.012131,
              -48.621865
            ],
            [
              -60.817106,
              -48.634527
            ],
            [
              -60.621208,
              -48.634067
            ],
            [
              -60.426322,
              -48.620491
            ],
            [
              -60.234325,
              -48.593929
            ],
            [
              -60.047067,
              -48.554637
            ],
            [
              -59.866351,
              -48.502993
            ],
            [
              -59.693918,
              -48.439495
            ],
            [
              -59.531427,
              -48.364755
            ],
            [
              -59.380445,
              -48.279491
            ],
            [
              -59.242424,
              -48.184525
            ],
            [
              -59.118695,
              -48.080772
            ],
            [
              -59.010448,
              -47.969232
            ],
            [
              -58.918726,
              -47.850977
            ],
            [
              -58.844413,
              -47.727147
            ],
            [
              -58.788224,
              -47.598935
            ],
            [
              -58.750701,
              -47.467575
            ],
            [
              -58.732204,
              -47.334332
            ],
            [
              -58.732912,
              -47.200491
            ],
            [
              -58.752818,
              -47.067338
            ],
            [
              -58.79173,
              -46.936157
            ],
            [
              -58.849274,
              -46.808212
            ],
            [
              -58.924896,
              -46.684734
            ],
            [
              -59.017866,
              -46.566913
            ],
            [
              -59.12729,
              -46.455883
            ],
            [
              -59.252115,
              -46.352713
            ],
            [
              -59.391137,
              -46.258397
            ],
            [
              -59.543018,
              -46.173844
            ],
            [
              -59.706295,
              -46.099868
            ],
            [
              -59.879396,
              -46.03718
            ],
            [
              -60.060654,
              -45.986386
            ],
            [
              -60.248323,
              -45.947973
            ],
            [
              -60.440595,
              -45.922313
            ],
            [
              -60.63562,
              -45.909651
            ],
            [
              -60.831519,
              -45.910111
            ],
            [
              -61.026405,
              -45.923687
            ],
            [
              -61.218401,
              -45.950249
            ],
            [
              -61.405659,
              -45.989541
            ],
            [
              -61.586375,
              -46.041185
            ]
          ]
        ],
        "type": "Polygon"
      },
      "properties": {
        "kind": "reachableSet",
        "observationStatus": "estimated",
        "vessel": "B"
      },
      "type": "Feature"
    }
  ],
  "properties": {
    "dateline": false
  },
  "type": "FeatureCollection"
}
