{
  "features": [
    {
      "geometry": {
        "coordinates": [
          -60.55676,
          -45.784283
        ],
        "type": "Point"
      },
      "properties": {
        "mmsi": "412329686",
        "observationStatus": "observed",
        "role": "off",
        "time": "2019-01-13T06:29:56Z",
        "vessel": "A"
      },
      "type": "Feature"
    },
    {
      "geometry": {
        "coordinates": [
          -60.533192,
          -45.784368
        ],
        "type": "Point"
      },
      "properties": {
        "mmsi": "412329684",
        "observationStatus": "observed",
        "role": "off",
        "time": "2019-01-13T07:02:48Z",
        "vessel": "B"
      },
      "type": "Feature"
    },
    {
      "geometry": {
        "coordinates": [
          -60.589008,
          -45.774027
        ],
        "type": "Point"
      },
      "properties": {
        "mmsi": "412329686",
        "observationStatus": "observed",
        "role": "on",
        "time": "2019-01-13T23:09:29Z",
        "vessel": "A"
      },
      "type": "Feature"
    },
    {
      "geometry": {
        "coordinates": [
          -60.592293,
          -45.817832
        ],
        "type": "Point"
      },
      "properties": {
        "mmsi": "412329684",
        "observationStatus": "observed",
        "role": "on",
        "time": "2019-01-13T23:09:54Z",
        "vessel": "B"
      },
      "type": "Feature"
    },
    {
      "geometry": {
        "coordinates": [
          [
            -60.55676,
            -45.784283
          ],
          [
            -60.538023,
            -45.787205
          ],
          [
            -60.589008,
            -45.774027
          ]
        ],
        "type": "LineString"
      },
      "properties": {
        "confidence": "low",
        "lineStyle": "dashed",
        "observationStatus": "estimated",
        "source": "reachable-set heuristic",
        "vessel": "A"
      },
      "type": "Feature"
    },
    {
      "geometry": {
        "coordinates": [
          [
            -60.533192,
            -45.784368
          ],
          [
            -60.538023,
            -45.787205
          ],
          [
            -60.592293,
            -45.817832
          ]
        ],
        "type": "LineString"
      },
      "properties": {
        "confidence": "low",
        "lineStyle": "dashed",
        "observationStatus": "estimated",
        "source": "reachable-set heuristic",
        "vessel": "B"
      },
      "type": "Feature"
    },
    {
      "geometry": {
        "coordinates": [
          -60.538023,
          -45.787205
        ],
        "type": "Point"
      },
      "properties": {
        "kind": "meetingPoint",
        "observationStatus": "estimated"
      },
      "type": "Feature"
    },
    {
      "geometry": {
        "coordinates": [
          [
            [
              -62.784584,
              -45.075718
            ],
            [
              -62.872127,
              -45.231318
            ],
            [
              -62.937528,
              -45.392194
            ],
            [
              -62.980155,
              -45.556796
            ],
            [
              -62.999599,
              -45.72354
            ],
            [
              -62.995673,
              -45.89082
            ],
            [
              -62.968414,
              -46.057024
            ],
            [
              -62.918085,
              -46.220552
            ],
            [
              -62.84517,
              -46.379829
            ],
            [
              -62.750371,
              -46.533321
            ],
            [
              -62.634602,
              -46.679551
            ],
            [
              -62.498978,
              -46.817109
            ],
            [
              -62.344805,
              -46.944671
            ],
            [
              -62.173567,
              -47.061008
            ],
            [
              -61.986913,
              -47.165001
            ],
            [
              -61.786642,
              -47.255647
            ],
            [
              -61.574681,
              -47.332073
            ],
            [
              -61.353073,
              -47.393544
            ],
            [
              -61.123951,
              -47.439468
            ],
            [
              -60.889521,
              -47.469402
            ],
            [
              -60.652043,
              -47.483058
            ],
            [
              -60.413802,
              -47.480305
            ],
            [
              -60.177093,
              -47.461168
            ],
            [
              -59.944196,
              -47.425833
            ],
            [
              -59.717354,
              -47.374639
            ],
            [
              -59.49875,
              -47.30808
            ],
            [
              -59.290491,
              -47.226797
            ],
            [
              -59.094583,
              -47.131572
            ],
            [
              -58.912911,
              -47.023322
            ],
            [
              -58.747226,
              -46.903091
            ],
            [
              -58.599122,
              -46.772035
            ],
            [
              -58.470027,
              -46.631417
            ],
            [
              -58.361184,
              -46.482592
            ],
            [
              -58.273641,
              -46.326992
            ],
            [
              -58.208241,
              -46.166116
            ],
            [
              -58.165613,
              -46.001514
            ],
            [
              -58.146169,
              -45.83477
            ],
            [
              -58.150095,
              -45.66749
            ],
            [
              -58.177354,
              -45.501286
            ],
            [
              -58.227684,
              -45.337758
            ],
            [
              -58.300599,
              -45.178481
            ],
            [
              -58.395397,
              -45.024989
            ],
            [
              -58.511166,
              -44.878759
            ],
            [
              -58.64679,
              -44.741201
            ],
            [
              -58.800964,
              -44.613639
            ],
            [
              -58.972202,
              -44.497302
            ],
            [
              -59.158855,
              -44.393309
            ],
            [
              -59.359127,
              -44.302663
            ],
            [
              -59.571087,
              -44.226237
            ],
            [
              -59.792696,
              -44.164766
            ],
            [
              -60.021818,
              -44.118842
            ],
            [
              -60.256247,
              -44.088908
            ],
            [
              -60.493725,
              -44.075252
            ],
            [
              -60.731966,
              -44.078005
            ],
            [
              -60.968675,
              -44.097142
            ],
            [
              -61.201572,
              -44.132477
            ],
            [
              -61.428415,
              -44.183671
            ],
            [
              -61.647018,
              -44.25023
            ],
            [
              -61.855277,
              -44.331513
            ],
            [
              -62.051186,
              -44.426738
            ],
            [
              -62.232857,
              -44.534988
            ],
            [
              -62.398543,
              -44.655219
            ],
            [
              -62.546646,
              -44.786275
            ],
            [
              -62.675741,
              -44.926893
            ],
            [
              -62.784584,
              -45.075718
            ]
          ]
        ],
        "type": "Polygon"
      },
      "properties": {
        "kind": "reachableSet",
        "observationStatus": "estimated",
        "vessel": "A"
      },
      "type": "Feature"
    },
    {
      "geometry": {
        "coordinates": [
          [
            [
              -62.387972,
              -46.834544
            ],
            [
              -62.234882,
              -46.95512
            ],
            [
              -62.065689,
              -47.064583
            ],
            [
              -61.882021,
              -47.161877
            ],
            [
              -61.685648,
              -47.246067
            ],
            [
              -61.478461,
              -47.31634
            ],
            [
              -61.262455,
              -47.372021
            ],
            [
              -61.03971,
              -47.412573
            ],
            [
              -60.812371,
              -47.437606
            ],
            [
              -60.582629,
              -47.446878
            ],
            [
              -60.352695,
              -47.440301
            ],
            [
              -60.124784,
              -47.417937
            ],
            [
              -59.901091,
              -47.380002
            ],
            [
              -59.68377,
              -47.326862
            ],
            [
              -59.474914,
              -47.259027
            ],
            [
              -59.276534,
              -47.177152
            ],
            [
              -59.090541,
              -47.082025
            ],
            [
              -58.918727,
              -46.974561
            ],
            [
              -58.762745,
              -46.855797
            ],
            [
              -58.624098,
              -46.726875
            ],
            [
              -58.504121,
              -46.589038
            ],
            [
              -58.40397,
              -46.443612
            ],
            [
              -58.324609,
              -46.291999
            ],
            [
              -58.266802,
              -46.135658
            ],
            [
              -58.231107,
              -45.976095
            ],
            [
              -58.217866,
              -45.814847
            ],
            [
              -58.227208,
              -45.653466
            ],
            [
              -58.259043,
              -45.493507
            ],
            [
              -58.313063,
              -45.336511
            ],
            [
              -58.388749,
              -45.183988
            ],
            [
              -58.485372,
              -45.037409
            ],
            [
              -58.602001,
              -44.898185
            ],
            [
              -58.737513,
              -44.767656
            ],
            [
              -58.890603,
              -44.64708
            ],
            [
              -59.059796,
              -44.537617
            ],
            [
              -59.243464,
              -44.440323
            ],
            [
              -59.439837,
              -44.356133
            ],
            [
              -59.647024,
              -44.28586
            ],
            [
              -59.86303,
              -44.230179
            ],
            [
              -60.085775,
              -44.189627
            ],
            [
              -60.313114,
              -44.164594
            ],
            [
              -60.542856,
              -44.155322
            ],
            [
              -60.77279,
              -44.161899
            ],
            [
              -61.000701,
              -44.184263
            ],
            [
              -61.224394,
              -44.222198
            ],
            [
              -61.441715,
              -44.275338
            ],
            [
              -61.650571,
              -44.343173
            ],
            [
              -61.848951,
              -44.425048
            ],
            [
              -62.034944,
              -44.520175
            ],
            [
              -62.206758,
              -44.627639
            ],
            [
              -62.36274,
              -44.746403
            ],
            [
              -62.501387,
              -44.875325
            ],
            [
              -62.621364,
              -45.013162
            ],
            [
              -62.721515,
              -45.158588
            ],
            [
              -62.800876,
              -45.310201
            ],
            [
              -62.858683,
              -45.466542
            ],
            [
              -62.894378,
              -45.626105
            ],
            [
              -62.907619,
              -45.787353
            ],
            [
              -62.898277,
              -45.948734
            ],
            [
              -62.866442,
              -46.108693
            ],
            [
              -62.812422,
              -46.265689
            ],
            [
              -62.736736,
              -46.418212
            ],
            [
              -62.640113,
              -46.564791
            ],
            [
              -62.523484,
              -46.704015
            ],
            [
              -62.387972,
              -46.834544
            ]
          ]
        ],
        "type": "Polygon"
      },
      "properties": {
        "kind": "reachableSet",
        "observationStatus": "estimated",
        "vessel": "B"
      },
      "type": "Feature"
    }
  ],
  "properties": {
    "dateline": false
  },
  "type": "FeatureCollection"
}
