{
  "features": [
    {
      "geometry": {
        "coordinates": [
          -60.503013,
          -45.82816
        ],
        "type": "Point"
      },
      "properties": {
        "mmsi": "412329684",
        "observationStatus": "observed",
        "role": "off",
        "time": "2019-02-13T06:24:44Z",
        "vessel": "A"
      },
      "type": "Feature"
    },
    {
      "geometry": {
        "coordinates": [
          -60.5152,
          -45.852187
        ],
        "type": "Point"
      },
      "properties": {
        "mmsi": "412329689",
        "observationStatus": "observed",
        "role": "off",
        "time": "2019-02-13T06:27:40Z",
        "vessel": "B"
      },
      "type": "Feature"
    },
    {
      "geometry": {
        "coordinates": [
          -60.640728,
          -45.826342
        ],
        "type": "Point"
      },
      "properties": {
        "mmsi": "412329689",
        "observationStatus": "observed",
        "role": "on",
        "time": "2019-02-13T22:36:45Z",
        "vessel": "B"
      },
      "type": "Feature"
    },
    {
      "geometry": {
        "coordinates": [
          -60.66548,
          -45.908697
        ],
        "type": "Point"
      },
      "properties": {
        "mmsi": "412329684",
        "observationStatus": "observed",
        "role": "on",
        "time": "2019-02-13T23:15:57Z",
        "vessel": "A"
      },
      "type": "Feature"
    },
    {
      "geometry": {
        "coordinates": [
          [
            -60.503013,
            -45.82816
          ],
          [
            -60.615251,
            -45.831728
          ],
          [
            -60.66548,
            -45.908697
          ]
        ],
        "type": "LineString"
      },
      "properties": {
        "confidence": "low",
        "lineStyle": "dashed",
        "observationStatus": "estimated",
        "source": "reachable-set heuristic",
        "vessel": "A"
      },
      "type": "Feature"
    },
    {
      "geometry": {
        "coordinates": [
          [
            -60.5152,
            -45.852187
          ],
          [
            -60.615251,
            -45.831728
          ],
          [
            -60.640728,
            -45.826342
          ]
        ],
        "type": "LineString"
      },
      "properties": {
        "confidence": "low",
        "lineStyle": "dashed",
        "observationStatus": "estimated",
        "source": "reachable-set heuristic",
        "vessel": "B"
      },
      "type": "Feature"
    },
    {
      "geometry": {
        "coordinates": [
          -60.615251,
          -45.831728
        ],
        "type": "Point"
      },
      "properties": {
        "kind": "meetingPoint",
        "observationStatus": "estimated"
      },
      "type": "Feature"
    },
    {
      "geometry": {
        "coordinates": [
          [
            [
              -62.594542,
              -46.864956
            ],
            [
              -62.445642,
              -46.998178
            ],
            [
              -62.278817,
              -47.12052
            ],
            [
              -62.095672,
              -47.230804
            ],
            [
              -61.897971,
              -47.327967
            ],
            [
              -61.687618,
              -47.411074
            ],
            [
              -61.466639,
              -47.479325
            ],
            [
              -61.237162,
              -47.532062
            ],
            [
              -61.001398,
              -47.568777
            ],
            [
              -60.761615,
              -47.589117
            ],
            [
              -60.520125,
              -47.592886
            ],
            [
              -60.279252,
              -47.580047
            ],
            [
              -60.041317,
              -47.550724
            ],
            [
              -59.80861,
              -47.5052
            ],
            [
              -59.583373,
              -47.443913
            ],
            [
              -59.367775,
              -47.367454
            ],
            [
              -59.163892,
              -47.276557
            ],
            [
              -58.973688,
              -47.1721
            ],
            [
              -58.798995,
              -47.055088
            ],
            [
              -58.641494,
              -46.926647
            ],
            [
              -58.502704,
              -46.788015
            ],
            [
              -58.383959,
              -46.640528
            ],
            [
              -58.286405,
              -46.485604
            ],
            [
              -58.21098,
              -46.324737
            ],
            [
              -58.158411,
              -46.159475
            ],
            [
              -58.129204,
              -45.99141
            ],
            [
              -58.123641,
              -45.822161
            ],
            [
              -58.141774,
              -45.653357
            ],
            [
              -58.18343,
              -45.486625
            ],
            [
              -58.248207,
              -45.32357
            ],
            [
              -58.335481,
              -45.165761
            ],
            [
              -58.444413,
              -45.01472
            ],
            [
              -58.573952,
              -44.871901
            ],
            [
              -58.722851,
              -44.738679
            ],
            [
              -58.889676,
              -44.616337
            ],
            [
              -59.072821,
              -44.506053
            ],
            [
              -59.270522,
              -44.40889
            ],
            [
              -59.480875,
              -44.325782
            ],
            [
              -59.701854,
              -44.257532
            ],
            [
              -59.931331,
              -44.204795
            ],
            [
              -60.167096,
              -44.16808
            ],
            [
              -60.406878,
              -44.14774
            ],
            [
              -60.648368,
              -44.143971
            ],
            [
              -60.889241,
              -44.15681
            ],
            [
              -61.127177,
              -44.186132
            ],
            [
              -61.359883,
              -44.231656
            ],
            [
              -61.58512,
              -44.292943
            ],
            [
              -61.800719,
              -44.369403
            ],
            [
              -62.004601,
              -44.460299
            ],
            [
              -62.194805,
              -44.564757
            ],
            [
              -62.369499,
              -44.681769
            ],
            [
              -62.526999,
              -44.810209
            ],
            [
              -62.66579,
              -44.948841
            ],
            [
              -62.784534,
              -45.096329
            ],
            [
              -62.882088,
              -45.251253
            ],
            [
              -62.957513,
              -45.41212
            ],
            [
              -63.010082,
              -45.577382
            ],
            [
              -63.039289,
              -45.745447
            ],
            [
              -63.044853,
              -45.914696
            ],
            [
              -63.026719,
              -46.083499
            ],
            [
              -62.985063,
              -46.250232
            ],
            [
              -62.920286,
              -46.413287
            ],
            [
              -62.833012,
              -46.571095
            ],
            [
              -62.724081,
              -46.722136
            ],
            [
              -62.594542,
              -46.864956
            ]
          ]
        ],
        "type": "Polygon"
      },
      "properties": {
        "kind": "reachableSet",
        "observationStatus": "estimated",
        "vessel": "A"
      },
      "type": "Feature"
    },
    {
      "geometry": {
        "coordinates": [
          [
            [
              -62.834571,
              -45.374652
            ],
            [
              -62.888607,
              -45.531969
            ],
            [
              -62.920391,
              -45.692245
            ],
            [
              -62.929615,
              -45.853938
            ],
            [
              -62.916192,
              -46.015489
            ],
            [
              -62.88025,
              -46.175343
            ],
            [
              -62.822136,
              -46.33196
            ],
            [
              -62.74241,
              -46.483832
            ],
            [
              -62.641838,
              -46.629497
            ],
            [
              -62.521391,
              -46.767551
            ],
            [
              -62.382227,
              -46.896666
            ],
            [
              -62.225687,
              -47.015597
            ],
            [
              -62.053279,
              -47.123199
            ],
            [
              -61.866662,
              -47.218437
            ],
            [
              -61.667635,
              -47.300392
            ],
            [
              -61.458114,
              -47.368276
            ],
            [
              -61.240116,
              -47.421434
            ],
            [
              -61.015741,
              -47.459356
            ],
            [
              -60.78715,
              -47.481675
            ],
            [
              -60.556545,
              -47.488177
            ],
            [
              -60.326146,
              -47.478798
            ],
            [
              -60.098172,
              -47.45363
            ],
            [
              -59.874819,
              -47.412915
            ],
            [
              -59.658238,
              -47.357045
            ],
            [
              -59.450514,
              -47.286558
            ],
            [
              -59.253648,
              -47.202133
            ],
            [
              -59.069536,
              -47.104582
            ],
            [
              -58.89995,
              -46.994846
            ],
            [
              -58.746525,
              -46.87398
            ],
            [
              -58.610738,
              -46.74315
            ],
            [
              -58.493896,
              -46.603615
            ],
            [
              -58.397125,
              -46.456719
            ],
            [
              -58.321357,
              -46.303877
            ],
            [
              -58.267321,
              -46.146559
            ],
            [
              -58.235538,
              -45.986283
            ],
            [
              -58.226313,
              -45.824591
            ],
            [
              -58.239736,
              -45.66304
            ],
            [
              -58.275678,
              -45.503186
            ],
            [
              -58.333792,
              -45.346569
            ],
            [
              -58.413519,
              -45.194696
            ],
            [
              -58.51409,
              -45.049031
            ],
            [
              -58.634538,
              -44.910977
            ],
            [
              -58.773701,
              -44.781863
            ],
            [
              -58.930241,
              -44.662931
            ],
            [
              -59.10265,
              -44.555329
            ],
            [
              -59.289266,
              -44.460092
            ],
            [
              -59.488293,
              -44.378136
            ],
            [
              -59.697815,
              -44.310253
            ],
            [
              -59.915813,
              -44.257094
            ],
            [
              -60.140187,
              -44.219173
            ],
            [
              -60.368778,
              -44.196854
            ],
            [
              -60.599383,
              -44.190352
            ],
            [
              -60.829782,
              -44.19973
            ],
            [
              -61.057756,
              -44.224898
            ],
            [
              -61.281109,
              -44.265613
            ],
            [
              -61.497691,
              -44.321483
            ],
            [
              -61.705415,
              -44.39197
            ],
            [
              -61.902281,
              -44.476396
            ],
            [
              -62.086393,
              -44.573946
            ],
            [
              -62.255978,
              -44.683683
            ],
            [
              -62.409403,
              -44.804548
            ],
            [
              -62.54519,
              -44.935378
            ],
            [
              -62.662032,
              -45.074913
            ],
            [
              -62.758803,
              -45.221809
            ],
            [
              -62.834571,
              -45.374652
            ]
          ]
        ],
        "type": "Polygon"
      },
      "properties": {
        "kind": "reachableSet",
        "observationStatus": "estimated",
        "vessel": "B"
      },
      "type": "Feature"
    }
  ],
  "properties": {
    "dateline": false
  },
  "type": "FeatureCollection"
}
