{
  "features": [
    {
      "geometry": {
        "coordinates": [
          -58.292978,
          -42.568415
        ],
        "type": "Point"
      },
      "properties": {
        "mmsi": "412329693",
        "observationStatus": "observed",
        "role": "off",
        "time": "2019-06-21T09:55:30Z",
        "vessel": "A"
      },
      "type": "Feature"
    },
    {
      "geometry": {
        "coordinates": [
          -58.22504,
          -42.552027
        ],
        "type": "Point"
      },
      "properties": {
        "mmsi": "412329684",
        "observationStatus": "observed",
        "role": "off",
        "time": "2019-06-21T10:36:26Z",
        "vessel": "B"
      },
      "type": "Feature"
    },
    {
      "geometry": {
        "coordinates": [
          -57.83168,
          -42.0092
        ],
        "type": "Point"
      },
      "properties": {
        "mmsi": "412329693",
        "observationStatus": "observed",
        "role": "on",
        "time": "2019-06-22T00:01:25Z",
        "vessel": "A"
      },
      "type": "Feature"
    },
    {
      "geometry": {
        "coordinates": [
          -57.815493,
          -41.984613
        ],
        "type": "Point"
      },
      "properties": {
        "mmsi": "412329684",
        "observationStatus": "observed",
        "role": "on",
        "time": "2019-06-22T00:04:45Z",
        "vessel": "B"
      },
      "type": "Feature"
    },
    {
      "geometry": {
        "coordinates": [
          [
            -58.292978,
            -42.568415
          ],
          [
            -58.109542,
            -42.390159
          ],
          [
            -57.83168,
            -42.0092
          ]
        ],
        "type": "LineString"
      },
      "properties": {
        "confidence": "low",
        "lineStyle": "dashed",
        "observationStatus": "estimated",
        "source": "reachable-set heuristic",
        "vessel": "A"
      },
      "type": "Feature"
    },
    {
      "geometry": {
        "coordinates": [
          [
            -58.22504,
            -42.552027
          ],
          [
            -58.109542,
            -42.390159
          ],
          [
            -57.815493,
            -41.984613
          ]
        ],
        "type": "LineString"
      },
      "properties": {
        "confidence": "low",
        "lineStyle": "dashed",
        "observationStatus": "estimated",
        "source": "reachable-set heuristic",
        "vessel": "B"
      },
      "type": "Feature"
    },
    {
      "geometry": {
        "coordinates": [
          -58.109542,
          -42.390159
        ],
        "type": "Point"
      },
      "properties": {
        "kind": "meetingPoint",
        "observationStatus": "estimated"
      },
      "type": "Feature"
    },
    {
      "geometry": {
        "coordinates": [
          [
            [
              -57.060008,
              -41.07373
            ],
            [
              -57.220454,
              -41.008374
            ],
            [
              -57.389007,
              -40.955349
            ],
            [
              -57.564045,
              -40.915166
            ],
            [
              -57.743882,
              -40.888212
            ],
            [
              -57.926785,
              -40.874747
            ],
            [
              -58.110994,
              -40.874899
            ],
            [
              -58.294734,
              -40.888669
            ],
            [
              -58.476236,
              -40.915922
            ],
            [
              -58.653752,
              -40.956397
            ],
            [
              -58.825572,
              -41.009704
            ],
            [
              -58.990042,
              -41.07533
            ],
            [
              -59.145577,
              -41.152642
            ],
            [
              -59.29068,
              -41.240895
            ],
            [
              -59.423954,
              -41.339241
            ],
            [
              -59.544114,
              -41.446732
            ],
            [
              -59.650004,
              -41.562332
            ],
            [
              -59.740603,
              -41.684929
            ],
            [
              -59.81504,
              -41.813341
            ],
            [
              -59.872598,
              -41.946332
            ],
            [
              -59.912721,
              -42.082622
            ],
            [
              -59.935024,
              -42.220897
            ],
            [
              -59.939292,
              -42.359826
            ],
            [
              -59.925484,
              -42.498071
            ],
            [
              -59.893733,
              -42.634301
            ],
            [
              -59.844344,
              -42.767204
            ],
            [
              -59.777794,
              -42.895499
            ],
            [
              -59.694722,
              -43.017952
            ],
            [
              -59.59593,
              -43.133382
            ],
            [
              -59.482369,
              -43.240679
            ],
            [
              -59.355131,
              -43.338809
            ],
            [
              -59.215443,
              -43.426827
            ],
            [
              -59.064651,
              -43.503885
            ],
            [
              -58.904205,
              -43.569241
            ],
            [
              -58.735651,
              -43.622266
            ],
            [
              -58.560613,
              -43.662449
            ],
            [
              -58.380777,
              -43.689403
            ],
            [
              -58.197873,
              -43.702868
            ],
            [
              -58.013664,
              -43.702716
            ],
            [
              -57.829924,
              -43.688946
            ],
            [
              -57.648422,
              -43.661693
            ],
            [
              -57.470906,
              -43.621218
            ],
            [
              -57.299086,
              -43.567911
            ],
            [
              -57.134616,
              -43.502285
            ],
            [
              -56.979081,
              -43.424973
            ],
            [
              -56.833978,
              -43.33672
            ],
            [
              -56.700705,
              -43.238374
            ],
            [
              -56.580544,
              -43.130883
            ],
            [
              -56.474655,
              -43.015283
            ],
            [
              -56.384055,
              -42.892686
            ],
            [
              -56.309618,
              -42.764274
            ],
            [
              -56.252061,
              -42.631283
            ],
            [
              -56.211937,
              -42.494993
            ],
            [
              -56.189634,
              -42.356718
            ],
            [
              -56.185366,
              -42.217789
            ],
            [
              -56.199174,
              -42.079544
            ],
            [
              -56.230925,
              -41.943314
            ],
            [
              -56.280314,
              -41.810411
            ],
            [
              -56.346865,
              -41.682116
            ],
            [
              -56.429936,
              -41.559663
            ],
            [
              -56.528728,
              -41.444233
            ],
            [
              -56.64229,
              -41.336936
            ],
            [
              -56.769527,
              -41.238806
            ],
            [
              -56.909215,
              -41.150788
            ],
            [
              -57.060008,
              -41.07373
            ]
          ]
        ],
        "type": "Polygon"
      },
      "properties": {
        "kind": "reachableSet",
        "observationStatus": "estimated",
        "vessel": "A"
      },
      "type": "Feature"
    },
    {
      "geometry": {
        "coordinates": [
          [
            [
              -57.157088,
              -41.072415
            ],
            [
              -57.314089,
              -41.016939
            ],
            [
              -57.477892,
              -40.973515
            ],
            [
              -57.646917,
              -40.94256
            ],
            [
              -57.819539,
              -40.924374
            ],
            [
              -57.994093,
              -40.91913
            ],
            [
              -58.1689,
              -40.92688
            ],
            [
              -58.342275,
              -40.947548
            ],
            [
              -58.512548,
              -40.980937
            ],
            [
              -58.678081,
              -41.026723
            ],
            [
              -58.837279,
              -41.084467
            ],
            [
              -58.988609,
              -41.153612
            ],
            [
              -59.130613,
              -41.233492
            ],
            [
              -59.261923,
              -41.323338
            ],
            [
              -59.381276,
              -41.422285
            ],
            [
              -59.487522,
              -41.52938
            ],
            [
              -59.579637,
              -41.643591
            ],
            [
              -59.656734,
              -41.763818
            ],
            [
              -59.718072,
              -41.888904
            ],
            [
              -59.763059,
              -42.017644
            ],
            [
              -59.791261,
              -42.148798
            ],
            [
              -59.802408,
              -42.281104
            ],
            [
              -59.796392,
              -42.413286
            ],
            [
              -59.773271,
              -42.544072
            ],
            [
              -59.733267,
              -42.672202
            ],
            [
              -59.676767,
              -42.796443
            ],
            [
              -59.604313,
              -42.915598
            ],
            [
              -59.516604,
              -43.028519
            ],
            [
              -59.414485,
              -43.134119
            ],
            [
              -59.298938,
              -43.231381
            ],
            [
              -59.171078,
              -43.319368
            ],
            [
              -59.032134,
              -43.397233
            ],
            [
              -58.883445,
              -43.464225
            ],
            [
              -58.726444,
              -43.519701
            ],
            [
              -58.562642,
              -43.563125
            ],
            [
              -58.393616,
              -43.59408
            ],
            [
              -58.220995,
              -43.612266
            ],
            [
              -58.04644,
              -43.61751
            ],
            [
              -57.871634,
              -43.60976
            ],
            [
              -57.698259,
              -43.589092
            ],
            [
              -57.527985,
              -43.555703
            ],
            [
              -57.362452,
              -43.509917
            ],
            [
              -57.203254,
              -43.452173
            ],
            [
              -57.051924,
              -43.383028
            ],
            [
              -56.909921,
              -43.303148
            ],
            [
              -56.77861,
              -43.213302
            ],
            [
              -56.659257,
              -43.114355
            ],
            [
              -56.553011,
              -43.00726
            ],
            [
              -56.460896,
              -42.893049
            ],
            [
              -56.383799,
              -42.772822
            ],
            [
              -56.322461,
              -42.647736
            ],
            [
              -56.277475,
              -42.518996
            ],
            [
              -56.249272,
              -42.387842
            ],
            [
              -56.238125,
              -42.255536
            ],
            [
              -56.244141,
              -42.123354
            ],
            [
              -56.267262,
              -41.992568
            ],
            [
              -56.307266,
              -41.864438
            ],
            [
              -56.363766,
              -41.740197
            ],
            [
              -56.43622,
              -41.621042
            ],
            [
              -56.523929,
              -41.508121
            ],
            [
              -56.626048,
              -41.402521
            ],
            [
              -56.741595,
              -41.305259
            ],
            [
              -56.869456,
              -41.217272
            ],
            [
              -57.008399,
              -41.139407
            ],
            [
              -57.157088,
              -41.072415
            ]
          ]
        ],
        "type": "Polygon"
      },
      "properties": {
        "kind": "reachableSet",
        "observationStatus": "estimated",
        "vessel": "B"
      },
      "type": "Feature"
    }
  ],
  "properties": {
    "dateline": false
  },
  "type": "FeatureCollection"
}
