{
  "features": [
    {
      "geometry": {
        "coordinates": [
          -60.394343,
          -45.259803
        ],
        "type": "Point"
      },
      "properties": {
        "mmsi": "412329691",
        "observationStatus": "observed",
        "role": "off",
        "time": "2017-01-28T07:26:02Z",
        "vessel": "A"
      },
      "type": "Feature"
    },
    {
      "geometry": {
        "coordinates": [
          -60.415748,
          -45.331227
        ],
        "type": "Point"
      },
      "properties": {
        "mmsi": "412329692",
        "observationStatus": "observed",
        "role": "off",
        "time": "2017-01-28T07:28:54Z",
        "vessel": "B"
      },
      "type": "Feature"
    },
    {
      "geometry": {
        "coordinates": [
          -60.504343,
          -45.332035
        ],
        "type": "Point"
      },
      "properties": {
        "mmsi": "412329691",
        "observationStatus": "observed",
        "role": "on",
        "time": "2017-01-28T23:25:21Z",
        "vessel": "A"
      },
      "type": "Feature"
    },
    {
      "geometry": {
        "coordinates": [
          -60.50674,
          -45.373802
        ],
        "type": "Point"
      },
      "properties": {
        "mmsi": "412329692",
        "observationStatus": "observed",
        "role": "on",
        "time": "2017-01-28T23:49:16Z",
        "vessel": "B"
      },
      "type": "Feature"
    },
    {
      "geometry": {
        "coordinates": [
          [
            -60.394343,
            -45.259803
          ],
          [
            -60.464909,
            -45.30593
          ],
          [
            -60.504343,
            -45.332035
          ]
        ],
        "type": "LineString"
      },
      "properties": {
        "confidence": "low",
        "lineStyle": "dashed",
        "observationStatus": "estimated",
        "source": "reachable-set heuristic",
        "vessel": "A"
      },
      "type": "Feature"
    },
    {
      "geometry": {
        "coordinates": [
          [
            -60.415748,
            -45.331227
          ],
          [
            -60.464909,
            -45.30593
          ],
          [
            -60.50674,
            -45.373802
          ]
        ],
        "type": "LineString"
      },
      "properties": {
        "confidence": "low",
        "lineStyle": "dashed",
        "observationStatus": "estimated",
        "source": "reachable-set heuristic",
        "vessel": "B"
      },
      "type": "Feature"
    },
    {
      "geometry": {
        "coordinates": [
          -60.464909,
          -45.30593
        ],
        "type": "Point"
      },
      "properties": {
        "kind": "meetingPoint",
        "observationStatus": "estimated"
      },
      "type": "Feature"
    },
    {
      "geometry": {
        "coordinates": [
          [
            [
              -62.138978,
              -46.405421
            ],
            [
              -61.977369,
              -46.517306
            ],
            [
              -61.801044,
              -46.617429
            ],
            [
              -61.611701,
              -46.704825
            ],
            [
              -61.411164,
              -46.778652
            ],
            [
              -61.201364,
              -46.8382
            ],
            [
              -60.984321,
              -46.882895
            ],
            [
              -60.762127,
              -46.912306
            ],
            [
              -60.53692,
              -46.926151
            ],
            [
              -60.31087,
              -46.924295
            ],
            [
              -60.086154,
              -46.906758
            ],
            [
              -59.864935,
              -46.873707
            ],
            [
              -59.649344,
              -46.825461
            ],
            [
              -59.441458,
              -46.762485
            ],
            [
              -59.243278,
              -46.685385
            ],
            [
              -59.056714,
              -46.594904
            ],
            [
              -58.883561,
              -46.491913
            ],
            [
              -58.725487,
              -46.377404
            ],
            [
              -58.584015,
              -46.252479
            ],
            [
              -58.460508,
              -46.118343
            ],
            [
              -58.356154,
              -45.976286
            ],
            [
              -58.271958,
              -45.827676
            ],
            [
              -58.208732,
              -45.673946
            ],
            [
              -58.167084,
              -45.516575
            ],
            [
              -58.147415,
              -45.357079
            ],
            [
              -58.149916,
              -45.196993
            ],
            [
              -58.174561,
              -45.037861
            ],
            [
              -58.221113,
              -44.881214
            ],
            [
              -58.289125,
              -44.728561
            ],
            [
              -58.377941,
              -44.581371
            ],
            [
              -58.486705,
              -44.441063
            ],
            [
              -58.614371,
              -44.308988
            ],
            [
              -58.759708,
              -44.186418
            ],
            [
              -58.921318,
              -44.074532
            ],
            [
              -59.097643,
              -43.97441
            ],
            [
              -59.286986,
              -43.887014
            ],
            [
              -59.487523,
              -43.813186
            ],
            [
              -59.697323,
              -43.753639
            ],
            [
              -59.914365,
              -43.708944
            ],
            [
              -60.13656,
              -43.679532
            ],
            [
              -60.361766,
              -43.665688
            ],
            [
              -60.587816,
              -43.667543
            ],
            [
              -60.812533,
              -43.685081
            ],
            [
              -61.033752,
              -43.718131
            ],
            [
              -61.249342,
              -43.766377
            ],
            [
              -61.457229,
              -43.829353
            ],
            [
              -61.655408,
              -43.906453
            ],
            [
              -61.841973,
              -43.996934
            ],
            [
              -62.015126,
              -44.099925
            ],
            [
              -62.173199,
              -44.214434
            ],
            [
              -62.314671,
              -44.339359
            ],
            [
              -62.438179,
              -44.473496
            ],
            [
              -62.542533,
              -44.615553
            ],
            [
              -62.626729,
              -44.764162
            ],
            [
              -62.689955,
              -44.917893
            ],
            [
              -62.731603,
              -45.075264
            ],
            [
              -62.751271,
              -45.23476
            ],
            [
              -62.748771,
              -45.394845
            ],
            [
              -62.724126,
              -45.553977
            ],
            [
              -62.677573,
              -45.710624
            ],
            [
              -62.609562,
              -45.863278
            ],
            [
              -62.520746,
              -46.010467
            ],
            [
              -62.411982,
              -46.150775
            ],
            [
              -62.284316,
              -46.28285
            ],
            [
              -62.138978,
              -46.405421
            ]
          ]
        ],
        "type": "Polygon"
      },
      "properties": {
        "kind": "reachableSet",
        "observationStatus": "estimated",
        "vessel": "A"
      },
      "type": "Feature"
    },
    {
      "geometry": {
        "coordinates": [
          [
            [
              -62.430088,
              -46.273736
            ],
            [
              -62.293017,
              -46.405799
            ],
            [
              -62.138305,
              -46.527718
            ],
            [
              -61.967442,
              -46.63832
            ],
            [
              -61.782074,
              -46.736539
            ],
            [
              -61.583985,
              -46.821428
            ],
            [
              -61.375084,
              -46.892171
            ],
            [
              -61.157382,
              -46.948087
            ],
            [
              -60.932975,
              -46.988636
            ],
            [
              -60.704026,
              -47.013428
            ],
            [
              -60.472739,
              -47.022225
            ],
            [
              -60.241341,
              -47.014942
            ],
            [
              -60.01206,
              -46.991649
            ],
            [
              -59.787106,
              -46.952569
            ],
            [
              -59.568644,
              -46.898081
            ],
            [
              -59.358778,
              -46.828708
            ],
            [
              -59.159529,
              -46.745118
            ],
            [
              -58.972817,
              -46.648117
            ],
            [
              -58.800439,
              -46.538638
            ],
            [
              -58.644056,
              -46.417736
            ],
            [
              -58.505173,
              -46.286576
            ],
            [
              -58.385128,
              -46.14642
            ],
            [
              -58.285077,
              -45.998618
            ],
            [
              -58.205984,
              -45.844594
            ],
            [
              -58.14861,
              -45.685832
            ],
            [
              -58.113509,
              -45.523859
            ],
            [
              -58.101017,
              -45.360235
            ],
            [
              -58.111255,
              -45.196538
            ],
            [
              -58.144125,
              -45.034343
            ],
            [
              -58.199311,
              -44.875211
            ],
            [
              -58.27628,
              -44.720677
            ],
            [
              -58.374291,
              -44.572227
            ],
            [
              -58.492401,
              -44.431292
            ],
            [
              -58.629472,
              -44.299229
            ],
            [
              -58.784184,
              -44.17731
            ],
            [
              -58.955046,
              -44.066708
            ],
            [
              -59.140415,
              -43.96849
            ],
            [
              -59.338503,
              -43.8836
            ],
            [
              -59.547405,
              -43.812857
            ],
            [
              -59.765107,
              -43.756942
            ],
            [
              -59.989513,
              -43.716392
            ],
            [
              -60.218462,
              -43.6916
            ],
            [
              -60.44975,
              -43.682803
            ],
            [
              -60.681148,
              -43.690086
            ],
            [
              -60.910428,
              -43.71338
            ],
            [
              -61.135383,
              -43.752459
            ],
            [
              -61.353845,
              -43.806947
            ],
            [
              -61.56371,
              -43.876321
            ],
            [
              -61.762959,
              -43.95991
            ],
            [
              -61.949671,
              -44.056912
            ],
            [
              -62.122049,
              -44.16639
            ],
            [
              -62.278433,
              -44.287292
            ],
            [
              -62.417316,
              -44.418452
            ],
            [
              -62.53736,
              -44.558608
            ],
            [
              -62.637411,
              -44.70641
            ],
            [
              -62.716504,
              -44.860434
            ],
            [
              -62.773878,
              -45.019197
            ],
            [
              -62.80898,
              -45.18117
            ],
            [
              -62.821472,
              -45.344793
            ],
            [
              -62.811233,
              -45.50849
            ],
            [
              -62.778363,
              -45.670686
            ],
            [
              -62.723178,
              -45.829817
            ],
            [
              -62.646209,
              -45.984351
            ],
            [
              -62.548197,
              -46.132801
            ],
            [
              -62.430088,
              -46.273736
            ]
          ]
        ],
        "type": "Polygon"
      },
      "properties": {
        "kind": "reachableSet",
        "observationStatus": "estimated",
        "vessel": "B"
      },
      "type": "Feature"
    }
  ],
  "properties": {
    "dateline": false
  },
  "type": "FeatureCollection"
}
