{
  "features": [
    {
      "geometry": {
        "coordinates": [
          158.588283,
          46.833698
        ],
        "type": "Point"
      },
      "properties": {
        "mmsi": "416236800",
        "observationStatus": "observed",
        "role": "off",
        "time": "2017-07-27T02:39:11Z",
        "vessel": "A"
      },
      "type": "Feature"
    },
    {
      "geometry": {
        "coordinates": [
          158.63313,
          46.803715
        ],
        "type": "Point"
      },
      "properties": {
        "mmsi": "416004244",
        "observationStatus": "observed",
        "role": "off",
        "time": "2017-07-27T02:51:09Z",
        "vessel": "B"
      },
      "type": "Feature"
    },
    {
      "geometry": {
        "coordinates": [
          158.58548,
          46.290833
        ],
        "type": "Point"
      },
      "properties": {
        "mmsi": "416004244",
        "observationStatus": "observed",
        "role": "on",
        "time": "2017-07-27T17:32:32Z",
        "vessel": "B"
      },
      "type": "Feature"
    },
    {
      "geometry": {
        "coordinates": [
          158.509037,
          46.337442
        ],
        "type": "Point"
      },
      "properties": {
        "mmsi": "416236800",
        "observationStatus": "observed",
        "role": "on",
        "time": "2017-07-27T17:59:28Z",
        "vessel": "A"
      },
      "type": "Feature"
    },
    {
      "geometry": {
        "coordinates": [
          [
            158.588283,
            46.833698
          ],
          [
            158.624087,
            46.706273
          ],
          [
            158.509037,
            46.337442
          ]
        ],
        "type": "LineString"
      },
      "properties": {
        "confidence": "low",
        "lineStyle": "dashed",
        "observationStatus": "estimated",
        "source": "reachable-set heuristic",
        "vessel": "A"
      },
      "type": "Feature"
    },
    {
      "geometry": {
        "coordinates": [
          [
            158.63313,
            46.803715
          ],
          [
            158.624087,
            46.706273
          ],
          [
            158.58548,
            46.290833
          ]
        ],
        "type": "LineString"
      },
      "properties": {
        "confidence": "low",
        "lineStyle": "dashed",
        "observationStatus": "estimated",
        "source": "reachable-set heuristic",
        "vessel": "B"
      },
      "type": "Feature"
    },
    {
      "geometry": {
        "coordinates": [
          158.624087,
          46.706273
        ],
        "type": "Point"
      },
      "properties": {
        "kind": "meetingPoint",
        "observationStatus": "estimated"
      },
      "type": "Feature"
    },
    {
      "geometry": {
        "coordinates": [
          [
            [
              158.31995,
              45.153349
            ],
            [
              158.520868,
              45.144968
            ],
            [
              158.722053,
              45.150462
            ],
            [
              158.921569,
              45.169776
            ],
            [
              159.117493,
              45.202726
            ],
            [
              159.307939,
              45.248992
            ],
            [
              159.491073,
              45.308131
            ],
            [
              159.66513,
              45.379572
            ],
            [
              159.828436,
              45.462628
            ],
            [
              159.979417,
              45.556498
            ],
            [
              160.116618,
              45.660279
            ],
            [
              160.23872,
              45.772971
            ],
            [
              160.344545,
              45.893488
            ],
            [
              160.433075,
              46.020671
            ],
            [
              160.503456,
              46.153294
            ],
            [
              160.555013,
              46.29008
            ],
            [
              160.587246,
              46.429711
            ],
            [
              160.599848,
              46.570844
            ],
            [
              160.592695,
              46.712119
            ],
            [
              160.565857,
              46.852174
            ],
            [
              160.519592,
              46.989663
            ],
            [
              160.454346,
              47.123259
            ],
            [
              160.370747,
              47.251678
            ],
            [
              160.269601,
              47.373681
            ],
            [
              160.151881,
              47.488095
            ],
            [
              160.018721,
              47.593816
            ],
            [
              159.871403,
              47.689828
            ],
            [
              159.711347,
              47.775205
            ],
            [
              159.540094,
              47.849125
            ],
            [
              159.359292,
              47.910877
            ],
            [
              159.170684,
              47.959865
            ],
            [
              158.976085,
              47.995618
            ],
            [
              158.77737,
              48.017791
            ],
            [
              158.576452,
              48.026172
            ],
            [
              158.375267,
              48.020678
            ],
            [
              158.175751,
              48.001364
            ],
            [
              157.979827,
              47.968414
            ],
            [
              157.789381,
              47.922148
            ],
            [
              157.606247,
              47.863009
            ],
            [
              157.43219,
              47.791568
            ],
            [
              157.268884,
              47.708512
            ],
            [
              157.117903,
              47.614642
            ],
            [
              156.980702,
              47.510861
            ],
            [
              156.8586,
              47.398169
            ],
            [
              156.752775,
              47.277652
            ],
            [
              156.664245,
              47.150469
            ],
            [
              156.593864,
              47.017846
            ],
            [
              156.542307,
              46.88106
            ],
            [
              156.510074,
              46.741429
            ],
            [
              156.497472,
              46.600296
            ],
            [
              156.504625,
              46.459021
            ],
            [
              156.531463,
              46.318966
            ],
            [
              156.577728,
              46.181477
            ],
            [
              156.642974,
              46.047881
            ],
            [
              156.726573,
              45.919462
            ],
            [
              156.827719,
              45.797459
            ],
            [
              156.945439,
              45.683045
            ],
            [
              157.078599,
              45.577324
            ],
            [
              157.225917,
              45.481312
            ],
            [
              157.385973,
              45.395935
            ],
            [
              157.557226,
              45.322015
            ],
            [
              157.738028,
              45.260263
            ],
            [
              157.926636,
              45.211275
            ],
            [
              158.121235,
              45.175522
            ],
            [
              158.31995,
              45.153349
            ]
          ]
        ],
        "type": "Polygon"
      },
      "properties": {
        "kind": "reachableSet",
        "observationStatus": "estimated",
        "vessel": "A"
      },
      "type": "Feature"
    },
    {
      "geometry": {
        "coordinates": [
          [
            [
              158.48175,
              45.17433
            ],
            [
              158.673294,
              45.172437
            ],
            [
              158.864221,
              45.183784
            ],
            [
              159.052694,
              45.208262
            ],
            [
              159.236897,
              45.245635
            ],
            [
              159.415055,
              45.295544
            ],
            [
              159.585454,
              45.357508
            ],
            [
              159.746452,
              45.430929
            ],
            [
              159.896499,
              45.515102
            ],
            [
              160.034149,
              45.609216
            ],
            [
              160.158077,
              45.712363
            ],
            [
              160.26709,
              45.823551
            ],
            [
              160.360137,
              45.941708
            ],
            [
              160.436323,
              46.065698
            ],
            [
              160.494914,
              46.194326
            ],
            [
              160.535345,
              46.326352
            ],
            [
              160.557227,
              46.460507
            ],
            [
              160.56035,
              46.595496
            ],
            [
              160.544683,
              46.730022
            ],
            [
              160.510378,
              46.862787
            ],
            [
              160.457764,
              46.992514
            ],
            [
              160.387348,
              47.117953
            ],
            [
              160.299809,
              47.237896
            ],
            [
              160.195989,
              47.351188
            ],
            [
              160.076889,
              47.456738
            ],
            [
              159.943655,
              47.553529
            ],
            [
              159.797571,
              47.64063
            ],
            [
              159.640043,
              47.717201
            ],
            [
              159.472588,
              47.782504
            ],
            [
              159.29682,
              47.835912
            ],
            [
              159.11443,
              47.87691
            ],
            [
              158.927176,
              47.905102
            ],
            [
              158.73686,
              47.920218
            ],
            [
              158.545316,
              47.922112
            ],
            [
              158.354389,
              47.910765
            ],
            [
              158.165916,
              47.886287
            ],
            [
              157.981713,
              47.848913
            ],
            [
              157.803555,
              47.799005
            ],
            [
              157.633156,
              47.737041
            ],
            [
              157.472158,
              47.663619
            ],
            [
              157.322111,
              47.579446
            ],
            [
              157.184461,
              47.485333
            ],
            [
              157.060533,
              47.382186
            ],
            [
              156.95152,
              47.270998
            ],
            [
              156.858473,
              47.15284
            ],
            [
              156.782287,
              47.02885
            ],
            [
              156.723696,
              46.900223
            ],
            [
              156.683265,
              46.768196
            ],
            [
              156.661383,
              46.634042
            ],
            [
              156.65826,
              46.499052
            ],
            [
              156.673927,
              46.364527
            ],
            [
              156.708232,
              46.231761
            ],
            [
              156.760846,
              46.102034
            ],
            [
              156.831262,
              45.976595
            ],
            [
              156.918801,
              45.856652
            ],
            [
              157.022621,
              45.74336
            ],
            [
              157.141721,
              45.63781
            ],
            [
              157.274955,
              45.541019
            ],
            [
              157.421039,
              45.453919
            ],
            [
              157.578567,
              45.377348
            ],
            [
              157.746022,
              45.312044
            ],
            [
              157.92179,
              45.258636
            ],
            [
              158.10418,
              45.217639
            ],
            [
              158.291434,
              45.189446
            ],
            [
              158.48175,
              45.17433
            ]
          ]
        ],
        "type": "Polygon"
      },
      "properties": {
        "kind": "reachableSet",
        "observationStatus": "estimated",
        "vessel": "B"
      },
      "type": "Feature"
    }
  ],
  "properties": {
    "dateline": false
  },
  "type": "FeatureCollection"
}
