{
  "features": [
    {
      "geometry": {
        "coordinates": [
          160.429587,
          41.96173
        ],
        "type": "Point"
      },
      "properties": {
        "mmsi": "416005531",
        "observationStatus": "observed",
        "role": "off",
        "time": "2018-09-16T05:23:34Z",
        "vessel": "A"
      },
      "type": "Feature"
    },
    {
      "geometry": {
        "coordinates": [
          160.488833,
          41.888078
        ],
        "type": "Point"
      },
      "properties": {
        "mmsi": "416005506",
        "observationStatus": "observed",
        "role": "off",
        "time": "2018-09-16T05:58:31Z",
        "vessel": "B"
      },
      "type": "Feature"
    },
    {
      "geometry": {
        "coordinates": [
          159.83888,
          42.13296
        ],
        "type": "Point"
      },
      "properties": {
        "mmsi": "416005531",
        "observationStatus": "observed",
        "role": "on",
        "time": "2018-09-16T18:21:08Z",
        "vessel": "A"
      },
      "type": "Feature"
    },
    {
      "geometry": {
        "coordinates": [
          159.93048,
          42.08968
        ],
        "type": "Point"
      },
      "properties": {
        "mmsi": "416005506",
        "observationStatus": "observed",
        "role": "on",
        "time": "2018-09-16T19:16:09Z",
        "vessel": "B"
      },
      "type": "Feature"
    },
    {
      "geometry": {
        "coordinates": [
          [
            160.429587,
            41.96173
          ],
          [
            160.163857,
            42.010519
          ],
          [
            159.83888,
            42.13296
          ]
        ],
        "type": "LineString"
      },
      "properties": {
        "confidence": "low",
        "lineStyle": "dashed",
        "observationStatus": "estimated",
        "source": "reachable-set heuristic",
        "vessel": "A"
      },
      "type": "Feature"
    },
    {
      "geometry": {
        "coordinates": [
          [
            160.488833,
            41.888078
          ],
          [
            160.163857,
            42.010519
          ],
          [
            159.93048,
            42.08968
          ]
        ],
        "type": "LineString"
      },
      "properties": {
        "confidence": "low",
        "lineStyle": "dashed",
        "observationStatus": "estimated",
        "source": "reachable-set heuristic",
        "vessel": "B"
      },
      "type": "Feature"
    },
    {
      "geometry": {
        "coordinates": [
          160.163857,
          42.010519
        ],
        "type": "Point"
      },
      "properties": {
        "kind": "meetingPoint",
        "observationStatus": "estimated"
      },
      "type": "Feature"
    },
    {
      "geometry": {
        "coordinates": [
          [
            [
              158.635346,
              42.481832
            ],
            [
              158.586718,
              42.372054
            ],
            [
              158.552993,
              42.25915
            ],
            [
              158.534496,
              42.144205
            ],
            [
              158.531405,
              42.028327
            ],
            [
              158.54375,
              41.912633
            ],
            [
              158.571413,
              41.798236
            ],
            [
              158.614127,
              41.686238
            ],
            [
              158.67148,
              41.577718
            ],
            [
              158.74292,
              41.473721
            ],
            [
              158.827759,
              41.375247
            ],
            [
              158.92518,
              41.283247
            ],
            [
              159.034245,
              41.198605
            ],
            [
              159.153904,
              41.122137
            ],
            [
              159.283003,
              41.054579
            ],
            [
              159.420301,
              40.996583
            ],
            [
              159.564474,
              40.948705
            ],
            [
              159.714134,
              40.911408
            ],
            [
              159.86784,
              40.885051
            ],
            [
              160.024112,
              40.869887
            ],
            [
              160.181444,
              40.866063
            ],
            [
              160.338321,
              40.873615
            ],
            [
              160.493233,
              40.892471
            ],
            [
              160.644687,
              40.922449
            ],
            [
              160.791226,
              40.963261
            ],
            [
              160.931437,
              41.014512
            ],
            [
              161.063971,
              41.075711
            ],
            [
              161.187551,
              41.146266
            ],
            [
              161.300987,
              41.2255
            ],
            [
              161.403186,
              41.312648
            ],
            [
              161.493165,
              41.406872
            ],
            [
              161.570056,
              41.507265
            ],
            [
              161.63312,
              41.612858
            ],
            [
              161.681749,
              41.722636
            ],
            [
              161.715474,
              41.83554
            ],
            [
              161.733971,
              41.950485
            ],
            [
              161.737062,
              42.066363
            ],
            [
              161.724716,
              42.182057
            ],
            [
              161.697054,
              42.296454
            ],
            [
              161.65434,
              42.408452
            ],
            [
              161.596987,
              42.516972
            ],
            [
              161.525547,
              42.620969
            ],
            [
              161.440708,
              42.719443
            ],
            [
              161.343287,
              42.811443
            ],
            [
              161.234221,
              42.896085
            ],
            [
              161.114563,
              42.972553
            ],
            [
              160.985463,
              43.040111
            ],
            [
              160.848166,
              43.098107
            ],
            [
              160.703993,
              43.145985
            ],
            [
              160.554332,
              43.183282
            ],
            [
              160.400627,
              43.209639
            ],
            [
              160.244355,
              43.224803
            ],
            [
              160.087023,
              43.228627
            ],
            [
              159.930146,
              43.221075
            ],
            [
              159.775234,
              43.202219
            ],
            [
              159.623779,
              43.172241
            ],
            [
              159.477241,
              43.131429
            ],
            [
              159.33703,
              43.080178
            ],
            [
              159.204496,
              43.018979
            ],
            [
              159.080916,
              42.948424
            ],
            [
              158.96748,
              42.86919
            ],
            [
              158.86528,
              42.782042
            ],
            [
              158.775302,
              42.687818
            ],
            [
              158.69841,
              42.587425
            ],
            [
              158.635346,
              42.481832
            ]
          ]
        ],
        "type": "Polygon"
      },
      "properties": {
        "kind": "reachableSet",
        "observationStatus": "estimated",
        "vessel": "A"
      },
      "type": "Feature"
    },
    {
      "geometry": {
        "coordinates": [
          [
            [
              158.722656,
              42.525783
            ],
            [
              158.660742,
              42.416068
            ],
            [
              158.613744,
              42.30224
            ],
            [
              158.582116,
              42.185394
            ],
            [
              158.566161,
              42.066656
            ],
            [
              158.566035,
              41.947168
            ],
            [
              158.581738,
              41.828082
            ],
            [
              158.613118,
              41.710545
            ],
            [
              158.659874,
              41.595688
            ],
            [
              158.721555,
              41.484618
            ],
            [
              158.797567,
              41.378404
            ],
            [
              158.887179,
              41.278069
            ],
            [
              158.989527,
              41.18458
            ],
            [
              159.103625,
              41.098837
            ],
            [
              159.228375,
              41.021665
            ],
            [
              159.362575,
              40.953808
            ],
            [
              159.504933,
              40.895919
            ],
            [
              159.654078,
              40.848557
            ],
            [
              159.808574,
              40.812176
            ],
            [
              159.966932,
              40.787127
            ],
            [
              160.127628,
              40.773652
            ],
            [
              160.289113,
              40.77188
            ],
            [
              160.449834,
              40.781829
            ],
            [
              160.608241,
              40.803402
            ],
            [
              160.76281,
              40.836392
            ],
            [
              160.912052,
              40.880481
            ],
            [
              161.054529,
              40.935244
            ],
            [
              161.18887,
              41.000155
            ],
            [
              161.31378,
              41.074588
            ],
            [
              161.428057,
              41.157825
            ],
            [
              161.5306,
              41.249066
            ],
            [
              161.620422,
              41.347432
            ],
            [
              161.696657,
              41.451976
            ],
            [
              161.758572,
              41.56169
            ],
            [
              161.80557,
              41.675518
            ],
            [
              161.837198,
              41.792364
            ],
            [
              161.853152,
              41.911103
            ],
            [
              161.853278,
              42.03059
            ],
            [
              161.837576,
              42.149676
            ],
            [
              161.806195,
              42.267214
            ],
            [
              161.759439,
              42.38207
            ],
            [
              161.697758,
              42.493141
            ],
            [
              161.621746,
              42.599354
            ],
            [
              161.532134,
              42.699689
            ],
            [
              161.429787,
              42.793178
            ],
            [
              161.315688,
              42.878922
            ],
            [
              161.190938,
              42.956093
            ],
            [
              161.056738,
              43.02395
            ],
            [
              160.91438,
              43.081839
            ],
            [
              160.765235,
              43.129202
            ],
            [
              160.61074,
              43.165583
            ],
            [
              160.452381,
              43.190631
            ],
            [
              160.291686,
              43.204106
            ],
            [
              160.1302,
              43.205878
            ],
            [
              159.96948,
              43.195929
            ],
            [
              159.811072,
              43.174356
            ],
            [
              159.656503,
              43.141366
            ],
            [
              159.507262,
              43.097277
            ],
            [
              159.364784,
              43.042514
            ],
            [
              159.230444,
              42.977603
            ],
            [
              159.105533,
              42.903171
            ],
            [
              158.991256,
              42.819933
            ],
            [
              158.888713,
              42.728692
            ],
            [
              158.798892,
              42.630326
            ],
            [
              158.722656,
              42.525783
            ]
          ]
        ],
        "type": "Polygon"
      },
      "properties": {
        "kind": "reachableSet",
        "observationStatus": "estimated",
        "vessel": "B"
      },
      "type": "Feature"
    }
  ],
  "properties": {
    "dateline": false
  },
  "type": "FeatureCollection"
}
