{
  "features": [
    {
      "geometry": {
        "coordinates": [
          -57.736527,
          -42.005813
        ],
        "type": "Point"
      },
      "properties": {
        "mmsi": "412329693",
        "observationStatus": "observed",
        "role": "off",
        "time": "2019-05-16T05:26:38Z",
        "vessel": "A"
      },
      "type": "Feature"
    },
    {
      "geometry": {
        "coordinates": [
          -57.72237,
          -41.963963
        ],
        "type": "Point"
      },
      "properties": {
        "mmsi": "412329691",
        "observationStatus": "observed",
        "role": "off",
        "time": "2019-05-16T05:46:04Z",
        "vessel": "B"
      },
      "type": "Feature"
    },
    {
      "geometry": {
        "coordinates": [
          -57.91022,
          -41.999037
        ],
        "type": "Point"
      },
      "properties": {
        "mmsi": "412329693",
        "observationStatus": "observed",
        "role": "on",
        "time": "2019-05-16T22:17:07Z",
        "vessel": "A"
      },
      "type": "Feature"
    },
    {
      "geometry": {
        "coordinates": [
          -57.866323,
          -41.970895
        ],
        "type": "Point"
      },
      "properties": {
        "mmsi": "412329691",
        "observationStatus": "observed",
        "role": "on",
        "time": "2019-05-16T22:19:35Z",
        "vessel": "B"
      },
      "type": "Feature"
    },
    {
      "geometry": {
        "coordinates": [
          [
            -57.736527,
            -42.005813
          ],
          [
            -57.808487,
            -41.980053
          ],
          [
            -57.91022,
            -41.999037
          ]
        ],
        "type": "LineString"
      },
      "properties": {
        "confidence": "low",
        "lineStyle": "dashed",
        "observationStatus": "estimated",
        "source": "reachable-set heuristic",
        "vessel": "A"
      },
      "type": "Feature"
    },
    {
      "geometry": {
        "coordinates": [
          [
            -57.72237,
            -41.963963
          ],
          [
            -57.808487,
            -41.980053
          ],
          [
            -57.866323,
            -41.970895
          ]
        ],
        "type": "LineString"
      },
      "properties": {
        "confidence": "low",
        "lineStyle": "dashed",
        "observationStatus": "estimated",
        "source": "reachable-set heuristic",
        "vessel": "B"
      },
      "type": "Feature"
    },
    {
      "geometry": {
        "coordinates": [
          -57.808487,
          -41.980053
        ],
        "type": "Point"
      },
      "properties": {
        "kind": "meetingPoint",
        "observationStatus": "estimated"
      },
      "type": "Feature"
    },
    {
      "geometry": {
        "coordinates": [
          [
            [
              -60.125492,
              -41.912608
            ],
            [
              -60.126166,
              -42.081739
            ],
            [
              -60.104662,
              -42.250107
            ],
            [
              -60.061188,
              -42.41609
            ],
            [
              -59.996163,
              -42.578089
            ],
            [
              -59.910213,
              -42.734544
            ],
            [
              -59.804165,
              -42.883948
            ],
            [
              -59.679041,
              -43.024863
            ],
            [
              -59.536046,
              -43.155931
            ],
            [
              -59.376557,
              -43.27589
            ],
            [
              -59.20211,
              -43.383585
            ],
            [
              -59.014385,
              -43.477978
            ],
            [
              -58.81519,
              -43.558161
            ],
            [
              -58.606444,
              -43.623362
            ],
            [
              -58.390155,
              -43.672952
            ],
            [
              -58.168409,
              -43.706454
            ],
            [
              -57.943339,
              -43.723546
            ],
            [
              -57.717115,
              -43.724062
            ],
            [
              -57.491913,
              -43.707997
            ],
            [
              -57.269904,
              -43.675507
            ],
            [
              -57.053225,
              -43.626905
            ],
            [
              -56.843963,
              -43.562658
            ],
            [
              -56.644133,
              -43.483384
            ],
            [
              -56.45566,
              -43.389849
            ],
            [
              -56.280358,
              -43.282952
            ],
            [
              -56.119917,
              -43.163722
            ],
            [
              -55.975881,
              -43.033309
            ],
            [
              -55.849637,
              -42.892968
            ],
            [
              -55.742402,
              -42.74405
            ],
            [
              -55.655207,
              -42.58799
            ],
            [
              -55.588893,
              -42.426291
            ],
            [
              -55.544098,
              -42.260509
            ],
            [
              -55.521254,
              -42.092242
            ],
            [
              -55.520581,
              -41.923111
            ],
            [
              -55.542085,
              -41.754743
            ],
            [
              -55.585558,
              -41.58876
            ],
            [
              -55.650584,
              -41.426761
            ],
            [
              -55.736534,
              -41.270306
            ],
            [
              -55.842582,
              -41.120902
            ],
            [
              -55.967706,
              -40.979987
            ],
            [
              -56.1107,
              -40.848919
            ],
            [
              -56.270189,
              -40.72896
            ],
            [
              -56.444636,
              -40.621265
            ],
            [
              -56.632361,
              -40.526872
            ],
            [
              -56.831556,
              -40.446689
            ],
            [
              -57.040303,
              -40.381488
            ],
            [
              -57.256591,
              -40.331898
            ],
            [
              -57.478338,
              -40.298396
            ],
            [
              -57.703407,
              -40.281304
            ],
            [
              -57.929632,
              -40.280788
            ],
            [
              -58.154833,
              -40.296853
            ],
            [
              -58.376843,
              -40.329343
            ],
            [
              -58.593522,
              -40.377945
            ],
            [
              -58.802784,
              -40.442192
            ],
            [
              -59.002614,
              -40.521466
            ],
            [
              -59.191087,
              -40.615001
            ],
            [
              -59.366388,
              -40.721898
            ],
            [
              -59.52683,
              -40.841128
            ],
            [
              -59.670866,
              -40.971541
            ],
            [
              -59.797109,
              -41.111882
            ],
            [
              -59.904345,
              -41.2608
            ],
            [
              -59.99154,
              -41.41686
            ],
            [
              -60.057854,
              -41.578559
            ],
            [
              -60.102648,
              -41.744341
            ],
            [
              -60.125492,
              -41.912608
            ]
          ]
        ],
        "type": "Polygon"
      },
      "properties": {
        "kind": "reachableSet",
        "observationStatus": "estimated",
        "vessel": "A"
      },
      "type": "Feature"
    },
    {
      "geometry": {
        "coordinates": [
          [
            [
              -60.052533,
              -42.076166
            ],
            [
              -60.027428,
              -42.241247
            ],
            [
              -59.980818,
              -42.403691
            ],
            [
              -59.913151,
              -42.561933
            ],
            [
              -59.825078,
              -42.714451
            ],
            [
              -59.717449,
              -42.859774
            ],
            [
              -59.591299,
              -42.996503
            ],
            [
              -59.447843,
              -43.123321
            ],
            [
              -59.288464,
              -43.239008
            ],
            [
              -59.114695,
              -43.342449
            ],
            [
              -58.92821,
              -43.432648
            ],
            [
              -58.730806,
              -43.508735
            ],
            [
              -58.524383,
              -43.569979
            ],
            [
              -58.31093,
              -43.61579
            ],
            [
              -58.092501,
              -43.645726
            ],
            [
              -57.871201,
              -43.659499
            ],
            [
              -57.649161,
              -43.656977
            ],
            [
              -57.428519,
              -43.638183
            ],
            [
              -57.211401,
              -43.603299
            ],
            [
              -56.999896,
              -43.552661
            ],
            [
              -56.796042,
              -43.486756
            ],
            [
              -56.601803,
              -43.406219
            ],
            [
              -56.419048,
              -43.311826
            ],
            [
              -56.249539,
              -43.204486
            ],
            [
              -56.094906,
              -43.085231
            ],
            [
              -55.956641,
              -42.955212
            ],
            [
              -55.836073,
              -42.81568
            ],
            [
              -55.734365,
              -42.667979
            ],
            [
              -55.652495,
              -42.513532
            ],
            [
              -55.591252,
              -42.353825
            ],
            [
              -55.551227,
              -42.190396
            ],
            [
              -55.532804,
              -42.024821
            ],
            [
              -55.536161,
              -41.858693
            ],
            [
              -55.561265,
              -41.693612
            ],
            [
              -55.607876,
              -41.531168
            ],
            [
              -55.675543,
              -41.372925
            ],
            [
              -55.763615,
              -41.220408
            ],
            [
              -55.871245,
              -41.075085
            ],
            [
              -55.997395,
              -40.938356
            ],
            [
              -56.14085,
              -40.811537
            ],
            [
              -56.30023,
              -40.69585
            ],
            [
              -56.473999,
              -40.592409
            ],
            [
              -56.660483,
              -40.502211
            ],
            [
              -56.857887,
              -40.426123
            ],
            [
              -57.06431,
              -40.364879
            ],
            [
              -57.277764,
              -40.319068
            ],
            [
              -57.496192,
              -40.289132
            ],
            [
              -57.717492,
              -40.275359
            ],
            [
              -57.939532,
              -40.277881
            ],
            [
              -58.160174,
              -40.296675
            ],
            [
              -58.377293,
              -40.331559
            ],
            [
              -58.588797,
              -40.382197
            ],
            [
              -58.792651,
              -40.448102
            ],
            [
              -58.98689,
              -40.528639
            ],
            [
              -59.169645,
              -40.623032
            ],
            [
              -59.339155,
              -40.730373
            ],
            [
              -59.493787,
              -40.849627
            ],
            [
              -59.632053,
              -40.979646
            ],
            [
              -59.75262,
              -41.119178
            ],
            [
              -59.854329,
              -41.266879
            ],
            [
              -59.936198,
              -41.421327
            ],
            [
              -59.997441,
              -41.581034
            ],
            [
              -60.037466,
              -41.744462
            ],
            [
              -60.055889,
              -41.910037
            ],
            [
              -60.052533,
              -42.076166
            ]
          ]
        ],
        "type": "Polygon"
      },
      "properties": {
        "kind": "reachableSet",
        "observationStatus": "estimated",
        "vessel": "B"
      },
      "type": "Feature"
    }
  ],
  "properties": {
    "dateline": false
  },
  "type": "FeatureCollection"
}
