{
  "features": [
    {
      "geometry": {
        "coordinates": [
          159.875067,
          42.635333
        ],
        "type": "Point"
      },
      "properties": {
        "mmsi": "416180600",
        "observationStatus": "observed",
        "role": "off",
        "time": "2019-08-28T05:15:11Z",
        "vessel": "A"
      },
      "type": "Feature"
    },
    {
      "geometry": {
        "coordinates": [
          159.835668,
          42.688435
        ],
        "type": "Point"
      },
      "properties": {
        "mmsi": "577100000",
        "observationStatus": "observed",
        "role": "off",
        "time": "2019-08-28T05:52:43Z",
        "vessel": "B"
      },
      "type": "Feature"
    },
    {
      "geometry": {
        "coordinates": [
          159.852787,
          42.517557
        ],
        "type": "Point"
      },
      "properties": {
        "mmsi": "416180600",
        "observationStatus": "observed",
        "role": "on",
        "time": "2019-08-28T18:26:03Z",
        "vessel": "A"
      },
      "type": "Feature"
    },
    {
      "geometry": {
        "coordinates": [
          159.851333,
          42.434853
        ],
        "type": "Point"
      },
      "properties": {
        "mmsi": "577100000",
        "observationStatus": "observed",
        "role": "on",
        "time": "2019-08-28T18:44:16Z",
        "vessel": "B"
      },
      "type": "Feature"
    },
    {
      "geometry": {
        "coordinates": [
          [
            159.875067,
            42.635333
          ],
          [
            159.848242,
            42.508635
          ],
          [
            159.852787,
            42.517557
          ]
        ],
        "type": "LineString"
      },
      "properties": {
        "confidence": "low",
        "lineStyle": "dashed",
        "observationStatus": "estimated",
        "source": "reachable-set heuristic",
        "vessel": "A"
      },
      "type": "Feature"
    },
    {
      "geometry": {
        "coordinates": [
          [
            159.835668,
            42.688435
          ],
          [
            159.848242,
            42.508635
          ],
          [
            159.851333,
            42.434853
          ]
        ],
        "type": "LineString"
      },
      "properties": {
        "confidence": "low",
        "lineStyle": "dashed",
        "observationStatus": "estimated",
        "source": "reachable-set heuristic",
        "vessel": "B"
      },
      "type": "Feature"
    },
    {
      "geometry": {
        "coordinates": [
          159.848242,
          42.508635
        ],
        "type": "Point"
      },
      "properties": {
        "kind": "meetingPoint",
        "observationStatus": "estimated"
      },
      "type": "Feature"
    },
    {
      "geometry": {
        "coordinates": [
          [
            [
              159.634593,
              41.364139
            ],
            [
              159.795788,
              41.353331
            ],
            [
              159.957639,
              41.354303
            ],
            [
              160.118588,
              41.367044
            ],
            [
              160.277084,
              41.391433
            ],
            [
              160.431601,
              41.427234
            ],
            [
              160.580652,
              41.474102
            ],
            [
              160.722799,
              41.531587
            ],
            [
              160.856676,
              41.599134
            ],
            [
              160.980991,
              41.676093
            ],
            [
              161.094549,
              41.761723
            ],
            [
              161.196255,
              41.8552
            ],
            [
              161.285131,
              41.955622
            ],
            [
              161.360319,
              42.062023
            ],
            [
              161.421096,
              42.173378
            ],
            [
              161.466876,
              42.288615
            ],
            [
              161.49722,
              42.406624
            ],
            [
              161.511834,
              42.526269
            ],
            [
              161.510577,
              42.646397
            ],
            [
              161.493463,
              42.765851
            ],
            [
              161.460655,
              42.883481
            ],
            [
              161.41247,
              42.998154
            ],
            [
              161.349371,
              43.108765
            ],
            [
              161.271967,
              43.214251
            ],
            [
              161.181003,
              43.313593
            ],
            [
              161.077354,
              43.405837
            ],
            [
              160.96202,
              43.490093
            ],
            [
              160.83611,
              43.565551
            ],
            [
              160.700838,
              43.631482
            ],
            [
              160.557505,
              43.687253
            ],
            [
              160.407494,
              43.732326
            ],
            [
              160.252247,
              43.766268
            ],
            [
              160.093261,
              43.788751
            ],
            [
              159.932065,
              43.799559
            ],
            [
              159.770214,
              43.798587
            ],
            [
              159.609265,
              43.785846
            ],
            [
              159.450769,
              43.761457
            ],
            [
              159.296252,
              43.725656
            ],
            [
              159.147202,
              43.678788
            ],
            [
              159.005054,
              43.621303
            ],
            [
              158.871178,
              43.553756
            ],
            [
              158.746862,
              43.476797
            ],
            [
              158.633304,
              43.391167
            ],
            [
              158.531598,
              43.29769
            ],
            [
              158.442723,
              43.197268
            ],
            [
              158.367535,
              43.090867
            ],
            [
              158.306758,
              42.979512
            ],
            [
              158.260977,
              42.864275
            ],
            [
              158.230634,
              42.746266
            ],
            [
              158.21602,
              42.626621
            ],
            [
              158.217276,
              42.506493
            ],
            [
              158.23439,
              42.387039
            ],
            [
              158.267198,
              42.269409
            ],
            [
              158.315383,
              42.154736
            ],
            [
              158.378482,
              42.044125
            ],
            [
              158.455886,
              41.938639
            ],
            [
              158.54685,
              41.839297
            ],
            [
              158.650499,
              41.747053
            ],
            [
              158.765833,
              41.662797
            ],
            [
              158.891743,
              41.587339
            ],
            [
              159.027016,
              41.521408
            ],
            [
              159.170348,
              41.465637
            ],
            [
              159.32036,
              41.420564
            ],
            [
              159.475606,
              41.386622
            ],
            [
              159.634593,
              41.364139
            ]
          ]
        ],
        "type": "Polygon"
      },
      "properties": {
        "kind": "reachableSet",
        "observationStatus": "estimated",
        "vessel": "A"
      },
      "type": "Feature"
    },
    {
      "geometry": {
        "coordinates": [
          [
            [
              159.917048,
              41.371077
            ],
            [
              160.073167,
              41.382125
            ],
            [
              160.227075,
              41.404533
            ],
            [
              160.377289,
              41.438084
            ],
            [
              160.522362,
              41.482456
            ],
            [
              160.660897,
              41.537221
            ],
            [
              160.79156,
              41.601852
            ],
            [
              160.913093,
              41.675726
            ],
            [
              161.024325,
              41.758131
            ],
            [
              161.124185,
              41.848276
            ],
            [
              161.211711,
              41.94529
            ],
            [
              161.286061,
              42.04824
            ],
            [
              161.346518,
              42.156134
            ],
            [
              161.3925,
              42.267934
            ],
            [
              161.423565,
              42.382563
            ],
            [
              161.439412,
              42.498916
            ],
            [
              161.439891,
              42.615873
            ],
            [
              161.424995,
              42.732308
            ],
            [
              161.394868,
              42.847099
            ],
            [
              161.349801,
              42.959141
            ],
            [
              161.290227,
              43.067355
            ],
            [
              161.216721,
              43.170699
            ],
            [
              161.12999,
              43.268177
            ],
            [
              161.030869,
              43.358851
            ],
            [
              160.920313,
              43.441848
            ],
            [
              160.799387,
              43.516367
            ],
            [
              160.669255,
              43.581692
            ],
            [
              160.531171,
              43.637194
            ],
            [
              160.386464,
              43.682337
            ],
            [
              160.236528,
              43.716688
            ],
            [
              160.082807,
              43.739914
            ],
            [
              159.926781,
              43.751794
            ],
            [
              159.769954,
              43.752211
            ],
            [
              159.613834,
              43.741163
            ],
            [
              159.459927,
              43.718755
            ],
            [
              159.309713,
              43.685204
            ],
            [
              159.16464,
              43.640832
            ],
            [
              159.026105,
              43.586068
            ],
            [
              158.895442,
              43.521437
            ],
            [
              158.773909,
              43.447563
            ],
            [
              158.662677,
              43.365157
            ],
            [
              158.562817,
              43.275013
            ],
            [
              158.475291,
              43.177998
            ],
            [
              158.400941,
              43.075048
            ],
            [
              158.340484,
              42.967154
            ],
            [
              158.294502,
              42.855354
            ],
            [
              158.263437,
              42.740726
            ],
            [
              158.247589,
              42.624373
            ],
            [
              158.247111,
              42.507416
            ],
            [
              158.262007,
              42.390981
            ],
            [
              158.292134,
              42.27619
            ],
            [
              158.337201,
              42.164147
            ],
            [
              158.396774,
              42.055933
            ],
            [
              158.470281,
              41.952589
            ],
            [
              158.557012,
              41.855111
            ],
            [
              158.656133,
              41.764437
            ],
            [
              158.766689,
              41.681441
            ],
            [
              158.887615,
              41.606921
            ],
            [
              159.017747,
              41.541596
            ],
            [
              159.155831,
              41.486095
            ],
            [
              159.300538,
              41.440951
            ],
            [
              159.450474,
              41.406601
            ],
            [
              159.604195,
              41.383374
            ],
            [
              159.76022,
              41.371495
            ],
            [
              159.917048,
              41.371077
            ]
          ]
        ],
        "type": "Polygon"
      },
      "properties": {
        "kind": "reachableSet",
        "observationStatus": "estimated",
        "vessel": "B"
      },
      "type": "Feature"
    }
  ],
  "properties": {
    "dateline": false
  },
  "type": "FeatureCollection"
}
