{
  "features": [
    {
      "geometry": {
        "coordinates": [
          -60.438693,
          -45.64184
        ],
        "type": "Point"
      },
      "properties": {
        "mmsi": "412329693",
        "observationStatus": "observed",
        "role": "off",
        "time": "2018-02-02T06:36:25Z",
        "vessel": "A"
      },
      "type": "Feature"
    },
    {
      "geometry": {
        "coordinates": [
          -60.468957,
          -45.680692
        ],
        "type": "Point"
      },
      "properties": {
        "mmsi": "412329692",
        "observationStatus": "observed",
        "role": "off",
        "time": "2018-02-02T07:18:11Z",
        "vessel": "B"
      },
      "type": "Feature"
    },
    {
      "geometry": {
        "coordinates": [
          -60.570948,
          -45.683797
        ],
        "type": "Point"
      },
      "properties": {
        "mmsi": "412329692",
        "observationStatus": "observed",
        "role": "on",
        "time": "2018-02-02T23:26:43Z",
        "vessel": "B"
      },
      "type": "Feature"
    },
    {
      "geometry": {
        "coordinates": [
          -60.501782,
          -45.670552
        ],
        "type": "Point"
      },
      "properties": {
        "mmsi": "412329693",
        "observationStatus": "observed",
        "role": "on",
        "time": "2018-02-02T23:32:36Z",
        "vessel": "A"
      },
      "type": "Feature"
    },
    {
      "geometry": {
        "coordinates": [
          [
            -60.438693,
            -45.64184
          ],
          [
            -60.483007,
            -45.681196
          ],
          [
            -60.501782,
            -45.670552
          ]
        ],
        "type": "LineString"
      },
      "properties": {
        "confidence": "low",
        "lineStyle": "dashed",
        "observationStatus": "estimated",
        "source": "reachable-set heuristic",
        "vessel": "A"
      },
      "type": "Feature"
    },
    {
      "geometry": {
        "coordinates": [
          [
            -60.468957,
            -45.680692
          ],
          [
            -60.483007,
            -45.681196
          ],
          [
            -60.570948,
            -45.683797
          ]
        ],
        "type": "LineString"
      },
      "properties": {
        "confidence": "low",
        "lineStyle": "dashed",
        "observationStatus": "estimated",
        "source": "reachable-set heuristic",
        "vessel": "B"
      },
      "type": "Feature"
    },
    {
      "geometry": {
        "coordinates": [
          -60.483007,
          -45.681196
        ],
        "type": "Point"
      },
      "properties": {
        "kind": "meetingPoint",
        "observationStatus": "estimated"
      },
      "type": "Feature"
    },
    {
      "geometry": {
        "coordinates": [
          [
            [
              -62.540572,
              -46.59841
            ],
            [
              -62.399379,
              -46.736658
            ],
            [
              -62.239607,
              -46.8645
            ],
            [
              -62.062796,
              -46.980706
            ],
            [
              -61.870647,
              -47.084156
            ],
            [
              -61.665012,
              -47.173853
            ],
            [
              -61.44787,
              -47.248935
            ],
            [
              -61.221313,
              -47.308678
            ],
            [
              -60.987523,
              -47.352507
            ],
            [
              -60.748751,
              -47.379999
            ],
            [
              -60.507297,
              -47.39089
            ],
            [
              -60.265486,
              -47.385075
            ],
            [
              -60.025647,
              -47.36261
            ],
            [
              -59.79009,
              -47.323712
            ],
            [
              -59.561082,
              -47.268754
            ],
            [
              -59.340831,
              -47.198266
            ],
            [
              -59.131456,
              -47.112928
            ],
            [
              -58.934974,
              -47.01356
            ],
            [
              -58.753278,
              -46.90112
            ],
            [
              -58.588117,
              -46.776691
            ],
            [
              -58.441082,
              -46.641471
            ],
            [
              -58.313589,
              -46.496762
            ],
            [
              -58.206865,
              -46.343958
            ],
            [
              -58.121939,
              -46.18453
            ],
            [
              -58.059629,
              -46.020015
            ],
            [
              -58.020534,
              -45.851995
            ],
            [
              -58.00503,
              -45.68209
            ],
            [
              -58.013269,
              -45.511935
            ],
            [
              -58.045169,
              -45.34317
            ],
            [
              -58.100424,
              -45.17742
            ],
            [
              -58.178501,
              -45.01628
            ],
            [
              -58.278649,
              -44.861303
            ],
            [
              -58.399903,
              -44.713981
            ],
            [
              -58.541096,
              -44.575734
            ],
            [
              -58.700868,
              -44.447891
            ],
            [
              -58.877679,
              -44.331686
            ],
            [
              -59.069828,
              -44.228236
            ],
            [
              -59.275463,
              -44.138538
            ],
            [
              -59.492605,
              -44.063456
            ],
            [
              -59.719162,
              -44.003713
            ],
            [
              -59.952952,
              -43.959885
            ],
            [
              -60.191724,
              -43.932392
            ],
            [
              -60.433178,
              -43.921501
            ],
            [
              -60.674989,
              -43.927316
            ],
            [
              -60.914828,
              -43.949781
            ],
            [
              -61.150385,
              -43.98868
            ],
            [
              -61.379393,
              -44.043638
            ],
            [
              -61.599644,
              -44.114125
            ],
            [
              -61.809019,
              -44.199464
            ],
            [
              -62.005501,
              -44.298832
            ],
            [
              -62.187197,
              -44.411272
            ],
            [
              -62.352358,
              -44.535701
            ],
            [
              -62.499393,
              -44.670921
            ],
            [
              -62.626886,
              -44.81563
            ],
            [
              -62.73361,
              -44.968434
            ],
            [
              -62.818536,
              -45.127861
            ],
            [
              -62.880846,
              -45.292377
            ],
            [
              -62.919941,
              -45.460397
            ],
            [
              -62.935445,
              -45.630302
            ],
            [
              -62.927206,
              -45.800456
            ],
            [
              -62.895306,
              -45.969221
            ],
            [
              -62.840051,
              -46.134972
            ],
            [
              -62.761974,
              -46.296112
            ],
            [
              -62.661826,
              -46.451089
            ],
            [
              -62.540572,
              -46.59841
            ]
          ]
        ],
        "type": "Polygon"
      },
      "properties": {
        "kind": "reachableSet",
        "observationStatus": "estimated",
        "vessel": "A"
      },
      "type": "Feature"
    },
    {
      "geometry": {
        "coordinates": [
          [
            [
              -62.861553,
              -45.753531
            ],
            [
              -62.840346,
              -45.914586
            ],
            [
              -62.796792,
              -46.073404
            ],
            [
              -62.731311,
              -46.228454
            ],
            [
              -62.644533,
              -46.378244
            ],
            [
              -62.537295,
              -46.521332
            ],
            [
              -62.410628,
              -46.656338
            ],
            [
              -62.265754,
              -46.781964
            ],
            [
              -62.104066,
              -46.896998
            ],
            [
              -61.927122,
              -47.000334
            ],
            [
              -61.736627,
              -47.090976
            ],
            [
              -61.534414,
              -47.168051
            ],
            [
              -61.322431,
              -47.230816
            ],
            [
              -61.102721,
              -47.278669
            ],
            [
              -60.877397,
              -47.311146
            ],
            [
              -60.648632,
              -47.327937
            ],
            [
              -60.418627,
              -47.328879
            ],
            [
              -60.189598,
              -47.313962
            ],
            [
              -59.96375,
              -47.283332
            ],
            [
              -59.743259,
              -47.237282
            ],
            [
              -59.530248,
              -47.176256
            ],
            [
              -59.326769,
              -47.100842
            ],
            [
              -59.13478,
              -47.011766
            ],
            [
              -58.956131,
              -46.909886
            ],
            [
              -58.792543,
              -46.796183
            ],
            [
              -58.645591,
              -46.671753
            ],
            [
              -58.51669,
              -46.537792
            ],
            [
              -58.407081,
              -46.395593
            ],
            [
              -58.31782,
              -46.246523
            ],
            [
              -58.249768,
              -46.09202
            ],
            [
              -58.203578,
              -45.933569
            ],
            [
              -58.179696,
              -45.772699
            ],
            [
              -58.178352,
              -45.610957
            ],
            [
              -58.199559,
              -45.449902
            ],
            [
              -58.243113,
              -45.291085
            ],
            [
              -58.308594,
              -45.136034
            ],
            [
              -58.395372,
              -44.986244
            ],
            [
              -58.50261,
              -44.843157
            ],
            [
              -58.629277,
              -44.70815
            ],
            [
              -58.774151,
              -44.582525
            ],
            [
              -58.935839,
              -44.46749
            ],
            [
              -59.112783,
              -44.364155
            ],
            [
              -59.303278,
              -44.273513
            ],
            [
              -59.505491,
              -44.196438
            ],
            [
              -59.717474,
              -44.133672
            ],
            [
              -59.937184,
              -44.08582
            ],
            [
              -60.162508,
              -44.053342
            ],
            [
              -60.391273,
              -44.036551
            ],
            [
              -60.621278,
              -44.03561
            ],
            [
              -60.850307,
              -44.050526
            ],
            [
              -61.076155,
              -44.081157
            ],
            [
              -61.296646,
              -44.127207
            ],
            [
              -61.509657,
              -44.188233
            ],
            [
              -61.713136,
              -44.263647
            ],
            [
              -61.905125,
              -44.352722
            ],
            [
              -62.083774,
              -44.454602
            ],
            [
              -62.247362,
              -44.568305
            ],
            [
              -62.394314,
              -44.692736
            ],
            [
              -62.523215,
              -44.826696
            ],
            [
              -62.632824,
              -44.968895
            ],
            [
              -62.722085,
              -45.117965
            ],
            [
              -62.790137,
              -45.272469
            ],
            [
              -62.836327,
              -45.430919
            ],
            [
              -62.860209,
              -45.591789
            ],
            [
              -62.861553,
              -45.753531
            ]
          ]
        ],
        "type": "Polygon"
      },
      "properties": {
        "kind": "reachableSet",
        "observationStatus": "estimated",
        "vessel": "B"
      },
      "type": "Feature"
    }
  ],
  "properties": {
    "dateline": false
  },
  "type": "FeatureCollection"
}
