{
  "features": [
    {
      "geometry": {
        "coordinates": [
          -60.046453,
          -45.056383
        ],
        "type": "Point"
      },
      "properties": {
        "mmsi": "412329685",
        "observationStatus": "observed",
        "role": "off",
        "time": "2019-01-04T04:08:43Z",
        "vessel": "A"
      },
      "type": "Feature"
    },
    {
      "geometry": {
        "coordinates": [
          -60.10776,
          -45.092907
        ],
        "type": "Point"
      },
      "properties": {
        "mmsi": "412329686",
        "observationStatus": "observed",
        "role": "off",
        "time": "2019-01-04T04:33:15Z",
        "vessel": "B"
      },
      "type": "Feature"
    },
    {
      "geometry": {
        "coordinates": [
          -60.558373,
          -45.688427
        ],
        "type": "Point"
      },
      "properties": {
        "mmsi": "412329686",
        "observationStatus": "observed",
        "role": "on",
        "time": "2019-01-04T17:01:14Z",
        "vessel": "B"
      },
      "type": "Feature"
    },
    {
      "geometry": {
        "coordinates": [
          -60.565947,
          -45.662267
        ],
        "type": "Point"
      },
      "properties": {
        "mmsi": "412329685",
        "observationStatus": "observed",
        "role": "on",
        "time": "2019-01-04T17:08:16Z",
        "vessel": "A"
      },
      "type": "Feature"
    },
    {
      "geometry": {
        "coordinates": [
          [
            -60.046453,
            -45.056383
          ],
          [
            -60.381601,
            -45.452598
          ],
          [
            -60.565947,
            -45.662267
          ]
        ],
        "type": "LineString"
      },
      "properties": {
        "confidence": "low",
        "lineStyle": "dashed",
        "observationStatus": "estimated",
        "source": "reachable-set heuristic",
        "vessel": "A"
      },
      "type": "Feature"
    },
    {
      "geometry": {
        "coordinates": [
          [
            -60.10776,
            -45.092907
          ],
          [
            -60.381601,
            -45.452598
          ],
          [
            -60.558373,
            -45.688427
          ]
        ],
        "type": "LineString"
      },
      "properties": {
        "confidence": "low",
        "lineStyle": "dashed",
        "observationStatus": "estimated",
        "source": "reachable-set heuristic",
        "vessel": "B"
      },
      "type": "Feature"
    },
    {
      "geometry": {
        "coordinates": [
          -60.381601,
          -45.452598
        ],
        "type": "Point"
      },
      "properties": {
        "kind": "meetingPoint",
        "observationStatus": "estimated"
      },
      "type": "Feature"
    },
    {
      "geometry": {
        "coordinates": [
          [
            [
              -61.26337,
              -46.475669
            ],
            [
              -61.10989,
              -46.534173
            ],
            [
              -60.94867,
              -46.581362
            ],
            [
              -60.781263,
              -46.616783
            ],
            [
              -60.609281,
              -46.640093
            ],
            [
              -60.43438,
              -46.651069
            ],
            [
              -60.258244,
              -46.649605
            ],
            [
              -60.082571,
              -46.635715
            ],
            [
              -59.909051,
              -46.609532
            ],
            [
              -59.739355,
              -46.571309
            ],
            [
              -59.575119,
              -46.521415
            ],
            [
              -59.417924,
              -46.460328
            ],
            [
              -59.269283,
              -46.388639
            ],
            [
              -59.130628,
              -46.307036
            ],
            [
              -59.003295,
              -46.216307
            ],
            [
              -58.888509,
              -46.117324
            ],
            [
              -58.787376,
              -46.011041
            ],
            [
              -58.700871,
              -45.898482
            ],
            [
              -58.629825,
              -45.780731
            ],
            [
              -58.574925,
              -45.658921
            ],
            [
              -58.536697,
              -45.534226
            ],
            [
              -58.51551,
              -45.407847
            ],
            [
              -58.511569,
              -45.281
            ],
            [
              -58.524911,
              -45.154908
            ],
            [
              -58.555408,
              -45.030784
            ],
            [
              -58.602766,
              -44.909824
            ],
            [
              -58.666529,
              -44.793193
            ],
            [
              -58.746083,
              -44.682015
            ],
            [
              -58.840662,
              -44.577359
            ],
            [
              -58.949355,
              -44.480234
            ],
            [
              -59.071114,
              -44.391575
            ],
            [
              -59.204769,
              -44.312236
            ],
            [
              -59.34903,
              -44.242981
            ],
            [
              -59.50251,
              -44.184477
            ],
            [
              -59.66373,
              -44.137288
            ],
            [
              -59.831137,
              -44.101867
            ],
            [
              -60.003119,
              -44.078557
            ],
            [
              -60.17802,
              -44.067581
            ],
            [
              -60.354156,
              -44.069045
            ],
            [
              -60.529829,
              -44.082935
            ],
            [
              -60.703349,
              -44.109118
            ],
            [
              -60.873045,
              -44.147341
            ],
            [
              -61.037281,
              -44.197235
            ],
            [
              -61.194476,
              -44.258322
            ],
            [
              -61.343117,
              -44.330011
            ],
            [
              -61.481772,
              -44.411614
            ],
            [
              -61.609105,
              -44.502343
            ],
            [
              -61.723891,
              -44.601326
            ],
            [
              -61.825024,
              -44.707609
            ],
            [
              -61.911529,
              -44.820168
            ],
            [
              -61.982575,
              -44.937919
            ],
            [
              -62.037475,
              -45.059729
            ],
            [
              -62.075703,
              -45.184424
            ],
            [
              -62.09689,
              -45.310803
            ],
            [
              -62.100831,
              -45.43765
            ],
            [
              -62.087489,
              -45.563742
            ],
            [
              -62.056992,
              -45.687866
            ],
            [
              -62.009634,
              -45.808826
            ],
            [
              -61.945871,
              -45.925457
            ],
            [
              -61.866317,
              -46.036635
            ],
            [
              -61.771738,
              -46.141291
            ],
            [
              -61.663045,
              -46.238416
            ],
            [
              -61.541286,
              -46.327075
            ],
            [
              -61.407631,
              -46.406414
            ],
            [
              -61.26337,
              -46.475669
            ]
          ]
        ],
        "type": "Polygon"
      },
      "properties": {
        "kind": "reachableSet",
        "observationStatus": "estimated",
        "vessel": "A"
      },
      "type": "Feature"
    },
    {
      "geometry": {
        "coordinates": [
          [
            [
              -61.16597,
              -46.491412
            ],
            [
              -61.01505,
              -46.541681
            ],
            [
              -60.857562,
              -46.580865
            ],
            [
              -60.695024,
              -46.608586
            ],
            [
              -60.528999,
              -46.624579
            ],
            [
              -60.361088,
              -46.628688
            ],
            [
              -60.192906,
              -46.620875
            ],
            [
              -60.026075,
              -46.601213
            ],
            [
              -59.8622,
              -46.569894
            ],
            [
              -59.70286,
              -46.527218
            ],
            [
              -59.549589,
              -46.473597
            ],
            [
              -59.403863,
              -46.409546
            ],
            [
              -59.267086,
              -46.335683
            ],
            [
              -59.140575,
              -46.252718
            ],
            [
              -59.025548,
              -46.161452
            ],
            [
              -58.923114,
              -46.062763
            ],
            [
              -58.834258,
              -45.957601
            ],
            [
              -58.759836,
              -45.846979
            ],
            [
              -58.700565,
              -45.731963
            ],
            [
              -58.657017,
              -45.61366
            ],
            [
              -58.629609,
              -45.493209
            ],
            [
              -58.618607,
              -45.371771
            ],
            [
              -58.624116,
              -45.250514
            ],
            [
              -58.646084,
              -45.130608
            ],
            [
              -58.684297,
              -45.013206
            ],
            [
              -58.73839,
              -44.899439
            ],
            [
              -58.807839,
              -44.790403
            ],
            [
              -58.891978,
              -44.687147
            ],
            [
              -58.989995,
              -44.590667
            ],
            [
              -59.100947,
              -44.501892
            ],
            [
              -59.223765,
              -44.421676
            ],
            [
              -59.357265,
              -44.350791
            ],
            [
              -59.500164,
              -44.289922
            ],
            [
              -59.651083,
              -44.239653
            ],
            [
              -59.808571,
              -44.200469
            ],
            [
              -59.97111,
              -44.172747
            ],
            [
              -60.137134,
              -44.156755
            ],
            [
              -60.305046,
              -44.152645
            ],
            [
              -60.473227,
              -44.160459
            ],
            [
              -60.640058,
              -44.18012
            ],
            [
              -60.803933,
              -44.211439
            ],
            [
              -60.963274,
              -44.254115
            ],
            [
              -61.116545,
              -44.307737
            ],
            [
              -61.262271,
              -44.371788
            ],
            [
              -61.399048,
              -44.445651
            ],
            [
              -61.525559,
              -44.528615
            ],
            [
              -61.640585,
              -44.619881
            ],
            [
              -61.74302,
              -44.71857
            ],
            [
              -61.831876,
              -44.823732
            ],
            [
              -61.906297,
              -44.934354
            ],
            [
              -61.965568,
              -45.04937
            ],
            [
              -62.009116,
              -45.167674
            ],
            [
              -62.036524,
              -45.288124
            ],
            [
              -62.047526,
              -45.409563
            ],
            [
              -62.042017,
              -45.530819
            ],
            [
              -62.02005,
              -45.650726
            ],
            [
              -61.981836,
              -45.768128
            ],
            [
              -61.927744,
              -45.881895
            ],
            [
              -61.858294,
              -45.990931
            ],
            [
              -61.774155,
              -46.094186
            ],
            [
              -61.676138,
              -46.190666
            ],
            [
              -61.565186,
              -46.279442
            ],
            [
              -61.442369,
              -46.359658
            ],
            [
              -61.308868,
              -46.430542
            ],
            [
              -61.16597,
              -46.491412
            ]
          ]
        ],
        "type": "Polygon"
      },
      "properties": {
        "kind": "reachableSet",
        "observationStatus": "estimated",
        "vessel": "B"
      },
      "type": "Feature"
    }
  ],
  "properties": {
    "dateline": false
  },
  "type": "FeatureCollection"
}
