{
  "features": [
    {
      "geometry": {
        "coordinates": [
          -57.76978,
          -42.0197
        ],
        "type": "Point"
      },
      "properties": {
        "mmsi": "412329684",
        "observationStatus": "observed",
        "role": "off",
        "time": "2019-05-16T05:35:47Z",
        "vessel": "A"
      },
      "type": "Feature"
    },
    {
      "geometry": {
        "coordinates": [
          -57.72237,
          -41.963963
        ],
        "type": "Point"
      },
      "properties": {
        "mmsi": "412329691",
        "observationStatus": "observed",
        "role": "off",
        "time": "2019-05-16T05:46:04Z",
        "vessel": "B"
      },
      "type": "Feature"
    },
    {
      "geometry": {
        "coordinates": [
          -57.866323,
          -41.970895
        ],
        "type": "Point"
      },
      "properties": {
        "mmsi": "412329691",
        "observationStatus": "observed",
        "role": "on",
        "time": "2019-05-16T22:19:35Z",
        "vessel": "B"
      },
      "type": "Feature"
    },
    {
      "geometry": {
        "coordinates": [
          -57.91545,
          -42.052342
        ],
        "type": "Point"
      },
      "properties": {
        "mmsi": "412329684",
        "observationStatus": "observed",
        "role": "on",
        "time": "2019-05-16T23:16:16Z",
        "vessel": "A"
      },
      "type": "Feature"
    },
    {
      "geometry": {
        "coordinates": [
          [
            -57.76978,
            -42.0197
          ],
          [
            -57.763685,
            -41.96551
          ],
          [
            -57.91545,
            -42.052342
          ]
        ],
        "type": "LineString"
      },
      "properties": {
        "confidence": "low",
        "lineStyle": "dashed",
        "observationStatus": "estimated",
        "source": "reachable-set heuristic",
        "vessel": "A"
      },
      "type": "Feature"
    },
    {
      "geometry": {
        "coordinates": [
          [
            -57.72237,
            -41.963963
          ],
          [
            -57.763685,
            -41.96551
          ],
          [
            -57.866323,
            -41.970895
          ]
        ],
        "type": "LineString"
      },
      "properties": {
        "confidence": "low",
        "lineStyle": "dashed",
        "observationStatus": "estimated",
        "source": "reachable-set heuristic",
        "vessel": "B"
      },
      "type": "Feature"
    },
    {
      "geometry": {
        "coordinates": [
          -57.763685,
          -41.96551
        ],
        "type": "Point"
      },
      "properties": {
        "kind": "meetingPoint",
        "observationStatus": "estimated"
      },
      "type": "Feature"
    },
    {
      "geometry": {
        "coordinates": [
          [
            [
              -60.168235,
              -42.557145
            ],
            [
              -60.088761,
              -42.725005
            ],
            [
              -59.987655,
              -42.886229
            ],
            [
              -59.865891,
              -43.039266
            ],
            [
              -59.724642,
              -43.182641
            ],
            [
              -59.565268,
              -43.314973
            ],
            [
              -59.389304,
              -43.434988
            ],
            [
              -59.198445,
              -43.54153
            ],
            [
              -58.994528,
              -43.633574
            ],
            [
              -58.779517,
              -43.710232
            ],
            [
              -58.555484,
              -43.770767
            ],
            [
              -58.324585,
              -43.814595
            ],
            [
              -58.089045,
              -43.841294
            ],
            [
              -57.851131,
              -43.850608
            ],
            [
              -57.613136,
              -43.842446
            ],
            [
              -57.37735,
              -43.816888
            ],
            [
              -57.146045,
              -43.774178
            ],
            [
              -56.921449,
              -43.714729
            ],
            [
              -56.705724,
              -43.639114
            ],
            [
              -56.500947,
              -43.548059
            ],
            [
              -56.309092,
              -43.442443
            ],
            [
              -56.132005,
              -43.323283
            ],
            [
              -55.971393,
              -43.191725
            ],
            [
              -55.828801,
              -43.049037
            ],
            [
              -55.705604,
              -42.896593
            ],
            [
              -55.602987,
              -42.735862
            ],
            [
              -55.521939,
              -42.568391
            ],
            [
              -55.46324,
              -42.395792
            ],
            [
              -55.427456,
              -42.219729
            ],
            [
              -55.414932,
              -42.041897
            ],
            [
              -55.425787,
              -41.864008
            ],
            [
              -55.459917,
              -41.687775
            ],
            [
              -55.516995,
              -41.514897
            ],
            [
              -55.596469,
              -41.347037
            ],
            [
              -55.697575,
              -41.185812
            ],
            [
              -55.819339,
              -41.032776
            ],
            [
              -55.960588,
              -40.889401
            ],
            [
              -56.119962,
              -40.757069
            ],
            [
              -56.295926,
              -40.637054
            ],
            [
              -56.486785,
              -40.530511
            ],
            [
              -56.690702,
              -40.438468
            ],
            [
              -56.905713,
              -40.36181
            ],
            [
              -57.129746,
              -40.301275
            ],
            [
              -57.360645,
              -40.257447
            ],
            [
              -57.596185,
              -40.230747
            ],
            [
              -57.834099,
              -40.221434
            ],
            [
              -58.072094,
              -40.229595
            ],
            [
              -58.30788,
              -40.255154
            ],
            [
              -58.539185,
              -40.297863
            ],
            [
              -58.763781,
              -40.357312
            ],
            [
              -58.979506,
              -40.432928
            ],
            [
              -59.184283,
              -40.523982
            ],
            [
              -59.376138,
              -40.629598
            ],
            [
              -59.553225,
              -40.748759
            ],
            [
              -59.713837,
              -40.880317
            ],
            [
              -59.856429,
              -41.023005
            ],
            [
              -59.979626,
              -41.175448
            ],
            [
              -60.082243,
              -41.33618
            ],
            [
              -60.163291,
              -41.503651
            ],
            [
              -60.22199,
              -41.676249
            ],
            [
              -60.257774,
              -41.852313
            ],
            [
              -60.270298,
              -42.030145
            ],
            [
              -60.259443,
              -42.208034
            ],
            [
              -60.225313,
              -42.384266
            ],
            [
              -60.168235,
              -42.557145
            ]
          ]
        ],
        "type": "Polygon"
      },
      "properties": {
        "kind": "reachableSet",
        "observationStatus": "estimated",
        "vessel": "A"
      },
      "type": "Feature"
    },
    {
      "geometry": {
        "coordinates": [
          [
            [
              -60.052533,
              -42.076166
            ],
            [
              -60.027428,
              -42.241247
            ],
            [
              -59.980818,
              -42.403691
            ],
            [
              -59.913151,
              -42.561933
            ],
            [
              -59.825078,
              -42.714451
            ],
            [
              -59.717449,
              -42.859774
            ],
            [
              -59.591299,
              -42.996503
            ],
            [
              -59.447843,
              -43.123321
            ],
            [
              -59.288464,
              -43.239008
            ],
            [
              -59.114695,
              -43.342449
            ],
            [
              -58.92821,
              -43.432648
            ],
            [
              -58.730806,
              -43.508735
            ],
            [
              -58.524383,
              -43.569979
            ],
            [
              -58.31093,
              -43.61579
            ],
            [
              -58.092501,
              -43.645726
            ],
            [
              -57.871201,
              -43.659499
            ],
            [
              -57.649161,
              -43.656977
            ],
            [
              -57.428519,
              -43.638183
            ],
            [
              -57.211401,
              -43.603299
            ],
            [
              -56.999896,
              -43.552661
            ],
            [
              -56.796042,
              -43.486756
            ],
            [
              -56.601803,
              -43.406219
            ],
            [
              -56.419048,
              -43.311826
            ],
            [
              -56.249539,
              -43.204486
            ],
            [
              -56.094906,
              -43.085231
            ],
            [
              -55.956641,
              -42.955212
            ],
            [
              -55.836073,
              -42.81568
            ],
            [
              -55.734365,
              -42.667979
            ],
            [
              -55.652495,
              -42.513532
            ],
            [
              -55.591252,
              -42.353825
            ],
            [
              -55.551227,
              -42.190396
            ],
            [
              -55.532804,
              -42.024821
            ],
            [
              -55.536161,
              -41.858693
            ],
            [
              -55.561265,
              -41.693612
            ],
            [
              -55.607876,
              -41.531168
            ],
            [
              -55.675543,
              -41.372925
            ],
            [
              -55.763615,
              -41.220408
            ],
            [
              -55.871245,
              -41.075085
            ],
            [
              -55.997395,
              -40.938356
            ],
            [
              -56.14085,
              -40.811537
            ],
            [
              -56.30023,
              -40.69585
            ],
            [
              -56.473999,
              -40.592409
            ],
            [
              -56.660483,
              -40.502211
            ],
            [
              -56.857887,
              -40.426123
            ],
            [
              -57.06431,
              -40.364879
            ],
            [
              -57.277764,
              -40.319068
            ],
            [
              -57.496192,
              -40.289132
            ],
            [
              -57.717492,
              -40.275359
            ],
            [
              -57.939532,
              -40.277881
            ],
            [
              -58.160174,
              -40.296675
            ],
            [
              -58.377293,
              -40.331559
            ],
            [
              -58.588797,
              -40.382197
            ],
            [
              -58.792651,
              -40.448102
            ],
            [
              -58.98689,
              -40.528639
            ],
            [
              -59.169645,
              -40.623032
            ],
            [
              -59.339155,
              -40.730373
            ],
            [
              -59.493787,
              -40.849627
            ],
            [
              -59.632053,
              -40.979646
            ],
            [
              -59.75262,
              -41.119178
            ],
            [
              -59.854329,
              -41.266879
            ],
            [
              -59.936198,
              -41.421327
            ],
            [
              -59.997441,
              -41.581034
            ],
            [
              -60.037466,
              -41.744462
            ],
            [
              -60.055889,
              -41.910037
            ],
            [
              -60.052533,
              -42.076166
            ]
          ]
        ],
        "type": "Polygon"
      },
      "properties": {
        "kind": "reachableSet",
        "observationStatus": "estimated",
        "vessel": "B"
      },
      "type": "Feature"
    }
  ],
  "properties": {
    "dateline": false
  },
  "type": "FeatureCollection"
}
