{
  "features": [
    {
      "geometry": {
        "coordinates": [
          161.584887,
          42.04773
        ],
        "type": "Point"
      },
      "properties": {
        "mmsi": "416236800",
        "observationStatus": "observed",
        "role": "off",
        "time": "2018-09-08T05:27:32Z",
        "vessel": "A"
      },
      "type": "Feature"
    },
    {
      "geometry": {
        "coordinates": [
          161.631273,
          42.097238
        ],
        "type": "Point"
      },
      "properties": {
        "mmsi": "416252900",
        "observationStatus": "observed",
        "role": "off",
        "time": "2018-09-08T05:28:34Z",
        "vessel": "B"
      },
      "type": "Feature"
    },
    {
      "geometry": {
        "coordinates": [
          157.719168,
          46.138543
        ],
        "type": "Point"
      },
      "properties": {
        "mmsi": "416236800",
        "observationStatus": "observed",
        "role": "on",
        "time": "2018-09-09T18:26:04Z",
        "vessel": "A"
      },
      "type": "Feature"
    },
    {
      "geometry": {
        "coordinates": [
          157.61469,
          46.170773
        ],
        "type": "Point"
      },
      "properties": {
        "mmsi": "416252900",
        "observationStatus": "observed",
        "role": "on",
        "time": "2018-09-09T18:26:34Z",
        "vessel": "B"
      },
      "type": "Feature"
    },
    {
      "geometry": {
        "coordinates": [
          [
            161.584887,
            42.04773
          ],
          [
            159.472592,
            44.24285
          ],
          [
            157.719168,
            46.138543
          ]
        ],
        "type": "LineString"
      },
      "properties": {
        "confidence": "low",
        "lineStyle": "dashed",
        "observationStatus": "estimated",
        "source": "reachable-set heuristic",
        "vessel": "A"
      },
      "type": "Feature"
    },
    {
      "geometry": {
        "coordinates": [
          [
            161.631273,
            42.097238
          ],
          [
            159.472592,
            44.24285
          ],
          [
            157.61469,
            46.170773
          ]
        ],
        "type": "LineString"
      },
      "properties": {
        "confidence": "low",
        "lineStyle": "dashed",
        "observationStatus": "estimated",
        "source": "reachable-set heuristic",
        "vessel": "B"
      },
      "type": "Feature"
    },
    {
      "geometry": {
        "coordinates": [
          159.472592,
          44.24285
        ],
        "type": "Point"
      },
      "properties": {
        "kind": "meetingPoint",
        "observationStatus": "estimated"
      },
      "type": "Feature"
    },
    {
      "geometry": {
        "coordinates": [
          [
            [
              156.831151,
              47.078269
            ],
            [
              156.550005,
              46.918276
            ],
            [
              156.298734,
              46.731075
            ],
            [
              156.079757,
              46.51847
            ],
            [
              155.895182,
              46.282507
            ],
            [
              155.746788,
              46.025459
            ],
            [
              155.636004,
              45.749802
            ],
            [
              155.563896,
              45.458191
            ],
            [
              155.531159,
              45.153433
            ],
            [
              155.538109,
              44.838464
            ],
            [
              155.584677,
              44.516318
            ],
            [
              155.670417,
              44.190095
            ],
            [
              155.794501,
              43.862939
            ],
            [
              155.955736,
              43.538
            ],
            [
              156.152568,
              43.218407
            ],
            [
              156.383101,
              42.907238
            ],
            [
              156.645116,
              42.607491
            ],
            [
              156.93609,
              42.32205
            ],
            [
              157.253219,
              42.053666
            ],
            [
              157.59345,
              41.804924
            ],
            [
              157.953507,
              41.578218
            ],
            [
              158.329921,
              41.375732
            ],
            [
              158.719067,
              41.199417
            ],
            [
              159.117199,
              41.050969
            ],
            [
              159.520481,
              40.931819
            ],
            [
              159.92503,
              40.843115
            ],
            [
              160.32695,
              40.785709
            ],
            [
              160.72237,
              40.760157
            ],
            [
              161.107483,
              40.766702
            ],
            [
              161.478578,
              40.805283
            ],
            [
              161.832082,
              40.875528
            ],
            [
              162.164592,
              40.97676
            ],
            [
              162.472904,
              41.108005
            ],
            [
              162.75405,
              41.267998
            ],
            [
              163.005321,
              41.455198
            ],
            [
              163.224298,
              41.667804
            ],
            [
              163.408873,
              41.903766
            ],
            [
              163.557267,
              42.160814
            ],
            [
              163.668051,
              42.436471
            ],
            [
              163.740159,
              42.728082
            ],
            [
              163.772896,
              43.03284
            ],
            [
              163.765946,
              43.347809
            ],
            [
              163.719378,
              43.669956
            ],
            [
              163.633638,
              43.996178
            ],
            [
              163.509554,
              44.323334
            ],
            [
              163.348319,
              44.648273
            ],
            [
              163.151487,
              44.967866
            ],
            [
              162.920954,
              45.279035
            ],
            [
              162.658939,
              45.578783
            ],
            [
              162.367965,
              45.864223
            ],
            [
              162.050836,
              46.132607
            ],
            [
              161.710605,
              46.381349
            ],
            [
              161.350548,
              46.608055
            ],
            [
              160.974134,
              46.810541
            ],
            [
              160.584988,
              46.986857
            ],
            [
              160.186856,
              47.135304
            ],
            [
              159.783574,
              47.254454
            ],
            [
              159.379025,
              47.343159
            ],
            [
              158.977105,
              47.400564
            ],
            [
              158.581685,
              47.426117
            ],
            [
              158.196572,
              47.419571
            ],
            [
              157.825477,
              47.38099
            ],
            [
              157.471973,
              47.310745
            ],
            [
              157.139463,
              47.209513
            ],
            [
              156.831151,
              47.078269
            ]
          ]
        ],
        "type": "Polygon"
      },
      "properties": {
        "kind": "reachableSet",
        "observationStatus": "estimated",
        "vessel": "A"
      },
      "type": "Feature"
    },
    {
      "geometry": {
        "coordinates": [
          [
            [
              156.720339,
              47.077805
            ],
            [
              156.446002,
              46.915199
            ],
            [
              156.202261,
              46.725808
            ],
            [
              155.991463,
              46.511457
            ],
            [
              155.815639,
              46.27421
            ],
            [
              155.676482,
              46.016351
            ],
            [
              155.575331,
              45.740365
            ],
            [
              155.513162,
              45.448908
            ],
            [
              155.490572,
              45.144788
            ],
            [
              155.50778,
              44.830933
            ],
            [
              155.56462,
              44.510367
            ],
            [
              155.660543,
              44.186176
            ],
            [
              155.794628,
              43.861483
            ],
            [
              155.965581,
              43.539415
            ],
            [
              156.171757,
              43.223072
            ],
            [
              156.41117,
              42.915503
            ],
            [
              156.681515,
              42.619668
            ],
            [
              156.980188,
              42.338417
            ],
            [
              157.304312,
              42.074459
            ],
            [
              157.650766,
              41.830335
            ],
            [
              158.016214,
              41.608397
            ],
            [
              158.397136,
              41.410781
            ],
            [
              158.789863,
              41.239392
            ],
            [
              159.190614,
              41.09588
            ],
            [
              159.595529,
              40.981626
            ],
            [
              160.000708,
              40.897732
            ],
            [
              160.402249,
              40.845005
            ],
            [
              160.796286,
              40.823952
            ],
            [
              161.179023,
              40.834778
            ],
            [
              161.546775,
              40.877376
            ],
            [
              161.895999,
              40.951338
            ],
            [
              162.223333,
              41.05595
            ],
            [
              162.525624,
              41.190206
            ],
            [
              162.799961,
              41.352813
            ],
            [
              163.043703,
              41.542203
            ],
            [
              163.2545,
              41.756554
            ],
            [
              163.430324,
              41.993802
            ],
            [
              163.569482,
              42.25166
            ],
            [
              163.670632,
              42.527647
            ],
            [
              163.732802,
              42.819104
            ],
            [
              163.755391,
              43.123224
            ],
            [
              163.738183,
              43.437078
            ],
            [
              163.681344,
              43.757644
            ],
            [
              163.58542,
              44.081835
            ],
            [
              163.451336,
              44.406528
            ],
            [
              163.280383,
              44.728597
            ],
            [
              163.074206,
              45.04494
            ],
            [
              162.834793,
              45.352509
            ],
            [
              162.564448,
              45.648344
            ],
            [
              162.265776,
              45.929595
            ],
            [
              161.941651,
              46.193553
            ],
            [
              161.595197,
              46.437677
            ],
            [
              161.229749,
              46.659615
            ],
            [
              160.848827,
              46.85723
            ],
            [
              160.4561,
              47.028619
            ],
            [
              160.055349,
              47.172132
            ],
            [
              159.650434,
              47.286385
            ],
            [
              159.245255,
              47.37028
            ],
            [
              158.843714,
              47.423007
            ],
            [
              158.449677,
              47.444059
            ],
            [
              158.06694,
              47.433234
            ],
            [
              157.699189,
              47.390636
            ],
            [
              157.349964,
              47.316674
            ],
            [
              157.02263,
              47.212061
            ],
            [
              156.720339,
              47.077805
            ]
          ]
        ],
        "type": "Polygon"
      },
      "properties": {
        "kind": "reachableSet",
        "observationStatus": "estimated",
        "vessel": "B"
      },
      "type": "Feature"
    }
  ],
  "properties": {
    "dateline": false
  },
  "type": "FeatureCollection"
}
