{
  "features": [
    {
      "geometry": {
        "coordinates": [
          -60.60222,
          -45.647307
        ],
        "type": "Point"
      },
      "properties": {
        "mmsi": "412331071",
        "observationStatus": "observed",
        "role": "off",
        "time": "2019-01-07T08:14:07Z",
        "vessel": "A"
      },
      "type": "Feature"
    },
    {
      "geometry": {
        "coordinates": [
          -60.591647,
          -45.688097
        ],
        "type": "Point"
      },
      "properties": {
        "mmsi": "412331067",
        "observationStatus": "observed",
        "role": "off",
        "time": "2019-01-07T08:47:09Z",
        "vessel": "B"
      },
      "type": "Feature"
    },
    {
      "geometry": {
        "coordinates": [
          -60.74104,
          -46.078453
        ],
        "type": "Point"
      },
      "properties": {
        "mmsi": "412331071",
        "observationStatus": "observed",
        "role": "on",
        "time": "2019-01-07T23:27:15Z",
        "vessel": "A"
      },
      "type": "Feature"
    },
    {
      "geometry": {
        "coordinates": [
          -60.76856,
          -46.161867
        ],
        "type": "Point"
      },
      "properties": {
        "mmsi": "412331067",
        "observationStatus": "observed",
        "role": "on",
        "time": "2019-01-07T23:33:41Z",
        "vessel": "B"
      },
      "type": "Feature"
    },
    {
      "geometry": {
        "coordinates": [
          [
            -60.60222,
            -45.647307
          ],
          [
            -60.701743,
            -45.985558
          ],
          [
            -60.74104,
            -46.078453
          ]
        ],
        "type": "LineString"
      },
      "properties": {
        "confidence": "low",
        "lineStyle": "dashed",
        "observationStatus": "estimated",
        "source": "reachable-set heuristic",
        "vessel": "A"
      },
      "type": "Feature"
    },
    {
      "geometry": {
        "coordinates": [
          [
            -60.591647,
            -45.688097
          ],
          [
            -60.701743,
            -45.985558
          ],
          [
            -60.76856,
            -46.161867
          ]
        ],
        "type": "LineString"
      },
      "properties": {
        "confidence": "low",
        "lineStyle": "dashed",
        "observationStatus": "estimated",
        "source": "reachable-set heuristic",
        "vessel": "B"
      },
      "type": "Feature"
    },
    {
      "geometry": {
        "coordinates": [
          -60.701743,
          -45.985558
        ],
        "type": "Point"
      },
      "properties": {
        "kind": "meetingPoint",
        "observationStatus": "estimated"
      },
      "type": "Feature"
    },
    {
      "geometry": {
        "coordinates": [
          [
            [
              -61.120432,
              -47.256768
            ],
            [
              -60.925744,
              -47.280526
            ],
            [
              -60.728608,
              -47.290632
            ],
            [
              -60.530924,
              -47.286988
            ],
            [
              -60.334595,
              -47.269629
            ],
            [
              -60.141511,
              -47.238722
            ],
            [
              -59.953533,
              -47.194565
            ],
            [
              -59.772471,
              -47.137584
            ],
            [
              -59.600068,
              -47.068326
            ],
            [
              -59.437985,
              -46.987459
            ],
            [
              -59.287782,
              -46.895761
            ],
            [
              -59.150907,
              -46.794117
            ],
            [
              -59.028677,
              -46.683504
            ],
            [
              -58.92227,
              -46.564988
            ],
            [
              -58.832709,
              -46.439711
            ],
            [
              -58.760859,
              -46.308878
            ],
            [
              -58.707411,
              -46.17375
            ],
            [
              -58.672879,
              -46.035628
            ],
            [
              -58.657596,
              -45.895843
            ],
            [
              -58.661709,
              -45.75574
            ],
            [
              -58.685179,
              -45.616669
            ],
            [
              -58.727779,
              -45.479969
            ],
            [
              -58.7891,
              -45.346956
            ],
            [
              -58.868551,
              -45.218913
            ],
            [
              -58.965366,
              -45.097071
            ],
            [
              -59.078614,
              -44.982604
            ],
            [
              -59.207203,
              -44.876615
            ],
            [
              -59.349895,
              -44.780124
            ],
            [
              -59.505317,
              -44.69406
            ],
            [
              -59.67197,
              -44.619253
            ],
            [
              -59.848251,
              -44.556423
            ],
            [
              -60.032462,
              -44.506175
            ],
            [
              -60.222828,
              -44.468992
            ],
            [
              -60.417516,
              -44.445234
            ],
            [
              -60.614652,
              -44.435128
            ],
            [
              -60.812336,
              -44.438772
            ],
            [
              -61.008665,
              -44.456131
            ],
            [
              -61.201749,
              -44.487038
            ],
            [
              -61.389727,
              -44.531195
            ],
            [
              -61.570789,
              -44.588176
            ],
            [
              -61.743192,
              -44.657434
            ],
            [
              -61.905275,
              -44.738301
            ],
            [
              -62.055478,
              -44.829999
            ],
            [
              -62.192353,
              -44.931643
            ],
            [
              -62.314583,
              -45.042256
            ],
            [
              -62.42099,
              -45.160772
            ],
            [
              -62.510551,
              -45.286049
            ],
            [
              -62.582401,
              -45.416882
            ],
            [
              -62.635849,
              -45.55201
            ],
            [
              -62.670381,
              -45.690132
            ],
            [
              -62.685664,
              -45.829917
            ],
            [
              -62.681551,
              -45.97002
            ],
            [
              -62.658081,
              -46.109091
            ],
            [
              -62.615481,
              -46.245791
            ],
            [
              -62.55416,
              -46.378804
            ],
            [
              -62.474709,
              -46.506847
            ],
            [
              -62.377894,
              -46.628689
            ],
            [
              -62.264646,
              -46.743156
            ],
            [
              -62.136057,
              -46.849145
            ],
            [
              -61.993365,
              -46.945636
            ],
            [
              -61.837943,
              -47.0317
            ],
            [
              -61.67129,
              -47.106507
            ],
            [
              -61.495009,
              -47.169337
            ],
            [
              -61.310798,
              -47.219585
            ],
            [
              -61.120432,
              -47.256768
            ]
          ]
        ],
        "type": "Polygon"
      },
      "properties": {
        "kind": "reachableSet",
        "observationStatus": "estimated",
        "vessel": "A"
      },
      "type": "Feature"
    },
    {
      "geometry": {
        "coordinates": [
          [
            [
              -61.180245,
              -47.264349
            ],
            [
              -60.993332,
              -47.291689
            ],
            [
              -60.803404,
              -47.305868
            ],
            [
              -60.612287,
              -47.306748
            ],
            [
              -60.421824,
              -47.29432
            ],
            [
              -60.233849,
              -47.268706
            ],
            [
              -60.050171,
              -47.23015
            ],
            [
              -59.872559,
              -47.179025
            ],
            [
              -59.702725,
              -47.115823
            ],
            [
              -59.542303,
              -47.041152
            ],
            [
              -59.392839,
              -46.955732
            ],
            [
              -59.255772,
              -46.860385
            ],
            [
              -59.132422,
              -46.75603
            ],
            [
              -59.023977,
              -46.643671
            ],
            [
              -58.931482,
              -46.524391
            ],
            [
              -58.855827,
              -46.399339
            ],
            [
              -58.79774,
              -46.269718
            ],
            [
              -58.757782,
              -46.136777
            ],
            [
              -58.736337,
              -46.001796
            ],
            [
              -58.733611,
              -45.866076
            ],
            [
              -58.749631,
              -45.730923
            ],
            [
              -58.784242,
              -45.597639
            ],
            [
              -58.837112,
              -45.467507
            ],
            [
              -58.907731,
              -45.341781
            ],
            [
              -58.995418,
              -45.221671
            ],
            [
              -59.09933,
              -45.108335
            ],
            [
              -59.218466,
              -45.002864
            ],
            [
              -59.351678,
              -44.906273
            ],
            [
              -59.497684,
              -44.819493
            ],
            [
              -59.655077,
              -44.743359
            ],
            [
              -59.822341,
              -44.678605
            ],
            [
              -59.997867,
              -44.625854
            ],
            [
              -60.179962,
              -44.585614
            ],
            [
              -60.366874,
              -44.558274
            ],
            [
              -60.556803,
              -44.544095
            ],
            [
              -60.747919,
              -44.543216
            ],
            [
              -60.938382,
              -44.555643
            ],
            [
              -61.126358,
              -44.581258
            ],
            [
              -61.310036,
              -44.619813
            ],
            [
              -61.487647,
              -44.670939
            ],
            [
              -61.657482,
              -44.734141
            ],
            [
              -61.817904,
              -44.808811
            ],
            [
              -61.967368,
              -44.894231
            ],
            [
              -62.104434,
              -44.989578
            ],
            [
              -62.227784,
              -45.093933
            ],
            [
              -62.336229,
              -45.206292
            ],
            [
              -62.428725,
              -45.325572
            ],
            [
              -62.50438,
              -45.450625
            ],
            [
              -62.562467,
              -45.580245
            ],
            [
              -62.602425,
              -45.713186
            ],
            [
              -62.62387,
              -45.848167
            ],
            [
              -62.626596,
              -45.983887
            ],
            [
              -62.610576,
              -46.119041
            ],
            [
              -62.575964,
              -46.252325
            ],
            [
              -62.523095,
              -46.382457
            ],
            [
              -62.452476,
              -46.508183
            ],
            [
              -62.364788,
              -46.628292
            ],
            [
              -62.260876,
              -46.741628
            ],
            [
              -62.141741,
              -46.8471
            ],
            [
              -62.008528,
              -46.943691
            ],
            [
              -61.862523,
              -47.030471
            ],
            [
              -61.70513,
              -47.106605
            ],
            [
              -61.537865,
              -47.171359
            ],
            [
              -61.36234,
              -47.224109
            ],
            [
              -61.180245,
              -47.264349
            ]
          ]
        ],
        "type": "Polygon"
      },
      "properties": {
        "kind": "reachableSet",
        "observationStatus": "estimated",
        "vessel": "B"
      },
      "type": "Feature"
    }
  ],
  "properties": {
    "dateline": false
  },
  "type": "FeatureCollection"
}
