{
  "features": [
    {
      "geometry": {
        "coordinates": [
          172.511227,
          42.43568
        ],
        "type": "Point"
      },
      "properties": {
        "mmsi": "416251900",
        "observationStatus": "observed",
        "role": "off",
        "time": "2019-06-26T22:55:02Z",
        "vessel": "A"
      },
      "type": "Feature"
    },
    {
      "geometry": {
        "coordinates": [
          172.604853,
          42.463093
        ],
        "type": "Point"
      },
      "properties": {
        "mmsi": "416242500",
        "observationStatus": "observed",
        "role": "off",
        "time": "2019-06-26T23:12:13Z",
        "vessel": "B"
      },
      "type": "Feature"
    },
    {
      "geometry": {
        "coordinates": [
          173.31306,
          43.160665
        ],
        "type": "Point"
      },
      "properties": {
        "mmsi": "416242500",
        "observationStatus": "observed",
        "role": "on",
        "time": "2019-06-27T16:13:38Z",
        "vessel": "B"
      },
      "type": "Feature"
    },
    {
      "geometry": {
        "coordinates": [
          173.339293,
          43.077507
        ],
        "type": "Point"
      },
      "properties": {
        "mmsi": "416251900",
        "observationStatus": "observed",
        "role": "on",
        "time": "2019-06-27T16:38:51Z",
        "vessel": "A"
      },
      "type": "Feature"
    },
    {
      "geometry": {
        "coordinates": [
          [
            172.511227,
            42.43568
          ],
          [
            172.814551,
            42.709444
          ],
          [
            173.339293,
            43.077507
          ]
        ],
        "type": "LineString"
      },
      "properties": {
        "confidence": "low",
        "lineStyle": "dashed",
        "observationStatus": "estimated",
        "source": "reachable-set heuristic",
        "vessel": "A"
      },
      "type": "Feature"
    },
    {
      "geometry": {
        "coordinates": [
          [
            172.604853,
            42.463093
          ],
          [
            172.814551,
            42.709444
          ],
          [
            173.31306,
            43.160665
          ]
        ],
        "type": "LineString"
      },
      "properties": {
        "confidence": "low",
        "lineStyle": "dashed",
        "observationStatus": "estimated",
        "source": "reachable-set heuristic",
        "vessel": "B"
      },
      "type": "Feature"
    },
    {
      "geometry": {
        "coordinates": [
          172.814551,
          42.709444
        ],
        "type": "Point"
      },
      "properties": {
        "kind": "meetingPoint",
        "observationStatus": "estimated"
      },
      "type": "Feature"
    },
    {
      "geometry": {
        "coordinates": [
          [
            [
              174.495026,
              43.973304
            ],
            [
              174.331851,
              44.077158
            ],
            [
              174.155129,
              44.168294
            ],
            [
              173.966563,
              44.245834
            ],
            [
              173.767969,
              44.309033
            ],
            [
              173.561259,
              44.35728
            ],
            [
              173.348424,
              44.390112
            ],
            [
              173.131514,
              44.407213
            ],
            [
              172.912617,
              44.408416
            ],
            [
              172.693843,
              44.393712
            ],
            [
              172.477296,
              44.363242
            ],
            [
              172.265064,
              44.317299
            ],
            [
              172.05919,
              44.256325
            ],
            [
              171.861657,
              44.180908
            ],
            [
              171.674367,
              44.091774
            ],
            [
              171.499123,
              43.989782
            ],
            [
              171.337614,
              43.875913
            ],
            [
              171.191395,
              43.751265
            ],
            [
              171.061874,
              43.617037
            ],
            [
              170.950299,
              43.474523
            ],
            [
              170.857743,
              43.325095
            ],
            [
              170.785099,
              43.170192
            ],
            [
              170.733066,
              43.011305
            ],
            [
              170.702144,
              42.849966
            ],
            [
              170.692633,
              42.687727
            ],
            [
              170.704623,
              42.526152
            ],
            [
              170.737999,
              42.366796
            ],
            [
              170.792439,
              42.211194
            ],
            [
              170.86742,
              42.060844
            ],
            [
              170.962218,
              41.917195
            ],
            [
              171.075922,
              41.78163
            ],
            [
              171.207436,
              41.655454
            ],
            [
              171.355494,
              41.539882
            ],
            [
              171.518669,
              41.436029
            ],
            [
              171.695391,
              41.344893
            ],
            [
              171.883957,
              41.267352
            ],
            [
              172.082551,
              41.204154
            ],
            [
              172.289261,
              41.155906
            ],
            [
              172.502096,
              41.123074
            ],
            [
              172.719006,
              41.105974
            ],
            [
              172.937903,
              41.10477
            ],
            [
              173.156677,
              41.119474
            ],
            [
              173.373224,
              41.149945
            ],
            [
              173.585456,
              41.195888
            ],
            [
              173.79133,
              41.256862
            ],
            [
              173.988863,
              41.332279
            ],
            [
              174.176153,
              41.421413
            ],
            [
              174.351397,
              41.523405
            ],
            [
              174.512906,
              41.637274
            ],
            [
              174.659125,
              41.761922
            ],
            [
              174.788646,
              41.89615
            ],
            [
              174.900221,
              42.038664
            ],
            [
              174.992777,
              42.188092
            ],
            [
              175.065421,
              42.342995
            ],
            [
              175.117454,
              42.501881
            ],
            [
              175.148376,
              42.663221
            ],
            [
              175.157887,
              42.825459
            ],
            [
              175.145897,
              42.987035
            ],
            [
              175.112521,
              43.146391
            ],
            [
              175.058081,
              43.301993
            ],
            [
              174.9831,
              43.452343
            ],
            [
              174.888302,
              43.595992
            ],
            [
              174.774598,
              43.731557
            ],
            [
              174.643084,
              43.857733
            ],
            [
              174.495026,
              43.973304
            ]
          ]
        ],
        "type": "Polygon"
      },
      "properties": {
        "kind": "reachableSet",
        "observationStatus": "estimated",
        "vessel": "A"
      },
      "type": "Feature"
    },
    {
      "geometry": {
        "coordinates": [
          [
            [
              174.266972,
              44.100253
            ],
            [
              174.096075,
              44.185203
            ],
            [
              173.914226,
              44.256927
            ],
            [
              173.723178,
              44.314735
            ],
            [
              173.52477,
              44.358069
            ],
            [
              173.320912,
              44.386513
            ],
            [
              173.113569,
              44.399792
            ],
            [
              172.904737,
              44.397779
            ],
            [
              172.696427,
              44.380493
            ],
            [
              172.490645,
              44.3481
            ],
            [
              172.289373,
              44.300912
            ],
            [
              172.09455,
              44.239384
            ],
            [
              171.908052,
              44.164109
            ],
            [
              171.731674,
              44.07581
            ],
            [
              171.567116,
              43.97534
            ],
            [
              171.415962,
              43.863665
            ],
            [
              171.279668,
              43.74186
            ],
            [
              171.159546,
              43.611099
            ],
            [
              171.056753,
              43.472642
            ],
            [
              170.97228,
              43.32782
            ],
            [
              170.90694,
              43.17803
            ],
            [
              170.861362,
              43.024714
            ],
            [
              170.835984,
              42.869348
            ],
            [
              170.831052,
              42.713429
            ],
            [
              170.846613,
              42.558457
            ],
            [
              170.882517,
              42.405927
            ],
            [
              170.938418,
              42.257305
            ],
            [
              171.013778,
              42.114025
            ],
            [
              171.107872,
              41.977465
            ],
            [
              171.219792,
              41.848942
            ],
            [
              171.348461,
              41.729692
            ],
            [
              171.49264,
              41.620864
            ],
            [
              171.650941,
              41.523506
            ],
            [
              171.821838,
              41.438555
            ],
            [
              172.003687,
              41.366831
            ],
            [
              172.194735,
              41.309023
            ],
            [
              172.393144,
              41.265689
            ],
            [
              172.597001,
              41.237245
            ],
            [
              172.804344,
              41.223966
            ],
            [
              173.013177,
              41.225979
            ],
            [
              173.221487,
              41.243266
            ],
            [
              173.427268,
              41.275659
            ],
            [
              173.62854,
              41.322846
            ],
            [
              173.823363,
              41.384374
            ],
            [
              174.009862,
              41.45965
            ],
            [
              174.186239,
              41.547948
            ],
            [
              174.350797,
              41.648418
            ],
            [
              174.501952,
              41.760094
            ],
            [
              174.638246,
              41.881898
            ],
            [
              174.758367,
              42.012659
            ],
            [
              174.86116,
              42.151117
            ],
            [
              174.945633,
              42.295938
            ],
            [
              175.010973,
              42.445728
            ],
            [
              175.056552,
              42.599044
            ],
            [
              175.081929,
              42.75441
            ],
            [
              175.086861,
              42.91033
            ],
            [
              175.0713,
              43.065301
            ],
            [
              175.035396,
              43.217832
            ],
            [
              174.979495,
              43.366453
            ],
            [
              174.904135,
              43.509733
            ],
            [
              174.810042,
              43.646293
            ],
            [
              174.698122,
              43.774817
            ],
            [
              174.569452,
              43.894067
            ],
            [
              174.425273,
              44.002895
            ],
            [
              174.266972,
              44.100253
            ]
          ]
        ],
        "type": "Polygon"
      },
      "properties": {
        "kind": "reachableSet",
        "observationStatus": "estimated",
        "vessel": "B"
      },
      "type": "Feature"
    }
  ],
  "properties": {
    "dateline": false
  },
  "type": "FeatureCollection"
}
