{
  "features": [
    {
      "geometry": {
        "coordinates": [
          -62.696177,
          -43.257612
        ],
        "type": "Point"
      },
      "properties": {
        "mmsi": "701000607",
        "observationStatus": "observed",
        "role": "off",
        "time": "2017-09-15T19:34:17Z",
        "vessel": "A"
      },
      "type": "Feature"
    },
    {
      "geometry": {
        "coordinates": [
          -62.711653,
          -43.303307
        ],
        "type": "Point"
      },
      "properties": {
        "mmsi": "701000651",
        "observationStatus": "observed",
        "role": "off",
        "time": "2017-09-15T20:04:49Z",
        "vessel": "B"
      },
      "type": "Feature"
    },
    {
      "geometry": {
        "coordinates": [
          -62.649467,
          -43.33784
        ],
        "type": "Point"
      },
      "properties": {
        "mmsi": "701000651",
        "observationStatus": "observed",
        "role": "on",
        "time": "2017-09-16T17:57:10Z",
        "vessel": "B"
      },
      "type": "Feature"
    },
    {
      "geometry": {
        "coordinates": [
          -62.629147,
          -43.341787
        ],
        "type": "Point"
      },
      "properties": {
        "mmsi": "701000607",
        "observationStatus": "observed",
        "role": "on",
        "time": "2017-09-16T17:59:35Z",
        "vessel": "A"
      },
      "type": "Feature"
    },
    {
      "geometry": {
        "coordinates": [
          [
            -62.696177,
            -43.257612
          ],
          [
            -62.676867,
            -43.319619
          ],
          [
            -62.629147,
            -43.341787
          ]
        ],
        "type": "LineString"
      },
      "properties": {
        "confidence": "low",
        "lineStyle": "dashed",
        "observationStatus": "estimated",
        "source": "reachable-set heuristic",
        "vessel": "A"
      },
      "type": "Feature"
    },
    {
      "geometry": {
        "coordinates": [
          [
            -62.711653,
            -43.303307
          ],
          [
            -62.676867,
            -43.319619
          ],
          [
            -62.649467,
            -43.33784
          ]
        ],
        "type": "LineString"
      },
      "properties": {
        "confidence": "low",
        "lineStyle": "dashed",
        "observationStatus": "estimated",
        "source": "reachable-set heuristic",
        "vessel": "B"
      },
      "type": "Feature"
    },
    {
      "geometry": {
        "coordinates": [
          -62.676867,
          -43.319619
        ],
        "type": "Point"
      },
      "properties": {
        "kind": "meetingPoint",
        "observationStatus": "estimated"
      },
      "type": "Feature"
    },
    {
      "geometry": {
        "coordinates": [
          [
            [
              -61.058557,
              -45.314104
            ],
            [
              -60.796867,
              -45.189225
            ],
            [
              -60.553146,
              -45.046148
            ],
            [
              -60.329741,
              -44.886253
            ],
            [
              -60.128802,
              -44.711078
            ],
            [
              -59.952267,
              -44.522311
            ],
            [
              -59.801834,
              -44.321769
            ],
            [
              -59.678952,
              -44.111385
            ],
            [
              -59.584805,
              -43.893183
            ],
            [
              -59.5203,
              -43.669266
            ],
            [
              -59.486057,
              -43.441789
            ],
            [
              -59.482407,
              -43.212944
            ],
            [
              -59.509384,
              -42.984935
            ],
            [
              -59.566729,
              -42.759957
            ],
            [
              -59.65389,
              -42.540177
            ],
            [
              -59.770026,
              -42.327712
            ],
            [
              -59.914021,
              -42.124607
            ],
            [
              -60.084486,
              -41.93282
            ],
            [
              -60.27978,
              -41.754196
            ],
            [
              -60.498023,
              -41.590456
            ],
            [
              -60.737113,
              -41.443177
            ],
            [
              -60.994746,
              -41.313777
            ],
            [
              -61.268443,
              -41.203503
            ],
            [
              -61.555567,
              -41.113416
            ],
            [
              -61.853352,
              -41.044385
            ],
            [
              -62.158932,
              -40.997073
            ],
            [
              -62.469363,
              -40.971937
            ],
            [
              -62.781655,
              -40.969219
            ],
            [
              -63.092802,
              -40.988944
            ],
            [
              -63.399806,
              -41.030923
            ],
            [
              -63.699711,
              -41.094752
            ],
            [
              -63.989628,
              -41.179815
            ],
            [
              -64.266767,
              -41.285295
            ],
            [
              -64.528456,
              -41.410174
            ],
            [
              -64.772177,
              -41.55325
            ],
            [
              -64.995583,
              -41.713145
            ],
            [
              -65.196521,
              -41.88832
            ],
            [
              -65.373056,
              -42.077087
            ],
            [
              -65.523489,
              -42.277629
            ],
            [
              -65.646371,
              -42.488014
            ],
            [
              -65.740518,
              -42.706215
            ],
            [
              -65.805023,
              -42.930133
            ],
            [
              -65.839266,
              -43.157609
            ],
            [
              -65.842917,
              -43.386454
            ],
            [
              -65.815939,
              -43.614463
            ],
            [
              -65.758594,
              -43.839441
            ],
            [
              -65.671434,
              -44.059221
            ],
            [
              -65.555297,
              -44.271686
            ],
            [
              -65.411303,
              -44.474791
            ],
            [
              -65.240838,
              -44.666579
            ],
            [
              -65.045543,
              -44.845203
            ],
            [
              -64.8273,
              -45.008943
            ],
            [
              -64.588211,
              -45.156222
            ],
            [
              -64.330577,
              -45.285621
            ],
            [
              -64.05688,
              -45.395896
            ],
            [
              -63.769757,
              -45.485982
            ],
            [
              -63.471971,
              -45.555014
            ],
            [
              -63.166391,
              -45.602325
            ],
            [
              -62.85596,
              -45.627461
            ],
            [
              -62.543668,
              -45.63018
            ],
            [
              -62.232521,
              -45.610454
            ],
            [
              -61.925517,
              -45.568475
            ],
            [
              -61.625612,
              -45.504647
            ],
            [
              -61.335695,
              -45.419583
            ],
            [
              -61.058557,
              -45.314104
            ]
          ]
        ],
        "type": "Polygon"
      },
      "properties": {
        "kind": "reachableSet",
        "observationStatus": "estimated",
        "vessel": "A"
      },
      "type": "Feature"
    },
    {
      "geometry": {
        "coordinates": [
          [
            [
              -60.208296,
              -44.693464
            ],
            [
              -60.036497,
              -44.509374
            ],
            [
              -59.890161,
              -44.313836
            ],
            [
              -59.770698,
              -44.108731
            ],
            [
              -59.679259,
              -43.896036
            ],
            [
              -59.616724,
              -43.6778
            ],
            [
              -59.583696,
              -43.456123
            ],
            [
              -59.580492,
              -43.23314
            ],
            [
              -59.607143,
              -43.011
            ],
            [
              -59.663393,
              -42.791841
            ],
            [
              -59.7487,
              -42.577773
            ],
            [
              -59.862242,
              -42.37086
            ],
            [
              -60.002926,
              -42.173093
            ],
            [
              -60.169398,
              -41.986376
            ],
            [
              -60.360053,
              -41.812509
            ],
            [
              -60.573056,
              -41.653165
            ],
            [
              -60.806355,
              -41.509879
            ],
            [
              -61.057704,
              -41.384031
            ],
            [
              -61.324682,
              -41.276833
            ],
            [
              -61.604718,
              -41.189318
            ],
            [
              -61.895115,
              -41.122327
            ],
            [
              -62.193076,
              -41.076507
            ],
            [
              -62.495732,
              -41.052299
            ],
            [
              -62.800168,
              -41.049935
            ],
            [
              -63.103452,
              -41.069439
            ],
            [
              -63.402663,
              -41.110622
            ],
            [
              -63.69492,
              -41.173088
            ],
            [
              -63.977408,
              -41.256236
            ],
            [
              -64.247407,
              -41.359265
            ],
            [
              -64.502316,
              -41.481182
            ],
            [
              -64.739681,
              -41.620813
            ],
            [
              -64.957215,
              -41.776814
            ],
            [
              -65.152824,
              -41.947682
            ],
            [
              -65.324623,
              -42.131772
            ],
            [
              -65.470959,
              -42.327311
            ],
            [
              -65.590422,
              -42.532415
            ],
            [
              -65.681861,
              -42.74511
            ],
            [
              -65.744396,
              -42.963347
            ],
            [
              -65.777424,
              -43.185024
            ],
            [
              -65.780628,
              -43.408007
            ],
            [
              -65.753977,
              -43.630147
            ],
            [
              -65.697727,
              -43.849306
            ],
            [
              -65.61242,
              -44.063373
            ],
            [
              -65.498878,
              -44.270287
            ],
            [
              -65.358194,
              -44.468054
            ],
            [
              -65.191722,
              -44.65477
            ],
            [
              -65.001067,
              -44.828638
            ],
            [
              -64.788064,
              -44.987982
            ],
            [
              -64.554765,
              -45.131268
            ],
            [
              -64.303416,
              -45.257115
            ],
            [
              -64.036438,
              -45.364313
            ],
            [
              -63.756402,
              -45.451829
            ],
            [
              -63.466005,
              -45.518819
            ],
            [
              -63.168044,
              -45.564639
            ],
            [
              -62.865388,
              -45.588848
            ],
            [
              -62.560952,
              -45.591212
            ],
            [
              -62.257668,
              -45.571708
            ],
            [
              -61.958457,
              -45.530525
            ],
            [
              -61.6662,
              -45.468058
            ],
            [
              -61.383712,
              -45.38491
            ],
            [
              -61.113713,
              -45.281882
            ],
            [
              -60.858804,
              -45.159965
            ],
            [
              -60.621439,
              -45.020333
            ],
            [
              -60.403905,
              -44.864332
            ],
            [
              -60.208296,
              -44.693464
            ]
          ]
        ],
        "type": "Polygon"
      },
      "properties": {
        "kind": "reachableSet",
        "observationStatus": "estimated",
        "vessel": "B"
      },
      "type": "Feature"
    }
  ],
  "properties": {
    "dateline": false
  },
  "type": "FeatureCollection"
}
