{
  "features": [
    {
      "geometry": {
        "coordinates": [
          -60.58152,
          -45.65608
        ],
        "type": "Point"
      },
      "properties": {
        "mmsi": "412331067",
        "observationStatus": "observed",
        "role": "off",
        "time": "2019-02-15T07:01:16Z",
        "vessel": "A"
      },
      "type": "Feature"
    },
    {
      "geometry": {
        "coordinates": [
          -60.585173,
          -45.698507
        ],
        "type": "Point"
      },
      "properties": {
        "mmsi": "412329684",
        "observationStatus": "observed",
        "role": "off",
        "time": "2019-02-15T07:09:47Z",
        "vessel": "B"
      },
      "type": "Feature"
    },
    {
      "geometry": {
        "coordinates": [
          -60.637575,
          -45.899587
        ],
        "type": "Point"
      },
      "properties": {
        "mmsi": "412329684",
        "observationStatus": "observed",
        "role": "on",
        "time": "2019-02-15T23:28:37Z",
        "vessel": "B"
      },
      "type": "Feature"
    },
    {
      "geometry": {
        "coordinates": [
          -60.662933,
          -45.90871
        ],
        "type": "Point"
      },
      "properties": {
        "mmsi": "412331067",
        "observationStatus": "observed",
        "role": "on",
        "time": "2019-02-16T00:11:00Z",
        "vessel": "A"
      },
      "type": "Feature"
    },
    {
      "geometry": {
        "coordinates": [
          [
            -60.58152,
            -45.65608
          ],
          [
            -60.590526,
            -45.691696
          ],
          [
            -60.662933,
            -45.90871
          ]
        ],
        "type": "LineString"
      },
      "properties": {
        "confidence": "low",
        "lineStyle": "dashed",
        "observationStatus": "estimated",
        "source": "reachable-set heuristic",
        "vessel": "A"
      },
      "type": "Feature"
    },
    {
      "geometry": {
        "coordinates": [
          [
            -60.585173,
            -45.698507
          ],
          [
            -60.590526,
            -45.691696
          ],
          [
            -60.637575,
            -45.899587
          ]
        ],
        "type": "LineString"
      },
      "properties": {
        "confidence": "low",
        "lineStyle": "dashed",
        "observationStatus": "estimated",
        "source": "reachable-set heuristic",
        "vessel": "B"
      },
      "type": "Feature"
    },
    {
      "geometry": {
        "coordinates": [
          -60.590526,
          -45.691696
        ],
        "type": "Point"
      },
      "properties": {
        "kind": "meetingPoint",
        "observationStatus": "estimated"
      },
      "type": "Feature"
    },
    {
      "geometry": {
        "coordinates": [
          [
            [
              -61.132761,
              -47.36661
            ],
            [
              -60.909846,
              -47.394004
            ],
            [
              -60.684161,
              -47.405878
            ],
            [
              -60.45788,
              -47.402117
            ],
            [
              -60.233182,
              -47.382756
            ],
            [
              -60.012231,
              -47.347984
            ],
            [
              -59.797154,
              -47.298134
            ],
            [
              -59.590022,
              -47.233686
            ],
            [
              -59.392832,
              -47.155262
            ],
            [
              -59.207481,
              -47.063617
            ],
            [
              -59.035755,
              -46.959632
            ],
            [
              -58.879308,
              -46.84431
            ],
            [
              -58.739646,
              -46.718762
            ],
            [
              -58.618114,
              -46.584195
            ],
            [
              -58.515883,
              -46.441907
            ],
            [
              -58.433937,
              -46.293267
            ],
            [
              -58.373066,
              -46.139708
            ],
            [
              -58.333855,
              -45.982707
            ],
            [
              -58.316683,
              -45.823777
            ],
            [
              -58.321714,
              -45.664449
            ],
            [
              -58.3489,
              -45.506256
            ],
            [
              -58.39798,
              -45.350723
            ],
            [
              -58.46848,
              -45.199347
            ],
            [
              -58.559723,
              -45.053586
            ],
            [
              -58.670828,
              -44.914844
            ],
            [
              -58.800726,
              -44.784457
            ],
            [
              -58.948166,
              -44.663681
            ],
            [
              -59.111729,
              -44.553678
            ],
            [
              -59.289838,
              -44.455509
            ],
            [
              -59.480779,
              -44.370118
            ],
            [
              -59.682713,
              -44.298329
            ],
            [
              -59.893695,
              -44.240831
            ],
            [
              -60.111693,
              -44.19818
            ],
            [
              -60.334607,
              -44.170786
            ],
            [
              -60.560292,
              -44.158912
            ],
            [
              -60.786573,
              -44.162673
            ],
            [
              -61.011271,
              -44.182034
            ],
            [
              -61.232223,
              -44.216806
            ],
            [
              -61.4473,
              -44.266656
            ],
            [
              -61.654431,
              -44.331104
            ],
            [
              -61.851621,
              -44.409528
            ],
            [
              -62.036972,
              -44.501173
            ],
            [
              -62.208698,
              -44.605158
            ],
            [
              -62.365145,
              -44.72048
            ],
            [
              -62.504807,
              -44.846028
            ],
            [
              -62.626339,
              -44.980595
            ],
            [
              -62.72857,
              -45.122883
            ],
            [
              -62.810516,
              -45.271523
            ],
            [
              -62.871387,
              -45.425082
            ],
            [
              -62.910598,
              -45.582083
            ],
            [
              -62.927771,
              -45.741013
            ],
            [
              -62.922739,
              -45.900341
            ],
            [
              -62.895553,
              -46.058534
            ],
            [
              -62.846473,
              -46.214067
            ],
            [
              -62.775973,
              -46.365443
            ],
            [
              -62.684731,
              -46.511204
            ],
            [
              -62.573625,
              -46.649946
            ],
            [
              -62.443727,
              -46.780333
            ],
            [
              -62.296287,
              -46.901109
            ],
            [
              -62.132724,
              -47.011112
            ],
            [
              -61.954615,
              -47.109281
            ],
            [
              -61.763674,
              -47.194672
            ],
            [
              -61.56174,
              -47.266461
            ],
            [
              -61.350759,
              -47.323959
            ],
            [
              -61.132761,
              -47.36661
            ]
          ]
        ],
        "type": "Polygon"
      },
      "properties": {
        "kind": "reachableSet",
        "observationStatus": "estimated",
        "vessel": "A"
      },
      "type": "Feature"
    },
    {
      "geometry": {
        "coordinates": [
          [
            [
              -61.038772,
              -47.439092
            ],
            [
              -60.808122,
              -47.460544
            ],
            [
              -60.575577,
              -47.465995
            ],
            [
              -60.343376,
              -47.455392
            ],
            [
              -60.113757,
              -47.428838
            ],
            [
              -59.88893,
              -47.386588
            ],
            [
              -59.671061,
              -47.329049
            ],
            [
              -59.462247,
              -47.256775
            ],
            [
              -59.2645,
              -47.170462
            ],
            [
              -59.079724,
              -47.070942
            ],
            [
              -58.909699,
              -46.959173
            ],
            [
              -58.756062,
              -46.836231
            ],
            [
              -58.620292,
              -46.703301
            ],
            [
              -58.503698,
              -46.561662
            ],
            [
              -58.407402,
              -46.412679
            ],
            [
              -58.332331,
              -46.257786
            ],
            [
              -58.279209,
              -46.098475
            ],
            [
              -58.248546,
              -45.936281
            ],
            [
              -58.240639,
              -45.772765
            ],
            [
              -58.255564,
              -45.609502
            ],
            [
              -58.293176,
              -45.448064
            ],
            [
              -58.353114,
              -45.290007
            ],
            [
              -58.4348,
              -45.136852
            ],
            [
              -58.537448,
              -44.990074
            ],
            [
              -58.660068,
              -44.851087
            ],
            [
              -58.801481,
              -44.72123
            ],
            [
              -58.960324,
              -44.601752
            ],
            [
              -59.135068,
              -44.493805
            ],
            [
              -59.324029,
              -44.398428
            ],
            [
              -59.525388,
              -44.31654
            ],
            [
              -59.737206,
              -44.24893
            ],
            [
              -59.957442,
              -44.196247
            ],
            [
              -60.183976,
              -44.159001
            ],
            [
              -60.414627,
              -44.137549
            ],
            [
              -60.647172,
              -44.132098
            ],
            [
              -60.879372,
              -44.142701
            ],
            [
              -61.108991,
              -44.169256
            ],
            [
              -61.333818,
              -44.211506
            ],
            [
              -61.551688,
              -44.269045
            ],
            [
              -61.760501,
              -44.341319
            ],
            [
              -61.958248,
              -44.427631
            ],
            [
              -62.143024,
              -44.527151
            ],
            [
              -62.31305,
              -44.63892
            ],
            [
              -62.466687,
              -44.761862
            ],
            [
              -62.602456,
              -44.894792
            ],
            [
              -62.71905,
              -45.036431
            ],
            [
              -62.815347,
              -45.185414
            ],
            [
              -62.890417,
              -45.340307
            ],
            [
              -62.94354,
              -45.499618
            ],
            [
              -62.974202,
              -45.661812
            ],
            [
              -62.982109,
              -45.825328
            ],
            [
              -62.967184,
              -45.988591
            ],
            [
              -62.929572,
              -46.150029
            ],
            [
              -62.869634,
              -46.308086
            ],
            [
              -62.787948,
              -46.461241
            ],
            [
              -62.685301,
              -46.608019
            ],
            [
              -62.56268,
              -46.747006
            ],
            [
              -62.421267,
              -46.876863
            ],
            [
              -62.262424,
              -46.996341
            ],
            [
              -62.087681,
              -47.104288
            ],
            [
              -61.898719,
              -47.199665
            ],
            [
              -61.69736,
              -47.281553
            ],
            [
              -61.485542,
              -47.349164
            ],
            [
              -61.265306,
              -47.401846
            ],
            [
              -61.038772,
              -47.439092
            ]
          ]
        ],
        "type": "Polygon"
      },
      "properties": {
        "kind": "reachableSet",
        "observationStatus": "estimated",
        "vessel": "B"
      },
      "type": "Feature"
    }
  ],
  "properties": {
    "dateline": false
  },
  "type": "FeatureCollection"
}
