{
  "features": [
    {
      "geometry": {
        "coordinates": [
          -60.672892,
          -45.853092
        ],
        "type": "Point"
      },
      "properties": {
        "mmsi": "412329694",
        "observationStatus": "observed",
        "role": "off",
        "time": "2017-01-18T07:26:21Z",
        "vessel": "A"
      },
      "type": "Feature"
    },
    {
      "geometry": {
        "coordinates": [
          -60.651457,
          -45.792558
        ],
        "type": "Point"
      },
      "properties": {
        "mmsi": "412329691",
        "observationStatus": "observed",
        "role": "off",
        "time": "2017-01-18T07:32:07Z",
        "vessel": "B"
      },
      "type": "Feature"
    },
    {
      "geometry": {
        "coordinates": [
          -60.68855,
          -45.943272
        ],
        "type": "Point"
      },
      "properties": {
        "mmsi": "412329694",
        "observationStatus": "observed",
        "role": "on",
        "time": "2017-01-19T00:14:32Z",
        "vessel": "A"
      },
      "type": "Feature"
    },
    {
      "geometry": {
        "coordinates": [
          -60.681667,
          -45.931667
        ],
        "type": "Point"
      },
      "properties": {
        "mmsi": "412329691",
        "observationStatus": "observed",
        "role": "on",
        "time": "2017-01-19T00:27:23Z",
        "vessel": "B"
      },
      "type": "Feature"
    },
    {
      "geometry": {
        "coordinates": [
          [
            -60.672892,
            -45.853092
          ],
          [
            -60.670003,
            -45.867915
          ],
          [
            -60.68855,
            -45.943272
          ]
        ],
        "type": "LineString"
      },
      "properties": {
        "confidence": "low",
        "lineStyle": "dashed",
        "observationStatus": "estimated",
        "source": "reachable-set heuristic",
        "vessel": "A"
      },
      "type": "Feature"
    },
    {
      "geometry": {
        "coordinates": [
          [
            -60.651457,
            -45.792558
          ],
          [
            -60.670003,
            -45.867915
          ],
          [
            -60.681667,
            -45.931667
          ]
        ],
        "type": "LineString"
      },
      "properties": {
        "confidence": "low",
        "lineStyle": "dashed",
        "observationStatus": "estimated",
        "source": "reachable-set heuristic",
        "vessel": "B"
      },
      "type": "Feature"
    },
    {
      "geometry": {
        "coordinates": [
          -60.670003,
          -45.867915
        ],
        "type": "Point"
      },
      "properties": {
        "kind": "meetingPoint",
        "observationStatus": "estimated"
      },
      "type": "Feature"
    },
    {
      "geometry": {
        "coordinates": [
          [
            [
              -60.977274,
              -47.606102
            ],
            [
              -60.737003,
              -47.618237
            ],
            [
              -60.496189,
              -47.613807
            ],
            [
              -60.257153,
              -47.592855
            ],
            [
              -60.022196,
              -47.555582
            ],
            [
              -59.793581,
              -47.502347
            ],
            [
              -59.573509,
              -47.433663
            ],
            [
              -59.3641,
              -47.350192
            ],
            [
              -59.167372,
              -47.252737
            ],
            [
              -58.985217,
              -47.142237
            ],
            [
              -58.819392,
              -47.019756
            ],
            [
              -58.671491,
              -46.886473
            ],
            [
              -58.542941,
              -46.743673
            ],
            [
              -58.434979,
              -46.592731
            ],
            [
              -58.348645,
              -46.435099
            ],
            [
              -58.284769,
              -46.272297
            ],
            [
              -58.243968,
              -46.105891
            ],
            [
              -58.226635,
              -45.937486
            ],
            [
              -58.232935,
              -45.768701
            ],
            [
              -58.262809,
              -45.601164
            ],
            [
              -58.315969,
              -45.436487
            ],
            [
              -58.391903,
              -45.276257
            ],
            [
              -58.489879,
              -45.122016
            ],
            [
              -58.608954,
              -44.97525
            ],
            [
              -58.747982,
              -44.837372
            ],
            [
              -58.905623,
              -44.709711
            ],
            [
              -59.080359,
              -44.593495
            ],
            [
              -59.270507,
              -44.489844
            ],
            [
              -59.474236,
              -44.399756
            ],
            [
              -59.689585,
              -44.324098
            ],
            [
              -59.914479,
              -44.2636
            ],
            [
              -60.146752,
              -44.218844
            ],
            [
              -60.384167,
              -44.190261
            ],
            [
              -60.624439,
              -44.178126
            ],
            [
              -60.865252,
              -44.182556
            ],
            [
              -61.104289,
              -44.203508
            ],
            [
              -61.339246,
              -44.240782
            ],
            [
              -61.567861,
              -44.294016
            ],
            [
              -61.787933,
              -44.3627
            ],
            [
              -61.997341,
              -44.446171
            ],
            [
              -62.19407,
              -44.543626
            ],
            [
              -62.376224,
              -44.654126
            ],
            [
              -62.54205,
              -44.776607
            ],
            [
              -62.68995,
              -44.90989
            ],
            [
              -62.8185,
              -45.05269
            ],
            [
              -62.926463,
              -45.203633
            ],
            [
              -63.012797,
              -45.361264
            ],
            [
              -63.076672,
              -45.524067
            ],
            [
              -63.117473,
              -45.690472
            ],
            [
              -63.134807,
              -45.858878
            ],
            [
              -63.128506,
              -46.027662
            ],
            [
              -63.098632,
              -46.195199
            ],
            [
              -63.045473,
              -46.359876
            ],
            [
              -62.969539,
              -46.520106
            ],
            [
              -62.871563,
              -46.674347
            ],
            [
              -62.752487,
              -46.821113
            ],
            [
              -62.61346,
              -46.958991
            ],
            [
              -62.455819,
              -47.086653
            ],
            [
              -62.281083,
              -47.202869
            ],
            [
              -62.090935,
              -47.30652
            ],
            [
              -61.887205,
              -47.396608
            ],
            [
              -61.671857,
              -47.472265
            ],
            [
              -61.446963,
              -47.532763
            ],
            [
              -61.21469,
              -47.577519
            ],
            [
              -60.977274,
              -47.606102
            ]
          ]
        ],
        "type": "Polygon"
      },
      "properties": {
        "kind": "reachableSet",
        "observationStatus": "estimated",
        "vessel": "A"
      },
      "type": "Feature"
    },
    {
      "geometry": {
        "coordinates": [
          [
            [
              -61.038706,
              -47.575729
            ],
            [
              -60.797543,
              -47.593031
            ],
            [
              -60.555119,
              -47.593663
            ],
            [
              -60.313768,
              -47.577619
            ],
            [
              -60.075815,
              -47.545054
            ],
            [
              -59.843551,
              -47.496281
            ],
            [
              -59.619213,
              -47.43177
            ],
            [
              -59.404962,
              -47.352142
            ],
            [
              -59.20286,
              -47.258165
            ],
            [
              -59.014855,
              -47.150743
            ],
            [
              -58.842757,
              -47.030911
            ],
            [
              -58.688223,
              -46.899822
            ],
            [
              -58.552741,
              -46.75874
            ],
            [
              -58.437616,
              -46.609023
            ],
            [
              -58.343958,
              -46.452113
            ],
            [
              -58.272667,
              -46.28952
            ],
            [
              -58.224431,
              -46.122812
            ],
            [
              -58.199714,
              -45.953593
            ],
            [
              -58.198754,
              -45.783493
            ],
            [
              -58.221561,
              -45.61415
            ],
            [
              -58.267914,
              -45.447195
            ],
            [
              -58.337367,
              -45.284235
            ],
            [
              -58.429252,
              -45.126842
            ],
            [
              -58.542684,
              -44.976529
            ],
            [
              -58.676569,
              -44.834745
            ],
            [
              -58.829619,
              -44.702855
            ],
            [
              -59.00036,
              -44.582129
            ],
            [
              -59.187147,
              -44.47373
            ],
            [
              -59.388182,
              -44.378702
            ],
            [
              -59.601529,
              -44.29796
            ],
            [
              -59.825132,
              -44.232282
            ],
            [
              -60.056839,
              -44.1823
            ],
            [
              -60.294417,
              -44.148496
            ],
            [
              -60.53558,
              -44.131194
            ],
            [
              -60.778004,
              -44.130562
            ],
            [
              -61.019355,
              -44.146606
            ],
            [
              -61.257308,
              -44.179171
            ],
            [
              -61.489572,
              -44.227944
            ],
            [
              -61.71391,
              -44.292455
            ],
            [
              -61.928161,
              -44.372083
            ],
            [
              -62.130263,
              -44.46606
            ],
            [
              -62.318268,
              -44.573482
            ],
            [
              -62.490367,
              -44.693314
            ],
            [
              -62.644901,
              -44.824403
            ],
            [
              -62.780383,
              -44.965485
            ],
            [
              -62.895507,
              -45.115202
            ],
            [
              -62.989165,
              -45.272112
            ],
            [
              -63.060456,
              -45.434705
            ],
            [
              -63.108692,
              -45.601413
            ],
            [
              -63.133409,
              -45.770632
            ],
            [
              -63.134369,
              -45.940732
            ],
            [
              -63.111563,
              -46.110075
            ],
            [
              -63.065209,
              -46.27703
            ],
            [
              -62.995756,
              -46.43999
            ],
            [
              -62.903871,
              -46.597383
            ],
            [
              -62.79044,
              -46.747696
            ],
            [
              -62.656554,
              -46.88948
            ],
            [
              -62.503504,
              -47.02137
            ],
            [
              -62.332763,
              -47.142096
            ],
            [
              -62.145976,
              -47.250495
            ],
            [
              -61.944941,
              -47.345523
            ],
            [
              -61.731595,
              -47.426265
            ],
            [
              -61.507991,
              -47.491943
            ],
            [
              -61.276285,
              -47.541925
            ],
            [
              -61.038706,
              -47.575729
            ]
          ]
        ],
        "type": "Polygon"
      },
      "properties": {
        "kind": "reachableSet",
        "observationStatus": "estimated",
        "vessel": "B"
      },
      "type": "Feature"
    }
  ],
  "properties": {
    "dateline": false
  },
  "type": "FeatureCollection"
}
