{
  "features": [
    {
      "geometry": {
        "coordinates": [
          -57.796773,
          -41.990827
        ],
        "type": "Point"
      },
      "properties": {
        "mmsi": "412329694",
        "observationStatus": "observed",
        "role": "off",
        "time": "2019-06-01T02:25:22Z",
        "vessel": "A"
      },
      "type": "Feature"
    },
    {
      "geometry": {
        "coordinates": [
          -57.821067,
          -41.985867
        ],
        "type": "Point"
      },
      "properties": {
        "mmsi": "412329686",
        "observationStatus": "observed",
        "role": "off",
        "time": "2019-06-01T02:30:23Z",
        "vessel": "B"
      },
      "type": "Feature"
    },
    {
      "geometry": {
        "coordinates": [
          -57.900668,
          -42.021592
        ],
        "type": "Point"
      },
      "properties": {
        "mmsi": "412329686",
        "observationStatus": "observed",
        "role": "on",
        "time": "2019-06-01T22:59:05Z",
        "vessel": "B"
      },
      "type": "Feature"
    },
    {
      "geometry": {
        "coordinates": [
          -57.858373,
          -42.00344
        ],
        "type": "Point"
      },
      "properties": {
        "mmsi": "412329694",
        "observationStatus": "observed",
        "role": "on",
        "time": "2019-06-01T23:57:53Z",
        "vessel": "A"
      },
      "type": "Feature"
    },
    {
      "geometry": {
        "coordinates": [
          [
            -57.796773,
            -41.990827
          ],
          [
            -57.881341,
            -42.012634
          ],
          [
            -57.858373,
            -42.00344
          ]
        ],
        "type": "LineString"
      },
      "properties": {
        "confidence": "low",
        "lineStyle": "dashed",
        "observationStatus": "estimated",
        "source": "reachable-set heuristic",
        "vessel": "A"
      },
      "type": "Feature"
    },
    {
      "geometry": {
        "coordinates": [
          [
            -57.821067,
            -41.985867
          ],
          [
            -57.881341,
            -42.012634
          ],
          [
            -57.900668,
            -42.021592
          ]
        ],
        "type": "LineString"
      },
      "properties": {
        "confidence": "low",
        "lineStyle": "dashed",
        "observationStatus": "estimated",
        "source": "reachable-set heuristic",
        "vessel": "B"
      },
      "type": "Feature"
    },
    {
      "geometry": {
        "coordinates": [
          -57.881341,
          -42.012634
        ],
        "type": "Point"
      },
      "properties": {
        "kind": "meetingPoint",
        "observationStatus": "estimated"
      },
      "type": "Feature"
    },
    {
      "geometry": {
        "coordinates": [
          [
            [
              -60.710589,
              -42.587465
            ],
            [
              -60.619378,
              -42.796046
            ],
            [
              -60.501279,
              -42.996933
            ],
            [
              -60.357431,
              -43.188191
            ],
            [
              -60.18922,
              -43.367979
            ],
            [
              -59.998264,
              -43.534565
            ],
            [
              -59.786404,
              -43.686344
            ],
            [
              -59.555678,
              -43.821856
            ],
            [
              -59.308311,
              -43.939794
            ],
            [
              -59.046683,
              -44.039024
            ],
            [
              -58.773314,
              -44.118588
            ],
            [
              -58.490837,
              -44.177723
            ],
            [
              -58.201973,
              -44.215857
            ],
            [
              -57.909503,
              -44.232623
            ],
            [
              -57.616244,
              -44.22786
            ],
            [
              -57.32502,
              -44.201615
            ],
            [
              -57.038636,
              -44.154139
            ],
            [
              -56.75985,
              -44.085889
            ],
            [
              -56.491347,
              -43.997524
            ],
            [
              -56.235712,
              -43.889894
            ],
            [
              -55.995408,
              -43.764036
            ],
            [
              -55.772748,
              -43.621162
            ],
            [
              -55.569878,
              -43.462647
            ],
            [
              -55.38875,
              -43.290018
            ],
            [
              -55.23111,
              -43.104939
            ],
            [
              -55.098475,
              -42.90919
            ],
            [
              -54.992123,
              -42.704658
            ],
            [
              -54.913078,
              -42.493312
            ],
            [
              -54.8621,
              -42.277188
            ],
            [
              -54.839682,
              -42.058367
            ],
            [
              -54.846039,
              -41.838955
            ],
            [
              -54.88111,
              -41.621068
            ],
            [
              -54.944557,
              -41.406801
            ],
            [
              -55.035769,
              -41.198221
            ],
            [
              -55.153868,
              -40.997334
            ],
            [
              -55.297715,
              -40.806075
            ],
            [
              -55.465927,
              -40.626288
            ],
            [
              -55.656883,
              -40.459702
            ],
            [
              -55.868743,
              -40.307922
            ],
            [
              -56.099468,
              -40.172411
            ],
            [
              -56.346836,
              -40.054473
            ],
            [
              -56.608464,
              -39.955243
            ],
            [
              -56.881833,
              -39.875678
            ],
            [
              -57.16431,
              -39.816544
            ],
            [
              -57.453174,
              -39.77841
            ],
            [
              -57.745644,
              -39.761644
            ],
            [
              -58.038903,
              -39.766406
            ],
            [
              -58.330127,
              -39.792652
            ],
            [
              -58.616511,
              -39.840128
            ],
            [
              -58.895297,
              -39.908377
            ],
            [
              -59.1638,
              -39.996742
            ],
            [
              -59.419435,
              -40.104372
            ],
            [
              -59.659739,
              -40.230231
            ],
            [
              -59.882398,
              -40.373105
            ],
            [
              -60.085269,
              -40.53162
            ],
            [
              -60.266396,
              -40.704248
            ],
            [
              -60.424037,
              -40.889328
            ],
            [
              -60.556672,
              -41.085076
            ],
            [
              -60.663024,
              -41.289608
            ],
            [
              -60.742069,
              -41.500954
            ],
            [
              -60.793046,
              -41.717079
            ],
            [
              -60.815464,
              -41.9359
            ],
            [
              -60.809107,
              -42.155311
            ],
            [
              -60.774036,
              -42.373199
            ],
            [
              -60.710589,
              -42.587465
            ]
          ]
        ],
        "type": "Polygon"
      },
      "properties": {
        "kind": "reachableSet",
        "observationStatus": "estimated",
        "vessel": "A"
      },
      "type": "Feature"
    },
    {
      "geometry": {
        "coordinates": [
          [
            [
              -60.291605,
              -43.094637
            ],
            [
              -60.136995,
              -43.267608
            ],
            [
              -59.960465,
              -43.428407
            ],
            [
              -59.763714,
              -43.575485
            ],
            [
              -59.548638,
              -43.707427
            ],
            [
              -59.317308,
              -43.822961
            ],
            [
              -59.071952,
              -43.920975
            ],
            [
              -58.814932,
              -44.000525
            ],
            [
              -58.548724,
              -44.060844
            ],
            [
              -58.275892,
              -44.101353
            ],
            [
              -57.999062,
              -44.12166
            ],
            [
              -57.720902,
              -44.12157
            ],
            [
              -57.44409,
              -44.101084
            ],
            [
              -57.171291,
              -44.0604
            ],
            [
              -56.905134,
              -43.999909
            ],
            [
              -56.648181,
              -43.920193
            ],
            [
              -56.402906,
              -43.822021
            ],
            [
              -56.171673,
              -43.706338
            ],
            [
              -55.956707,
              -43.574258
            ],
            [
              -55.76008,
              -43.427052
            ],
            [
              -55.583684,
              -43.26614
            ],
            [
              -55.429219,
              -43.093069
            ],
            [
              -55.298172,
              -42.909508
            ],
            [
              -55.191805,
              -42.717223
            ],
            [
              -55.111143,
              -42.518068
            ],
            [
              -55.056962,
              -42.313958
            ],
            [
              -55.029784,
              -42.106861
            ],
            [
              -55.029871,
              -41.898771
            ],
            [
              -55.057222,
              -41.691692
            ],
            [
              -55.111573,
              -41.487618
            ],
            [
              -55.192402,
              -41.288514
            ],
            [
              -55.29893,
              -41.096298
            ],
            [
              -55.43013,
              -40.912821
            ],
            [
              -55.58474,
              -40.739851
            ],
            [
              -55.76127,
              -40.579052
            ],
            [
              -55.958021,
              -40.431973
            ],
            [
              -56.173097,
              -40.300031
            ],
            [
              -56.404427,
              -40.184497
            ],
            [
              -56.649783,
              -40.086483
            ],
            [
              -56.906803,
              -40.006934
            ],
            [
              -57.173011,
              -39.946614
            ],
            [
              -57.445843,
              -39.906106
            ],
            [
              -57.722673,
              -39.885799
            ],
            [
              -58.000833,
              -39.885888
            ],
            [
              -58.277645,
              -39.906374
            ],
            [
              -58.550444,
              -39.947058
            ],
            [
              -58.816601,
              -40.007549
            ],
            [
              -59.073554,
              -40.087265
            ],
            [
              -59.318829,
              -40.185437
            ],
            [
              -59.550062,
              -40.30112
            ],
            [
              -59.765028,
              -40.433201
            ],
            [
              -59.961655,
              -40.580406
            ],
            [
              -60.138051,
              -40.741319
            ],
            [
              -60.292516,
              -40.914389
            ],
            [
              -60.423563,
              -41.09795
            ],
            [
              -60.52993,
              -41.290235
            ],
            [
              -60.610592,
              -41.489391
            ],
            [
              -60.664773,
              -41.6935
            ],
            [
              -60.691951,
              -41.900597
            ],
            [
              -60.691864,
              -42.108687
            ],
            [
              -60.664513,
              -42.315766
            ],
            [
              -60.610162,
              -42.519841
            ],
            [
              -60.529333,
              -42.718944
            ],
            [
              -60.422805,
              -42.91116
            ],
            [
              -60.291605,
              -43.094637
            ]
          ]
        ],
        "type": "Polygon"
      },
      "properties": {
        "kind": "reachableSet",
        "observationStatus": "estimated",
        "vessel": "B"
      },
      "type": "Feature"
    }
  ],
  "properties": {
    "dateline": false
  },
  "type": "FeatureCollection"
}
