{
  "features": [
    {
      "geometry": {
        "coordinates": [
          -57.793275,
          -42.036847
        ],
        "type": "Point"
      },
      "properties": {
        "mmsi": "412424702",
        "observationStatus": "observed",
        "role": "off",
        "time": "2018-04-11T17:06:54Z",
        "vessel": "A"
      },
      "type": "Feature"
    },
    {
      "geometry": {
        "coordinates": [
          -57.861943,
          -42.03817
        ],
        "type": "Point"
      },
      "properties": {
        "mmsi": "412421057",
        "observationStatus": "observed",
        "role": "off",
        "time": "2018-04-11T17:27:00Z",
        "vessel": "B"
      },
      "type": "Feature"
    },
    {
      "geometry": {
        "coordinates": [
          -58.0051,
          -42.15275
        ],
        "type": "Point"
      },
      "properties": {
        "mmsi": "412421057",
        "observationStatus": "observed",
        "role": "on",
        "time": "2018-04-12T10:20:53Z",
        "vessel": "B"
      },
      "type": "Feature"
    },
    {
      "geometry": {
        "coordinates": [
          -58.007292,
          -42.152215
        ],
        "type": "Point"
      },
      "properties": {
        "mmsi": "412424702",
        "observationStatus": "observed",
        "role": "on",
        "time": "2018-04-12T10:35:05Z",
        "vessel": "A"
      },
      "type": "Feature"
    },
    {
      "geometry": {
        "coordinates": [
          [
            -57.793275,
            -42.036847
          ],
          [
            -57.875632,
            -42.049279
          ],
          [
            -58.007292,
            -42.152215
          ]
        ],
        "type": "LineString"
      },
      "properties": {
        "confidence": "low",
        "lineStyle": "dashed",
        "observationStatus": "estimated",
        "source": "reachable-set heuristic",
        "vessel": "A"
      },
      "type": "Feature"
    },
    {
      "geometry": {
        "coordinates": [
          [
            -57.861943,
            -42.03817
          ],
          [
            -57.875632,
            -42.049279
          ],
          [
            -58.0051,
            -42.15275
          ]
        ],
        "type": "LineString"
      },
      "properties": {
        "confidence": "low",
        "lineStyle": "dashed",
        "observationStatus": "estimated",
        "source": "reachable-set heuristic",
        "vessel": "B"
      },
      "type": "Feature"
    },
    {
      "geometry": {
        "coordinates": [
          -57.875632,
          -42.049279
        ],
        "type": "Point"
      },
      "properties": {
        "kind": "meetingPoint",
        "observationStatus": "estimated"
      },
      "type": "Feature"
    },
    {
      "geometry": {
        "coordinates": [
          [
            [
              -59.696929,
              -43.063035
            ],
            [
              -59.561434,
              -43.189699
            ],
            [
              -59.409941,
              -43.305816
            ],
            [
              -59.24391,
              -43.410267
            ],
            [
              -59.064938,
              -43.502048
            ],
            [
              -58.87475,
              -43.580273
            ],
            [
              -58.675178,
              -43.644189
            ],
            [
              -58.468143,
              -43.693182
            ],
            [
              -58.255639,
              -43.726779
            ],
            [
              -58.039713,
              -43.744656
            ],
            [
              -57.822444,
              -43.746642
            ],
            [
              -57.605925,
              -43.732716
            ],
            [
              -57.392241,
              -43.703015
            ],
            [
              -57.183449,
              -43.657822
            ],
            [
              -56.981561,
              -43.597575
            ],
            [
              -56.78852,
              -43.522852
            ],
            [
              -56.606187,
              -43.434374
            ],
            [
              -56.436316,
              -43.332992
            ],
            [
              -56.280544,
              -43.219683
            ],
            [
              -56.140371,
              -43.095539
            ],
            [
              -56.017147,
              -42.961754
            ],
            [
              -55.912059,
              -42.819617
            ],
            [
              -55.826119,
              -42.670497
            ],
            [
              -55.760153,
              -42.515831
            ],
            [
              -55.714799,
              -42.357107
            ],
            [
              -55.690491,
              -42.195854
            ],
            [
              -55.687466,
              -42.033626
            ],
            [
              -55.70575,
              -41.871984
            ],
            [
              -55.74517,
              -41.712485
            ],
            [
              -55.805344,
              -41.556666
            ],
            [
              -55.885694,
              -41.406027
            ],
            [
              -55.985445,
              -41.262018
            ],
            [
              -56.103638,
              -41.126027
            ],
            [
              -56.239133,
              -40.999363
            ],
            [
              -56.390625,
              -40.883246
            ],
            [
              -56.556657,
              -40.778794
            ],
            [
              -56.735628,
              -40.687014
            ],
            [
              -56.925816,
              -40.608789
            ],
            [
              -57.125389,
              -40.544872
            ],
            [
              -57.332424,
              -40.49588
            ],
            [
              -57.544927,
              -40.462283
            ],
            [
              -57.760854,
              -40.444406
            ],
            [
              -57.978122,
              -40.44242
            ],
            [
              -58.194642,
              -40.456345
            ],
            [
              -58.408326,
              -40.486047
            ],
            [
              -58.617118,
              -40.531239
            ],
            [
              -58.819006,
              -40.591487
            ],
            [
              -59.012046,
              -40.66621
            ],
            [
              -59.19438,
              -40.754688
            ],
            [
              -59.364251,
              -40.85607
            ],
            [
              -59.520022,
              -40.969378
            ],
            [
              -59.660195,
              -41.093523
            ],
            [
              -59.783419,
              -41.227308
            ],
            [
              -59.888507,
              -41.369445
            ],
            [
              -59.974448,
              -41.518564
            ],
            [
              -60.040413,
              -41.673231
            ],
            [
              -60.085768,
              -41.831955
            ],
            [
              -60.110075,
              -41.993207
            ],
            [
              -60.113101,
              -42.155436
            ],
            [
              -60.094816,
              -42.317078
            ],
            [
              -60.055397,
              -42.476576
            ],
            [
              -59.995222,
              -42.632396
            ],
            [
              -59.914873,
              -42.783035
            ],
            [
              -59.815121,
              -42.927044
            ],
            [
              -59.696929,
              -43.063035
            ]
          ]
        ],
        "type": "Polygon"
      },
      "properties": {
        "kind": "reachableSet",
        "observationStatus": "estimated",
        "vessel": "A"
      },
      "type": "Feature"
    },
    {
      "geometry": {
        "coordinates": [
          [
            [
              -59.392811,
              -43.263448
            ],
            [
              -59.232724,
              -43.364552
            ],
            [
              -59.060126,
              -43.453433
            ],
            [
              -58.876677,
              -43.529237
            ],
            [
              -58.684146,
              -43.591232
            ],
            [
              -58.484385,
              -43.638822
            ],
            [
              -58.27932,
              -43.671549
            ],
            [
              -58.070924,
              -43.689097
            ],
            [
              -57.861205,
              -43.691298
            ],
            [
              -57.652182,
              -43.67813
            ],
            [
              -57.445869,
              -43.64972
            ],
            [
              -57.244253,
              -43.606341
            ],
            [
              -57.049274,
              -43.548412
            ],
            [
              -56.862811,
              -43.47649
            ],
            [
              -56.68666,
              -43.391268
            ],
            [
              -56.522516,
              -43.293567
            ],
            [
              -56.371961,
              -43.184327
            ],
            [
              -56.236445,
              -43.064601
            ],
            [
              -56.117273,
              -42.935542
            ],
            [
              -56.015592,
              -42.798392
            ],
            [
              -55.932382,
              -42.654472
            ],
            [
              -55.868444,
              -42.505169
            ],
            [
              -55.824394,
              -42.351921
            ],
            [
              -55.800656,
              -42.196202
            ],
            [
              -55.797459,
              -42.039513
            ],
            [
              -55.814833,
              -41.883363
            ],
            [
              -55.852611,
              -41.729255
            ],
            [
              -55.910429,
              -41.578675
            ],
            [
              -55.987731,
              -41.433071
            ],
            [
              -56.083772,
              -41.293846
            ],
            [
              -56.197627,
              -41.162342
            ],
            [
              -56.3282,
              -41.039823
            ],
            [
              -56.474233,
              -40.927472
            ],
            [
              -56.634319,
              -40.826368
            ],
            [
              -56.806918,
              -40.737487
            ],
            [
              -56.990366,
              -40.661683
            ],
            [
              -57.182898,
              -40.599688
            ],
            [
              -57.382658,
              -40.552098
            ],
            [
              -57.587724,
              -40.519371
            ],
            [
              -57.796119,
              -40.501823
            ],
            [
              -58.005838,
              -40.499622
            ],
            [
              -58.214861,
              -40.51279
            ],
            [
              -58.421174,
              -40.5412
            ],
            [
              -58.622791,
              -40.584579
            ],
            [
              -58.817769,
              -40.642508
            ],
            [
              -59.004232,
              -40.71443
            ],
            [
              -59.180384,
              -40.799652
            ],
            [
              -59.344527,
              -40.897353
            ],
            [
              -59.495082,
              -41.006593
            ],
            [
              -59.630598,
              -41.126319
            ],
            [
              -59.74977,
              -41.255378
            ],
            [
              -59.851451,
              -41.392528
            ],
            [
              -59.934661,
              -41.536448
            ],
            [
              -59.998599,
              -41.685751
            ],
            [
              -60.042649,
              -41.838999
            ],
            [
              -60.066387,
              -41.994718
            ],
            [
              -60.069585,
              -42.151407
            ],
            [
              -60.052211,
              -42.307557
            ],
            [
              -60.014433,
              -42.461665
            ],
            [
              -59.956614,
              -42.612245
            ],
            [
              -59.879312,
              -42.757849
            ],
            [
              -59.783271,
              -42.897074
            ],
            [
              -59.669416,
              -43.028578
            ],
            [
              -59.538844,
              -43.151097
            ],
            [
              -59.392811,
              -43.263448
            ]
          ]
        ],
        "type": "Polygon"
      },
      "properties": {
        "kind": "reachableSet",
        "observationStatus": "estimated",
        "vessel": "B"
      },
      "type": "Feature"
    }
  ],
  "properties": {
    "dateline": false
  },
  "type": "FeatureCollection"
}
