{
  "features": [
    {
      "geometry": {
        "coordinates": [
          168.117413,
          42.171893
        ],
        "type": "Point"
      },
      "properties": {
        "mmsi": "412439761",
        "observationStatus": "observed",
        "role": "off",
        "time": "2019-06-12T09:28:10Z",
        "vessel": "A"
      },
      "type": "Feature"
    },
    {
      "geometry": {
        "coordinates": [
          168.07136,
          42.192827
        ],
        "type": "Point"
      },
      "properties": {
        "mmsi": "412420938",
        "observationStatus": "observed",
        "role": "off",
        "time": "2019-06-12T09:29:44Z",
        "vessel": "B"
      },
      "type": "Feature"
    },
    {
      "geometry": {
        "coordinates": [
          167.70295,
          42.349278
        ],
        "type": "Point"
      },
      "properties": {
        "mmsi": "412439761",
        "observationStatus": "observed",
        "role": "on",
        "time": "2019-06-14T05:34:50Z",
        "vessel": "A"
      },
      "type": "Feature"
    },
    {
      "geometry": {
        "coordinates": [
          167.714733,
          42.275407
        ],
        "type": "Point"
      },
      "properties": {
        "mmsi": "412420938",
        "observationStatus": "observed",
        "role": "on",
        "time": "2019-06-14T06:03:56Z",
        "vessel": "B"
      },
      "type": "Feature"
    },
    {
      "geometry": {
        "coordinates": [
          [
            168.117413,
            42.171893
          ],
          [
            167.910182,
            42.260586
          ],
          [
            167.70295,
            42.349278
          ]
        ],
        "type": "LineString"
      },
      "properties": {
        "confidence": "low",
        "lineStyle": "dashed",
        "observationStatus": "estimated",
        "source": "reachable-set heuristic",
        "vessel": "A"
      },
      "type": "Feature"
    },
    {
      "geometry": {
        "coordinates": [
          [
            168.07136,
            42.192827
          ],
          [
            167.910182,
            42.260586
          ],
          [
            167.714733,
            42.275407
          ]
        ],
        "type": "LineString"
      },
      "properties": {
        "confidence": "low",
        "lineStyle": "dashed",
        "observationStatus": "estimated",
        "source": "reachable-set heuristic",
        "vessel": "B"
      },
      "type": "Feature"
    },
    {
      "geometry": {
        "coordinates": [
          167.910182,
          42.260586
        ],
        "type": "Point"
      },
      "properties": {
        "kind": "meetingPoint",
        "observationStatus": "estimated"
      },
      "type": "Feature"
    },
    {
      "geometry": {
        "coordinates": [
          [
            [
              162.868125,
              44.418522
            ],
            [
              162.608775,
              44.0402
            ],
            [
              162.40048,
              43.644741
            ],
            [
              162.245247,
              43.235951
            ],
            [
              162.14457,
              42.817767
            ],
            [
              162.099419,
              42.394218
            ],
            [
              162.110229,
              41.969382
            ],
            [
              162.176895,
              41.54735
            ],
            [
              162.298777,
              41.132187
            ],
            [
              162.474699,
              40.727891
            ],
            [
              162.702968,
              40.338356
            ],
            [
              162.981385,
              39.967333
            ],
            [
              163.307269,
              39.618395
            ],
            [
              163.677482,
              39.294903
            ],
            [
              164.088458,
              38.999973
            ],
            [
              164.53624,
              38.736443
            ],
            [
              165.016514,
              38.506853
            ],
            [
              165.524656,
              38.313414
            ],
            [
              166.055771,
              38.157988
            ],
            [
              166.604746,
              38.042072
            ],
            [
              167.166293,
              37.966783
            ],
            [
              167.735004,
              37.932845
            ],
            [
              168.305401,
              37.940586
            ],
            [
              168.871993,
              37.989931
            ],
            [
              169.429322,
              38.080405
            ],
            [
              169.972021,
              38.211136
            ],
            [
              170.494863,
              38.380866
            ],
            [
              170.992813,
              38.587959
            ],
            [
              171.461076,
              38.830422
            ],
            [
              171.895142,
              39.105919
            ],
            [
              172.29083,
              39.411797
            ],
            [
              172.644331,
              39.745111
            ],
            [
              172.952239,
              40.10265
            ],
            [
              173.211589,
              40.480971
            ],
            [
              173.419883,
              40.876431
            ],
            [
              173.575117,
              41.285221
            ],
            [
              173.675794,
              41.703404
            ],
            [
              173.720944,
              42.126954
            ],
            [
              173.710135,
              42.55179
            ],
            [
              173.643468,
              42.973822
            ],
            [
              173.521586,
              43.388985
            ],
            [
              173.345664,
              43.79328
            ],
            [
              173.117395,
              44.182815
            ],
            [
              172.838978,
              44.553838
            ],
            [
              172.513094,
              44.902776
            ],
            [
              172.142881,
              45.226268
            ],
            [
              171.731905,
              45.521199
            ],
            [
              171.284124,
              45.784728
            ],
            [
              170.80385,
              46.014318
            ],
            [
              170.295708,
              46.207758
            ],
            [
              169.764592,
              46.363184
            ],
            [
              169.215617,
              46.4791
            ],
            [
              168.654071,
              46.554389
            ],
            [
              168.08536,
              46.588326
            ],
            [
              167.514962,
              46.580585
            ],
            [
              166.94837,
              46.53124
            ],
            [
              166.391041,
              46.440767
            ],
            [
              165.848342,
              46.310035
            ],
            [
              165.3255,
              46.140306
            ],
            [
              164.82755,
              45.933213
            ],
            [
              164.359287,
              45.69075
            ],
            [
              163.925221,
              45.415253
            ],
            [
              163.529533,
              45.109374
            ],
            [
              163.176033,
              44.776061
            ],
            [
              162.868125,
              44.418522
            ]
          ]
        ],
        "type": "Polygon"
      },
      "properties": {
        "kind": "reachableSet",
        "observationStatus": "estimated",
        "vessel": "A"
      },
      "type": "Feature"
    },
    {
      "geometry": {
        "coordinates": [
          [
            [
              162.283421,
              43.533074
            ],
            [
              162.139717,
              43.117161
            ],
            [
              162.051422,
              42.692745
            ],
            [
              162.019384,
              42.263911
            ],
            [
              162.043913,
              41.83479
            ],
            [
              162.124772,
              41.409515
            ],
            [
              162.261183,
              40.992181
            ],
            [
              162.451832,
              40.586808
            ],
            [
              162.694882,
              40.1973
            ],
            [
              162.987994,
              39.827407
            ],
            [
              163.328344,
              39.480692
            ],
            [
              163.712655,
              39.160494
            ],
            [
              164.137225,
              38.869896
            ],
            [
              164.597966,
              38.611698
            ],
            [
              165.09044,
              38.388386
            ],
            [
              165.609905,
              38.20211
            ],
            [
              166.151358,
              38.054665
            ],
            [
              166.709584,
              37.94747
            ],
            [
              167.279208,
              37.881558
            ],
            [
              167.854743,
              37.857563
            ],
            [
              168.430647,
              37.875717
            ],
            [
              169.001374,
              37.935845
            ],
            [
              169.561427,
              38.037367
            ],
            [
              170.105412,
              38.179307
            ],
            [
              170.628091,
              38.360296
            ],
            [
              171.124431,
              38.578593
            ],
            [
              171.58965,
              38.832094
            ],
            [
              172.019269,
              39.118359
            ],
            [
              172.40915,
              39.434629
            ],
            [
              172.755538,
              39.777861
            ],
            [
              173.055099,
              40.144748
            ],
            [
              173.304945,
              40.531756
            ],
            [
              173.502673,
              40.935159
            ],
            [
              173.646376,
              41.351072
            ],
            [
              173.734672,
              41.775489
            ],
            [
              173.766709,
              42.204323
            ],
            [
              173.742181,
              42.633443
            ],
            [
              173.661321,
              43.058718
            ],
            [
              173.52491,
              43.476052
            ],
            [
              173.334262,
              43.881425
            ],
            [
              173.091211,
              44.270934
            ],
            [
              172.798099,
              44.640827
            ],
            [
              172.457749,
              44.987542
            ],
            [
              172.073438,
              45.30774
            ],
            [
              171.648868,
              45.598337
            ],
            [
              171.188127,
              45.856535
            ],
            [
              170.695653,
              46.079847
            ],
            [
              170.176188,
              46.266123
            ],
            [
              169.634735,
              46.413568
            ],
            [
              169.076509,
              46.520763
            ],
            [
              168.506885,
              46.586675
            ],
            [
              167.93135,
              46.61067
            ],
            [
              167.355446,
              46.592516
            ],
            [
              166.78472,
              46.532388
            ],
            [
              166.224667,
              46.430866
            ],
            [
              165.680681,
              46.288926
            ],
            [
              165.158002,
              46.107937
            ],
            [
              164.661663,
              45.889641
            ],
            [
              164.196444,
              45.636139
            ],
            [
              163.766825,
              45.349875
            ],
            [
              163.376944,
              45.033604
            ],
            [
              163.030555,
              44.690372
            ],
            [
              162.730995,
              44.323486
            ],
            [
              162.481148,
              43.936477
            ],
            [
              162.283421,
              43.533074
            ]
          ]
        ],
        "type": "Polygon"
      },
      "properties": {
        "kind": "reachableSet",
        "observationStatus": "estimated",
        "vessel": "B"
      },
      "type": "Feature"
    }
  ],
  "properties": {
    "dateline": false
  },
  "type": "FeatureCollection"
}
