{
  "features": [
    {
      "geometry": {
        "coordinates": [
          -60.599173,
          -45.981573
        ],
        "type": "Point"
      },
      "properties": {
        "mmsi": "412329684",
        "observationStatus": "observed",
        "role": "off",
        "time": "2018-02-11T06:10:21Z",
        "vessel": "A"
      },
      "type": "Feature"
    },
    {
      "geometry": {
        "coordinates": [
          -60.578147,
          -46.00863
        ],
        "type": "Point"
      },
      "properties": {
        "mmsi": "412329692",
        "observationStatus": "observed",
        "role": "off",
        "time": "2018-02-11T06:51:43Z",
        "vessel": "B"
      },
      "type": "Feature"
    },
    {
      "geometry": {
        "coordinates": [
          -60.447748,
          -45.389118
        ],
        "type": "Point"
      },
      "properties": {
        "mmsi": "412329692",
        "observationStatus": "observed",
        "role": "on",
        "time": "2018-02-11T23:33:41Z",
        "vessel": "B"
      },
      "type": "Feature"
    },
    {
      "geometry": {
        "coordinates": [
          -60.393355,
          -45.429332
        ],
        "type": "Point"
      },
      "properties": {
        "mmsi": "412329684",
        "observationStatus": "observed",
        "role": "on",
        "time": "2018-02-12T00:17:20Z",
        "vessel": "A"
      },
      "type": "Feature"
    },
    {
      "geometry": {
        "coordinates": [
          [
            -60.599173,
            -45.981573
          ],
          [
            -60.496264,
            -45.619832
          ],
          [
            -60.393355,
            -45.429332
          ]
        ],
        "type": "LineString"
      },
      "properties": {
        "confidence": "low",
        "lineStyle": "dashed",
        "observationStatus": "estimated",
        "source": "reachable-set heuristic",
        "vessel": "A"
      },
      "type": "Feature"
    },
    {
      "geometry": {
        "coordinates": [
          [
            -60.578147,
            -46.00863
          ],
          [
            -60.496264,
            -45.619832
          ],
          [
            -60.447748,
            -45.389118
          ]
        ],
        "type": "LineString"
      },
      "properties": {
        "confidence": "low",
        "lineStyle": "dashed",
        "observationStatus": "estimated",
        "source": "reachable-set heuristic",
        "vessel": "B"
      },
      "type": "Feature"
    },
    {
      "geometry": {
        "coordinates": [
          -60.496264,
          -45.619832
        ],
        "type": "Point"
      },
      "properties": {
        "kind": "meetingPoint",
        "observationStatus": "estimated"
      },
      "type": "Feature"
    },
    {
      "geometry": {
        "coordinates": [
          [
            [
              -59.824428,
              -43.902814
            ],
            [
              -60.076003,
              -43.865741
            ],
            [
              -60.331626,
              -43.846386
            ],
            [
              -60.588835,
              -43.844935
            ],
            [
              -60.845152,
              -43.861401
            ],
            [
              -61.098109,
              -43.895627
            ],
            [
              -61.345271,
              -43.947282
            ],
            [
              -61.584255,
              -44.01587
            ],
            [
              -61.812762,
              -44.100729
            ],
            [
              -62.02859,
              -44.201042
            ],
            [
              -62.229661,
              -44.315844
            ],
            [
              -62.414038,
              -44.444028
            ],
            [
              -62.579947,
              -44.584361
            ],
            [
              -62.725788,
              -44.73549
            ],
            [
              -62.850158,
              -44.895961
            ],
            [
              -62.951858,
              -45.064227
            ],
            [
              -63.02991,
              -45.238669
            ],
            [
              -63.083561,
              -45.417606
            ],
            [
              -63.112295,
              -45.599316
            ],
            [
              -63.115836,
              -45.782047
            ],
            [
              -63.094148,
              -45.964041
            ],
            [
              -63.047442,
              -46.143545
            ],
            [
              -62.976166,
              -46.318829
            ],
            [
              -62.881007,
              -46.488206
            ],
            [
              -62.762882,
              -46.650045
            ],
            [
              -62.622929,
              -46.802787
            ],
            [
              -62.462494,
              -46.944961
            ],
            [
              -62.283123,
              -47.075198
            ],
            [
              -62.086544,
              -47.192243
            ],
            [
              -61.87465,
              -47.29497
            ],
            [
              -61.649481,
              -47.382389
            ],
            [
              -61.413206,
              -47.453658
            ],
            [
              -61.168101,
              -47.508091
            ],
            [
              -60.916525,
              -47.545164
            ],
            [
              -60.660902,
              -47.564519
            ],
            [
              -60.403693,
              -47.56597
            ],
            [
              -60.147376,
              -47.549504
            ],
            [
              -59.894419,
              -47.515278
            ],
            [
              -59.647258,
              -47.463623
            ],
            [
              -59.408273,
              -47.395035
            ],
            [
              -59.179766,
              -47.310176
            ],
            [
              -58.963938,
              -47.209863
            ],
            [
              -58.762867,
              -47.095061
            ],
            [
              -58.57849,
              -46.966877
            ],
            [
              -58.412582,
              -46.826544
            ],
            [
              -58.26674,
              -46.675415
            ],
            [
              -58.142371,
              -46.514944
            ],
            [
              -58.04067,
              -46.346678
            ],
            [
              -57.962619,
              -46.172236
            ],
            [
              -57.908967,
              -45.993299
            ],
            [
              -57.880233,
              -45.811589
            ],
            [
              -57.876693,
              -45.628858
            ],
            [
              -57.89838,
              -45.446864
            ],
            [
              -57.945087,
              -45.26736
            ],
            [
              -58.016363,
              -45.092076
            ],
            [
              -58.111521,
              -44.922699
            ],
            [
              -58.229646,
              -44.76086
            ],
            [
              -58.3696,
              -44.608118
            ],
            [
              -58.530034,
              -44.465944
            ],
            [
              -58.709405,
              -44.335707
            ],
            [
              -58.905984,
              -44.218662
            ],
            [
              -59.117878,
              -44.115935
            ],
            [
              -59.343047,
              -44.028516
            ],
            [
              -59.579322,
              -43.957247
            ],
            [
              -59.824428,
              -43.902814
            ]
          ]
        ],
        "type": "Polygon"
      },
      "properties": {
        "kind": "reachableSet",
        "observationStatus": "estimated",
        "vessel": "A"
      },
      "type": "Feature"
    },
    {
      "geometry": {
        "coordinates": [
          [
            [
              -60.157055,
              -44.00806
            ],
            [
              -60.390469,
              -43.992088
            ],
            [
              -60.625063,
              -43.992553
            ],
            [
              -60.858577,
              -44.009451
            ],
            [
              -61.088762,
              -44.042619
            ],
            [
              -61.313402,
              -44.091738
            ],
            [
              -61.530333,
              -44.156334
            ],
            [
              -61.737466,
              -44.235786
            ],
            [
              -61.932806,
              -44.329328
            ],
            [
              -62.114472,
              -44.43606
            ],
            [
              -62.280715,
              -44.554953
            ],
            [
              -62.429933,
              -44.684863
            ],
            [
              -62.560689,
              -44.824538
            ],
            [
              -62.671725,
              -44.972634
            ],
            [
              -62.76197,
              -45.127724
            ],
            [
              -62.830556,
              -45.288314
            ],
            [
              -62.876822,
              -45.452858
            ],
            [
              -62.900323,
              -45.619771
            ],
            [
              -62.900832,
              -45.787447
            ],
            [
              -62.878345,
              -45.954269
            ],
            [
              -62.833077,
              -46.118631
            ],
            [
              -62.765465,
              -46.278951
            ],
            [
              -62.676161,
              -46.433685
            ],
            [
              -62.566023,
              -46.581342
            ],
            [
              -62.436113,
              -46.720501
            ],
            [
              -62.287682,
              -46.84982
            ],
            [
              -62.12216,
              -46.968055
            ],
            [
              -61.941139,
              -47.074068
            ],
            [
              -61.746365,
              -47.166836
            ],
            [
              -61.539712,
              -47.245468
            ],
            [
              -61.32317,
              -47.309204
            ],
            [
              -61.098826,
              -47.357433
            ],
            [
              -60.86884,
              -47.389688
            ],
            [
              -60.635426,
              -47.40566
            ],
            [
              -60.400832,
              -47.405195
            ],
            [
              -60.167318,
              -47.388297
            ],
            [
              -59.937133,
              -47.355129
            ],
            [
              -59.712493,
              -47.30601
            ],
            [
              -59.495562,
              -47.241414
            ],
            [
              -59.288429,
              -47.161962
            ],
            [
              -59.093089,
              -47.06842
            ],
            [
              -58.911423,
              -46.961688
            ],
            [
              -58.74518,
              -46.842795
            ],
            [
              -58.595962,
              -46.712885
            ],
            [
              -58.465206,
              -46.57321
            ],
            [
              -58.35417,
              -46.425114
            ],
            [
              -58.263925,
              -46.270025
            ],
            [
              -58.195339,
              -46.109435
            ],
            [
              -58.149073,
              -45.94489
            ],
            [
              -58.125572,
              -45.777977
            ],
            [
              -58.125063,
              -45.610302
            ],
            [
              -58.14755,
              -45.44348
            ],
            [
              -58.192818,
              -45.279117
            ],
            [
              -58.26043,
              -45.118797
            ],
            [
              -58.349734,
              -44.964063
            ],
            [
              -58.459872,
              -44.816406
            ],
            [
              -58.589782,
              -44.677248
            ],
            [
              -58.738213,
              -44.547928
            ],
            [
              -58.903735,
              -44.429693
            ],
            [
              -59.084756,
              -44.323681
            ],
            [
              -59.27953,
              -44.230912
            ],
            [
              -59.486183,
              -44.152281
            ],
            [
              -59.702725,
              -44.088544
            ],
            [
              -59.927069,
              -44.040316
            ],
            [
              -60.157055,
              -44.00806
            ]
          ]
        ],
        "type": "Polygon"
      },
      "properties": {
        "kind": "reachableSet",
        "observationStatus": "estimated",
        "vessel": "B"
      },
      "type": "Feature"
    }
  ],
  "properties": {
    "dateline": false
  },
  "type": "FeatureCollection"
}
