{
  "features": [
    {
      "geometry": {
        "coordinates": [
          -57.80742,
          -42.0213
        ],
        "type": "Point"
      },
      "properties": {
        "mmsi": "412329691",
        "observationStatus": "observed",
        "role": "off",
        "time": "2019-05-08T05:11:05Z",
        "vessel": "A"
      },
      "type": "Feature"
    },
    {
      "geometry": {
        "coordinates": [
          -57.772353,
          -42.058297
        ],
        "type": "Point"
      },
      "properties": {
        "mmsi": "412329689",
        "observationStatus": "observed",
        "role": "off",
        "time": "2019-05-08T05:26:02Z",
        "vessel": "B"
      },
      "type": "Feature"
    },
    {
      "geometry": {
        "coordinates": [
          -57.895,
          -42.03
        ],
        "type": "Point"
      },
      "properties": {
        "mmsi": "412329689",
        "observationStatus": "observed",
        "role": "on",
        "time": "2019-05-08T22:32:47Z",
        "vessel": "B"
      },
      "type": "Feature"
    },
    {
      "geometry": {
        "coordinates": [
          -57.881667,
          -42.011667
        ],
        "type": "Point"
      },
      "properties": {
        "mmsi": "412329691",
        "observationStatus": "observed",
        "role": "on",
        "time": "2019-05-08T22:39:59Z",
        "vessel": "A"
      },
      "type": "Feature"
    },
    {
      "geometry": {
        "coordinates": [
          [
            -57.80742,
            -42.0213
          ],
          [
            -57.833677,
            -42.044252
          ],
          [
            -57.881667,
            -42.011667
          ]
        ],
        "type": "LineString"
      },
      "properties": {
        "confidence": "low",
        "lineStyle": "dashed",
        "observationStatus": "estimated",
        "source": "reachable-set heuristic",
        "vessel": "A"
      },
      "type": "Feature"
    },
    {
      "geometry": {
        "coordinates": [
          [
            -57.772353,
            -42.058297
          ],
          [
            -57.833677,
            -42.044252
          ],
          [
            -57.895,
            -42.03
          ]
        ],
        "type": "LineString"
      },
      "properties": {
        "confidence": "low",
        "lineStyle": "dashed",
        "observationStatus": "estimated",
        "source": "reachable-set heuristic",
        "vessel": "B"
      },
      "type": "Feature"
    },
    {
      "geometry": {
        "coordinates": [
          -57.833677,
          -42.044252
        ],
        "type": "Point"
      },
      "properties": {
        "kind": "meetingPoint",
        "observationStatus": "estimated"
      },
      "type": "Feature"
    },
    {
      "geometry": {
        "coordinates": [
          [
            [
              -60.208198,
              -41.709805
            ],
            [
              -60.236999,
              -41.884554
            ],
            [
              -60.242759,
              -42.060573
            ],
            [
              -60.225423,
              -42.236168
            ],
            [
              -60.185157,
              -42.409648
            ],
            [
              -60.122351,
              -42.579341
            ],
            [
              -60.037607,
              -42.743613
            ],
            [
              -59.931744,
              -42.900883
            ],
            [
              -59.805779,
              -43.049635
            ],
            [
              -59.660927,
              -43.188438
            ],
            [
              -59.498582,
              -43.315954
            ],
            [
              -59.320308,
              -43.430955
            ],
            [
              -59.127821,
              -43.532335
            ],
            [
              -58.922976,
              -43.619115
            ],
            [
              -58.707745,
              -43.690462
            ],
            [
              -58.4842,
              -43.745687
            ],
            [
              -58.254496,
              -43.784259
            ],
            [
              -58.020843,
              -43.805807
            ],
            [
              -57.785492,
              -43.810122
            ],
            [
              -57.55071,
              -43.797164
            ],
            [
              -57.318758,
              -43.767056
            ],
            [
              -57.09187,
              -43.72009
            ],
            [
              -56.87223,
              -43.656717
            ],
            [
              -56.661954,
              -43.577548
            ],
            [
              -56.463067,
              -43.483344
            ],
            [
              -56.277485,
              -43.375014
            ],
            [
              -56.106994,
              -43.253601
            ],
            [
              -55.953236,
              -43.120274
            ],
            [
              -55.817693,
              -42.976316
            ],
            [
              -55.70167,
              -42.823115
            ],
            [
              -55.606283,
              -42.662145
            ],
            [
              -55.532453,
              -42.494958
            ],
            [
              -55.480889,
              -42.323162
            ],
            [
              -55.452088,
              -42.148413
            ],
            [
              -55.446328,
              -41.972393
            ],
            [
              -55.463664,
              -41.796798
            ],
            [
              -55.503929,
              -41.623319
            ],
            [
              -55.566736,
              -41.453626
            ],
            [
              -55.651479,
              -41.289354
            ],
            [
              -55.757343,
              -41.132084
            ],
            [
              -55.883307,
              -40.983332
            ],
            [
              -56.028159,
              -40.844529
            ],
            [
              -56.190504,
              -40.717013
            ],
            [
              -56.368779,
              -40.602011
            ],
            [
              -56.561265,
              -40.500632
            ],
            [
              -56.766111,
              -40.413851
            ],
            [
              -56.981342,
              -40.342505
            ],
            [
              -57.204886,
              -40.287279
            ],
            [
              -57.434591,
              -40.248707
            ],
            [
              -57.668244,
              -40.22716
            ],
            [
              -57.903594,
              -40.222845
            ],
            [
              -58.138376,
              -40.235803
            ],
            [
              -58.370328,
              -40.26591
            ],
            [
              -58.597217,
              -40.312877
            ],
            [
              -58.816857,
              -40.37625
            ],
            [
              -59.027133,
              -40.455419
            ],
            [
              -59.226019,
              -40.549622
            ],
            [
              -59.411602,
              -40.657952
            ],
            [
              -59.582093,
              -40.779366
            ],
            [
              -59.73585,
              -40.912693
            ],
            [
              -59.871393,
              -41.056651
            ],
            [
              -59.987417,
              -41.209852
            ],
            [
              -60.082803,
              -41.370821
            ],
            [
              -60.156634,
              -41.538009
            ],
            [
              -60.208198,
              -41.709805
            ]
          ]
        ],
        "type": "Polygon"
      },
      "properties": {
        "kind": "reachableSet",
        "observationStatus": "estimated",
        "vessel": "A"
      },
      "type": "Feature"
    },
    {
      "geometry": {
        "coordinates": [
          [
            [
              -60.0756,
              -41.526899
            ],
            [
              -60.13259,
              -41.693625
            ],
            [
              -60.167439,
              -41.863727
            ],
            [
              -60.179813,
              -42.035567
            ],
            [
              -60.169593,
              -42.20749
            ],
            [
              -60.136876,
              -42.377839
            ],
            [
              -60.081978,
              -42.544975
            ],
            [
              -60.005428,
              -42.707288
            ],
            [
              -59.907963,
              -42.863214
            ],
            [
              -59.790521,
              -43.011252
            ],
            [
              -59.654234,
              -43.149977
            ],
            [
              -59.500414,
              -43.278051
            ],
            [
              -59.330542,
              -43.394243
            ],
            [
              -59.146255,
              -43.497432
            ],
            [
              -58.949326,
              -43.586626
            ],
            [
              -58.741654,
              -43.660964
            ],
            [
              -58.525237,
              -43.719732
            ],
            [
              -58.30216,
              -43.762363
            ],
            [
              -58.074571,
              -43.788446
            ],
            [
              -57.844662,
              -43.797732
            ],
            [
              -57.614648,
              -43.790129
            ],
            [
              -57.386743,
              -43.765711
            ],
            [
              -57.163142,
              -43.724714
            ],
            [
              -56.945999,
              -43.667532
            ],
            [
              -56.737404,
              -43.594716
            ],
            [
              -56.539367,
              -43.506967
            ],
            [
              -56.353796,
              -43.40513
            ],
            [
              -56.182476,
              -43.290187
            ],
            [
              -56.027058,
              -43.163243
            ],
            [
              -55.889039,
              -43.025522
            ],
            [
              -55.769748,
              -42.878349
            ],
            [
              -55.670333,
              -42.723143
            ],
            [
              -55.591753,
              -42.561398
            ],
            [
              -55.534764,
              -42.394672
            ],
            [
              -55.499914,
              -42.224569
            ],
            [
              -55.48754,
              -42.052729
            ],
            [
              -55.497761,
              -41.880807
            ],
            [
              -55.530477,
              -41.710457
            ],
            [
              -55.585375,
              -41.543321
            ],
            [
              -55.661925,
              -41.381009
            ],
            [
              -55.75939,
              -41.225083
            ],
            [
              -55.876832,
              -41.077045
            ],
            [
              -56.013119,
              -40.93832
            ],
            [
              -56.16694,
              -40.810245
            ],
            [
              -56.336811,
              -40.694054
            ],
            [
              -56.521099,
              -40.590865
            ],
            [
              -56.718027,
              -40.501671
            ],
            [
              -56.9257,
              -40.427333
            ],
            [
              -57.142116,
              -40.368565
            ],
            [
              -57.365193,
              -40.325934
            ],
            [
              -57.592782,
              -40.29985
            ],
            [
              -57.822691,
              -40.290565
            ],
            [
              -58.052705,
              -40.298168
            ],
            [
              -58.28061,
              -40.322586
            ],
            [
              -58.504211,
              -40.363583
            ],
            [
              -58.721355,
              -40.420765
            ],
            [
              -58.929949,
              -40.493581
            ],
            [
              -59.127986,
              -40.58133
            ],
            [
              -59.313558,
              -40.683166
            ],
            [
              -59.484878,
              -40.79811
            ],
            [
              -59.640295,
              -40.925054
            ],
            [
              -59.778314,
              -41.062775
            ],
            [
              -59.897606,
              -41.209947
            ],
            [
              -59.99702,
              -41.365153
            ],
            [
              -60.0756,
              -41.526899
            ]
          ]
        ],
        "type": "Polygon"
      },
      "properties": {
        "kind": "reachableSet",
        "observationStatus": "estimated",
        "vessel": "B"
      },
      "type": "Feature"
    }
  ],
  "properties": {
    "dateline": false
  },
  "type": "FeatureCollection"
}
