{
  "features": [
    {
      "geometry": {
        "coordinates": [
          -57.779653,
          -42.055067
        ],
        "type": "Point"
      },
      "properties": {
        "mmsi": "412329684",
        "observationStatus": "observed",
        "role": "off",
        "time": "2019-05-17T04:19:52Z",
        "vessel": "A"
      },
      "type": "Feature"
    },
    {
      "geometry": {
        "coordinates": [
          -57.727102,
          -42.085302
        ],
        "type": "Point"
      },
      "properties": {
        "mmsi": "412329693",
        "observationStatus": "observed",
        "role": "off",
        "time": "2019-05-17T05:05:10Z",
        "vessel": "B"
      },
      "type": "Feature"
    },
    {
      "geometry": {
        "coordinates": [
          -57.91461,
          -42.051342
        ],
        "type": "Point"
      },
      "properties": {
        "mmsi": "412329693",
        "observationStatus": "observed",
        "role": "on",
        "time": "2019-05-17T22:25:11Z",
        "vessel": "B"
      },
      "type": "Feature"
    },
    {
      "geometry": {
        "coordinates": [
          -57.938625,
          -42.067325
        ],
        "type": "Point"
      },
      "properties": {
        "mmsi": "412329684",
        "observationStatus": "observed",
        "role": "on",
        "time": "2019-05-17T22:32:34Z",
        "vessel": "A"
      },
      "type": "Feature"
    },
    {
      "geometry": {
        "coordinates": [
          [
            -57.779653,
            -42.055067
          ],
          [
            -57.873746,
            -42.058632
          ],
          [
            -57.938625,
            -42.067325
          ]
        ],
        "type": "LineString"
      },
      "properties": {
        "confidence": "low",
        "lineStyle": "dashed",
        "observationStatus": "estimated",
        "source": "reachable-set heuristic",
        "vessel": "A"
      },
      "type": "Feature"
    },
    {
      "geometry": {
        "coordinates": [
          [
            -57.727102,
            -42.085302
          ],
          [
            -57.873746,
            -42.058632
          ],
          [
            -57.91461,
            -42.051342
          ]
        ],
        "type": "LineString"
      },
      "properties": {
        "confidence": "low",
        "lineStyle": "dashed",
        "observationStatus": "estimated",
        "source": "reachable-set heuristic",
        "vessel": "B"
      },
      "type": "Feature"
    },
    {
      "geometry": {
        "coordinates": [
          -57.873746,
          -42.058632
        ],
        "type": "Point"
      },
      "properties": {
        "kind": "meetingPoint",
        "observationStatus": "estimated"
      },
      "type": "Feature"
    },
    {
      "geometry": {
        "coordinates": [
          [
            [
              -60.352872,
              -42.253488
            ],
            [
              -60.315661,
              -42.435171
            ],
            [
              -60.254793,
              -42.613253
            ],
            [
              -60.170852,
              -42.786018
            ],
            [
              -60.064649,
              -42.951802
            ],
            [
              -59.937206,
              -43.10901
            ],
            [
              -59.78975,
              -43.256126
            ],
            [
              -59.6237,
              -43.391735
            ],
            [
              -59.440658,
              -43.51453
            ],
            [
              -59.242384,
              -43.623328
            ],
            [
              -59.030789,
              -43.717083
            ],
            [
              -58.80791,
              -43.79489
            ],
            [
              -58.575894,
              -43.856001
            ],
            [
              -58.336975,
              -43.899826
            ],
            [
              -58.093455,
              -43.925945
            ],
            [
              -57.847678,
              -43.934105
            ],
            [
              -57.602011,
              -43.924228
            ],
            [
              -57.358821,
              -43.89641
            ],
            [
              -57.120448,
              -43.850916
            ],
            [
              -56.88919,
              -43.788187
            ],
            [
              -56.667273,
              -43.708827
            ],
            [
              -56.456835,
              -43.613598
            ],
            [
              -56.259901,
              -43.503419
            ],
            [
              -56.078369,
              -43.379351
            ],
            [
              -55.913987,
              -43.242588
            ],
            [
              -55.768337,
              -43.094447
            ],
            [
              -55.642823,
              -42.936356
            ],
            [
              -55.538654,
              -42.769837
            ],
            [
              -55.456832,
              -42.596493
            ],
            [
              -55.398145,
              -42.417994
            ],
            [
              -55.363159,
              -42.236058
            ],
            [
              -55.352211,
              -42.052439
            ],
            [
              -55.365406,
              -41.868904
            ],
            [
              -55.402617,
              -41.68722
            ],
            [
              -55.463486,
              -41.509139
            ],
            [
              -55.547426,
              -41.336374
            ],
            [
              -55.653629,
              -41.170589
            ],
            [
              -55.781072,
              -41.013382
            ],
            [
              -55.928529,
              -40.866265
            ],
            [
              -56.094578,
              -40.730657
            ],
            [
              -56.277621,
              -40.607862
            ],
            [
              -56.475894,
              -40.499063
            ],
            [
              -56.68749,
              -40.405309
            ],
            [
              -56.910368,
              -40.327502
            ],
            [
              -57.142384,
              -40.266391
            ],
            [
              -57.381303,
              -40.222565
            ],
            [
              -57.624824,
              -40.196446
            ],
            [
              -57.870601,
              -40.188286
            ],
            [
              -58.116267,
              -40.198163
            ],
            [
              -58.359458,
              -40.225982
            ],
            [
              -58.59783,
              -40.271475
            ],
            [
              -58.829088,
              -40.334204
            ],
            [
              -59.051005,
              -40.413565
            ],
            [
              -59.261444,
              -40.508794
            ],
            [
              -59.458377,
              -40.618973
            ],
            [
              -59.639909,
              -40.743041
            ],
            [
              -59.804292,
              -40.879804
            ],
            [
              -59.949941,
              -41.027944
            ],
            [
              -60.075455,
              -41.186035
            ],
            [
              -60.179625,
              -41.352555
            ],
            [
              -60.261447,
              -41.525899
            ],
            [
              -60.320133,
              -41.704398
            ],
            [
              -60.355119,
              -41.886334
            ],
            [
              -60.366067,
              -42.069953
            ],
            [
              -60.352872,
              -42.253488
            ]
          ]
        ],
        "type": "Polygon"
      },
      "properties": {
        "kind": "reachableSet",
        "observationStatus": "estimated",
        "vessel": "A"
      },
      "type": "Feature"
    },
    {
      "geometry": {
        "coordinates": [
          [
            [
              -60.13327,
              -41.649516
            ],
            [
              -60.177015,
              -41.820792
            ],
            [
              -60.198069,
              -41.994452
            ],
            [
              -60.196229,
              -42.168823
            ],
            [
              -60.171513,
              -42.342227
            ],
            [
              -60.124159,
              -42.512992
            ],
            [
              -60.054623,
              -42.679475
            ],
            [
              -59.963575,
              -42.840073
            ],
            [
              -59.851891,
              -42.993238
            ],
            [
              -59.720647,
              -43.137495
            ],
            [
              -59.571107,
              -43.271456
            ],
            [
              -59.404711,
              -43.39383
            ],
            [
              -59.223061,
              -43.503439
            ],
            [
              -59.027908,
              -43.599227
            ],
            [
              -58.82113,
              -43.680271
            ],
            [
              -58.604719,
              -43.745791
            ],
            [
              -58.380759,
              -43.795156
            ],
            [
              -58.151407,
              -43.827891
            ],
            [
              -57.918871,
              -43.843681
            ],
            [
              -57.685391,
              -43.842372
            ],
            [
              -57.453216,
              -43.823979
            ],
            [
              -57.224582,
              -43.788678
            ],
            [
              -57.00169,
              -43.736808
            ],
            [
              -56.786687,
              -43.668871
            ],
            [
              -56.581644,
              -43.585519
            ],
            [
              -56.388535,
              -43.487555
            ],
            [
              -56.20922,
              -43.375924
            ],
            [
              -56.045425,
              -43.2517
            ],
            [
              -55.89873,
              -43.116079
            ],
            [
              -55.770545,
              -42.970367
            ],
            [
              -55.662106,
              -42.815969
            ],
            [
              -55.574457,
              -42.65437
            ],
            [
              -55.508442,
              -42.487127
            ],
            [
              -55.464697,
              -42.315851
            ],
            [
              -55.443643,
              -42.142191
            ],
            [
              -55.445483,
              -41.96782
            ],
            [
              -55.470198,
              -41.794417
            ],
            [
              -55.517552,
              -41.623651
            ],
            [
              -55.587089,
              -41.457168
            ],
            [
              -55.678137,
              -41.29657
            ],
            [
              -55.789821,
              -41.143405
            ],
            [
              -55.921065,
              -40.999148
            ],
            [
              -56.070605,
              -40.865187
            ],
            [
              -56.237001,
              -40.742813
            ],
            [
              -56.41865,
              -40.633204
            ],
            [
              -56.613804,
              -40.537417
            ],
            [
              -56.820582,
              -40.456372
            ],
            [
              -57.036993,
              -40.390852
            ],
            [
              -57.260953,
              -40.341487
            ],
            [
              -57.490305,
              -40.308752
            ],
            [
              -57.722841,
              -40.292963
            ],
            [
              -57.95632,
              -40.294271
            ],
            [
              -58.188495,
              -40.312664
            ],
            [
              -58.41713,
              -40.347966
            ],
            [
              -58.640022,
              -40.399835
            ],
            [
              -58.855025,
              -40.467773
            ],
            [
              -59.060068,
              -40.551125
            ],
            [
              -59.253177,
              -40.649088
            ],
            [
              -59.432492,
              -40.760719
            ],
            [
              -59.596286,
              -40.884944
            ],
            [
              -59.742982,
              -41.020565
            ],
            [
              -59.871167,
              -41.166276
            ],
            [
              -59.979606,
              -41.320674
            ],
            [
              -60.067255,
              -41.482273
            ],
            [
              -60.13327,
              -41.649516
            ]
          ]
        ],
        "type": "Polygon"
      },
      "properties": {
        "kind": "reachableSet",
        "observationStatus": "estimated",
        "vessel": "B"
      },
      "type": "Feature"
    }
  ],
  "properties": {
    "dateline": false
  },
  "type": "FeatureCollection"
}
