{
  "features": [
    {
      "geometry": {
        "coordinates": [
          160.571467,
          42.19696
        ],
        "type": "Point"
      },
      "properties": {
        "mmsi": "416245500",
        "observationStatus": "observed",
        "role": "off",
        "time": "2019-09-06T02:51:04Z",
        "vessel": "A"
      },
      "type": "Feature"
    },
    {
      "geometry": {
        "coordinates": [
          160.605897,
          42.149277
        ],
        "type": "Point"
      },
      "properties": {
        "mmsi": "416031600",
        "observationStatus": "observed",
        "role": "off",
        "time": "2019-09-06T03:34:51Z",
        "vessel": "B"
      },
      "type": "Feature"
    },
    {
      "geometry": {
        "coordinates": [
          161.22328,
          42.94208
        ],
        "type": "Point"
      },
      "properties": {
        "mmsi": "416245500",
        "observationStatus": "observed",
        "role": "on",
        "time": "2019-09-06T18:07:32Z",
        "vessel": "A"
      },
      "type": "Feature"
    },
    {
      "geometry": {
        "coordinates": [
          161.182665,
          42.952442
        ],
        "type": "Point"
      },
      "properties": {
        "mmsi": "416031600",
        "observationStatus": "observed",
        "role": "on",
        "time": "2019-09-06T18:27:51Z",
        "vessel": "B"
      },
      "type": "Feature"
    },
    {
      "geometry": {
        "coordinates": [
          [
            160.571467,
            42.19696
          ],
          [
            160.657204,
            42.215179
          ],
          [
            161.22328,
            42.94208
          ]
        ],
        "type": "LineString"
      },
      "properties": {
        "confidence": "low",
        "lineStyle": "dashed",
        "observationStatus": "estimated",
        "source": "reachable-set heuristic",
        "vessel": "A"
      },
      "type": "Feature"
    },
    {
      "geometry": {
        "coordinates": [
          [
            160.605897,
            42.149277
          ],
          [
            160.657204,
            42.215179
          ],
          [
            161.182665,
            42.952442
          ]
        ],
        "type": "LineString"
      },
      "properties": {
        "confidence": "low",
        "lineStyle": "dashed",
        "observationStatus": "estimated",
        "source": "reachable-set heuristic",
        "vessel": "B"
      },
      "type": "Feature"
    },
    {
      "geometry": {
        "coordinates": [
          160.657204,
          42.215179
        ],
        "type": "Point"
      },
      "properties": {
        "kind": "meetingPoint",
        "observationStatus": "estimated"
      },
      "type": "Feature"
    },
    {
      "geometry": {
        "coordinates": [
          [
            [
              161.950212,
              43.773072
            ],
            [
              161.793852,
              43.840033
            ],
            [
              161.628859,
              43.894759
            ],
            [
              161.456821,
              43.936722
            ],
            [
              161.279395,
              43.965518
            ],
            [
              161.09829,
              43.98087
            ],
            [
              160.91525,
              43.982629
            ],
            [
              160.732038,
              43.97078
            ],
            [
              160.550419,
              43.945436
            ],
            [
              160.37214,
              43.906841
            ],
            [
              160.19892,
              43.855367
            ],
            [
              160.032427,
              43.791509
            ],
            [
              159.874263,
              43.715883
            ],
            [
              159.725953,
              43.629217
            ],
            [
              159.588923,
              43.532346
            ],
            [
              159.464495,
              43.426202
            ],
            [
              159.353867,
              43.311807
            ],
            [
              159.258103,
              43.190264
            ],
            [
              159.178126,
              43.062743
            ],
            [
              159.114707,
              42.930472
            ],
            [
              159.068455,
              42.794725
            ],
            [
              159.039818,
              42.656809
            ],
            [
              159.029069,
              42.518052
            ],
            [
              159.036313,
              42.379791
            ],
            [
              159.06148,
              42.243357
            ],
            [
              159.104328,
              42.110064
            ],
            [
              159.164444,
              41.981196
            ],
            [
              159.241249,
              41.857994
            ],
            [
              159.334003,
              41.741644
            ],
            [
              159.441814,
              41.633268
            ],
            [
              159.563642,
              41.533907
            ],
            [
              159.698315,
              41.444521
            ],
            [
              159.844535,
              41.365968
            ],
            [
              160.000895,
              41.299007
            ],
            [
              160.165888,
              41.244281
            ],
            [
              160.337926,
              41.202318
            ],
            [
              160.515352,
              41.173522
            ],
            [
              160.696457,
              41.15817
            ],
            [
              160.879496,
              41.156411
            ],
            [
              161.062708,
              41.16826
            ],
            [
              161.244328,
              41.193604
            ],
            [
              161.422606,
              41.232199
            ],
            [
              161.595826,
              41.283673
            ],
            [
              161.76232,
              41.347531
            ],
            [
              161.920484,
              41.423157
            ],
            [
              162.068794,
              41.509823
            ],
            [
              162.205823,
              41.606694
            ],
            [
              162.330251,
              41.712838
            ],
            [
              162.44088,
              41.827233
            ],
            [
              162.536644,
              41.948776
            ],
            [
              162.61662,
              42.076297
            ],
            [
              162.68004,
              42.208568
            ],
            [
              162.726291,
              42.344315
            ],
            [
              162.754929,
              42.482231
            ],
            [
              162.765678,
              42.620988
            ],
            [
              162.758434,
              42.759249
            ],
            [
              162.733266,
              42.895683
            ],
            [
              162.690419,
              43.028976
            ],
            [
              162.630303,
              43.157844
            ],
            [
              162.553498,
              43.281046
            ],
            [
              162.460744,
              43.397396
            ],
            [
              162.352933,
              43.505772
            ],
            [
              162.231105,
              43.605133
            ],
            [
              162.096432,
              43.694519
            ],
            [
              161.950212,
              43.773072
            ]
          ]
        ],
        "type": "Polygon"
      },
      "properties": {
        "kind": "reachableSet",
        "observationStatus": "estimated",
        "vessel": "A"
      },
      "type": "Feature"
    },
    {
      "geometry": {
        "coordinates": [
          [
            [
              161.778618,
              43.782322
            ],
            [
              161.62051,
              43.837166
            ],
            [
              161.455409,
              43.879623
            ],
            [
              161.284903,
              43.909282
            ],
            [
              161.110636,
              43.92586
            ],
            [
              160.934284,
              43.929195
            ],
            [
              160.757548,
              43.919256
            ],
            [
              160.582128,
              43.896139
            ],
            [
              160.409715,
              43.860066
            ],
            [
              160.241968,
              43.811385
            ],
            [
              160.080504,
              43.750564
            ],
            [
              159.926876,
              43.678189
            ],
            [
              159.782565,
              43.594958
            ],
            [
              159.648961,
              43.501671
            ],
            [
              159.527349,
              43.399227
            ],
            [
              159.418902,
              43.288614
            ],
            [
              159.324664,
              43.170895
            ],
            [
              159.245542,
              43.047205
            ],
            [
              159.182298,
              42.918735
            ],
            [
              159.135542,
              42.786722
            ],
            [
              159.105723,
              42.652437
            ],
            [
              159.093129,
              42.517174
            ],
            [
              159.097881,
              42.382236
            ],
            [
              159.119933,
              42.248922
            ],
            [
              159.159073,
              42.118515
            ],
            [
              159.214925,
              41.992272
            ],
            [
              159.286949,
              41.871409
            ],
            [
              159.374453,
              41.757089
            ],
            [
              159.476593,
              41.650413
            ],
            [
              159.592387,
              41.55241
            ],
            [
              159.720719,
              41.464022
            ],
            [
              159.860353,
              41.3861
            ],
            [
              160.009944,
              41.319396
            ],
            [
              160.168051,
              41.264552
            ],
            [
              160.333153,
              41.222096
            ],
            [
              160.503659,
              41.192436
            ],
            [
              160.677926,
              41.175859
            ],
            [
              160.854277,
              41.172523
            ],
            [
              161.031014,
              41.182462
            ],
            [
              161.206433,
              41.205579
            ],
            [
              161.378847,
              41.241652
            ],
            [
              161.546593,
              41.290333
            ],
            [
              161.708058,
              41.351154
            ],
            [
              161.861686,
              41.423529
            ],
            [
              162.005996,
              41.506761
            ],
            [
              162.139601,
              41.600047
            ],
            [
              162.261212,
              41.702491
            ],
            [
              162.369659,
              41.813105
            ],
            [
              162.463898,
              41.930824
            ],
            [
              162.54302,
              42.054514
            ],
            [
              162.606263,
              42.182984
            ],
            [
              162.65302,
              42.314997
            ],
            [
              162.682839,
              42.449281
            ],
            [
              162.695433,
              42.584544
            ],
            [
              162.690681,
              42.719482
            ],
            [
              162.668629,
              42.852797
            ],
            [
              162.629488,
              42.983203
            ],
            [
              162.573637,
              43.109446
            ],
            [
              162.501613,
              43.23031
            ],
            [
              162.414109,
              43.34463
            ],
            [
              162.311968,
              43.451305
            ],
            [
              162.196175,
              43.549309
            ],
            [
              162.067843,
              43.637697
            ],
            [
              161.928209,
              43.715618
            ],
            [
              161.778618,
              43.782322
            ]
          ]
        ],
        "type": "Polygon"
      },
      "properties": {
        "kind": "reachableSet",
        "observationStatus": "estimated",
        "vessel": "B"
      },
      "type": "Feature"
    }
  ],
  "properties": {
    "dateline": false
  },
  "type": "FeatureCollection"
}
