{
  "features": [
    {
      "geometry": {
        "coordinates": [
          -57.682145,
          -42.054848
        ],
        "type": "Point"
      },
      "properties": {
        "mmsi": "412329686",
        "observationStatus": "observed",
        "role": "off",
        "time": "2019-05-17T04:26:37Z",
        "vessel": "A"
      },
      "type": "Feature"
    },
    {
      "geometry": {
        "coordinates": [
          -57.727102,
          -42.085302
        ],
        "type": "Point"
      },
      "properties": {
        "mmsi": "412329693",
        "observationStatus": "observed",
        "role": "off",
        "time": "2019-05-17T05:05:10Z",
        "vessel": "B"
      },
      "type": "Feature"
    },
    {
      "geometry": {
        "coordinates": [
          -57.884667,
          -42.02272
        ],
        "type": "Point"
      },
      "properties": {
        "mmsi": "412329686",
        "observationStatus": "observed",
        "role": "on",
        "time": "2019-05-17T22:06:05Z",
        "vessel": "A"
      },
      "type": "Feature"
    },
    {
      "geometry": {
        "coordinates": [
          -57.91461,
          -42.051342
        ],
        "type": "Point"
      },
      "properties": {
        "mmsi": "412329693",
        "observationStatus": "observed",
        "role": "on",
        "time": "2019-05-17T22:25:11Z",
        "vessel": "B"
      },
      "type": "Feature"
    },
    {
      "geometry": {
        "coordinates": [
          [
            -57.682145,
            -42.054848
          ],
          [
            -57.832362,
            -42.043577
          ],
          [
            -57.884667,
            -42.02272
          ]
        ],
        "type": "LineString"
      },
      "properties": {
        "confidence": "low",
        "lineStyle": "dashed",
        "observationStatus": "estimated",
        "source": "reachable-set heuristic",
        "vessel": "A"
      },
      "type": "Feature"
    },
    {
      "geometry": {
        "coordinates": [
          [
            -57.727102,
            -42.085302
          ],
          [
            -57.832362,
            -42.043577
          ],
          [
            -57.91461,
            -42.051342
          ]
        ],
        "type": "LineString"
      },
      "properties": {
        "confidence": "low",
        "lineStyle": "dashed",
        "observationStatus": "estimated",
        "source": "reachable-set heuristic",
        "vessel": "B"
      },
      "type": "Feature"
    },
    {
      "geometry": {
        "coordinates": [
          -57.832362,
          -42.043577
        ],
        "type": "Point"
      },
      "properties": {
        "kind": "meetingPoint",
        "observationStatus": "estimated"
      },
      "type": "Feature"
    },
    {
      "geometry": {
        "coordinates": [
          [
            [
              -60.156028,
              -41.662388
            ],
            [
              -60.193899,
              -41.837932
            ],
            [
              -60.208555,
              -42.015411
            ],
            [
              -60.199856,
              -42.193114
            ],
            [
              -60.167885,
              -42.369332
            ],
            [
              -60.11295,
              -42.542366
            ],
            [
              -60.035581,
              -42.71055
            ],
            [
              -59.936521,
              -42.872265
            ],
            [
              -59.816726,
              -43.025953
            ],
            [
              -59.677349,
              -43.170133
            ],
            [
              -59.519733,
              -43.303419
            ],
            [
              -59.345394,
              -43.424525
            ],
            [
              -59.156013,
              -43.532286
            ],
            [
              -58.953413,
              -43.625664
            ],
            [
              -58.739545,
              -43.703759
            ],
            [
              -58.516469,
              -43.765819
            ],
            [
              -58.286333,
              -43.811247
            ],
            [
              -58.051353,
              -43.839606
            ],
            [
              -57.813794,
              -43.850621
            ],
            [
              -57.575941,
              -43.844188
            ],
            [
              -57.340087,
              -43.820367
            ],
            [
              -57.108501,
              -43.779389
            ],
            [
              -56.883416,
              -43.721648
            ],
            [
              -56.666998,
              -43.6477
            ],
            [
              -56.461332,
              -43.558257
            ],
            [
              -56.268397,
              -43.454181
            ],
            [
              -56.090054,
              -43.336474
            ],
            [
              -55.928018,
              -43.206269
            ],
            [
              -55.78385,
              -43.064821
            ],
            [
              -55.65894,
              -42.913492
            ],
            [
              -55.554489,
              -42.753739
            ],
            [
              -55.471504,
              -42.5871
            ],
            [
              -55.410783,
              -42.41518
            ],
            [
              -55.372913,
              -42.239636
            ],
            [
              -55.358256,
              -42.062158
            ],
            [
              -55.366956,
              -41.884454
            ],
            [
              -55.398927,
              -41.708237
            ],
            [
              -55.453861,
              -41.535203
            ],
            [
              -55.531231,
              -41.367018
            ],
            [
              -55.63029,
              -41.205304
            ],
            [
              -55.750085,
              -41.051616
            ],
            [
              -55.889462,
              -40.907435
            ],
            [
              -56.047079,
              -40.774149
            ],
            [
              -56.221417,
              -40.653043
            ],
            [
              -56.410799,
              -40.545282
            ],
            [
              -56.613399,
              -40.451905
            ],
            [
              -56.827267,
              -40.37381
            ],
            [
              -57.050343,
              -40.311749
            ],
            [
              -57.280479,
              -40.266321
            ],
            [
              -57.515458,
              -40.237963
            ],
            [
              -57.753018,
              -40.226947
            ],
            [
              -57.990871,
              -40.233381
            ],
            [
              -58.226725,
              -40.257201
            ],
            [
              -58.45831,
              -40.298179
            ],
            [
              -58.683396,
              -40.35592
            ],
            [
              -58.899814,
              -40.429868
            ],
            [
              -59.10548,
              -40.519311
            ],
            [
              -59.298414,
              -40.623387
            ],
            [
              -59.476758,
              -40.741094
            ],
            [
              -59.638794,
              -40.871299
            ],
            [
              -59.782961,
              -41.012747
            ],
            [
              -59.907872,
              -41.164076
            ],
            [
              -60.012323,
              -41.32383
            ],
            [
              -60.095308,
              -41.490469
            ],
            [
              -60.156028,
              -41.662388
            ]
          ]
        ],
        "type": "Polygon"
      },
      "properties": {
        "kind": "reachableSet",
        "observationStatus": "estimated",
        "vessel": "A"
      },
      "type": "Feature"
    },
    {
      "geometry": {
        "coordinates": [
          [
            [
              -60.13327,
              -41.649516
            ],
            [
              -60.177015,
              -41.820792
            ],
            [
              -60.198069,
              -41.994452
            ],
            [
              -60.196229,
              -42.168823
            ],
            [
              -60.171513,
              -42.342227
            ],
            [
              -60.124159,
              -42.512992
            ],
            [
              -60.054623,
              -42.679475
            ],
            [
              -59.963575,
              -42.840073
            ],
            [
              -59.851891,
              -42.993238
            ],
            [
              -59.720647,
              -43.137495
            ],
            [
              -59.571107,
              -43.271456
            ],
            [
              -59.404711,
              -43.39383
            ],
            [
              -59.223061,
              -43.503439
            ],
            [
              -59.027908,
              -43.599227
            ],
            [
              -58.82113,
              -43.680271
            ],
            [
              -58.604719,
              -43.745791
            ],
            [
              -58.380759,
              -43.795156
            ],
            [
              -58.151407,
              -43.827891
            ],
            [
              -57.918871,
              -43.843681
            ],
            [
              -57.685391,
              -43.842372
            ],
            [
              -57.453216,
              -43.823979
            ],
            [
              -57.224582,
              -43.788678
            ],
            [
              -57.00169,
              -43.736808
            ],
            [
              -56.786687,
              -43.668871
            ],
            [
              -56.581644,
              -43.585519
            ],
            [
              -56.388535,
              -43.487555
            ],
            [
              -56.20922,
              -43.375924
            ],
            [
              -56.045425,
              -43.2517
            ],
            [
              -55.89873,
              -43.116079
            ],
            [
              -55.770545,
              -42.970367
            ],
            [
              -55.662106,
              -42.815969
            ],
            [
              -55.574457,
              -42.65437
            ],
            [
              -55.508442,
              -42.487127
            ],
            [
              -55.464697,
              -42.315851
            ],
            [
              -55.443643,
              -42.142191
            ],
            [
              -55.445483,
              -41.96782
            ],
            [
              -55.470198,
              -41.794417
            ],
            [
              -55.517552,
              -41.623651
            ],
            [
              -55.587089,
              -41.457168
            ],
            [
              -55.678137,
              -41.29657
            ],
            [
              -55.789821,
              -41.143405
            ],
            [
              -55.921065,
              -40.999148
            ],
            [
              -56.070605,
              -40.865187
            ],
            [
              -56.237001,
              -40.742813
            ],
            [
              -56.41865,
              -40.633204
            ],
            [
              -56.613804,
              -40.537417
            ],
            [
              -56.820582,
              -40.456372
            ],
            [
              -57.036993,
              -40.390852
            ],
            [
              -57.260953,
              -40.341487
            ],
            [
              -57.490305,
              -40.308752
            ],
            [
              -57.722841,
              -40.292963
            ],
            [
              -57.95632,
              -40.294271
            ],
            [
              -58.188495,
              -40.312664
            ],
            [
              -58.41713,
              -40.347966
            ],
            [
              -58.640022,
              -40.399835
            ],
            [
              -58.855025,
              -40.467773
            ],
            [
              -59.060068,
              -40.551125
            ],
            [
              -59.253177,
              -40.649088
            ],
            [
              -59.432492,
              -40.760719
            ],
            [
              -59.596286,
              -40.884944
            ],
            [
              -59.742982,
              -41.020565
            ],
            [
              -59.871167,
              -41.166276
            ],
            [
              -59.979606,
              -41.320674
            ],
            [
              -60.067255,
              -41.482273
            ],
            [
              -60.13327,
              -41.649516
            ]
          ]
        ],
        "type": "Polygon"
      },
      "properties": {
        "kind": "reachableSet",
        "observationStatus": "estimated",
        "vessel": "B"
      },
      "type": "Feature"
    }
  ],
  "properties": {
    "dateline": false
  },
  "type": "FeatureCollection"
}
