{
  "features": [
    {
      "geometry": {
        "coordinates": [
          -60.79277,
          -47.047813
        ],
        "type": "Point"
      },
      "properties": {
        "mmsi": "412699220",
        "observationStatus": "observed",
        "role": "off",
        "time": "2019-03-11T10:36:17Z",
        "vessel": "A"
      },
      "type": "Feature"
    },
    {
      "geometry": {
        "coordinates": [
          -60.769387,
          -47.099227
        ],
        "type": "Point"
      },
      "properties": {
        "mmsi": "412336827",
        "observationStatus": "observed",
        "role": "off",
        "time": "2019-03-11T11:17:08Z",
        "vessel": "B"
      },
      "type": "Feature"
    },
    {
      "geometry": {
        "coordinates": [
          -60.752293,
          -47.118827
        ],
        "type": "Point"
      },
      "properties": {
        "mmsi": "412336827",
        "observationStatus": "observed",
        "role": "on",
        "time": "2019-03-12T01:38:18Z",
        "vessel": "B"
      },
      "type": "Feature"
    },
    {
      "geometry": {
        "coordinates": [
          -60.758273,
          -47.070002
        ],
        "type": "Point"
      },
      "properties": {
        "mmsi": "412699220",
        "observationStatus": "observed",
        "role": "on",
        "time": "2019-03-12T01:51:37Z",
        "vessel": "A"
      },
      "type": "Feature"
    },
    {
      "geometry": {
        "coordinates": [
          [
            -60.79277,
            -47.047813
          ],
          [
            -60.766205,
            -47.102434
          ],
          [
            -60.758273,
            -47.070002
          ]
        ],
        "type": "LineString"
      },
      "properties": {
        "confidence": "low",
        "lineStyle": "dashed",
        "observationStatus": "estimated",
        "source": "reachable-set heuristic",
        "vessel": "A"
      },
      "type": "Feature"
    },
    {
      "geometry": {
        "coordinates": [
          [
            -60.769387,
            -47.099227
          ],
          [
            -60.766205,
            -47.102434
          ],
          [
            -60.752293,
            -47.118827
          ]
        ],
        "type": "LineString"
      },
      "properties": {
        "confidence": "low",
        "lineStyle": "dashed",
        "observationStatus": "estimated",
        "source": "reachable-set heuristic",
        "vessel": "B"
      },
      "type": "Feature"
    },
    {
      "geometry": {
        "coordinates": [
          -60.766205,
          -47.102434
        ],
        "type": "Point"
      },
      "properties": {
        "kind": "meetingPoint",
        "observationStatus": "estimated"
      },
      "type": "Feature"
    },
    {
      "geometry": {
        "coordinates": [
          [
            [
              -59.25188,
              -48.038917
            ],
            [
              -59.119173,
              -47.931775
            ],
            [
              -59.002417,
              -47.816227
            ],
            [
              -58.902737,
              -47.693386
            ],
            [
              -58.821093,
              -47.564434
            ],
            [
              -58.758272,
              -47.430614
            ],
            [
              -58.714877,
              -47.293213
            ],
            [
              -58.691328,
              -47.153557
            ],
            [
              -58.687851,
              -47.012989
            ],
            [
              -58.704479,
              -46.872863
            ],
            [
              -58.741052,
              -46.734529
            ],
            [
              -58.797218,
              -46.599319
            ],
            [
              -58.872437,
              -46.468534
            ],
            [
              -58.965983,
              -46.343436
            ],
            [
              -59.076956,
              -46.225228
            ],
            [
              -59.204288,
              -46.115048
            ],
            [
              -59.346751,
              -46.013959
            ],
            [
              -59.502974,
              -45.922933
            ],
            [
              -59.671452,
              -45.842847
            ],
            [
              -59.850563,
              -45.774472
            ],
            [
              -60.038582,
              -45.718468
            ],
            [
              -60.233698,
              -45.675372
            ],
            [
              -60.434032,
              -45.6456
            ],
            [
              -60.637655,
              -45.62944
            ],
            [
              -60.842605,
              -45.627046
            ],
            [
              -61.04691,
              -45.638441
            ],
            [
              -61.248601,
              -45.663517
            ],
            [
              -61.445736,
              -45.702031
            ],
            [
              -61.636416,
              -45.753612
            ],
            [
              -61.818805,
              -45.817764
            ],
            [
              -61.991147,
              -45.893869
            ],
            [
              -62.151782,
              -45.981194
            ],
            [
              -62.299163,
              -46.078898
            ],
            [
              -62.431871,
              -46.18604
            ],
            [
              -62.548626,
              -46.301588
            ],
            [
              -62.648306,
              -46.424429
            ],
            [
              -62.72995,
              -46.553381
            ],
            [
              -62.792772,
              -46.687201
            ],
            [
              -62.836166,
              -46.824602
            ],
            [
              -62.859715,
              -46.964258
            ],
            [
              -62.863193,
              -47.104826
            ],
            [
              -62.846565,
              -47.244952
            ],
            [
              -62.809991,
              -47.383286
            ],
            [
              -62.753825,
              -47.518496
            ],
            [
              -62.678606,
              -47.649281
            ],
            [
              -62.58506,
              -47.774379
            ],
            [
              -62.474087,
              -47.892587
            ],
            [
              -62.346756,
              -48.002767
            ],
            [
              -62.204293,
              -48.103856
            ],
            [
              -62.04807,
              -48.194882
            ],
            [
              -61.879592,
              -48.274968
            ],
            [
              -61.70048,
              -48.343343
            ],
            [
              -61.512462,
              -48.399347
            ],
            [
              -61.317346,
              -48.442443
            ],
            [
              -61.117011,
              -48.472215
            ],
            [
              -60.913389,
              -48.488375
            ],
            [
              -60.708438,
              -48.490769
            ],
            [
              -60.504134,
              -48.479374
            ],
            [
              -60.302443,
              -48.454298
            ],
            [
              -60.105308,
              -48.415784
            ],
            [
              -59.914627,
              -48.364203
            ],
            [
              -59.732238,
              -48.300051
            ],
            [
              -59.559896,
              -48.223946
            ],
            [
              -59.399261,
              -48.136621
            ],
            [
              -59.25188,
              -48.038917
            ]
          ]
        ],
        "type": "Polygon"
      },
      "properties": {
        "kind": "reachableSet",
        "observationStatus": "estimated",
        "vessel": "A"
      },
      "type": "Feature"
    },
    {
      "geometry": {
        "coordinates": [
          [
            [
              -59.756249,
              -48.260937
            ],
            [
              -59.596318,
              -48.187921
            ],
            [
              -59.447602,
              -48.104514
            ],
            [
              -59.311533,
              -48.011521
            ],
            [
              -59.189422,
              -47.909836
            ],
            [
              -59.082444,
              -47.800438
            ],
            [
              -58.991631,
              -47.684382
            ],
            [
              -58.917855,
              -47.562785
            ],
            [
              -58.861829,
              -47.436818
            ],
            [
              -58.824091,
              -47.307694
            ],
            [
              -58.805006,
              -47.176657
            ],
            [
              -58.804756,
              -47.044969
            ],
            [
              -58.823344,
              -46.913898
            ],
            [
              -58.860591,
              -46.784705
            ],
            [
              -58.916139,
              -46.658636
            ],
            [
              -58.989452,
              -46.536905
            ],
            [
              -59.079824,
              -46.420683
            ],
            [
              -59.186386,
              -46.311091
            ],
            [
              -59.308111,
              -46.209183
            ],
            [
              -59.443826,
              -46.115941
            ],
            [
              -59.592225,
              -46.032263
            ],
            [
              -59.751878,
              -45.958955
            ],
            [
              -59.921248,
              -45.896723
            ],
            [
              -60.098703,
              -45.846166
            ],
            [
              -60.282536,
              -45.807771
            ],
            [
              -60.470975,
              -45.781907
            ],
            [
              -60.662205,
              -45.768825
            ],
            [
              -60.854385,
              -45.76865
            ],
            [
              -61.045665,
              -45.781383
            ],
            [
              -61.234201,
              -45.806902
            ],
            [
              -61.418179,
              -45.844961
            ],
            [
              -61.595826,
              -45.895193
            ],
            [
              -61.765431,
              -45.957116
            ],
            [
              -61.925362,
              -46.030132
            ],
            [
              -62.074078,
              -46.113539
            ],
            [
              -62.210147,
              -46.206532
            ],
            [
              -62.332258,
              -46.308218
            ],
            [
              -62.439236,
              -46.417615
            ],
            [
              -62.530049,
              -46.533671
            ],
            [
              -62.603825,
              -46.655268
            ],
            [
              -62.659851,
              -46.781235
            ],
            [
              -62.697589,
              -46.910359
            ],
            [
              -62.716674,
              -47.041396
            ],
            [
              -62.716924,
              -47.173084
            ],
            [
              -62.698336,
              -47.304156
            ],
            [
              -62.661089,
              -47.433348
            ],
            [
              -62.605541,
              -47.559417
            ],
            [
              -62.532228,
              -47.681148
            ],
            [
              -62.441856,
              -47.79737
            ],
            [
              -62.335294,
              -47.906962
            ],
            [
              -62.213569,
              -48.00887
            ],
            [
              -62.077854,
              -48.102112
            ],
            [
              -61.929455,
              -48.18579
            ],
            [
              -61.769802,
              -48.259098
            ],
            [
              -61.600432,
              -48.32133
            ],
            [
              -61.422977,
              -48.371887
            ],
            [
              -61.239144,
              -48.410283
            ],
            [
              -61.050705,
              -48.436146
            ],
            [
              -60.859475,
              -48.449228
            ],
            [
              -60.667295,
              -48.449404
            ],
            [
              -60.476015,
              -48.436671
            ],
            [
              -60.287479,
              -48.411152
            ],
            [
              -60.103501,
              -48.373093
            ],
            [
              -59.925854,
              -48.32286
            ],
            [
              -59.756249,
              -48.260937
            ]
          ]
        ],
        "type": "Polygon"
      },
      "properties": {
        "kind": "reachableSet",
        "observationStatus": "estimated",
        "vessel": "B"
      },
      "type": "Feature"
    }
  ],
  "properties": {
    "dateline": false
  },
  "type": "FeatureCollection"
}
