{
  "features": [
    {
      "geometry": {
        "coordinates": [
          -60.779283,
          -46.888133
        ],
        "type": "Point"
      },
      "properties": {
        "mmsi": "441298000",
        "observationStatus": "observed",
        "role": "off",
        "time": "2017-03-09T03:22:04Z",
        "vessel": "A"
      },
      "type": "Feature"
    },
    {
      "geometry": {
        "coordinates": [
          -60.873032,
          -46.841237
        ],
        "type": "Point"
      },
      "properties": {
        "mmsi": "441559000",
        "observationStatus": "observed",
        "role": "off",
        "time": "2017-03-09T03:23:00Z",
        "vessel": "B"
      },
      "type": "Feature"
    },
    {
      "geometry": {
        "coordinates": [
          -60.78198,
          -47.034867
        ],
        "type": "Point"
      },
      "properties": {
        "mmsi": "441559000",
        "observationStatus": "observed",
        "role": "on",
        "time": "2017-03-09T16:00:59Z",
        "vessel": "B"
      },
      "type": "Feature"
    },
    {
      "geometry": {
        "coordinates": [
          -60.83965,
          -46.976033
        ],
        "type": "Point"
      },
      "properties": {
        "mmsi": "441298000",
        "observationStatus": "observed",
        "role": "on",
        "time": "2017-03-09T16:01:04Z",
        "vessel": "A"
      },
      "type": "Feature"
    },
    {
      "geometry": {
        "coordinates": [
          [
            -60.779283,
            -46.888133
          ],
          [
            -60.849448,
            -46.891465
          ],
          [
            -60.83965,
            -46.976033
          ]
        ],
        "type": "LineString"
      },
      "properties": {
        "confidence": "low",
        "lineStyle": "dashed",
        "observationStatus": "estimated",
        "source": "reachable-set heuristic",
        "vessel": "A"
      },
      "type": "Feature"
    },
    {
      "geometry": {
        "coordinates": [
          [
            -60.873032,
            -46.841237
          ],
          [
            -60.849448,
            -46.891465
          ],
          [
            -60.78198,
            -47.034867
          ]
        ],
        "type": "LineString"
      },
      "properties": {
        "confidence": "low",
        "lineStyle": "dashed",
        "observationStatus": "estimated",
        "source": "reachable-set heuristic",
        "vessel": "B"
      },
      "type": "Feature"
    },
    {
      "geometry": {
        "coordinates": [
          -60.849448,
          -46.891465
        ],
        "type": "Point"
      },
      "properties": {
        "kind": "meetingPoint",
        "observationStatus": "estimated"
      },
      "type": "Feature"
    },
    {
      "geometry": {
        "coordinates": [
          [
            [
              -61.536559,
              -47.990803
            ],
            [
              -61.382245,
              -48.034659
            ],
            [
              -61.222415,
              -48.067896
            ],
            [
              -61.058608,
              -48.090195
            ],
            [
              -60.892402,
              -48.101341
            ],
            [
              -60.725397,
              -48.101226
            ],
            [
              -60.559201,
              -48.089852
            ],
            [
              -60.395416,
              -48.067328
            ],
            [
              -60.235618,
              -48.03387
            ],
            [
              -60.081347,
              -47.989802
            ],
            [
              -59.934088,
              -47.935548
            ],
            [
              -59.79526,
              -47.871629
            ],
            [
              -59.666198,
              -47.798662
            ],
            [
              -59.548148,
              -47.71735
            ],
            [
              -59.442244,
              -47.628475
            ],
            [
              -59.349507,
              -47.532893
            ],
            [
              -59.270831,
              -47.431526
            ],
            [
              -59.206972,
              -47.325348
            ],
            [
              -59.158547,
              -47.215383
            ],
            [
              -59.12602,
              -47.10269
            ],
            [
              -59.109706,
              -46.988353
            ],
            [
              -59.109762,
              -46.873475
            ],
            [
              -59.126187,
              -46.759161
            ],
            [
              -59.158823,
              -46.646513
            ],
            [
              -59.207355,
              -46.536615
            ],
            [
              -59.271317,
              -46.430525
            ],
            [
              -59.350091,
              -46.329265
            ],
            [
              -59.442921,
              -46.233811
            ],
            [
              -59.548911,
              -46.145082
            ],
            [
              -59.667041,
              -46.063932
            ],
            [
              -59.796173,
              -45.991143
            ],
            [
              -59.935063,
              -45.927416
            ],
            [
              -60.082375,
              -45.873364
            ],
            [
              -60.236689,
              -45.829508
            ],
            [
              -60.396519,
              -45.79627
            ],
            [
              -60.560325,
              -45.773971
            ],
            [
              -60.726532,
              -45.762825
            ],
            [
              -60.893537,
              -45.76294
            ],
            [
              -61.059732,
              -45.774315
            ],
            [
              -61.223517,
              -45.796839
            ],
            [
              -61.383315,
              -45.830296
            ],
            [
              -61.537586,
              -45.874364
            ],
            [
              -61.684845,
              -45.928619
            ],
            [
              -61.823674,
              -45.992537
            ],
            [
              -61.952735,
              -46.065504
            ],
            [
              -62.070786,
              -46.146817
            ],
            [
              -62.17669,
              -46.235692
            ],
            [
              -62.269426,
              -46.331273
            ],
            [
              -62.348103,
              -46.432641
            ],
            [
              -62.411961,
              -46.538819
            ],
            [
              -62.460387,
              -46.648784
            ],
            [
              -62.492913,
              -46.761477
            ],
            [
              -62.509227,
              -46.875813
            ],
            [
              -62.509171,
              -46.990691
            ],
            [
              -62.492746,
              -47.105005
            ],
            [
              -62.460111,
              -47.217654
            ],
            [
              -62.411578,
              -47.327552
            ],
            [
              -62.347617,
              -47.433642
            ],
            [
              -62.268842,
              -47.534901
            ],
            [
              -62.176012,
              -47.630355
            ],
            [
              -62.070023,
              -47.719085
            ],
            [
              -61.951893,
              -47.800234
            ],
            [
              -61.822761,
              -47.873024
            ],
            [
              -61.68387,
              -47.936751
            ],
            [
              -61.536559,
              -47.990803
            ]
          ]
        ],
        "type": "Polygon"
      },
      "properties": {
        "kind": "reachableSet",
        "observationStatus": "estimated",
        "vessel": "A"
      },
      "type": "Feature"
    },
    {
      "geometry": {
        "coordinates": [
          [
            [
              -60.304408,
              -48.050469
            ],
            [
              -60.148912,
              -48.010001
            ],
            [
              -59.999952,
              -47.959208
            ],
            [
              -59.858962,
              -47.898582
            ],
            [
              -59.727299,
              -47.828705
            ],
            [
              -59.606231,
              -47.750251
            ],
            [
              -59.496926,
              -47.663975
            ],
            [
              -59.400434,
              -47.570707
            ],
            [
              -59.317686,
              -47.471347
            ],
            [
              -59.249478,
              -47.366851
            ],
            [
              -59.196468,
              -47.258226
            ],
            [
              -59.159165,
              -47.146517
            ],
            [
              -59.13793,
              -47.0328
            ],
            [
              -59.132966,
              -46.918171
            ],
            [
              -59.144321,
              -46.803733
            ],
            [
              -59.171886,
              -46.690589
            ],
            [
              -59.215396,
              -46.579828
            ],
            [
              -59.274431,
              -46.472517
            ],
            [
              -59.348424,
              -46.369689
            ],
            [
              -59.43666,
              -46.272335
            ],
            [
              -59.538292,
              -46.181392
            ],
            [
              -59.652339,
              -46.097737
            ],
            [
              -59.777703,
              -46.022174
            ],
            [
              -59.913178,
              -45.955431
            ],
            [
              -60.057458,
              -45.898151
            ],
            [
              -60.209155,
              -45.850887
            ],
            [
              -60.366806,
              -45.814092
            ],
            [
              -60.528894,
              -45.788122
            ],
            [
              -60.693858,
              -45.773226
            ],
            [
              -60.860109,
              -45.769548
            ],
            [
              -61.026046,
              -45.777123
            ],
            [
              -61.190071,
              -45.795879
            ],
            [
              -61.350604,
              -45.825634
            ],
            [
              -61.506099,
              -45.866103
            ],
            [
              -61.65506,
              -45.916895
            ],
            [
              -61.79605,
              -45.977521
            ],
            [
              -61.927713,
              -46.047398
            ],
            [
              -62.04878,
              -46.125852
            ],
            [
              -62.158086,
              -46.212129
            ],
            [
              -62.254578,
              -46.305396
            ],
            [
              -62.337326,
              -46.404756
            ],
            [
              -62.405533,
              -46.509252
            ],
            [
              -62.458544,
              -46.617878
            ],
            [
              -62.495846,
              -46.729587
            ],
            [
              -62.517082,
              -46.843303
            ],
            [
              -62.522046,
              -46.957933
            ],
            [
              -62.510691,
              -47.07237
            ],
            [
              -62.483125,
              -47.185514
            ],
            [
              -62.439615,
              -47.296275
            ],
            [
              -62.38058,
              -47.403586
            ],
            [
              -62.306588,
              -47.506414
            ],
            [
              -62.218351,
              -47.603768
            ],
            [
              -62.11672,
              -47.694711
            ],
            [
              -62.002673,
              -47.778367
            ],
            [
              -61.877308,
              -47.85393
            ],
            [
              -61.741834,
              -47.920673
            ],
            [
              -61.597553,
              -47.977952
            ],
            [
              -61.445857,
              -48.025217
            ],
            [
              -61.288206,
              -48.062011
            ],
            [
              -61.126118,
              -48.087982
            ],
            [
              -60.961154,
              -48.102878
            ],
            [
              -60.794903,
              -48.106556
            ],
            [
              -60.628966,
              -48.09898
            ],
            [
              -60.464941,
              -48.080225
            ],
            [
              -60.304408,
              -48.050469
            ]
          ]
        ],
        "type": "Polygon"
      },
      "properties": {
        "kind": "reachableSet",
        "observationStatus": "estimated",
        "vessel": "B"
      },
      "type": "Feature"
    }
  ],
  "properties": {
    "dateline": false
  },
  "type": "FeatureCollection"
}
