{
  "features": [
    {
      "geometry": {
        "coordinates": [
          -60.980363,
          -47.062725
        ],
        "type": "Point"
      },
      "properties": {
        "mmsi": "701006609",
        "observationStatus": "observed",
        "role": "off",
        "time": "2017-03-09T03:22:14Z",
        "vessel": "A"
      },
      "type": "Feature"
    },
    {
      "geometry": {
        "coordinates": [
          -61.011562,
          -47.03515
        ],
        "type": "Point"
      },
      "properties": {
        "mmsi": "701006151",
        "observationStatus": "observed",
        "role": "off",
        "time": "2017-03-09T03:22:40Z",
        "vessel": "B"
      },
      "type": "Feature"
    },
    {
      "geometry": {
        "coordinates": [
          -60.996645,
          -47.076213
        ],
        "type": "Point"
      },
      "properties": {
        "mmsi": "701006609",
        "observationStatus": "observed",
        "role": "on",
        "time": "2017-03-09T16:01:04Z",
        "vessel": "A"
      },
      "type": "Feature"
    },
    {
      "geometry": {
        "coordinates": [
          -61.019152,
          -47.005968
        ],
        "type": "Point"
      },
      "properties": {
        "mmsi": "701006151",
        "observationStatus": "observed",
        "role": "on",
        "time": "2017-03-09T16:01:08Z",
        "vessel": "B"
      },
      "type": "Feature"
    },
    {
      "geometry": {
        "coordinates": [
          [
            -60.980363,
            -47.062725
          ],
          [
            -60.993459,
            -47.045857
          ],
          [
            -60.996645,
            -47.076213
          ]
        ],
        "type": "LineString"
      },
      "properties": {
        "confidence": "low",
        "lineStyle": "dashed",
        "observationStatus": "estimated",
        "source": "reachable-set heuristic",
        "vessel": "A"
      },
      "type": "Feature"
    },
    {
      "geometry": {
        "coordinates": [
          [
            -61.011562,
            -47.03515
          ],
          [
            -60.993459,
            -47.045857
          ],
          [
            -61.019152,
            -47.005968
          ]
        ],
        "type": "LineString"
      },
      "properties": {
        "confidence": "low",
        "lineStyle": "dashed",
        "observationStatus": "estimated",
        "source": "reachable-set heuristic",
        "vessel": "B"
      },
      "type": "Feature"
    },
    {
      "geometry": {
        "coordinates": [
          -60.993459,
          -47.045857
        ],
        "type": "Point"
      },
      "properties": {
        "kind": "meetingPoint",
        "observationStatus": "estimated"
      },
      "type": "Feature"
    },
    {
      "geometry": {
        "coordinates": [
          [
            [
              -62.076928,
              -47.971159
            ],
            [
              -61.942804,
              -48.039972
            ],
            [
              -61.79949,
              -48.099438
            ],
            [
              -61.648366,
              -48.148985
            ],
            [
              -61.490888,
              -48.188136
            ],
            [
              -61.32857,
              -48.216514
            ],
            [
              -61.162978,
              -48.233844
            ],
            [
              -60.995706,
              -48.239961
            ],
            [
              -60.828364,
              -48.234806
            ],
            [
              -60.662565,
              -48.218428
            ],
            [
              -60.499904,
              -48.190985
            ],
            [
              -60.341949,
              -48.152741
            ],
            [
              -60.19022,
              -48.104064
            ],
            [
              -60.04618,
              -48.045424
            ],
            [
              -59.911215,
              -47.977384
            ],
            [
              -59.786624,
              -47.900601
            ],
            [
              -59.673608,
              -47.815814
            ],
            [
              -59.573256,
              -47.723839
            ],
            [
              -59.486533,
              -47.625562
            ],
            [
              -59.414275,
              -47.52193
            ],
            [
              -59.357177,
              -47.41394
            ],
            [
              -59.31579,
              -47.302633
            ],
            [
              -59.290513,
              -47.18908
            ],
            [
              -59.281587,
              -47.074375
            ],
            [
              -59.289101,
              -46.959624
            ],
            [
              -59.31298,
              -46.845929
            ],
            [
              -59.352996,
              -46.734388
            ],
            [
              -59.408763,
              -46.626074
            ],
            [
              -59.479743,
              -46.52203
            ],
            [
              -59.565254,
              -46.423258
            ],
            [
              -59.664471,
              -46.330709
            ],
            [
              -59.776439,
              -46.245275
            ],
            [
              -59.900081,
              -46.167779
            ],
            [
              -60.034204,
              -46.098966
            ],
            [
              -60.177518,
              -46.0395
            ],
            [
              -60.328642,
              -45.989953
            ],
            [
              -60.486121,
              -45.950802
            ],
            [
              -60.648438,
              -45.922425
            ],
            [
              -60.81403,
              -45.905094
            ],
            [
              -60.981302,
              -45.898977
            ],
            [
              -61.148644,
              -45.904132
            ],
            [
              -61.314444,
              -45.92051
            ],
            [
              -61.477104,
              -45.947954
            ],
            [
              -61.635059,
              -45.986198
            ],
            [
              -61.786788,
              -46.034874
            ],
            [
              -61.930828,
              -46.093515
            ],
            [
              -62.065794,
              -46.161554
            ],
            [
              -62.190384,
              -46.238337
            ],
            [
              -62.3034,
              -46.323124
            ],
            [
              -62.403753,
              -46.415099
            ],
            [
              -62.490476,
              -46.513376
            ],
            [
              -62.562734,
              -46.617008
            ],
            [
              -62.619831,
              -46.724998
            ],
            [
              -62.661218,
              -46.836305
            ],
            [
              -62.686496,
              -46.949858
            ],
            [
              -62.695421,
              -47.064563
            ],
            [
              -62.687908,
              -47.179315
            ],
            [
              -62.664028,
              -47.293009
            ],
            [
              -62.624012,
              -47.40455
            ],
            [
              -62.568246,
              -47.512864
            ],
            [
              -62.497265,
              -47.616908
            ],
            [
              -62.411755,
              -47.71568
            ],
            [
              -62.312537,
              -47.808229
            ],
            [
              -62.200569,
              -47.893663
            ],
            [
              -62.076928,
              -47.971159
            ]
          ]
        ],
        "type": "Polygon"
      },
      "properties": {
        "kind": "reachableSet",
        "observationStatus": "estimated",
        "vessel": "A"
      },
      "type": "Feature"
    },
    {
      "geometry": {
        "coordinates": [
          [
            [
              -61.314906,
              -45.868865
            ],
            [
              -61.477921,
              -45.894562
            ],
            [
              -61.636481,
              -45.931102
            ],
            [
              -61.789059,
              -45.978134
            ],
            [
              -61.934185,
              -46.035206
            ],
            [
              -62.070464,
              -46.101767
            ],
            [
              -62.19658,
              -46.177176
            ],
            [
              -62.311321,
              -46.260708
            ],
            [
              -62.413581,
              -46.351557
            ],
            [
              -62.502376,
              -46.44885
            ],
            [
              -62.576849,
              -46.551648
            ],
            [
              -62.636285,
              -46.658962
            ],
            [
              -62.68011,
              -46.769758
            ],
            [
              -62.707903,
              -46.88297
            ],
            [
              -62.719395,
              -46.997507
            ],
            [
              -62.714477,
              -47.112266
            ],
            [
              -62.693195,
              -47.226142
            ],
            [
              -62.655755,
              -47.338037
            ],
            [
              -62.602517,
              -47.446876
            ],
            [
              -62.533993,
              -47.551608
            ],
            [
              -62.450845,
              -47.651227
            ],
            [
              -62.353872,
              -47.744771
            ],
            [
              -62.244008,
              -47.831342
            ],
            [
              -62.122311,
              -47.910103
            ],
            [
              -61.989954,
              -47.980298
            ],
            [
              -61.848211,
              -48.041251
            ],
            [
              -61.698447,
              -48.092373
            ],
            [
              -61.542105,
              -48.133173
            ],
            [
              -61.38069,
              -48.163259
            ],
            [
              -61.215756,
              -48.182339
            ],
            [
              -61.048893,
              -48.190231
            ],
            [
              -60.881706,
              -48.186858
            ],
            [
              -60.715807,
              -48.172253
            ],
            [
              -60.552793,
              -48.146557
            ],
            [
              -60.394233,
              -48.110017
            ],
            [
              -60.241655,
              -48.062984
            ],
            [
              -60.096528,
              -48.005913
            ],
            [
              -59.96025,
              -47.939352
            ],
            [
              -59.834133,
              -47.863942
            ],
            [
              -59.719392,
              -47.780411
            ],
            [
              -59.617132,
              -47.689561
            ],
            [
              -59.528338,
              -47.592269
            ],
            [
              -59.453864,
              -47.489471
            ],
            [
              -59.394428,
              -47.382156
            ],
            [
              -59.350603,
              -47.27136
            ],
            [
              -59.322811,
              -47.158148
            ],
            [
              -59.311318,
              -47.043611
            ],
            [
              -59.316236,
              -46.928852
            ],
            [
              -59.337518,
              -46.814977
            ],
            [
              -59.374958,
              -46.703081
            ],
            [
              -59.428196,
              -46.594243
            ],
            [
              -59.49672,
              -46.48951
            ],
            [
              -59.579869,
              -46.389892
            ],
            [
              -59.676842,
              -46.296347
            ],
            [
              -59.786706,
              -46.209777
            ],
            [
              -59.908402,
              -46.131015
            ],
            [
              -60.040759,
              -46.06082
            ],
            [
              -60.182502,
              -45.999868
            ],
            [
              -60.332266,
              -45.948745
            ],
            [
              -60.488608,
              -45.907945
            ],
            [
              -60.650023,
              -45.87786
            ],
            [
              -60.814957,
              -45.858779
            ],
            [
              -60.98182,
              -45.850888
            ],
            [
              -61.149007,
              -45.85426
            ],
            [
              -61.314906,
              -45.868865
            ]
          ]
        ],
        "type": "Polygon"
      },
      "properties": {
        "kind": "reachableSet",
        "observationStatus": "estimated",
        "vessel": "B"
      },
      "type": "Feature"
    }
  ],
  "properties": {
    "dateline": false
  },
  "type": "FeatureCollection"
}
