{
  "features": [
    {
      "geometry": {
        "coordinates": [
          164.265893,
          47.125637
        ],
        "type": "Point"
      },
      "properties": {
        "mmsi": "416251900",
        "observationStatus": "observed",
        "role": "off",
        "time": "2018-07-25T02:43:38Z",
        "vessel": "A"
      },
      "type": "Feature"
    },
    {
      "geometry": {
        "coordinates": [
          164.233827,
          47.06649
        ],
        "type": "Point"
      },
      "properties": {
        "mmsi": "416004853",
        "observationStatus": "observed",
        "role": "off",
        "time": "2018-07-25T03:16:36Z",
        "vessel": "B"
      },
      "type": "Feature"
    },
    {
      "geometry": {
        "coordinates": [
          164.332493,
          47.18773
        ],
        "type": "Point"
      },
      "properties": {
        "mmsi": "416004853",
        "observationStatus": "observed",
        "role": "on",
        "time": "2018-07-25T16:58:19Z",
        "vessel": "B"
      },
      "type": "Feature"
    },
    {
      "geometry": {
        "coordinates": [
          164.300267,
          47.21024
        ],
        "type": "Point"
      },
      "properties": {
        "mmsi": "416251900",
        "observationStatus": "observed",
        "role": "on",
        "time": "2018-07-25T16:58:56Z",
        "vessel": "A"
      },
      "type": "Feature"
    },
    {
      "geometry": {
        "coordinates": [
          [
            164.265893,
            47.125637
          ],
          [
            164.253284,
            47.108906
          ],
          [
            164.300267,
            47.21024
          ]
        ],
        "type": "LineString"
      },
      "properties": {
        "confidence": "low",
        "lineStyle": "dashed",
        "observationStatus": "estimated",
        "source": "reachable-set heuristic",
        "vessel": "A"
      },
      "type": "Feature"
    },
    {
      "geometry": {
        "coordinates": [
          [
            164.233827,
            47.06649
          ],
          [
            164.253284,
            47.108906
          ],
          [
            164.332493,
            47.18773
          ]
        ],
        "type": "LineString"
      },
      "properties": {
        "confidence": "low",
        "lineStyle": "dashed",
        "observationStatus": "estimated",
        "source": "reachable-set heuristic",
        "vessel": "B"
      },
      "type": "Feature"
    },
    {
      "geometry": {
        "coordinates": [
          164.253284,
          47.108906
        ],
        "type": "Point"
      },
      "properties": {
        "kind": "meetingPoint",
        "observationStatus": "estimated"
      },
      "type": "Feature"
    },
    {
      "geometry": {
        "coordinates": [
          [
            [
              164.804507,
              48.451331
            ],
            [
              164.618311,
              48.480114
            ],
            [
              164.428886,
              48.49626
            ],
            [
              164.238057,
              48.499614
            ],
            [
              164.047661,
              48.490143
            ],
            [
              163.859533,
              48.467939
            ],
            [
              163.675483,
              48.433214
            ],
            [
              163.497285,
              48.386305
            ],
            [
              163.326655,
              48.327662
            ],
            [
              163.165236,
              48.25785
            ],
            [
              163.014582,
              48.177541
            ],
            [
              162.876144,
              48.08751
            ],
            [
              162.751256,
              47.988623
            ],
            [
              162.641121,
              47.881832
            ],
            [
              162.546798,
              47.768166
            ],
            [
              162.469196,
              47.648719
            ],
            [
              162.409064,
              47.524642
            ],
            [
              162.366979,
              47.39713
            ],
            [
              162.343347,
              47.267411
            ],
            [
              162.338396,
              47.136733
            ],
            [
              162.352173,
              47.006357
            ],
            [
              162.384546,
              46.877536
            ],
            [
              162.435203,
              46.751512
            ],
            [
              162.503656,
              46.629498
            ],
            [
              162.589246,
              46.51267
            ],
            [
              162.691148,
              46.402153
            ],
            [
              162.808381,
              46.29901
            ],
            [
              162.939817,
              46.204236
            ],
            [
              163.084189,
              46.118743
            ],
            [
              163.240107,
              46.043354
            ],
            [
              163.406069,
              45.978795
            ],
            [
              163.580478,
              45.925689
            ],
            [
              163.761653,
              45.884546
            ],
            [
              163.947849,
              45.855763
            ],
            [
              164.137274,
              45.839616
            ],
            [
              164.328103,
              45.836263
            ],
            [
              164.518499,
              45.845733
            ],
            [
              164.706627,
              45.867938
            ],
            [
              164.890677,
              45.902662
            ],
            [
              165.068875,
              45.949572
            ],
            [
              165.239505,
              46.008215
            ],
            [
              165.400924,
              46.078027
            ],
            [
              165.551578,
              46.158335
            ],
            [
              165.690016,
              46.248367
            ],
            [
              165.814904,
              46.347254
            ],
            [
              165.925039,
              46.454045
            ],
            [
              166.019362,
              46.567711
            ],
            [
              166.096964,
              46.687158
            ],
            [
              166.157096,
              46.811234
            ],
            [
              166.199181,
              46.938747
            ],
            [
              166.222813,
              47.068466
            ],
            [
              166.227764,
              47.199143
            ],
            [
              166.213987,
              47.32952
            ],
            [
              166.181614,
              47.458341
            ],
            [
              166.130957,
              47.584365
            ],
            [
              166.062504,
              47.706378
            ],
            [
              165.976914,
              47.823206
            ],
            [
              165.875012,
              47.933724
            ],
            [
              165.757779,
              48.036866
            ],
            [
              165.626343,
              48.131641
            ],
            [
              165.481971,
              48.217134
            ],
            [
              165.326053,
              48.292523
            ],
            [
              165.160091,
              48.357081
            ],
            [
              164.985682,
              48.410188
            ],
            [
              164.804507,
              48.451331
            ]
          ]
        ],
        "type": "Polygon"
      },
      "properties": {
        "kind": "reachableSet",
        "observationStatus": "estimated",
        "vessel": "A"
      },
      "type": "Feature"
    },
    {
      "geometry": {
        "coordinates": [
          [
            [
              165.190064,
              48.241498
            ],
            [
              165.026472,
              48.296932
            ],
            [
              164.855721,
              48.3411
            ],
            [
              164.679456,
              48.373577
            ],
            [
              164.499375,
              48.394049
            ],
            [
              164.317212,
              48.40232
            ],
            [
              164.13472,
              48.39831
            ],
            [
              163.953659,
              48.382058
            ],
            [
              163.77577,
              48.353719
            ],
            [
              163.602768,
              48.313568
            ],
            [
              163.436318,
              48.261991
            ],
            [
              163.278025,
              48.199484
            ],
            [
              163.129411,
              48.12665
            ],
            [
              162.991908,
              48.044189
            ],
            [
              162.86684,
              47.952897
            ],
            [
              162.755413,
              47.853652
            ],
            [
              162.658699,
              47.747409
            ],
            [
              162.577629,
              47.635193
            ],
            [
              162.512984,
              47.518084
            ],
            [
              162.465387,
              47.39721
            ],
            [
              162.435297,
              47.273734
            ],
            [
              162.423002,
              47.148846
            ],
            [
              162.428621,
              47.023749
            ],
            [
              162.452101,
              46.899647
            ],
            [
              162.493215,
              46.777736
            ],
            [
              162.551567,
              46.65919
            ],
            [
              162.626595,
              46.54515
            ],
            [
              162.717577,
              46.436714
            ],
            [
              162.823636,
              46.334928
            ],
            [
              162.943751,
              46.24077
            ],
            [
              163.076766,
              46.155149
            ],
            [
              163.221398,
              46.078888
            ],
            [
              163.376256,
              46.012722
            ],
            [
              163.539848,
              45.957288
            ],
            [
              163.710599,
              45.91312
            ],
            [
              163.886864,
              45.880643
            ],
            [
              164.066945,
              45.860171
            ],
            [
              164.249108,
              45.8519
            ],
            [
              164.4316,
              45.85591
            ],
            [
              164.612661,
              45.872162
            ],
            [
              164.79055,
              45.900501
            ],
            [
              164.963552,
              45.940652
            ],
            [
              165.130002,
              45.992229
            ],
            [
              165.288295,
              46.054736
            ],
            [
              165.436909,
              46.12757
            ],
            [
              165.574412,
              46.210031
            ],
            [
              165.69948,
              46.301323
            ],
            [
              165.810907,
              46.400568
            ],
            [
              165.907621,
              46.506811
            ],
            [
              165.988691,
              46.619027
            ],
            [
              166.053336,
              46.736136
            ],
            [
              166.100933,
              46.85701
            ],
            [
              166.131023,
              46.980486
            ],
            [
              166.143318,
              47.105374
            ],
            [
              166.137699,
              47.230471
            ],
            [
              166.114219,
              47.354573
            ],
            [
              166.073105,
              47.476484
            ],
            [
              166.014753,
              47.59503
            ],
            [
              165.939725,
              47.70907
            ],
            [
              165.848743,
              47.817506
            ],
            [
              165.742684,
              47.919292
            ],
            [
              165.622569,
              48.01345
            ],
            [
              165.489554,
              48.099071
            ],
            [
              165.344922,
              48.175332
            ],
            [
              165.190064,
              48.241498
            ]
          ]
        ],
        "type": "Polygon"
      },
      "properties": {
        "kind": "reachableSet",
        "observationStatus": "estimated",
        "vessel": "B"
      },
      "type": "Feature"
    }
  ],
  "properties": {
    "dateline": false
  },
  "type": "FeatureCollection"
}
