{
  "features": [
    {
      "geometry": {
        "coordinates": [
          -60.401797,
          -45.245675
        ],
        "type": "Point"
      },
      "properties": {
        "mmsi": "412329691",
        "observationStatus": "observed",
        "role": "off",
        "time": "2017-01-22T07:27:56Z",
        "vessel": "A"
      },
      "type": "Feature"
    },
    {
      "geometry": {
        "coordinates": [
          -60.39045,
          -45.2717
        ],
        "type": "Point"
      },
      "properties": {
        "mmsi": "412329692",
        "observationStatus": "observed",
        "role": "off",
        "time": "2017-01-22T07:31:13Z",
        "vessel": "B"
      },
      "type": "Feature"
    },
    {
      "geometry": {
        "coordinates": [
          -60.705178,
          -46.044303
        ],
        "type": "Point"
      },
      "properties": {
        "mmsi": "412329691",
        "observationStatus": "observed",
        "role": "on",
        "time": "2017-01-22T23:46:16Z",
        "vessel": "A"
      },
      "type": "Feature"
    },
    {
      "geometry": {
        "coordinates": [
          -60.72373,
          -46.070997
        ],
        "type": "Point"
      },
      "properties": {
        "mmsi": "412329692",
        "observationStatus": "observed",
        "role": "on",
        "time": "2017-01-23T00:02:53Z",
        "vessel": "B"
      },
      "type": "Feature"
    },
    {
      "geometry": {
        "coordinates": [
          [
            -60.401797,
            -45.245675
          ],
          [
            -60.527828,
            -45.576716
          ],
          [
            -60.705178,
            -46.044303
          ]
        ],
        "type": "LineString"
      },
      "properties": {
        "confidence": "low",
        "lineStyle": "dashed",
        "observationStatus": "estimated",
        "source": "reachable-set heuristic",
        "vessel": "A"
      },
      "type": "Feature"
    },
    {
      "geometry": {
        "coordinates": [
          [
            -60.39045,
            -45.2717
          ],
          [
            -60.527828,
            -45.576716
          ],
          [
            -60.72373,
            -46.070997
          ]
        ],
        "type": "LineString"
      },
      "properties": {
        "confidence": "low",
        "lineStyle": "dashed",
        "observationStatus": "estimated",
        "source": "reachable-set heuristic",
        "vessel": "B"
      },
      "type": "Feature"
    },
    {
      "geometry": {
        "coordinates": [
          -60.527828,
          -45.576716
        ],
        "type": "Point"
      },
      "properties": {
        "kind": "meetingPoint",
        "observationStatus": "estimated"
      },
      "type": "Feature"
    },
    {
      "geometry": {
        "coordinates": [
          [
            [
              -61.165016,
              -47.25479
            ],
            [
              -60.944897,
              -47.287909
            ],
            [
              -60.721009,
              -47.305205
            ],
            [
              -60.495508,
              -47.306512
            ],
            [
              -60.270564,
              -47.291818
            ],
            [
              -60.048346,
              -47.261265
            ],
            [
              -59.830992,
              -47.215145
            ],
            [
              -59.620597,
              -47.153904
            ],
            [
              -59.419185,
              -47.078132
            ],
            [
              -59.228698,
              -46.988557
            ],
            [
              -59.050969,
              -46.886044
            ],
            [
              -58.88771,
              -46.771578
            ],
            [
              -58.740493,
              -46.646262
            ],
            [
              -58.610737,
              -46.511304
            ],
            [
              -58.49969,
              -46.368003
            ],
            [
              -58.408423,
              -46.217738
            ],
            [
              -58.337813,
              -46.061958
            ],
            [
              -58.288542,
              -45.902162
            ],
            [
              -58.261083,
              -45.739889
            ],
            [
              -58.255702,
              -45.576703
            ],
            [
              -58.272449,
              -45.414174
            ],
            [
              -58.311165,
              -45.253868
            ],
            [
              -58.371475,
              -45.097329
            ],
            [
              -58.452798,
              -44.946064
            ],
            [
              -58.554353,
              -44.801529
            ],
            [
              -58.675161,
              -44.665118
            ],
            [
              -58.814057,
              -44.538144
            ],
            [
              -58.969706,
              -44.421829
            ],
            [
              -59.140607,
              -44.317294
            ],
            [
              -59.325115,
              -44.225545
            ],
            [
              -59.521453,
              -44.147467
            ],
            [
              -59.727729,
              -44.08381
            ],
            [
              -59.941959,
              -44.035188
            ],
            [
              -60.162078,
              -44.00207
            ],
            [
              -60.385966,
              -43.984774
            ],
            [
              -60.611467,
              -43.983466
            ],
            [
              -60.836411,
              -43.99816
            ],
            [
              -61.058629,
              -44.028714
            ],
            [
              -61.275983,
              -44.074833
            ],
            [
              -61.486378,
              -44.136074
            ],
            [
              -61.68779,
              -44.211847
            ],
            [
              -61.878277,
              -44.301421
            ],
            [
              -62.056006,
              -44.403935
            ],
            [
              -62.219265,
              -44.518401
            ],
            [
              -62.366482,
              -44.643716
            ],
            [
              -62.496238,
              -44.778674
            ],
            [
              -62.607285,
              -44.921976
            ],
            [
              -62.698552,
              -45.07224
            ],
            [
              -62.769162,
              -45.22802
            ],
            [
              -62.818433,
              -45.387816
            ],
            [
              -62.845892,
              -45.550089
            ],
            [
              -62.851273,
              -45.713275
            ],
            [
              -62.834526,
              -45.875804
            ],
            [
              -62.79581,
              -46.03611
            ],
            [
              -62.7355,
              -46.19265
            ],
            [
              -62.654177,
              -46.343915
            ],
            [
              -62.552622,
              -46.488449
            ],
            [
              -62.431814,
              -46.62486
            ],
            [
              -62.292918,
              -46.751834
            ],
            [
              -62.137269,
              -46.868149
            ],
            [
              -61.966368,
              -46.972684
            ],
            [
              -61.78186,
              -47.064433
            ],
            [
              -61.585522,
              -47.142512
            ],
            [
              -61.379246,
              -47.206168
            ],
            [
              -61.165016,
              -47.25479
            ]
          ]
        ],
        "type": "Polygon"
      },
      "properties": {
        "kind": "reachableSet",
        "observationStatus": "estimated",
        "vessel": "A"
      },
      "type": "Feature"
    },
    {
      "geometry": {
        "coordinates": [
          [
            [
              -61.233489,
              -47.293538
            ],
            [
              -61.011186,
              -47.330931
            ],
            [
              -60.78451,
              -47.352341
            ],
            [
              -60.555644,
              -47.357563
            ],
            [
              -60.326792,
              -47.346545
            ],
            [
              -60.100157,
              -47.319394
            ],
            [
              -59.877923,
              -47.276372
            ],
            [
              -59.66223,
              -47.217893
            ],
            [
              -59.455155,
              -47.144519
            ],
            [
              -59.258692,
              -47.056958
            ],
            [
              -59.074734,
              -46.956053
            ],
            [
              -58.905051,
              -46.842775
            ],
            [
              -58.751278,
              -46.718216
            ],
            [
              -58.614897,
              -46.583575
            ],
            [
              -58.497219,
              -46.440148
            ],
            [
              -58.39938,
              -46.289318
            ],
            [
              -58.32232,
              -46.132537
            ],
            [
              -58.266782,
              -45.971313
            ],
            [
              -58.233302,
              -45.807201
            ],
            [
              -58.2222,
              -45.641781
            ],
            [
              -58.233585,
              -45.476646
            ],
            [
              -58.267347,
              -45.313385
            ],
            [
              -58.32316,
              -45.153572
            ],
            [
              -58.400486,
              -44.998746
            ],
            [
              -58.498583,
              -44.850396
            ],
            [
              -58.616503,
              -44.709954
            ],
            [
              -58.753113,
              -44.578769
            ],
            [
              -58.907096,
              -44.458108
            ],
            [
              -59.076969,
              -44.34913
            ],
            [
              -59.261097,
              -44.252886
            ],
            [
              -59.457706,
              -44.170302
            ],
            [
              -59.664902,
              -44.102174
            ],
            [
              -59.880691,
              -44.049159
            ],
            [
              -60.102994,
              -44.011766
            ],
            [
              -60.32967,
              -43.990355
            ],
            [
              -60.558536,
              -43.985134
            ],
            [
              -60.787388,
              -43.996152
            ],
            [
              -61.014023,
              -44.023302
            ],
            [
              -61.236257,
              -44.066325
            ],
            [
              -61.45195,
              -44.124804
            ],
            [
              -61.659025,
              -44.198178
            ],
            [
              -61.855488,
              -44.285739
            ],
            [
              -62.039446,
              -44.386644
            ],
            [
              -62.209129,
              -44.499922
            ],
            [
              -62.362902,
              -44.624481
            ],
            [
              -62.499283,
              -44.759122
            ],
            [
              -62.616961,
              -44.902548
            ],
            [
              -62.7148,
              -45.053378
            ],
            [
              -62.79186,
              -45.21016
            ],
            [
              -62.847398,
              -45.371383
            ],
            [
              -62.880878,
              -45.535495
            ],
            [
              -62.89198,
              -45.700915
            ],
            [
              -62.880595,
              -45.866051
            ],
            [
              -62.846833,
              -46.029311
            ],
            [
              -62.79102,
              -46.189125
            ],
            [
              -62.713694,
              -46.343951
            ],
            [
              -62.615597,
              -46.4923
            ],
            [
              -62.497677,
              -46.632743
            ],
            [
              -62.361067,
              -46.763927
            ],
            [
              -62.207084,
              -46.884589
            ],
            [
              -62.037211,
              -46.993567
            ],
            [
              -61.853083,
              -47.089811
            ],
            [
              -61.656474,
              -47.172395
            ],
            [
              -61.449278,
              -47.240522
            ],
            [
              -61.233489,
              -47.293538
            ]
          ]
        ],
        "type": "Polygon"
      },
      "properties": {
        "kind": "reachableSet",
        "observationStatus": "estimated",
        "vessel": "B"
      },
      "type": "Feature"
    }
  ],
  "properties": {
    "dateline": false
  },
  "type": "FeatureCollection"
}
