{
  "features": [
    {
      "geometry": {
        "coordinates": [
          -60.271772,
          -45.163668
        ],
        "type": "Point"
      },
      "properties": {
        "mmsi": "412329686",
        "observationStatus": "observed",
        "role": "off",
        "time": "2017-02-14T07:42:42Z",
        "vessel": "A"
      },
      "type": "Feature"
    },
    {
      "geometry": {
        "coordinates": [
          -60.229308,
          -45.18016
        ],
        "type": "Point"
      },
      "properties": {
        "mmsi": "412329685",
        "observationStatus": "observed",
        "role": "off",
        "time": "2017-02-14T08:01:52Z",
        "vessel": "B"
      },
      "type": "Feature"
    },
    {
      "geometry": {
        "coordinates": [
          -60.260005,
          -45.142957
        ],
        "type": "Point"
      },
      "properties": {
        "mmsi": "412329686",
        "observationStatus": "observed",
        "role": "on",
        "time": "2017-02-14T21:26:24Z",
        "vessel": "A"
      },
      "type": "Feature"
    },
    {
      "geometry": {
        "coordinates": [
          -60.254767,
          -45.162772
        ],
        "type": "Point"
      },
      "properties": {
        "mmsi": "412329685",
        "observationStatus": "observed",
        "role": "on",
        "time": "2017-02-14T22:24:32Z",
        "vessel": "B"
      },
      "type": "Feature"
    },
    {
      "geometry": {
        "coordinates": [
          [
            -60.271772,
            -45.163668
          ],
          [
            -60.244639,
            -45.161558
          ],
          [
            -60.260005,
            -45.142957
          ]
        ],
        "type": "LineString"
      },
      "properties": {
        "confidence": "low",
        "lineStyle": "dashed",
        "observationStatus": "estimated",
        "source": "reachable-set heuristic",
        "vessel": "A"
      },
      "type": "Feature"
    },
    {
      "geometry": {
        "coordinates": [
          [
            -60.229308,
            -45.18016
          ],
          [
            -60.244639,
            -45.161558
          ],
          [
            -60.254767,
            -45.162772
          ]
        ],
        "type": "LineString"
      },
      "properties": {
        "confidence": "low",
        "lineStyle": "dashed",
        "observationStatus": "estimated",
        "source": "reachable-set heuristic",
        "vessel": "B"
      },
      "type": "Feature"
    },
    {
      "geometry": {
        "coordinates": [
          -60.244639,
          -45.161558
        ],
        "type": "Point"
      },
      "properties": {
        "kind": "meetingPoint",
        "observationStatus": "estimated"
      },
      "type": "Feature"
    },
    {
      "geometry": {
        "coordinates": [
          [
            [
              -59.53577,
              -43.86816
            ],
            [
              -59.7167,
              -43.82354
            ],
            [
              -59.902918,
              -43.791726
            ],
            [
              -60.092632,
              -43.773025
            ],
            [
              -60.284014,
              -43.767617
            ],
            [
              -60.475222,
              -43.775554
            ],
            [
              -60.664414,
              -43.79676
            ],
            [
              -60.849768,
              -43.83103
            ],
            [
              -61.029499,
              -43.878034
            ],
            [
              -61.201876,
              -43.93732
            ],
            [
              -61.365238,
              -44.008316
            ],
            [
              -61.518014,
              -44.09034
            ],
            [
              -61.658731,
              -44.1826
            ],
            [
              -61.786033,
              -44.284209
            ],
            [
              -61.898697,
              -44.394188
            ],
            [
              -61.995635,
              -44.511478
            ],
            [
              -62.075915,
              -44.634949
            ],
            [
              -62.138763,
              -44.763412
            ],
            [
              -62.183575,
              -44.89563
            ],
            [
              -62.209918,
              -45.030329
            ],
            [
              -62.217539,
              -45.166213
            ],
            [
              -62.206364,
              -45.301973
            ],
            [
              -62.176502,
              -45.436301
            ],
            [
              -62.12824,
              -45.567904
            ],
            [
              -62.062042,
              -45.695514
            ],
            [
              -61.978546,
              -45.817902
            ],
            [
              -61.878556,
              -45.93389
            ],
            [
              -61.763036,
              -46.042361
            ],
            [
              -61.633097,
              -46.142269
            ],
            [
              -61.489991,
              -46.232654
            ],
            [
              -61.335096,
              -46.312643
            ],
            [
              -61.169904,
              -46.381468
            ],
            [
              -60.996006,
              -46.438465
            ],
            [
              -60.815077,
              -46.483085
            ],
            [
              -60.628859,
              -46.514899
            ],
            [
              -60.439145,
              -46.5336
            ],
            [
              -60.247762,
              -46.539008
            ],
            [
              -60.056554,
              -46.531071
            ],
            [
              -59.867363,
              -46.509865
            ],
            [
              -59.682009,
              -46.475595
            ],
            [
              -59.502278,
              -46.428591
            ],
            [
              -59.329901,
              -46.369305
            ],
            [
              -59.166538,
              -46.298309
            ],
            [
              -59.013763,
              -46.216285
            ],
            [
              -58.873046,
              -46.124025
            ],
            [
              -58.745743,
              -46.022416
            ],
            [
              -58.63308,
              -45.912437
            ],
            [
              -58.536142,
              -45.795147
            ],
            [
              -58.455862,
              -45.671676
            ],
            [
              -58.393014,
              -45.543213
            ],
            [
              -58.348202,
              -45.410995
            ],
            [
              -58.321859,
              -45.276296
            ],
            [
              -58.314238,
              -45.140412
            ],
            [
              -58.325412,
              -45.004652
            ],
            [
              -58.355275,
              -44.870324
            ],
            [
              -58.403537,
              -44.738721
            ],
            [
              -58.469735,
              -44.611111
            ],
            [
              -58.553231,
              -44.488723
            ],
            [
              -58.653221,
              -44.372735
            ],
            [
              -58.768741,
              -44.264264
            ],
            [
              -58.89868,
              -44.164356
            ],
            [
              -59.041786,
              -44.073971
            ],
            [
              -59.196681,
              -43.993982
            ],
            [
              -59.361872,
              -43.925157
            ],
            [
              -59.53577,
              -43.86816
            ]
          ]
        ],
        "type": "Polygon"
      },
      "properties": {
        "kind": "reachableSet",
        "observationStatus": "estimated",
        "vessel": "A"
      },
      "type": "Feature"
    },
    {
      "geometry": {
        "coordinates": [
          [
            [
              -61.720646,
              -44.16156
            ],
            [
              -61.852986,
              -44.269285
            ],
            [
              -61.969811,
              -44.385699
            ],
            [
              -62.069998,
              -44.50968
            ],
            [
              -62.15258,
              -44.640034
            ],
            [
              -62.216763,
              -44.775507
            ],
            [
              -62.261927,
              -44.914793
            ],
            [
              -62.28764,
              -45.05655
            ],
            [
              -62.293652,
              -45.199415
            ],
            [
              -62.279905,
              -45.34201
            ],
            [
              -62.246533,
              -45.482963
            ],
            [
              -62.193857,
              -45.620916
            ],
            [
              -62.122384,
              -45.75454
            ],
            [
              -62.032801,
              -45.882549
            ],
            [
              -61.925973,
              -46.00371
            ],
            [
              -61.802928,
              -46.116856
            ],
            [
              -61.66485,
              -46.220898
            ],
            [
              -61.51307,
              -46.314833
            ],
            [
              -61.349049,
              -46.397756
            ],
            [
              -61.174367,
              -46.46887
            ],
            [
              -60.990706,
              -46.527489
            ],
            [
              -60.799835,
              -46.573049
            ],
            [
              -60.603592,
              -46.60511
            ],
            [
              -60.403867,
              -46.623365
            ],
            [
              -60.202584,
              -46.627638
            ],
            [
              -60.001681,
              -46.617886
            ],
            [
              -59.803092,
              -46.594205
            ],
            [
              -59.608731,
              -46.556822
            ],
            [
              -59.420469,
              -46.506098
            ],
            [
              -59.240118,
              -46.44252
            ],
            [
              -59.069417,
              -46.366701
            ],
            [
              -58.910009,
              -46.279371
            ],
            [
              -58.763429,
              -46.181372
            ],
            [
              -58.631089,
              -46.073647
            ],
            [
              -58.514264,
              -45.957233
            ],
            [
              -58.414077,
              -45.833252
            ],
            [
              -58.331495,
              -45.702897
            ],
            [
              -58.267312,
              -45.567425
            ],
            [
              -58.222148,
              -45.428139
            ],
            [
              -58.196435,
              -45.286381
            ],
            [
              -58.190423,
              -45.143517
            ],
            [
              -58.20417,
              -45.000922
            ],
            [
              -58.237542,
              -44.859969
            ],
            [
              -58.290218,
              -44.722016
            ],
            [
              -58.361691,
              -44.588392
            ],
            [
              -58.451274,
              -44.460382
            ],
            [
              -58.558102,
              -44.339221
            ],
            [
              -58.681147,
              -44.226075
            ],
            [
              -58.819225,
              -44.122034
            ],
            [
              -58.971005,
              -44.028099
            ],
            [
              -59.135026,
              -43.945176
            ],
            [
              -59.309708,
              -43.874062
            ],
            [
              -59.493369,
              -43.815443
            ],
            [
              -59.68424,
              -43.769883
            ],
            [
              -59.880483,
              -43.737821
            ],
            [
              -60.080208,
              -43.719566
            ],
            [
              -60.281491,
              -43.715294
            ],
            [
              -60.482394,
              -43.725045
            ],
            [
              -60.680983,
              -43.748726
            ],
            [
              -60.875344,
              -43.786109
            ],
            [
              -61.063606,
              -43.836834
            ],
            [
              -61.243957,
              -43.900412
            ],
            [
              -61.414658,
              -43.976231
            ],
            [
              -61.574066,
              -44.06356
            ],
            [
              -61.720646,
              -44.16156
            ]
          ]
        ],
        "type": "Polygon"
      },
      "properties": {
        "kind": "reachableSet",
        "observationStatus": "estimated",
        "vessel": "B"
      },
      "type": "Feature"
    }
  ],
  "properties": {
    "dateline": false
  },
  "type": "FeatureCollection"
}
