{
  "features": [
    {
      "geometry": {
        "coordinates": [
          -60.350485,
          -45.265808
        ],
        "type": "Point"
      },
      "properties": {
        "mmsi": "412329685",
        "observationStatus": "observed",
        "role": "off",
        "time": "2018-01-29T06:33:09Z",
        "vessel": "A"
      },
      "type": "Feature"
    },
    {
      "geometry": {
        "coordinates": [
          -60.325523,
          -45.28044
        ],
        "type": "Point"
      },
      "properties": {
        "mmsi": "412329686",
        "observationStatus": "observed",
        "role": "off",
        "time": "2018-01-29T06:33:31Z",
        "vessel": "B"
      },
      "type": "Feature"
    },
    {
      "geometry": {
        "coordinates": [
          -60.48207,
          -45.508458
        ],
        "type": "Point"
      },
      "properties": {
        "mmsi": "412329686",
        "observationStatus": "observed",
        "role": "on",
        "time": "2018-01-29T22:31:18Z",
        "vessel": "B"
      },
      "type": "Feature"
    },
    {
      "geometry": {
        "coordinates": [
          -60.495913,
          -45.422405
        ],
        "type": "Point"
      },
      "properties": {
        "mmsi": "412329685",
        "observationStatus": "observed",
        "role": "on",
        "time": "2018-01-29T23:09:57Z",
        "vessel": "A"
      },
      "type": "Feature"
    },
    {
      "geometry": {
        "coordinates": [
          [
            -60.350485,
            -45.265808
          ],
          [
            -60.480383,
            -45.505621
          ],
          [
            -60.495913,
            -45.422405
          ]
        ],
        "type": "LineString"
      },
      "properties": {
        "confidence": "low",
        "lineStyle": "dashed",
        "observationStatus": "estimated",
        "source": "reachable-set heuristic",
        "vessel": "A"
      },
      "type": "Feature"
    },
    {
      "geometry": {
        "coordinates": [
          [
            -60.325523,
            -45.28044
          ],
          [
            -60.480383,
            -45.505621
          ],
          [
            -60.48207,
            -45.508458
          ]
        ],
        "type": "LineString"
      },
      "properties": {
        "confidence": "low",
        "lineStyle": "dashed",
        "observationStatus": "estimated",
        "source": "reachable-set heuristic",
        "vessel": "B"
      },
      "type": "Feature"
    },
    {
      "geometry": {
        "coordinates": [
          -60.480383,
          -45.505621
        ],
        "type": "Point"
      },
      "properties": {
        "kind": "meetingPoint",
        "observationStatus": "estimated"
      },
      "type": "Feature"
    },
    {
      "geometry": {
        "coordinates": [
          [
            [
              -61.742462,
              -46.764684
            ],
            [
              -61.539634,
              -46.849206
            ],
            [
              -61.326053,
              -46.919234
            ],
            [
              -61.103778,
              -46.974092
            ],
            [
              -60.874948,
              -47.013252
            ],
            [
              -60.641768,
              -47.036338
            ],
            [
              -60.406483,
              -47.043126
            ],
            [
              -60.171358,
              -47.033552
            ],
            [
              -59.938659,
              -47.007708
            ],
            [
              -59.710627,
              -46.965843
            ],
            [
              -59.489457,
              -46.908359
            ],
            [
              -59.277279,
              -46.83581
            ],
            [
              -59.076138,
              -46.748896
            ],
            [
              -58.887969,
              -46.648453
            ],
            [
              -58.714585,
              -46.535448
            ],
            [
              -58.557656,
              -46.41097
            ],
            [
              -58.418694,
              -46.276217
            ],
            [
              -58.299035,
              -46.132488
            ],
            [
              -58.199834,
              -45.981166
            ],
            [
              -58.122045,
              -45.823709
            ],
            [
              -58.066417,
              -45.661633
            ],
            [
              -58.033487,
              -45.4965
            ],
            [
              -58.023571,
              -45.329898
            ],
            [
              -58.036764,
              -45.163433
            ],
            [
              -58.07294,
              -44.998709
            ],
            [
              -58.13175,
              -44.837311
            ],
            [
              -58.212629,
              -44.680793
            ],
            [
              -58.314796,
              -44.530663
            ],
            [
              -58.437268,
              -44.388368
            ],
            [
              -58.578866,
              -44.255277
            ],
            [
              -58.738226,
              -44.132671
            ],
            [
              -58.913813,
              -44.021733
            ],
            [
              -59.103936,
              -43.92353
            ],
            [
              -59.306765,
              -43.839007
            ],
            [
              -59.520345,
              -43.76898
            ],
            [
              -59.742621,
              -43.714122
            ],
            [
              -59.97145,
              -43.674961
            ],
            [
              -60.204631,
              -43.651875
            ],
            [
              -60.439916,
              -43.645087
            ],
            [
              -60.67504,
              -43.654661
            ],
            [
              -60.907739,
              -43.680505
            ],
            [
              -61.135771,
              -43.722371
            ],
            [
              -61.356941,
              -43.779854
            ],
            [
              -61.569119,
              -43.852403
            ],
            [
              -61.770261,
              -43.939317
            ],
            [
              -61.95843,
              -44.03976
            ],
            [
              -62.131813,
              -44.152765
            ],
            [
              -62.288742,
              -44.277243
            ],
            [
              -62.427705,
              -44.411996
            ],
            [
              -62.547363,
              -44.555725
            ],
            [
              -62.646564,
              -44.707047
            ],
            [
              -62.724353,
              -44.864504
            ],
            [
              -62.779981,
              -45.02658
            ],
            [
              -62.812911,
              -45.191714
            ],
            [
              -62.822828,
              -45.358315
            ],
            [
              -62.809634,
              -45.52478
            ],
            [
              -62.773458,
              -45.689505
            ],
            [
              -62.714648,
              -45.850903
            ],
            [
              -62.63377,
              -46.00742
            ],
            [
              -62.531603,
              -46.15755
            ],
            [
              -62.40913,
              -46.299845
            ],
            [
              -62.267532,
              -46.432937
            ],
            [
              -62.108172,
              -46.555542
            ],
            [
              -61.932585,
              -46.666481
            ],
            [
              -61.742462,
              -46.764684
            ]
          ]
        ],
        "type": "Polygon"
      },
      "properties": {
        "kind": "reachableSet",
        "observationStatus": "estimated",
        "vessel": "A"
      },
      "type": "Feature"
    },
    {
      "geometry": {
        "coordinates": [
          [
            [
              -61.409971,
              -46.859994
            ],
            [
              -61.202557,
              -46.92245
            ],
            [
              -60.98745,
              -46.970191
            ],
            [
              -60.766723,
              -47.002756
            ],
            [
              -60.542501,
              -47.019833
            ],
            [
              -60.316943,
              -47.021256
            ],
            [
              -60.092221,
              -47.007012
            ],
            [
              -59.8705,
              -46.977238
            ],
            [
              -59.653915,
              -46.932222
            ],
            [
              -59.444551,
              -46.872395
            ],
            [
              -59.244426,
              -46.798336
            ],
            [
              -59.055466,
              -46.710756
            ],
            [
              -58.879491,
              -46.610499
            ],
            [
              -58.718196,
              -46.498531
            ],
            [
              -58.573135,
              -46.37593
            ],
            [
              -58.445703,
              -46.243877
            ],
            [
              -58.33713,
              -46.103644
            ],
            [
              -58.248459,
              -45.95658
            ],
            [
              -58.180545,
              -45.804103
            ],
            [
              -58.134043,
              -45.647681
            ],
            [
              -58.109399,
              -45.48882
            ],
            [
              -58.106852,
              -45.32905
            ],
            [
              -58.126425,
              -45.16991
            ],
            [
              -58.167931,
              -45.012932
            ],
            [
              -58.23097,
              -44.859629
            ],
            [
              -58.314934,
              -44.711476
            ],
            [
              -58.419015,
              -44.569901
            ],
            [
              -58.54221,
              -44.436266
            ],
            [
              -58.683334,
              -44.31186
            ],
            [
              -58.841026,
              -44.197879
            ],
            [
              -59.013769,
              -44.095422
            ],
            [
              -59.199899,
              -44.005475
            ],
            [
              -59.397623,
              -43.928905
            ],
            [
              -59.605037,
              -43.866449
            ],
            [
              -59.820143,
              -43.818708
            ],
            [
              -60.04087,
              -43.786142
            ],
            [
              -60.265092,
              -43.769066
            ],
            [
              -60.490651,
              -43.767642
            ],
            [
              -60.715372,
              -43.781886
            ],
            [
              -60.937093,
              -43.81166
            ],
            [
              -61.153679,
              -43.856677
            ],
            [
              -61.363042,
              -43.916503
            ],
            [
              -61.563167,
              -43.990563
            ],
            [
              -61.752127,
              -44.078143
            ],
            [
              -61.928102,
              -44.178399
            ],
            [
              -62.089397,
              -44.290367
            ],
            [
              -62.234459,
              -44.412968
            ],
            [
              -62.36189,
              -44.545021
            ],
            [
              -62.470464,
              -44.685255
            ],
            [
              -62.559135,
              -44.832318
            ],
            [
              -62.627048,
              -44.984795
            ],
            [
              -62.673551,
              -45.141218
            ],
            [
              -62.698194,
              -45.300079
            ],
            [
              -62.700741,
              -45.459848
            ],
            [
              -62.681168,
              -45.618988
            ],
            [
              -62.639662,
              -45.775966
            ],
            [
              -62.576623,
              -45.929269
            ],
            [
              -62.492659,
              -46.077422
            ],
            [
              -62.388578,
              -46.218998
            ],
            [
              -62.265383,
              -46.352632
            ],
            [
              -62.124259,
              -46.477039
            ],
            [
              -61.966567,
              -46.591019
            ],
            [
              -61.793824,
              -46.693477
            ],
            [
              -61.607694,
              -46.783423
            ],
            [
              -61.409971,
              -46.859994
            ]
          ]
        ],
        "type": "Polygon"
      },
      "properties": {
        "kind": "reachableSet",
        "observationStatus": "estimated",
        "vessel": "B"
      },
      "type": "Feature"
    }
  ],
  "properties": {
    "dateline": false
  },
  "type": "FeatureCollection"
}
