{
  "features": [
    {
      "geometry": {
        "coordinates": [
          -57.722623,
          -42.02599
        ],
        "type": "Point"
      },
      "properties": {
        "mmsi": "412329684",
        "observationStatus": "observed",
        "role": "off",
        "time": "2019-05-24T05:20:10Z",
        "vessel": "A"
      },
      "type": "Feature"
    },
    {
      "geometry": {
        "coordinates": [
          -57.835067,
          -42.02076
        ],
        "type": "Point"
      },
      "properties": {
        "mmsi": "412329691",
        "observationStatus": "observed",
        "role": "off",
        "time": "2019-05-24T05:54:37Z",
        "vessel": "B"
      },
      "type": "Feature"
    },
    {
      "geometry": {
        "coordinates": [
          -57.921847,
          -42.064233
        ],
        "type": "Point"
      },
      "properties": {
        "mmsi": "412329684",
        "observationStatus": "observed",
        "role": "on",
        "time": "2019-05-24T22:26:35Z",
        "vessel": "A"
      },
      "type": "Feature"
    },
    {
      "geometry": {
        "coordinates": [
          -57.97943,
          -42.121582
        ],
        "type": "Point"
      },
      "properties": {
        "mmsi": "412329691",
        "observationStatus": "observed",
        "role": "on",
        "time": "2019-05-24T23:00:50Z",
        "vessel": "B"
      },
      "type": "Feature"
    },
    {
      "geometry": {
        "coordinates": [
          [
            -57.722623,
            -42.02599
          ],
          [
            -57.91311,
            -42.059772
          ],
          [
            -57.921847,
            -42.064233
          ]
        ],
        "type": "LineString"
      },
      "properties": {
        "confidence": "low",
        "lineStyle": "dashed",
        "observationStatus": "estimated",
        "source": "reachable-set heuristic",
        "vessel": "A"
      },
      "type": "Feature"
    },
    {
      "geometry": {
        "coordinates": [
          [
            -57.835067,
            -42.02076
          ],
          [
            -57.91311,
            -42.059772
          ],
          [
            -57.97943,
            -42.121582
          ]
        ],
        "type": "LineString"
      },
      "properties": {
        "confidence": "low",
        "lineStyle": "dashed",
        "observationStatus": "estimated",
        "source": "reachable-set heuristic",
        "vessel": "B"
      },
      "type": "Feature"
    },
    {
      "geometry": {
        "coordinates": [
          -57.91311,
          -42.059772
        ],
        "type": "Point"
      },
      "properties": {
        "kind": "meetingPoint",
        "observationStatus": "estimated"
      },
      "type": "Feature"
    },
    {
      "geometry": {
        "coordinates": [
          [
            [
              -60.094015,
              -42.481207
            ],
            [
              -60.025959,
              -42.64543
            ],
            [
              -59.93668,
              -42.803872
            ],
            [
              -59.827037,
              -42.955006
            ],
            [
              -59.698088,
              -43.097377
            ],
            [
              -59.551072,
              -43.229615
            ],
            [
              -59.387407,
              -43.350445
            ],
            [
              -59.208669,
              -43.458704
            ],
            [
              -59.016578,
              -43.553349
            ],
            [
              -58.812986,
              -43.633469
            ],
            [
              -58.599851,
              -43.698293
            ],
            [
              -58.379228,
              -43.747195
            ],
            [
              -58.153241,
              -43.779706
            ],
            [
              -57.924066,
              -43.795511
            ],
            [
              -57.69391,
              -43.794459
            ],
            [
              -57.464991,
              -43.77656
            ],
            [
              -57.239511,
              -43.741986
            ],
            [
              -57.019644,
              -43.69107
            ],
            [
              -56.807506,
              -43.624303
            ],
            [
              -56.60514,
              -43.542327
            ],
            [
              -56.414496,
              -43.445932
            ],
            [
              -56.237409,
              -43.336047
            ],
            [
              -56.075584,
              -43.213729
            ],
            [
              -55.930581,
              -43.080157
            ],
            [
              -55.803796,
              -42.936617
            ],
            [
              -55.696449,
              -42.784491
            ],
            [
              -55.609575,
              -42.625244
            ],
            [
              -55.54401,
              -42.460411
            ],
            [
              -55.500385,
              -42.291577
            ],
            [
              -55.479121,
              -42.120371
            ],
            [
              -55.480423,
              -41.948439
            ],
            [
              -55.504277,
              -41.777439
            ],
            [
              -55.550455,
              -41.609016
            ],
            [
              -55.618511,
              -41.444793
            ],
            [
              -55.70779,
              -41.286352
            ],
            [
              -55.817433,
              -41.135217
            ],
            [
              -55.946382,
              -40.992846
            ],
            [
              -56.093398,
              -40.860609
            ],
            [
              -56.257063,
              -40.739779
            ],
            [
              -56.435801,
              -40.63152
            ],
            [
              -56.627892,
              -40.536874
            ],
            [
              -56.831484,
              -40.456754
            ],
            [
              -57.044619,
              -40.391931
            ],
            [
              -57.265242,
              -40.343028
            ],
            [
              -57.491229,
              -40.310518
            ],
            [
              -57.720404,
              -40.294712
            ],
            [
              -57.95056,
              -40.295764
            ],
            [
              -58.179479,
              -40.313664
            ],
            [
              -58.404959,
              -40.348237
            ],
            [
              -58.624826,
              -40.399153
            ],
            [
              -58.836964,
              -40.465921
            ],
            [
              -59.03933,
              -40.547896
            ],
            [
              -59.229974,
              -40.644291
            ],
            [
              -59.407061,
              -40.754176
            ],
            [
              -59.568886,
              -40.876494
            ],
            [
              -59.713889,
              -41.010066
            ],
            [
              -59.840674,
              -41.153607
            ],
            [
              -59.948021,
              -41.305733
            ],
            [
              -60.034895,
              -41.464979
            ],
            [
              -60.10046,
              -41.629813
            ],
            [
              -60.144085,
              -41.798646
            ],
            [
              -60.165349,
              -41.969853
            ],
            [
              -60.164047,
              -42.141784
            ],
            [
              -60.140193,
              -42.312785
            ],
            [
              -60.094015,
              -42.481207
            ]
          ]
        ],
        "type": "Polygon"
      },
      "properties": {
        "kind": "reachableSet",
        "observationStatus": "estimated",
        "vessel": "A"
      },
      "type": "Feature"
    },
    {
      "geometry": {
        "coordinates": [
          [
            [
              -59.621274,
              -43.268226
            ],
            [
              -59.456162,
              -43.387908
            ],
            [
              -59.276133,
              -43.494909
            ],
            [
              -59.082921,
              -43.588199
            ],
            [
              -58.878387,
              -43.666878
            ],
            [
              -58.6645,
              -43.730191
            ],
            [
              -58.44332,
              -43.777526
            ],
            [
              -58.216978,
              -43.808427
            ],
            [
              -57.987653,
              -43.822599
            ],
            [
              -57.757553,
              -43.819902
            ],
            [
              -57.528896,
              -43.800365
            ],
            [
              -57.303881,
              -43.764175
            ],
            [
              -57.084678,
              -43.71168
            ],
            [
              -56.873397,
              -43.643386
            ],
            [
              -56.672072,
              -43.55995
            ],
            [
              -56.482642,
              -43.462177
            ],
            [
              -56.306932,
              -43.351008
            ],
            [
              -56.146634,
              -43.227514
            ],
            [
              -56.003292,
              -43.092883
            ],
            [
              -55.878286,
              -42.948412
            ],
            [
              -55.77282,
              -42.795493
            ],
            [
              -55.68791,
              -42.635599
            ],
            [
              -55.624373,
              -42.470268
            ],
            [
              -55.582821,
              -42.301095
            ],
            [
              -55.563655,
              -42.129707
            ],
            [
              -55.567059,
              -41.957755
            ],
            [
              -55.593,
              -41.786895
            ],
            [
              -55.641229,
              -41.618773
            ],
            [
              -55.711281,
              -41.455009
            ],
            [
              -55.802481,
              -41.297178
            ],
            [
              -55.913951,
              -41.1468
            ],
            [
              -56.044618,
              -41.005326
            ],
            [
              -56.193223,
              -40.874116
            ],
            [
              -56.358335,
              -40.754434
            ],
            [
              -56.538364,
              -40.647433
            ],
            [
              -56.731576,
              -40.554143
            ],
            [
              -56.93611,
              -40.475463
            ],
            [
              -57.149997,
              -40.412151
            ],
            [
              -57.371176,
              -40.364816
            ],
            [
              -57.597519,
              -40.333914
            ],
            [
              -57.826844,
              -40.319743
            ],
            [
              -58.056943,
              -40.322439
            ],
            [
              -58.285601,
              -40.341977
            ],
            [
              -58.510615,
              -40.378167
            ],
            [
              -58.729819,
              -40.430662
            ],
            [
              -58.9411,
              -40.498956
            ],
            [
              -59.142425,
              -40.582391
            ],
            [
              -59.331855,
              -40.680164
            ],
            [
              -59.507564,
              -40.791333
            ],
            [
              -59.667862,
              -40.914828
            ],
            [
              -59.811205,
              -41.049459
            ],
            [
              -59.936211,
              -41.19393
            ],
            [
              -60.041677,
              -41.346848
            ],
            [
              -60.126587,
              -41.506743
            ],
            [
              -60.190124,
              -41.672073
            ],
            [
              -60.231676,
              -41.841247
            ],
            [
              -60.250842,
              -42.012635
            ],
            [
              -60.247438,
              -42.184587
            ],
            [
              -60.221496,
              -42.355446
            ],
            [
              -60.173268,
              -42.523568
            ],
            [
              -60.103216,
              -42.687333
            ],
            [
              -60.012016,
              -42.845164
            ],
            [
              -59.900545,
              -42.995541
            ],
            [
              -59.769879,
              -43.137016
            ],
            [
              -59.621274,
              -43.268226
            ]
          ]
        ],
        "type": "Polygon"
      },
      "properties": {
        "kind": "reachableSet",
        "observationStatus": "estimated",
        "vessel": "B"
      },
      "type": "Feature"
    }
  ],
  "properties": {
    "dateline": false
  },
  "type": "FeatureCollection"
}
