{
  "features": [
    {
      "geometry": {
        "coordinates": [
          -57.853427,
          -42.090283
        ],
        "type": "Point"
      },
      "properties": {
        "mmsi": "412328785",
        "observationStatus": "observed",
        "role": "off",
        "time": "2018-12-21T19:47:41Z",
        "vessel": "A"
      },
      "type": "Feature"
    },
    {
      "geometry": {
        "coordinates": [
          -57.886703,
          -42.016452
        ],
        "type": "Point"
      },
      "properties": {
        "mmsi": "412200336",
        "observationStatus": "observed",
        "role": "off",
        "time": "2018-12-21T19:51:54Z",
        "vessel": "B"
      },
      "type": "Feature"
    },
    {
      "geometry": {
        "coordinates": [
          -57.988218,
          -42.118947
        ],
        "type": "Point"
      },
      "properties": {
        "mmsi": "412200336",
        "observationStatus": "observed",
        "role": "on",
        "time": "2018-12-22T08:52:25Z",
        "vessel": "B"
      },
      "type": "Feature"
    },
    {
      "geometry": {
        "coordinates": [
          -57.998773,
          -42.090107
        ],
        "type": "Point"
      },
      "properties": {
        "mmsi": "412328785",
        "observationStatus": "observed",
        "role": "on",
        "time": "2018-12-22T08:59:17Z",
        "vessel": "A"
      },
      "type": "Feature"
    },
    {
      "geometry": {
        "coordinates": [
          [
            -57.853427,
            -42.090283
          ],
          [
            -57.969088,
            -42.099448
          ],
          [
            -57.998773,
            -42.090107
          ]
        ],
        "type": "LineString"
      },
      "properties": {
        "confidence": "low",
        "lineStyle": "dashed",
        "observationStatus": "estimated",
        "source": "reachable-set heuristic",
        "vessel": "A"
      },
      "type": "Feature"
    },
    {
      "geometry": {
        "coordinates": [
          [
            -57.886703,
            -42.016452
          ],
          [
            -57.969088,
            -42.099448
          ],
          [
            -57.988218,
            -42.118947
          ]
        ],
        "type": "LineString"
      },
      "properties": {
        "confidence": "low",
        "lineStyle": "dashed",
        "observationStatus": "estimated",
        "source": "reachable-set heuristic",
        "vessel": "B"
      },
      "type": "Feature"
    },
    {
      "geometry": {
        "coordinates": [
          -57.969088,
          -42.099448
        ],
        "type": "Point"
      },
      "properties": {
        "kind": "meetingPoint",
        "observationStatus": "estimated"
      },
      "type": "Feature"
    },
    {
      "geometry": {
        "coordinates": [
          [
            [
              -59.566252,
              -42.088201
            ],
            [
              -59.558615,
              -42.208203
            ],
            [
              -59.535257,
              -42.327068
            ],
            [
              -59.496401,
              -42.443652
            ],
            [
              -59.442423,
              -42.556832
            ],
            [
              -59.373841,
              -42.665518
            ],
            [
              -59.291317,
              -42.768663
            ],
            [
              -59.195645,
              -42.865274
            ],
            [
              -59.087747,
              -42.954421
            ],
            [
              -58.968662,
              -43.035245
            ],
            [
              -58.839536,
              -43.106967
            ],
            [
              -58.701613,
              -43.168897
            ],
            [
              -58.556222,
              -43.220439
            ],
            [
              -58.404762,
              -43.261096
            ],
            [
              -58.248692,
              -43.290477
            ],
            [
              -58.089516,
              -43.308298
            ],
            [
              -57.928766,
              -43.314388
            ],
            [
              -57.76799,
              -43.308689
            ],
            [
              -57.608737,
              -43.291255
            ],
            [
              -57.45254,
              -43.262254
            ],
            [
              -57.300904,
              -43.221965
            ],
            [
              -57.155289,
              -43.170777
            ],
            [
              -57.017097,
              -43.109182
            ],
            [
              -56.887659,
              -43.037774
            ],
            [
              -56.768223,
              -42.95724
            ],
            [
              -56.659937,
              -42.868356
            ],
            [
              -56.563845,
              -42.771978
            ],
            [
              -56.480872,
              -42.669034
            ],
            [
              -56.411818,
              -42.560515
            ],
            [
              -56.357347,
              -42.447467
            ],
            [
              -56.317983,
              -42.330979
            ],
            [
              -56.294107,
              -42.212171
            ],
            [
              -56.285948,
              -42.092189
            ],
            [
              -56.293585,
              -41.972187
            ],
            [
              -56.316943,
              -41.853322
            ],
            [
              -56.355799,
              -41.736738
            ],
            [
              -56.409777,
              -41.623558
            ],
            [
              -56.478359,
              -41.514872
            ],
            [
              -56.560883,
              -41.411727
            ],
            [
              -56.656555,
              -41.315116
            ],
            [
              -56.764453,
              -41.225969
            ],
            [
              -56.883538,
              -41.145145
            ],
            [
              -57.012664,
              -41.073423
            ],
            [
              -57.150587,
              -41.011493
            ],
            [
              -57.295978,
              -40.959951
            ],
            [
              -57.447438,
              -40.919294
            ],
            [
              -57.603508,
              -40.889913
            ],
            [
              -57.762684,
              -40.872092
            ],
            [
              -57.923434,
              -40.866002
            ],
            [
              -58.08421,
              -40.871701
            ],
            [
              -58.243463,
              -40.889135
            ],
            [
              -58.39966,
              -40.918136
            ],
            [
              -58.551296,
              -40.958425
            ],
            [
              -58.696911,
              -41.009613
            ],
            [
              -58.835103,
              -41.071208
            ],
            [
              -58.964541,
              -41.142616
            ],
            [
              -59.083977,
              -41.22315
            ],
            [
              -59.192263,
              -41.312034
            ],
            [
              -59.288355,
              -41.408412
            ],
            [
              -59.371328,
              -41.511356
            ],
            [
              -59.440382,
              -41.619875
            ],
            [
              -59.494853,
              -41.732923
            ],
            [
              -59.534217,
              -41.849411
            ],
            [
              -59.558093,
              -41.968219
            ],
            [
              -59.566252,
              -42.088201
            ]
          ]
        ],
        "type": "Polygon"
      },
      "properties": {
        "kind": "reachableSet",
        "observationStatus": "estimated",
        "vessel": "A"
      },
      "type": "Feature"
    },
    {
      "geometry": {
        "coordinates": [
          [
            [
              -58.898178,
              -43.037691
            ],
            [
              -58.766519,
              -43.103301
            ],
            [
              -58.626875,
              -43.158937
            ],
            [
              -58.480593,
              -43.204065
            ],
            [
              -58.329079,
              -43.238249
            ],
            [
              -58.173794,
              -43.261159
            ],
            [
              -58.016234,
              -43.272576
            ],
            [
              -57.857914,
              -43.272389
            ],
            [
              -57.700361,
              -43.260601
            ],
            [
              -57.545091,
              -43.237324
            ],
            [
              -57.393599,
              -43.202783
            ],
            [
              -57.247346,
              -43.157311
            ],
            [
              -57.107738,
              -43.101345
            ],
            [
              -56.976121,
              -43.035424
            ],
            [
              -56.853763,
              -42.960184
            ],
            [
              -56.741841,
              -42.876349
            ],
            [
              -56.641434,
              -42.784726
            ],
            [
              -56.553508,
              -42.686197
            ],
            [
              -56.47891,
              -42.581712
            ],
            [
              -56.418359,
              -42.472277
            ],
            [
              -56.372437,
              -42.358946
            ],
            [
              -56.341588,
              -42.242809
            ],
            [
              -56.326108,
              -42.124987
            ],
            [
              -56.326146,
              -42.006612
            ],
            [
              -56.341702,
              -41.888826
            ],
            [
              -56.372626,
              -41.772762
            ],
            [
              -56.41862,
              -41.659539
            ],
            [
              -56.479241,
              -41.550247
            ],
            [
              -56.553906,
              -41.445938
            ],
            [
              -56.641895,
              -41.347617
            ],
            [
              -56.742361,
              -41.256231
            ],
            [
              -56.854337,
              -41.172659
            ],
            [
              -56.976744,
              -41.097708
            ],
            [
              -57.108403,
              -41.032098
            ],
            [
              -57.248046,
              -40.976461
            ],
            [
              -57.394329,
              -40.931333
            ],
            [
              -57.545842,
              -40.89715
            ],
            [
              -57.701127,
              -40.874239
            ],
            [
              -57.858688,
              -40.862822
            ],
            [
              -58.017008,
              -40.863009
            ],
            [
              -58.174561,
              -40.874797
            ],
            [
              -58.329831,
              -40.898074
            ],
            [
              -58.481322,
              -40.932615
            ],
            [
              -58.627576,
              -40.978087
            ],
            [
              -58.767184,
              -41.034053
            ],
            [
              -58.8988,
              -41.099974
            ],
            [
              -59.021159,
              -41.175214
            ],
            [
              -59.133081,
              -41.25905
            ],
            [
              -59.233488,
              -41.350673
            ],
            [
              -59.321414,
              -41.449201
            ],
            [
              -59.396012,
              -41.553686
            ],
            [
              -59.456563,
              -41.663121
            ],
            [
              -59.502484,
              -41.776453
            ],
            [
              -59.533334,
              -41.892589
            ],
            [
              -59.548814,
              -42.010412
            ],
            [
              -59.548776,
              -42.128786
            ],
            [
              -59.53322,
              -42.246572
            ],
            [
              -59.502296,
              -42.362636
            ],
            [
              -59.456302,
              -42.475859
            ],
            [
              -59.395681,
              -42.585151
            ],
            [
              -59.321016,
              -42.68946
            ],
            [
              -59.233026,
              -42.787781
            ],
            [
              -59.13256,
              -42.879168
            ],
            [
              -59.020584,
              -42.962739
            ],
            [
              -58.898178,
              -43.037691
            ]
          ]
        ],
        "type": "Polygon"
      },
      "properties": {
        "kind": "reachableSet",
        "observationStatus": "estimated",
        "vessel": "B"
      },
      "type": "Feature"
    }
  ],
  "properties": {
    "dateline": false
  },
  "type": "FeatureCollection"
}
