{
  "features": [
    {
      "geometry": {
        "coordinates": [
          -60.69856,
          -46.70473
        ],
        "type": "Point"
      },
      "properties": {
        "mmsi": "412329686",
        "observationStatus": "observed",
        "role": "off",
        "time": "2017-03-12T06:59:37Z",
        "vessel": "A"
      },
      "type": "Feature"
    },
    {
      "geometry": {
        "coordinates": [
          -60.712707,
          -46.640615
        ],
        "type": "Point"
      },
      "properties": {
        "mmsi": "412329685",
        "observationStatus": "observed",
        "role": "off",
        "time": "2017-03-12T07:30:27Z",
        "vessel": "B"
      },
      "type": "Feature"
    },
    {
      "geometry": {
        "coordinates": [
          -60.755692,
          -46.774457
        ],
        "type": "Point"
      },
      "properties": {
        "mmsi": "412329685",
        "observationStatus": "observed",
        "role": "on",
        "time": "2017-03-12T23:12:27Z",
        "vessel": "B"
      },
      "type": "Feature"
    },
    {
      "geometry": {
        "coordinates": [
          -60.694282,
          -46.84207
        ],
        "type": "Point"
      },
      "properties": {
        "mmsi": "412329686",
        "observationStatus": "observed",
        "role": "on",
        "time": "2017-03-12T23:41:58Z",
        "vessel": "A"
      },
      "type": "Feature"
    },
    {
      "geometry": {
        "coordinates": [
          [
            -60.69856,
            -46.70473
          ],
          [
            -60.732453,
            -46.700693
          ],
          [
            -60.694282,
            -46.84207
          ]
        ],
        "type": "LineString"
      },
      "properties": {
        "confidence": "low",
        "lineStyle": "dashed",
        "observationStatus": "estimated",
        "source": "reachable-set heuristic",
        "vessel": "A"
      },
      "type": "Feature"
    },
    {
      "geometry": {
        "coordinates": [
          [
            -60.712707,
            -46.640615
          ],
          [
            -60.732453,
            -46.700693
          ],
          [
            -60.755692,
            -46.774457
          ]
        ],
        "type": "LineString"
      },
      "properties": {
        "confidence": "low",
        "lineStyle": "dashed",
        "observationStatus": "estimated",
        "source": "reachable-set heuristic",
        "vessel": "B"
      },
      "type": "Feature"
    },
    {
      "geometry": {
        "coordinates": [
          -60.732453,
          -46.700693
        ],
        "type": "Point"
      },
      "properties": {
        "kind": "meetingPoint",
        "observationStatus": "estimated"
      },
      "type": "Feature"
    },
    {
      "geometry": {
        "coordinates": [
          [
            [
              -60.643166,
              -48.482934
            ],
            [
              -60.400608,
              -48.471106
            ],
            [
              -60.160898,
              -48.442928
            ],
            [
              -59.926346,
              -48.398672
            ],
            [
              -59.69921,
              -48.338763
            ],
            [
              -59.481678,
              -48.263779
            ],
            [
              -59.275844,
              -48.174442
            ],
            [
              -59.083691,
              -48.071612
            ],
            [
              -58.90707,
              -47.956279
            ],
            [
              -58.747681,
              -47.829555
            ],
            [
              -58.607059,
              -47.692659
            ],
            [
              -58.48656,
              -47.54691
            ],
            [
              -58.387342,
              -47.393713
            ],
            [
              -58.310362,
              -47.234541
            ],
            [
              -58.256361,
              -47.070928
            ],
            [
              -58.22586,
              -46.904449
            ],
            [
              -58.219151,
              -46.736709
            ],
            [
              -58.236299,
              -46.569322
            ],
            [
              -58.27714,
              -46.4039
            ],
            [
              -58.34128,
              -46.242037
            ],
            [
              -58.428101,
              -46.085292
            ],
            [
              -58.536768,
              -45.935173
            ],
            [
              -58.666233,
              -45.793126
            ],
            [
              -58.815249,
              -45.66052
            ],
            [
              -58.982383,
              -45.538632
            ],
            [
              -59.166024,
              -45.428636
            ],
            [
              -59.364403,
              -45.33159
            ],
            [
              -59.57561,
              -45.248429
            ],
            [
              -59.797611,
              -45.179955
            ],
            [
              -60.028269,
              -45.126827
            ],
            [
              -60.265361,
              -45.089556
            ],
            [
              -60.506604,
              -45.068501
            ],
            [
              -60.749675,
              -45.063866
            ],
            [
              -60.992234,
              -45.075694
            ],
            [
              -61.231943,
              -45.103872
            ],
            [
              -61.466496,
              -45.148128
            ],
            [
              -61.693632,
              -45.208037
            ],
            [
              -61.911164,
              -45.283021
            ],
            [
              -62.116998,
              -45.372358
            ],
            [
              -62.309151,
              -45.475188
            ],
            [
              -62.485772,
              -45.590521
            ],
            [
              -62.645161,
              -45.717245
            ],
            [
              -62.785782,
              -45.854141
            ],
            [
              -62.906282,
              -45.99989
            ],
            [
              -63.0055,
              -46.153087
            ],
            [
              -63.082479,
              -46.312259
            ],
            [
              -63.13648,
              -46.475872
            ],
            [
              -63.166982,
              -46.642351
            ],
            [
              -63.173691,
              -46.810091
            ],
            [
              -63.156542,
              -46.977478
            ],
            [
              -63.115701,
              -47.1429
            ],
            [
              -63.051562,
              -47.304763
            ],
            [
              -62.96474,
              -47.461508
            ],
            [
              -62.856074,
              -47.611627
            ],
            [
              -62.726609,
              -47.753674
            ],
            [
              -62.577592,
              -47.88628
            ],
            [
              -62.410459,
              -48.008168
            ],
            [
              -62.226818,
              -48.118164
            ],
            [
              -62.028439,
              -48.21521
            ],
            [
              -61.817232,
              -48.298371
            ],
            [
              -61.59523,
              -48.366845
            ],
            [
              -61.364573,
              -48.419973
            ],
            [
              -61.127481,
              -48.457244
            ],
            [
              -60.886238,
              -48.478299
            ],
            [
              -60.643166,
              -48.482934
            ]
          ]
        ],
        "type": "Polygon"
      },
      "properties": {
        "kind": "reachableSet",
        "observationStatus": "estimated",
        "vessel": "A"
      },
      "type": "Feature"
    },
    {
      "geometry": {
        "coordinates": [
          [
            [
              -61.236009,
              -48.270012
            ],
            [
              -61.01196,
              -48.296413
            ],
            [
              -60.785237,
              -48.307513
            ],
            [
              -60.558022,
              -48.303205
            ],
            [
              -60.332504,
              -48.283529
            ],
            [
              -60.110855,
              -48.248676
            ],
            [
              -59.895208,
              -48.19898
            ],
            [
              -59.687642,
              -48.134921
            ],
            [
              -59.490154,
              -48.057116
            ],
            [
              -59.304648,
              -47.966313
            ],
            [
              -59.132908,
              -47.863388
            ],
            [
              -58.97659,
              -47.749331
            ],
            [
              -58.837199,
              -47.625241
            ],
            [
              -58.716077,
              -47.492313
            ],
            [
              -58.61439,
              -47.351827
            ],
            [
              -58.533119,
              -47.205137
            ],
            [
              -58.473045,
              -47.053654
            ],
            [
              -58.434747,
              -46.898838
            ],
            [
              -58.418594,
              -46.74218
            ],
            [
              -58.424742,
              -46.585188
            ],
            [
              -58.453131,
              -46.429374
            ],
            [
              -58.503488,
              -46.276239
            ],
            [
              -58.575327,
              -46.127258
            ],
            [
              -58.667958,
              -45.983865
            ],
            [
              -58.780489,
              -45.847441
            ],
            [
              -58.911834,
              -45.719301
            ],
            [
              -59.06073,
              -45.600678
            ],
            [
              -59.225742,
              -45.492714
            ],
            [
              -59.405281,
              -45.39645
            ],
            [
              -59.597619,
              -45.312813
            ],
            [
              -59.800902,
              -45.242607
            ],
            [
              -60.013174,
              -45.186509
            ],
            [
              -60.23239,
              -45.14506
            ],
            [
              -60.456438,
              -45.118658
            ],
            [
              -60.683161,
              -45.107558
            ],
            [
              -60.910376,
              -45.111867
            ],
            [
              -61.135894,
              -45.131543
            ],
            [
              -61.357544,
              -45.166396
            ],
            [
              -61.57319,
              -45.216092
            ],
            [
              -61.780756,
              -45.280151
            ],
            [
              -61.978244,
              -45.357956
            ],
            [
              -62.163751,
              -45.448759
            ],
            [
              -62.33549,
              -45.551684
            ],
            [
              -62.491808,
              -45.665741
            ],
            [
              -62.631199,
              -45.789831
            ],
            [
              -62.752322,
              -45.922758
            ],
            [
              -62.854008,
              -46.063244
            ],
            [
              -62.93528,
              -46.209935
            ],
            [
              -62.995354,
              -46.361418
            ],
            [
              -63.033652,
              -46.516234
            ],
            [
              -63.049804,
              -46.672892
            ],
            [
              -63.043657,
              -46.829884
            ],
            [
              -63.015268,
              -46.985698
            ],
            [
              -62.964911,
              -47.138833
            ],
            [
              -62.893071,
              -47.287814
            ],
            [
              -62.80044,
              -47.431207
            ],
            [
              -62.68791,
              -47.56763
            ],
            [
              -62.556564,
              -47.695771
            ],
            [
              -62.407669,
              -47.814394
            ],
            [
              -62.242657,
              -47.922357
            ],
            [
              -62.063117,
              -48.018622
            ],
            [
              -61.870779,
              -48.102259
            ],
            [
              -61.667496,
              -48.172465
            ],
            [
              -61.455224,
              -48.228562
            ],
            [
              -61.236009,
              -48.270012
            ]
          ]
        ],
        "type": "Polygon"
      },
      "properties": {
        "kind": "reachableSet",
        "observationStatus": "estimated",
        "vessel": "B"
      },
      "type": "Feature"
    }
  ],
  "properties": {
    "dateline": false
  },
  "type": "FeatureCollection"
}
