{
  "features": [
    {
      "geometry": {
        "coordinates": [
          -57.77627,
          -42.04979
        ],
        "type": "Point"
      },
      "properties": {
        "mmsi": "412329686",
        "observationStatus": "observed",
        "role": "off",
        "time": "2019-05-26T04:09:30Z",
        "vessel": "A"
      },
      "type": "Feature"
    },
    {
      "geometry": {
        "coordinates": [
          -57.75148,
          -42.042943
        ],
        "type": "Point"
      },
      "properties": {
        "mmsi": "412329684",
        "observationStatus": "observed",
        "role": "off",
        "time": "2019-05-26T05:04:58Z",
        "vessel": "B"
      },
      "type": "Feature"
    },
    {
      "geometry": {
        "coordinates": [
          -57.885362,
          -42.10954
        ],
        "type": "Point"
      },
      "properties": {
        "mmsi": "412329686",
        "observationStatus": "observed",
        "role": "on",
        "time": "2019-05-26T23:20:47Z",
        "vessel": "A"
      },
      "type": "Feature"
    },
    {
      "geometry": {
        "coordinates": [
          -57.924508,
          -42.115332
        ],
        "type": "Point"
      },
      "properties": {
        "mmsi": "412329684",
        "observationStatus": "observed",
        "role": "on",
        "time": "2019-05-26T23:20:57Z",
        "vessel": "B"
      },
      "type": "Feature"
    },
    {
      "geometry": {
        "coordinates": [
          [
            -57.77627,
            -42.04979
          ],
          [
            -57.837994,
            -42.079138
          ],
          [
            -57.885362,
            -42.10954
          ]
        ],
        "type": "LineString"
      },
      "properties": {
        "confidence": "low",
        "lineStyle": "dashed",
        "observationStatus": "estimated",
        "source": "reachable-set heuristic",
        "vessel": "A"
      },
      "type": "Feature"
    },
    {
      "geometry": {
        "coordinates": [
          [
            -57.75148,
            -42.042943
          ],
          [
            -57.837994,
            -42.079138
          ],
          [
            -57.924508,
            -42.115332
          ]
        ],
        "type": "LineString"
      },
      "properties": {
        "confidence": "low",
        "lineStyle": "dashed",
        "observationStatus": "estimated",
        "source": "reachable-set heuristic",
        "vessel": "B"
      },
      "type": "Feature"
    },
    {
      "geometry": {
        "coordinates": [
          -57.837994,
          -42.079138
        ],
        "type": "Point"
      },
      "properties": {
        "kind": "meetingPoint",
        "observationStatus": "estimated"
      },
      "type": "Feature"
    },
    {
      "geometry": {
        "coordinates": [
          [
            [
              -59.968131,
              -43.250282
            ],
            [
              -59.804338,
              -43.401138
            ],
            [
              -59.62154,
              -43.539267
            ],
            [
              -59.421495,
              -43.66334
            ],
            [
              -59.206132,
              -43.772161
            ],
            [
              -58.977524,
              -43.864682
            ],
            [
              -58.737872,
              -43.940012
            ],
            [
              -58.489484,
              -43.997427
            ],
            [
              -58.234754,
              -44.036372
            ],
            [
              -57.976133,
              -44.056473
            ],
            [
              -57.716113,
              -44.057537
            ],
            [
              -57.457197,
              -44.039552
            ],
            [
              -57.20188,
              -44.002693
            ],
            [
              -56.952619,
              -43.947313
            ],
            [
              -56.711816,
              -43.873948
            ],
            [
              -56.48179,
              -43.783302
            ],
            [
              -56.264755,
              -43.67625
            ],
            [
              -56.062803,
              -43.553821
            ],
            [
              -55.877877,
              -43.417196
            ],
            [
              -55.71176,
              -43.267689
            ],
            [
              -55.56605,
              -43.106741
            ],
            [
              -55.442151,
              -42.935902
            ],
            [
              -55.341256,
              -42.756817
            ],
            [
              -55.264336,
              -42.57121
            ],
            [
              -55.212134,
              -42.380869
            ],
            [
              -55.185151,
              -42.187628
            ],
            [
              -55.183647,
              -41.993347
            ],
            [
              -55.207637,
              -41.799898
            ],
            [
              -55.256889,
              -41.609142
            ],
            [
              -55.33093,
              -41.422918
            ],
            [
              -55.429046,
              -41.243019
            ],
            [
              -55.550292,
              -41.071177
            ],
            [
              -55.693501,
              -40.909048
            ],
            [
              -55.857293,
              -40.758192
            ],
            [
              -56.040092,
              -40.620063
            ],
            [
              -56.240136,
              -40.49599
            ],
            [
              -56.4555,
              -40.387169
            ],
            [
              -56.684108,
              -40.294648
            ],
            [
              -56.92376,
              -40.219318
            ],
            [
              -57.172147,
              -40.161903
            ],
            [
              -57.426878,
              -40.122958
            ],
            [
              -57.685499,
              -40.102857
            ],
            [
              -57.945519,
              -40.101793
            ],
            [
              -58.204435,
              -40.119778
            ],
            [
              -58.459752,
              -40.156637
            ],
            [
              -58.709012,
              -40.212017
            ],
            [
              -58.949815,
              -40.285382
            ],
            [
              -59.179842,
              -40.376028
            ],
            [
              -59.396876,
              -40.48308
            ],
            [
              -59.598829,
              -40.605509
            ],
            [
              -59.783754,
              -40.742134
            ],
            [
              -59.949872,
              -40.891641
            ],
            [
              -60.095582,
              -41.052589
            ],
            [
              -60.219481,
              -41.223428
            ],
            [
              -60.320376,
              -41.402513
            ],
            [
              -60.397295,
              -41.58812
            ],
            [
              -60.449498,
              -41.778461
            ],
            [
              -60.476481,
              -41.971702
            ],
            [
              -60.477985,
              -42.165983
            ],
            [
              -60.453995,
              -42.359432
            ],
            [
              -60.404743,
              -42.550188
            ],
            [
              -60.330702,
              -42.736412
            ],
            [
              -60.232586,
              -42.916311
            ],
            [
              -60.11134,
              -43.088153
            ],
            [
              -59.968131,
              -43.250282
            ]
          ]
        ],
        "type": "Polygon"
      },
      "properties": {
        "kind": "reachableSet",
        "observationStatus": "estimated",
        "vessel": "A"
      },
      "type": "Feature"
    },
    {
      "geometry": {
        "coordinates": [
          [
            [
              -60.03304,
              -42.997459
            ],
            [
              -59.902108,
              -43.153686
            ],
            [
              -59.751297,
              -43.299564
            ],
            [
              -59.58206,
              -43.433688
            ],
            [
              -59.396027,
              -43.554768
            ],
            [
              -59.194989,
              -43.661636
            ],
            [
              -58.980883,
              -43.753265
            ],
            [
              -58.75577,
              -43.82877
            ],
            [
              -58.521818,
              -43.887425
            ],
            [
              -58.28128,
              -43.928666
            ],
            [
              -58.036474,
              -43.952095
            ],
            [
              -57.789756,
              -43.957486
            ],
            [
              -57.543503,
              -43.944787
            ],
            [
              -57.300085,
              -43.914121
            ],
            [
              -57.061848,
              -43.865784
            ],
            [
              -56.831086,
              -43.80024
            ],
            [
              -56.610021,
              -43.718121
            ],
            [
              -56.400782,
              -43.620217
            ],
            [
              -56.205384,
              -43.507472
            ],
            [
              -56.025709,
              -43.380972
            ],
            [
              -55.863487,
              -43.241934
            ],
            [
              -55.720281,
              -43.091698
            ],
            [
              -55.59747,
              -42.93171
            ],
            [
              -55.496236,
              -42.763511
            ],
            [
              -55.417554,
              -42.588722
            ],
            [
              -55.362183,
              -42.409025
            ],
            [
              -55.330655,
              -42.226151
            ],
            [
              -55.323274,
              -42.041861
            ],
            [
              -55.340111,
              -41.85793
            ],
            [
              -55.381004,
              -41.67613
            ],
            [
              -55.44556,
              -41.498211
            ],
            [
              -55.533156,
              -41.325886
            ],
            [
              -55.642948,
              -41.160816
            ],
            [
              -55.773881,
              -41.004589
            ],
            [
              -55.924691,
              -40.858711
            ],
            [
              -56.093928,
              -40.724587
            ],
            [
              -56.279961,
              -40.603507
            ],
            [
              -56.480999,
              -40.496639
            ],
            [
              -56.695106,
              -40.40501
            ],
            [
              -56.920219,
              -40.329505
            ],
            [
              -57.154171,
              -40.27085
            ],
            [
              -57.394708,
              -40.229609
            ],
            [
              -57.639514,
              -40.20618
            ],
            [
              -57.886232,
              -40.200789
            ],
            [
              -58.132486,
              -40.213488
            ],
            [
              -58.375903,
              -40.244154
            ],
            [
              -58.61414,
              -40.292491
            ],
            [
              -58.844902,
              -40.358035
            ],
            [
              -59.065967,
              -40.440154
            ],
            [
              -59.275206,
              -40.538058
            ],
            [
              -59.470604,
              -40.650803
            ],
            [
              -59.650279,
              -40.777303
            ],
            [
              -59.812501,
              -40.916341
            ],
            [
              -59.955707,
              -41.066577
            ],
            [
              -60.078519,
              -41.226565
            ],
            [
              -60.179753,
              -41.394764
            ],
            [
              -60.258434,
              -41.569553
            ],
            [
              -60.313805,
              -41.74925
            ],
            [
              -60.345333,
              -41.932124
            ],
            [
              -60.352714,
              -42.116414
            ],
            [
              -60.335877,
              -42.300345
            ],
            [
              -60.294984,
              -42.482145
            ],
            [
              -60.230428,
              -42.660064
            ],
            [
              -60.142833,
              -42.832389
            ],
            [
              -60.03304,
              -42.997459
            ]
          ]
        ],
        "type": "Polygon"
      },
      "properties": {
        "kind": "reachableSet",
        "observationStatus": "estimated",
        "vessel": "B"
      },
      "type": "Feature"
    }
  ],
  "properties": {
    "dateline": false
  },
  "type": "FeatureCollection"
}
