{
  "features": [
    {
      "geometry": {
        "coordinates": [
          -60.316038,
          -45.249473
        ],
        "type": "Point"
      },
      "properties": {
        "mmsi": "412329686",
        "observationStatus": "observed",
        "role": "off",
        "time": "2017-12-26T07:06:50Z",
        "vessel": "A"
      },
      "type": "Feature"
    },
    {
      "geometry": {
        "coordinates": [
          -60.3384,
          -45.228267
        ],
        "type": "Point"
      },
      "properties": {
        "mmsi": "412329692",
        "observationStatus": "observed",
        "role": "off",
        "time": "2017-12-26T07:13:39Z",
        "vessel": "B"
      },
      "type": "Feature"
    },
    {
      "geometry": {
        "coordinates": [
          -60.36426,
          -45.245303
        ],
        "type": "Point"
      },
      "properties": {
        "mmsi": "412329686",
        "observationStatus": "observed",
        "role": "on",
        "time": "2017-12-26T23:29:48Z",
        "vessel": "A"
      },
      "type": "Feature"
    },
    {
      "geometry": {
        "coordinates": [
          -60.38842,
          -45.250915
        ],
        "type": "Point"
      },
      "properties": {
        "mmsi": "412329692",
        "observationStatus": "observed",
        "role": "on",
        "time": "2017-12-26T23:31:50Z",
        "vessel": "B"
      },
      "type": "Feature"
    },
    {
      "geometry": {
        "coordinates": [
          [
            -60.316038,
            -45.249473
          ],
          [
            -60.345914,
            -45.231222
          ],
          [
            -60.36426,
            -45.245303
          ]
        ],
        "type": "LineString"
      },
      "properties": {
        "confidence": "low",
        "lineStyle": "dashed",
        "observationStatus": "estimated",
        "source": "reachable-set heuristic",
        "vessel": "A"
      },
      "type": "Feature"
    },
    {
      "geometry": {
        "coordinates": [
          [
            -60.3384,
            -45.228267
          ],
          [
            -60.345914,
            -45.231222
          ],
          [
            -60.38842,
            -45.250915
          ]
        ],
        "type": "LineString"
      },
      "properties": {
        "confidence": "low",
        "lineStyle": "dashed",
        "observationStatus": "estimated",
        "source": "reachable-set heuristic",
        "vessel": "B"
      },
      "type": "Feature"
    },
    {
      "geometry": {
        "coordinates": [
          -60.345914,
          -45.231222
        ],
        "type": "Point"
      },
      "properties": {
        "kind": "meetingPoint",
        "observationStatus": "estimated"
      },
      "type": "Feature"
    },
    {
      "geometry": {
        "coordinates": [
          [
            [
              -62.68549,
              -45.044573
            ],
            [
              -62.702241,
              -45.208488
            ],
            [
              -62.696243,
              -45.372778
            ],
            [
              -62.667555,
              -45.535859
            ],
            [
              -62.616453,
              -45.696163
            ],
            [
              -62.543429,
              -45.852145
            ],
            [
              -62.449186,
              -46.002302
            ],
            [
              -62.334631,
              -46.14519
            ],
            [
              -62.200869,
              -46.279431
            ],
            [
              -62.049187,
              -46.403733
            ],
            [
              -61.881046,
              -46.516898
            ],
            [
              -61.698066,
              -46.617838
            ],
            [
              -61.502007,
              -46.705579
            ],
            [
              -61.29476,
              -46.779278
            ],
            [
              -61.078319,
              -46.838223
            ],
            [
              -60.854769,
              -46.881848
            ],
            [
              -60.626263,
              -46.909732
            ],
            [
              -60.395002,
              -46.921606
            ],
            [
              -60.163212,
              -46.917357
            ],
            [
              -59.933127,
              -46.897026
            ],
            [
              -59.706961,
              -46.860807
            ],
            [
              -59.486893,
              -46.80905
            ],
            [
              -59.275043,
              -46.742254
            ],
            [
              -59.07345,
              -46.661061
            ],
            [
              -58.884056,
              -46.566254
            ],
            [
              -58.708685,
              -46.458746
            ],
            [
              -58.549026,
              -46.339571
            ],
            [
              -58.406616,
              -46.209878
            ],
            [
              -58.282828,
              -46.070916
            ],
            [
              -58.178852,
              -45.924023
            ],
            [
              -58.095691,
              -45.770613
            ],
            [
              -58.034145,
              -45.612165
            ],
            [
              -57.994808,
              -45.450203
            ],
            [
              -57.978057,
              -45.286289
            ],
            [
              -57.984055,
              -45.121999
            ],
            [
              -58.012743,
              -44.958917
            ],
            [
              -58.063845,
              -44.798614
            ],
            [
              -58.13687,
              -44.642632
            ],
            [
              -58.231113,
              -44.492474
            ],
            [
              -58.345667,
              -44.349587
            ],
            [
              -58.479429,
              -44.215346
            ],
            [
              -58.631111,
              -44.091044
            ],
            [
              -58.799252,
              -43.977878
            ],
            [
              -58.982233,
              -43.876939
            ],
            [
              -59.178291,
              -43.789197
            ],
            [
              -59.385538,
              -43.715499
            ],
            [
              -59.601979,
              -43.656554
            ],
            [
              -59.825529,
              -43.612929
            ],
            [
              -60.054035,
              -43.585045
            ],
            [
              -60.285296,
              -43.57317
            ],
            [
              -60.517086,
              -43.577419
            ],
            [
              -60.747172,
              -43.597751
            ],
            [
              -60.973337,
              -43.63397
            ],
            [
              -61.193405,
              -43.685726
            ],
            [
              -61.405256,
              -43.752523
            ],
            [
              -61.606849,
              -43.833715
            ],
            [
              -61.796243,
              -43.928522
            ],
            [
              -61.971614,
              -44.036031
            ],
            [
              -62.131273,
              -44.155205
            ],
            [
              -62.273682,
              -44.284898
            ],
            [
              -62.397471,
              -44.423861
            ],
            [
              -62.501446,
              -44.570754
            ],
            [
              -62.584607,
              -44.724163
            ],
            [
              -62.646153,
              -44.882612
            ],
            [
              -62.68549,
              -45.044573
            ]
          ]
        ],
        "type": "Polygon"
      },
      "properties": {
        "kind": "reachableSet",
        "observationStatus": "estimated",
        "vessel": "A"
      },
      "type": "Feature"
    },
    {
      "geometry": {
        "coordinates": [
          [
            [
              -62.344055,
              -46.136398
            ],
            [
              -62.210533,
              -46.269697
            ],
            [
              -62.059222,
              -46.393075
            ],
            [
              -61.891579,
              -46.505344
            ],
            [
              -61.709219,
              -46.605423
            ],
            [
              -61.513898,
              -46.692349
            ],
            [
              -61.307497,
              -46.765284
            ],
            [
              -61.092005,
              -46.823525
            ],
            [
              -60.869495,
              -46.866512
            ],
            [
              -60.642112,
              -46.893832
            ],
            [
              -60.412044,
              -46.90522
            ],
            [
              -60.181509,
              -46.900567
            ],
            [
              -59.952725,
              -46.879918
            ],
            [
              -59.727896,
              -46.843471
            ],
            [
              -59.509187,
              -46.791579
            ],
            [
              -59.298705,
              -46.72474
            ],
            [
              -59.098477,
              -46.643598
            ],
            [
              -58.910431,
              -46.548935
            ],
            [
              -58.736378,
              -46.441662
            ],
            [
              -58.577994,
              -46.322812
            ],
            [
              -58.436804,
              -46.193531
            ],
            [
              -58.314169,
              -46.055062
            ],
            [
              -58.211269,
              -45.90874
            ],
            [
              -58.129096,
              -45.755974
            ],
            [
              -58.06844,
              -45.598235
            ],
            [
              -58.029886,
              -45.437042
            ],
            [
              -58.013805,
              -45.273947
            ],
            [
              -58.020352,
              -45.110522
            ],
            [
              -58.049464,
              -44.948339
            ],
            [
              -58.10086,
              -44.788961
            ],
            [
              -58.174046,
              -44.633923
            ],
            [
              -58.268317,
              -44.484718
            ],
            [
              -58.382765,
              -44.342783
            ],
            [
              -58.516287,
              -44.209485
            ],
            [
              -58.667598,
              -44.086107
            ],
            [
              -58.835241,
              -43.973838
            ],
            [
              -59.017601,
              -43.873758
            ],
            [
              -59.212922,
              -43.786833
            ],
            [
              -59.419323,
              -43.713898
            ],
            [
              -59.634815,
              -43.655657
            ],
            [
              -59.857325,
              -43.612669
            ],
            [
              -60.084708,
              -43.58535
            ],
            [
              -60.314776,
              -43.573962
            ],
            [
              -60.545311,
              -43.578615
            ],
            [
              -60.774095,
              -43.599264
            ],
            [
              -60.998924,
              -43.63571
            ],
            [
              -61.217633,
              -43.687603
            ],
            [
              -61.428115,
              -43.754442
            ],
            [
              -61.628343,
              -43.835584
            ],
            [
              -61.816389,
              -43.930247
            ],
            [
              -61.990442,
              -44.03752
            ],
            [
              -62.148826,
              -44.156369
            ],
            [
              -62.290016,
              -44.285651
            ],
            [
              -62.412651,
              -44.424119
            ],
            [
              -62.515551,
              -44.570441
            ],
            [
              -62.597724,
              -44.723207
            ],
            [
              -62.65838,
              -44.880947
            ],
            [
              -62.696934,
              -45.04214
            ],
            [
              -62.713015,
              -45.205235
            ],
            [
              -62.706468,
              -45.36866
            ],
            [
              -62.677356,
              -45.530843
            ],
            [
              -62.62596,
              -45.69022
            ],
            [
              -62.552774,
              -45.845258
            ],
            [
              -62.458503,
              -45.994463
            ],
            [
              -62.344055,
              -46.136398
            ]
          ]
        ],
        "type": "Polygon"
      },
      "properties": {
        "kind": "reachableSet",
        "observationStatus": "estimated",
        "vessel": "B"
      },
      "type": "Feature"
    }
  ],
  "properties": {
    "dateline": false
  },
  "type": "FeatureCollection"
}
