{
  "features": [
    {
      "geometry": {
        "coordinates": [
          160.162,
          42.390617
        ],
        "type": "Point"
      },
      "properties": {
        "mmsi": "416004853",
        "observationStatus": "observed",
        "role": "off",
        "time": "2018-08-17T03:13:53Z",
        "vessel": "A"
      },
      "type": "Feature"
    },
    {
      "geometry": {
        "coordinates": [
          160.224347,
          42.37832
        ],
        "type": "Point"
      },
      "properties": {
        "mmsi": "416528000",
        "observationStatus": "observed",
        "role": "off",
        "time": "2018-08-17T03:39:39Z",
        "vessel": "B"
      },
      "type": "Feature"
    },
    {
      "geometry": {
        "coordinates": [
          160.995267,
          41.954848
        ],
        "type": "Point"
      },
      "properties": {
        "mmsi": "416528000",
        "observationStatus": "observed",
        "role": "on",
        "time": "2018-08-17T18:04:08Z",
        "vessel": "B"
      },
      "type": "Feature"
    },
    {
      "geometry": {
        "coordinates": [
          160.963547,
          41.924317
        ],
        "type": "Point"
      },
      "properties": {
        "mmsi": "416004853",
        "observationStatus": "observed",
        "role": "on",
        "time": "2018-08-17T18:04:25Z",
        "vessel": "A"
      },
      "type": "Feature"
    },
    {
      "geometry": {
        "coordinates": [
          [
            160.162,
            42.390617
          ],
          [
            160.330825,
            42.320179
          ],
          [
            160.963547,
            41.924317
          ]
        ],
        "type": "LineString"
      },
      "properties": {
        "confidence": "low",
        "lineStyle": "dashed",
        "observationStatus": "estimated",
        "source": "reachable-set heuristic",
        "vessel": "A"
      },
      "type": "Feature"
    },
    {
      "geometry": {
        "coordinates": [
          [
            160.224347,
            42.37832
          ],
          [
            160.330825,
            42.320179
          ],
          [
            160.995267,
            41.954848
          ]
        ],
        "type": "LineString"
      },
      "properties": {
        "confidence": "low",
        "lineStyle": "dashed",
        "observationStatus": "estimated",
        "source": "reachable-set heuristic",
        "vessel": "B"
      },
      "type": "Feature"
    },
    {
      "geometry": {
        "coordinates": [
          160.330825,
          42.320179
        ],
        "type": "Point"
      },
      "properties": {
        "kind": "meetingPoint",
        "observationStatus": "estimated"
      },
      "type": "Feature"
    },
    {
      "geometry": {
        "coordinates": [
          [
            [
              162.032855,
              41.302246
            ],
            [
              162.13384,
              41.409832
            ],
            [
              162.219694,
              41.524618
            ],
            [
              162.289591,
              41.645499
            ],
            [
              162.342859,
              41.77131
            ],
            [
              162.378982,
              41.90084
            ],
            [
              162.397615,
              42.032842
            ],
            [
              162.398577,
              42.166044
            ],
            [
              162.38186,
              42.299163
            ],
            [
              162.347624,
              42.430918
            ],
            [
              162.296198,
              42.560039
            ],
            [
              162.228079,
              42.685283
            ],
            [
              162.143922,
              42.805444
            ],
            [
              162.044537,
              42.919365
            ],
            [
              161.930883,
              43.025948
            ],
            [
              161.804053,
              43.124167
            ],
            [
              161.665268,
              43.213076
            ],
            [
              161.515866,
              43.291819
            ],
            [
              161.357285,
              43.359638
            ],
            [
              161.191053,
              43.415879
            ],
            [
              161.01877,
              43.460002
            ],
            [
              160.842095,
              43.491579
            ],
            [
              160.662731,
              43.510309
            ],
            [
              160.482403,
              43.51601
            ],
            [
              160.30285,
              43.508628
            ],
            [
              160.1258,
              43.488233
            ],
            [
              159.952958,
              43.455022
            ],
            [
              159.785989,
              43.409315
            ],
            [
              159.626501,
              43.351552
            ],
            [
              159.47603,
              43.282289
            ],
            [
              159.336025,
              43.202194
            ],
            [
              159.207834,
              43.112037
            ],
            [
              159.092691,
              43.012687
            ],
            [
              158.991707,
              42.905101
            ],
            [
              158.905852,
              42.790315
            ],
            [
              158.835955,
              42.669434
            ],
            [
              158.782688,
              42.543623
            ],
            [
              158.746564,
              42.414093
            ],
            [
              158.727931,
              42.282091
            ],
            [
              158.726969,
              42.14889
            ],
            [
              158.743687,
              42.01577
            ],
            [
              158.777923,
              41.884016
            ],
            [
              158.829349,
              41.754895
            ],
            [
              158.897468,
              41.62965
            ],
            [
              158.981625,
              41.509489
            ],
            [
              159.081009,
              41.395569
            ],
            [
              159.194664,
              41.288986
            ],
            [
              159.321494,
              41.190766
            ],
            [
              159.460278,
              41.101857
            ],
            [
              159.60968,
              41.023114
            ],
            [
              159.768261,
              40.955295
            ],
            [
              159.934494,
              40.899054
            ],
            [
              160.106777,
              40.854932
            ],
            [
              160.283452,
              40.823354
            ],
            [
              160.462816,
              40.804624
            ],
            [
              160.643143,
              40.798923
            ],
            [
              160.822697,
              40.806306
            ],
            [
              160.999747,
              40.826701
            ],
            [
              161.172589,
              40.859911
            ],
            [
              161.339557,
              40.905619
            ],
            [
              161.499045,
              40.963382
            ],
            [
              161.649517,
              41.032644
            ],
            [
              161.789522,
              41.11274
            ],
            [
              161.917713,
              41.202896
            ],
            [
              162.032855,
              41.302246
            ]
          ]
        ],
        "type": "Polygon"
      },
      "properties": {
        "kind": "reachableSet",
        "observationStatus": "estimated",
        "vessel": "A"
      },
      "type": "Feature"
    },
    {
      "geometry": {
        "coordinates": [
          [
            [
              162.064021,
              41.367774
            ],
            [
              162.15819,
              41.474181
            ],
            [
              162.237447,
              41.587257
            ],
            [
              162.301029,
              41.705911
            ],
            [
              162.348323,
              41.829002
            ],
            [
              162.378875,
              41.955344
            ],
            [
              162.39239,
              42.083721
            ],
            [
              162.388737,
              42.212895
            ],
            [
              162.367952,
              42.341624
            ],
            [
              162.330236,
              42.468667
            ],
            [
              162.275951,
              42.5928
            ],
            [
              162.20562,
              42.712829
            ],
            [
              162.11992,
              42.827597
            ],
            [
              162.019677,
              42.936
            ],
            [
              161.905856,
              43.036992
            ],
            [
              161.779554,
              43.129602
            ],
            [
              161.641986,
              43.212938
            ],
            [
              161.494478,
              43.286196
            ],
            [
              161.33845,
              43.348672
            ],
            [
              161.175405,
              43.399764
            ],
            [
              161.006913,
              43.43898
            ],
            [
              160.834596,
              43.465942
            ],
            [
              160.660115,
              43.48039
            ],
            [
              160.485149,
              43.482186
            ],
            [
              160.311383,
              43.471312
            ],
            [
              160.140492,
              43.447872
            ],
            [
              159.97412,
              43.412093
            ],
            [
              159.813871,
              43.364319
            ],
            [
              159.661286,
              43.30501
            ],
            [
              159.517837,
              43.234738
            ],
            [
              159.384903,
              43.154178
            ],
            [
              159.263766,
              43.064108
            ],
            [
              159.155593,
              42.965394
            ],
            [
              159.061424,
              42.858987
            ],
            [
              158.982167,
              42.745912
            ],
            [
              158.918585,
              42.627257
            ],
            [
              158.87129,
              42.504166
            ],
            [
              158.840738,
              42.377824
            ],
            [
              158.827224,
              42.249447
            ],
            [
              158.830876,
              42.120273
            ],
            [
              158.851661,
              41.991544
            ],
            [
              158.889377,
              41.864502
            ],
            [
              158.943663,
              41.740368
            ],
            [
              159.013994,
              41.620339
            ],
            [
              159.099693,
              41.505571
            ],
            [
              159.199936,
              41.397169
            ],
            [
              159.313757,
              41.296176
            ],
            [
              159.440059,
              41.203566
            ],
            [
              159.577627,
              41.120231
            ],
            [
              159.725135,
              41.046972
            ],
            [
              159.881163,
              40.984496
            ],
            [
              160.044208,
              40.933404
            ],
            [
              160.212701,
              40.894188
            ],
            [
              160.385017,
              40.867227
            ],
            [
              160.559499,
              40.852778
            ],
            [
              160.734465,
              40.850982
            ],
            [
              160.90823,
              40.861857
            ],
            [
              161.079121,
              40.885296
            ],
            [
              161.245493,
              40.921075
            ],
            [
              161.405743,
              40.968849
            ],
            [
              161.558327,
              41.028158
            ],
            [
              161.701777,
              41.098431
            ],
            [
              161.83471,
              41.17899
            ],
            [
              161.955847,
              41.26906
            ],
            [
              162.064021,
              41.367774
            ]
          ]
        ],
        "type": "Polygon"
      },
      "properties": {
        "kind": "reachableSet",
        "observationStatus": "estimated",
        "vessel": "B"
      },
      "type": "Feature"
    }
  ],
  "properties": {
    "dateline": false
  },
  "type": "FeatureCollection"
}
