{
  "features": [
    {
      "geometry": {
        "coordinates": [
          -60.676497,
          -45.906278
        ],
        "type": "Point"
      },
      "properties": {
        "mmsi": "412329686",
        "observationStatus": "observed",
        "role": "off",
        "time": "2017-01-21T07:27:39Z",
        "vessel": "A"
      },
      "type": "Feature"
    },
    {
      "geometry": {
        "coordinates": [
          -60.659428,
          -45.879878
        ],
        "type": "Point"
      },
      "properties": {
        "mmsi": "412329691",
        "observationStatus": "observed",
        "role": "off",
        "time": "2017-01-21T07:46:23Z",
        "vessel": "B"
      },
      "type": "Feature"
    },
    {
      "geometry": {
        "coordinates": [
          -60.40448,
          -45.246538
        ],
        "type": "Point"
      },
      "properties": {
        "mmsi": "412329691",
        "observationStatus": "observed",
        "role": "on",
        "time": "2017-01-21T23:54:14Z",
        "vessel": "B"
      },
      "type": "Feature"
    },
    {
      "geometry": {
        "coordinates": [
          -60.404468,
          -45.25137
        ],
        "type": "Point"
      },
      "properties": {
        "mmsi": "412329686",
        "observationStatus": "observed",
        "role": "on",
        "time": "2017-01-22T00:09:09Z",
        "vessel": "A"
      },
      "type": "Feature"
    },
    {
      "geometry": {
        "coordinates": [
          [
            -60.676497,
            -45.906278
          ],
          [
            -60.514903,
            -45.52125
          ],
          [
            -60.404468,
            -45.25137
          ]
        ],
        "type": "LineString"
      },
      "properties": {
        "confidence": "low",
        "lineStyle": "dashed",
        "observationStatus": "estimated",
        "source": "reachable-set heuristic",
        "vessel": "A"
      },
      "type": "Feature"
    },
    {
      "geometry": {
        "coordinates": [
          [
            -60.659428,
            -45.879878
          ],
          [
            -60.514903,
            -45.52125
          ],
          [
            -60.40448,
            -45.246538
          ]
        ],
        "type": "LineString"
      },
      "properties": {
        "confidence": "low",
        "lineStyle": "dashed",
        "observationStatus": "estimated",
        "source": "reachable-set heuristic",
        "vessel": "B"
      },
      "type": "Feature"
    },
    {
      "geometry": {
        "coordinates": [
          -60.514903,
          -45.52125
        ],
        "type": "Point"
      },
      "properties": {
        "kind": "meetingPoint",
        "observationStatus": "estimated"
      },
      "type": "Feature"
    },
    {
      "geometry": {
        "coordinates": [
          [
            [
              -59.859446,
              -43.939229
            ],
            [
              -60.086191,
              -43.901033
            ],
            [
              -60.317312,
              -43.878994
            ],
            [
              -60.550581,
              -43.873326
            ],
            [
              -60.783753,
              -43.884083
            ],
            [
              -61.014583,
              -43.911161
            ],
            [
              -61.240846,
              -43.954299
            ],
            [
              -61.460365,
              -44.013083
            ],
            [
              -61.671024,
              -44.086945
            ],
            [
              -61.870796,
              -44.175175
            ],
            [
              -62.057757,
              -44.276923
            ],
            [
              -62.230105,
              -44.391209
            ],
            [
              -62.386181,
              -44.516933
            ],
            [
              -62.524482,
              -44.652883
            ],
            [
              -62.643676,
              -44.79775
            ],
            [
              -62.742615,
              -44.950139
            ],
            [
              -62.820346,
              -45.108583
            ],
            [
              -62.876122,
              -45.271556
            ],
            [
              -62.909403,
              -45.437488
            ],
            [
              -62.919871,
              -45.604781
            ],
            [
              -62.907423,
              -45.771824
            ],
            [
              -62.872181,
              -45.937009
            ],
            [
              -62.814484,
              -46.098743
            ],
            [
              -62.734886,
              -46.255471
            ],
            [
              -62.634155,
              -46.405682
            ],
            [
              -62.513261,
              -46.547931
            ],
            [
              -62.373368,
              -46.680846
            ],
            [
              -62.215823,
              -46.803148
            ],
            [
              -62.042144,
              -46.913659
            ],
            [
              -61.854003,
              -47.011315
            ],
            [
              -61.653212,
              -47.095175
            ],
            [
              -61.441705,
              -47.164432
            ],
            [
              -61.221519,
              -47.218419
            ],
            [
              -60.994774,
              -47.256616
            ],
            [
              -60.763653,
              -47.278654
            ],
            [
              -60.530384,
              -47.284322
            ],
            [
              -60.297212,
              -47.273566
            ],
            [
              -60.066382,
              -47.246488
            ],
            [
              -59.840119,
              -47.203349
            ],
            [
              -59.6206,
              -47.144566
            ],
            [
              -59.409941,
              -47.070703
            ],
            [
              -59.210169,
              -46.982473
            ],
            [
              -59.023208,
              -46.880725
            ],
            [
              -58.85086,
              -46.766439
            ],
            [
              -58.694784,
              -46.640716
            ],
            [
              -58.556483,
              -46.504766
            ],
            [
              -58.437289,
              -46.359898
            ],
            [
              -58.33835,
              -46.207509
            ],
            [
              -58.260619,
              -46.049065
            ],
            [
              -58.204843,
              -45.886092
            ],
            [
              -58.171562,
              -45.72016
            ],
            [
              -58.161094,
              -45.552867
            ],
            [
              -58.173542,
              -45.385824
            ],
            [
              -58.208784,
              -45.22064
            ],
            [
              -58.266481,
              -45.058905
            ],
            [
              -58.346079,
              -44.902177
            ],
            [
              -58.44681,
              -44.751966
            ],
            [
              -58.567704,
              -44.609718
            ],
            [
              -58.707597,
              -44.476803
            ],
            [
              -58.865142,
              -44.354501
            ],
            [
              -59.038821,
              -44.243989
            ],
            [
              -59.226962,
              -44.146333
            ],
            [
              -59.427753,
              -44.062473
            ],
            [
              -59.63926,
              -43.993216
            ],
            [
              -59.859446,
              -43.939229
            ]
          ]
        ],
        "type": "Polygon"
      },
      "properties": {
        "kind": "reachableSet",
        "observationStatus": "estimated",
        "vessel": "A"
      },
      "type": "Feature"
    },
    {
      "geometry": {
        "coordinates": [
          [
            [
              -59.894013,
              -43.978441
            ],
            [
              -60.113013,
              -43.942886
            ],
            [
              -60.336048,
              -43.922936
            ],
            [
              -60.560969,
              -43.918782
            ],
            [
              -60.785612,
              -43.930465
            ],
            [
              -61.007811,
              -43.957872
            ],
            [
              -61.225427,
              -44.00074
            ],
            [
              -61.436365,
              -44.058655
            ],
            [
              -61.638593,
              -44.131059
            ],
            [
              -61.830164,
              -44.217256
            ],
            [
              -62.009232,
              -44.316415
            ],
            [
              -62.174073,
              -44.427582
            ],
            [
              -62.323099,
              -44.549685
            ],
            [
              -62.454876,
              -44.681549
            ],
            [
              -62.568134,
              -44.821904
            ],
            [
              -62.661782,
              -44.969398
            ],
            [
              -62.73492,
              -45.122611
            ],
            [
              -62.786841,
              -45.280067
            ],
            [
              -62.817046,
              -45.440249
            ],
            [
              -62.825245,
              -45.601616
            ],
            [
              -62.811358,
              -45.762613
            ],
            [
              -62.77552,
              -45.92169
            ],
            [
              -62.718074,
              -46.077314
            ],
            [
              -62.639575,
              -46.227987
            ],
            [
              -62.540779,
              -46.372258
            ],
            [
              -62.422636,
              -46.508738
            ],
            [
              -62.286285,
              -46.636111
            ],
            [
              -62.133039,
              -46.753152
            ],
            [
              -61.964373,
              -46.858733
            ],
            [
              -61.781913,
              -46.951837
            ],
            [
              -61.587415,
              -47.031568
            ],
            [
              -61.382752,
              -47.097158
            ],
            [
              -61.169896,
              -47.147976
            ],
            [
              -60.950895,
              -47.183531
            ],
            [
              -60.72786,
              -47.203481
            ],
            [
              -60.502939,
              -47.207635
            ],
            [
              -60.278297,
              -47.195952
            ],
            [
              -60.056098,
              -47.168545
            ],
            [
              -59.838481,
              -47.125677
            ],
            [
              -59.627543,
              -47.067762
            ],
            [
              -59.425315,
              -46.995358
            ],
            [
              -59.233745,
              -46.909161
            ],
            [
              -59.054677,
              -46.810001
            ],
            [
              -58.889836,
              -46.698835
            ],
            [
              -58.740809,
              -46.576732
            ],
            [
              -58.609032,
              -46.444868
            ],
            [
              -58.495774,
              -46.304513
            ],
            [
              -58.402126,
              -46.157019
            ],
            [
              -58.328989,
              -46.003806
            ],
            [
              -58.277067,
              -45.84635
            ],
            [
              -58.246862,
              -45.686167
            ],
            [
              -58.238663,
              -45.5248
            ],
            [
              -58.25255,
              -45.363803
            ],
            [
              -58.288389,
              -45.204727
            ],
            [
              -58.345834,
              -45.049102
            ],
            [
              -58.424333,
              -44.898429
            ],
            [
              -58.52313,
              -44.754158
            ],
            [
              -58.641272,
              -44.617679
            ],
            [
              -58.777623,
              -44.490305
            ],
            [
              -58.930869,
              -44.373265
            ],
            [
              -59.099535,
              -44.267684
            ],
            [
              -59.281995,
              -44.174579
            ],
            [
              -59.476493,
              -44.094848
            ],
            [
              -59.681156,
              -44.029258
            ],
            [
              -59.894013,
              -43.978441
            ]
          ]
        ],
        "type": "Polygon"
      },
      "properties": {
        "kind": "reachableSet",
        "observationStatus": "estimated",
        "vessel": "B"
      },
      "type": "Feature"
    }
  ],
  "properties": {
    "dateline": false
  },
  "type": "FeatureCollection"
}
