{
  "features": [
    {
      "geometry": {
        "coordinates": [
          164.684453,
          46.74584
        ],
        "type": "Point"
      },
      "properties": {
        "mmsi": "416246500",
        "observationStatus": "observed",
        "role": "off",
        "time": "2018-07-24T01:50:22Z",
        "vessel": "A"
      },
      "type": "Feature"
    },
    {
      "geometry": {
        "coordinates": [
          164.56228,
          46.767717
        ],
        "type": "Point"
      },
      "properties": {
        "mmsi": "416004853",
        "observationStatus": "observed",
        "role": "off",
        "time": "2018-07-24T02:31:08Z",
        "vessel": "B"
      },
      "type": "Feature"
    },
    {
      "geometry": {
        "coordinates": [
          164.279283,
          46.886553
        ],
        "type": "Point"
      },
      "properties": {
        "mmsi": "416246500",
        "observationStatus": "observed",
        "role": "on",
        "time": "2018-07-24T16:56:05Z",
        "vessel": "A"
      },
      "type": "Feature"
    },
    {
      "geometry": {
        "coordinates": [
          164.188107,
          46.85816
        ],
        "type": "Point"
      },
      "properties": {
        "mmsi": "416004853",
        "observationStatus": "observed",
        "role": "on",
        "time": "2018-07-24T17:14:05Z",
        "vessel": "B"
      },
      "type": "Feature"
    },
    {
      "geometry": {
        "coordinates": [
          [
            164.684453,
            46.74584
          ],
          [
            164.397416,
            46.836813
          ],
          [
            164.279283,
            46.886553
          ]
        ],
        "type": "LineString"
      },
      "properties": {
        "confidence": "low",
        "lineStyle": "dashed",
        "observationStatus": "estimated",
        "source": "reachable-set heuristic",
        "vessel": "A"
      },
      "type": "Feature"
    },
    {
      "geometry": {
        "coordinates": [
          [
            164.56228,
            46.767717
          ],
          [
            164.397416,
            46.836813
          ],
          [
            164.188107,
            46.85816
          ]
        ],
        "type": "LineString"
      },
      "properties": {
        "confidence": "low",
        "lineStyle": "dashed",
        "observationStatus": "estimated",
        "source": "reachable-set heuristic",
        "vessel": "B"
      },
      "type": "Feature"
    },
    {
      "geometry": {
        "coordinates": [
          164.397416,
          46.836813
        ],
        "type": "Point"
      },
      "properties": {
        "kind": "meetingPoint",
        "observationStatus": "estimated"
      },
      "type": "Feature"
    },
    {
      "geometry": {
        "coordinates": [
          [
            [
              162.645936,
              47.453806
            ],
            [
              162.564622,
              47.327508
            ],
            [
              162.501772,
              47.196287
            ],
            [
              162.457992,
              47.061404
            ],
            [
              162.433702,
              46.924161
            ],
            [
              162.429137,
              46.785877
            ],
            [
              162.444342,
              46.647886
            ],
            [
              162.479169,
              46.511515
            ],
            [
              162.533283,
              46.378079
            ],
            [
              162.606163,
              46.248862
            ],
            [
              162.697106,
              46.125109
            ],
            [
              162.805239,
              46.008011
            ],
            [
              162.929518,
              45.898696
            ],
            [
              163.068747,
              45.798218
            ],
            [
              163.221585,
              45.707543
            ],
            [
              163.38656,
              45.627546
            ],
            [
              163.562084,
              45.558995
            ],
            [
              163.746466,
              45.502552
            ],
            [
              163.93793,
              45.458761
            ],
            [
              164.134633,
              45.428042
            ],
            [
              164.334679,
              45.410691
            ],
            [
              164.536144,
              45.406877
            ],
            [
              164.737085,
              45.416635
            ],
            [
              164.935569,
              45.439872
            ],
            [
              165.129683,
              45.476363
            ],
            [
              165.317558,
              45.525758
            ],
            [
              165.497385,
              45.58758
            ],
            [
              165.667433,
              45.661235
            ],
            [
              165.826062,
              45.746012
            ],
            [
              165.971747,
              45.841096
            ],
            [
              166.103083,
              45.945571
            ],
            [
              166.218805,
              46.05843
            ],
            [
              166.3178,
              46.178587
            ],
            [
              166.399115,
              46.304885
            ],
            [
              166.461965,
              46.436107
            ],
            [
              166.505745,
              46.570989
            ],
            [
              166.530035,
              46.708233
            ],
            [
              166.534599,
              46.846516
            ],
            [
              166.519395,
              46.984508
            ],
            [
              166.484568,
              47.120878
            ],
            [
              166.430454,
              47.254315
            ],
            [
              166.357574,
              47.383532
            ],
            [
              166.26663,
              47.507285
            ],
            [
              166.158498,
              47.624382
            ],
            [
              166.034219,
              47.733697
            ],
            [
              165.89499,
              47.834175
            ],
            [
              165.742152,
              47.92485
            ],
            [
              165.577176,
              48.004848
            ],
            [
              165.401653,
              48.073398
            ],
            [
              165.217271,
              48.129841
            ],
            [
              165.025807,
              48.173633
            ],
            [
              164.829104,
              48.204352
            ],
            [
              164.629057,
              48.221702
            ],
            [
              164.427593,
              48.225516
            ],
            [
              164.226652,
              48.215758
            ],
            [
              164.028168,
              48.192522
            ],
            [
              163.834054,
              48.15603
            ],
            [
              163.646179,
              48.106635
            ],
            [
              163.466351,
              48.044813
            ],
            [
              163.296304,
              47.971158
            ],
            [
              163.137674,
              47.886381
            ],
            [
              162.99199,
              47.791297
            ],
            [
              162.860654,
              47.686822
            ],
            [
              162.744931,
              47.573963
            ],
            [
              162.645936,
              47.453806
            ]
          ]
        ],
        "type": "Polygon"
      },
      "properties": {
        "kind": "reachableSet",
        "observationStatus": "estimated",
        "vessel": "A"
      },
      "type": "Feature"
    },
    {
      "geometry": {
        "coordinates": [
          [
            [
              162.487464,
              47.269231
            ],
            [
              162.431964,
              47.140171
            ],
            [
              162.395178,
              47.00796
            ],
            [
              162.37746,
              46.873871
            ],
            [
              162.378982,
              46.739195
            ],
            [
              162.399729,
              46.605229
            ],
            [
              162.4395,
              46.473264
            ],
            [
              162.497913,
              46.344569
            ],
            [
              162.574405,
              46.220386
            ],
            [
              162.66824,
              46.101909
            ],
            [
              162.778514,
              45.990279
            ],
            [
              162.904165,
              45.886573
            ],
            [
              163.043982,
              45.791787
            ],
            [
              163.19662,
              45.706836
            ],
            [
              163.360608,
              45.632537
            ],
            [
              163.534367,
              45.569607
            ],
            [
              163.716224,
              45.51865
            ],
            [
              163.904427,
              45.480158
            ],
            [
              164.097164,
              45.454501
            ],
            [
              164.292578,
              45.441927
            ],
            [
              164.488788,
              45.442556
            ],
            [
              164.683904,
              45.456383
            ],
            [
              164.876046,
              45.483274
            ],
            [
              165.063366,
              45.522971
            ],
            [
              165.244058,
              45.575091
            ],
            [
              165.416382,
              45.639131
            ],
            [
              165.578679,
              45.714477
            ],
            [
              165.729386,
              45.800401
            ],
            [
              165.867051,
              45.896076
            ],
            [
              165.990349,
              46.000581
            ],
            [
              166.098092,
              46.11291
            ],
            [
              166.189242,
              46.23198
            ],
            [
              166.262923,
              46.356646
            ],
            [
              166.318423,
              46.485705
            ],
            [
              166.355209,
              46.617916
            ],
            [
              166.372926,
              46.752006
            ],
            [
              166.371405,
              46.886682
            ],
            [
              166.350658,
              47.020648
            ],
            [
              166.310887,
              47.152613
            ],
            [
              166.252474,
              47.281307
            ],
            [
              166.175981,
              47.405491
            ],
            [
              166.082146,
              47.523968
            ],
            [
              165.971873,
              47.635597
            ],
            [
              165.846222,
              47.739304
            ],
            [
              165.706404,
              47.834089
            ],
            [
              165.553767,
              47.91904
            ],
            [
              165.389779,
              47.993339
            ],
            [
              165.21602,
              48.05627
            ],
            [
              165.034163,
              48.107227
            ],
            [
              164.84596,
              48.145719
            ],
            [
              164.653223,
              48.171376
            ],
            [
              164.457809,
              48.18395
            ],
            [
              164.261599,
              48.183321
            ],
            [
              164.066483,
              48.169494
            ],
            [
              163.87434,
              48.142603
            ],
            [
              163.687021,
              48.102906
            ],
            [
              163.506329,
              48.050786
            ],
            [
              163.334005,
              47.986745
            ],
            [
              163.171708,
              47.9114
            ],
            [
              163.021001,
              47.825476
            ],
            [
              162.883336,
              47.729801
            ],
            [
              162.760038,
              47.625295
            ],
            [
              162.652295,
              47.512967
            ],
            [
              162.561144,
              47.393896
            ],
            [
              162.487464,
              47.269231
            ]
          ]
        ],
        "type": "Polygon"
      },
      "properties": {
        "kind": "reachableSet",
        "observationStatus": "estimated",
        "vessel": "B"
      },
      "type": "Feature"
    }
  ],
  "properties": {
    "dateline": false
  },
  "type": "FeatureCollection"
}
