{
  "features": [
    {
      "geometry": {
        "coordinates": [
          165.990933,
          46.528
        ],
        "type": "Point"
      },
      "properties": {
        "mmsi": "412209146",
        "observationStatus": "observed",
        "role": "off",
        "time": "2019-07-17T03:44:42Z",
        "vessel": "A"
      },
      "type": "Feature"
    },
    {
      "geometry": {
        "coordinates": [
          166.037607,
          46.519232
        ],
        "type": "Point"
      },
      "properties": {
        "mmsi": "416252900",
        "observationStatus": "observed",
        "role": "off",
        "time": "2019-07-17T03:56:19Z",
        "vessel": "B"
      },
      "type": "Feature"
    },
    {
      "geometry": {
        "coordinates": [
          165.843973,
          46.382987
        ],
        "type": "Point"
      },
      "properties": {
        "mmsi": "416252900",
        "observationStatus": "observed",
        "role": "on",
        "time": "2019-07-17T17:07:52Z",
        "vessel": "B"
      },
      "type": "Feature"
    },
    {
      "geometry": {
        "coordinates": [
          165.941253,
          46.413013
        ],
        "type": "Point"
      },
      "properties": {
        "mmsi": "412209146",
        "observationStatus": "observed",
        "role": "on",
        "time": "2019-07-17T17:11:01Z",
        "vessel": "A"
      },
      "type": "Feature"
    },
    {
      "geometry": {
        "coordinates": [
          [
            165.990933,
            46.528
          ],
          [
            165.957521,
            46.461404
          ],
          [
            165.941253,
            46.413013
          ]
        ],
        "type": "LineString"
      },
      "properties": {
        "confidence": "low",
        "lineStyle": "dashed",
        "observationStatus": "estimated",
        "source": "reachable-set heuristic",
        "vessel": "A"
      },
      "type": "Feature"
    },
    {
      "geometry": {
        "coordinates": [
          [
            166.037607,
            46.519232
          ],
          [
            165.957521,
            46.461404
          ],
          [
            165.843973,
            46.382987
          ]
        ],
        "type": "LineString"
      },
      "properties": {
        "confidence": "low",
        "lineStyle": "dashed",
        "observationStatus": "estimated",
        "source": "reachable-set heuristic",
        "vessel": "B"
      },
      "type": "Feature"
    },
    {
      "geometry": {
        "coordinates": [
          165.957521,
          46.461404
        ],
        "type": "Point"
      },
      "properties": {
        "kind": "meetingPoint",
        "observationStatus": "estimated"
      },
      "type": "Feature"
    },
    {
      "geometry": {
        "coordinates": [
          [
            [
              165.448728,
              45.27304
            ],
            [
              165.620295,
              45.243684
            ],
            [
              165.795192,
              45.226143
            ],
            [
              165.971734,
              45.220586
            ],
            [
              166.148223,
              45.227066
            ],
            [
              166.322958,
              45.245521
            ],
            [
              166.494255,
              45.275774
            ],
            [
              166.660466,
              45.317532
            ],
            [
              166.819991,
              45.370394
            ],
            [
              166.971291,
              45.433851
            ],
            [
              167.112911,
              45.507292
            ],
            [
              167.243486,
              45.590008
            ],
            [
              167.36176,
              45.681205
            ],
            [
              167.466592,
              45.780003
            ],
            [
              167.556974,
              45.88545
            ],
            [
              167.632035,
              45.996533
            ],
            [
              167.691052,
              46.112179
            ],
            [
              167.733456,
              46.231277
            ],
            [
              167.75884,
              46.352679
            ],
            [
              167.766959,
              46.475215
            ],
            [
              167.757734,
              46.597706
            ],
            [
              167.731255,
              46.718972
            ],
            [
              167.687777,
              46.837845
            ],
            [
              167.627717,
              46.953181
            ],
            [
              167.551656,
              47.063868
            ],
            [
              167.460324,
              47.16884
            ],
            [
              167.354603,
              47.267088
            ],
            [
              167.235509,
              47.357663
            ],
            [
              167.10419,
              47.439695
            ],
            [
              166.96191,
              47.512394
            ],
            [
              166.81004,
              47.575058
            ],
            [
              166.650043,
              47.627085
            ],
            [
              166.483459,
              47.667973
            ],
            [
              166.311892,
              47.697329
            ],
            [
              166.136995,
              47.71487
            ],
            [
              165.960452,
              47.720427
            ],
            [
              165.783964,
              47.713947
            ],
            [
              165.609229,
              47.695492
            ],
            [
              165.437931,
              47.66524
            ],
            [
              165.27172,
              47.623481
            ],
            [
              165.112196,
              47.570619
            ],
            [
              164.960896,
              47.507162
            ],
            [
              164.819276,
              47.433722
            ],
            [
              164.6887,
              47.351005
            ],
            [
              164.570427,
              47.259808
            ],
            [
              164.465594,
              47.161011
            ],
            [
              164.375212,
              47.055563
            ],
            [
              164.300152,
              46.944481
            ],
            [
              164.241135,
              46.828834
            ],
            [
              164.19873,
              46.709736
            ],
            [
              164.173346,
              46.588335
            ],
            [
              164.165228,
              46.465798
            ],
            [
              164.174452,
              46.343307
            ],
            [
              164.200931,
              46.222041
            ],
            [
              164.24441,
              46.103168
            ],
            [
              164.304469,
              45.987833
            ],
            [
              164.380531,
              45.877146
            ],
            [
              164.471862,
              45.772173
            ],
            [
              164.577584,
              45.673926
            ],
            [
              164.696678,
              45.58335
            ],
            [
              164.827997,
              45.501318
            ],
            [
              164.970276,
              45.42862
            ],
            [
              165.122146,
              45.365955
            ],
            [
              165.282144,
              45.313929
            ],
            [
              165.448728,
              45.27304
            ]
          ]
        ],
        "type": "Polygon"
      },
      "properties": {
        "kind": "reachableSet",
        "observationStatus": "estimated",
        "vessel": "A"
      },
      "type": "Feature"
    },
    {
      "geometry": {
        "coordinates": [
          [
            [
              164.700649,
              45.578516
            ],
            [
              164.829547,
              45.498659
            ],
            [
              164.969148,
              45.427975
            ],
            [
              165.118106,
              45.367143
            ],
            [
              165.274987,
              45.316751
            ],
            [
              165.43828,
              45.277284
            ],
            [
              165.606413,
              45.249121
            ],
            [
              165.777765,
              45.232534
            ],
            [
              165.950688,
              45.227682
            ],
            [
              166.123516,
              45.234613
            ],
            [
              166.294583,
              45.253259
            ],
            [
              166.462244,
              45.283441
            ],
            [
              166.624882,
              45.324868
            ],
            [
              166.780933,
              45.377142
            ],
            [
              166.928892,
              45.439759
            ],
            [
              167.067335,
              45.512115
            ],
            [
              167.19493,
              45.593515
            ],
            [
              167.310446,
              45.683173
            ],
            [
              167.412771,
              45.780228
            ],
            [
              167.500921,
              45.883743
            ],
            [
              167.574045,
              45.992722
            ],
            [
              167.631441,
              46.106116
            ],
            [
              167.672554,
              46.222832
            ],
            [
              167.69699,
              46.341747
            ],
            [
              167.704513,
              46.461715
            ],
            [
              167.69505,
              46.58158
            ],
            [
              167.668692,
              46.70019
            ],
            [
              167.625694,
              46.8164
            ],
            [
              167.56647,
              46.929093
            ],
            [
              167.491589,
              47.037182
            ],
            [
              167.401773,
              47.139627
            ],
            [
              167.297887,
              47.235441
            ],
            [
              167.180931,
              47.323702
            ],
            [
              167.052033,
              47.403559
            ],
            [
              166.912432,
              47.474244
            ],
            [
              166.763474,
              47.535075
            ],
            [
              166.606593,
              47.585467
            ],
            [
              166.4433,
              47.624935
            ],
            [
              166.275167,
              47.653098
            ],
            [
              166.103815,
              47.669685
            ],
            [
              165.930892,
              47.674536
            ],
            [
              165.758064,
              47.667606
            ],
            [
              165.586997,
              47.648959
            ],
            [
              165.419336,
              47.618777
            ],
            [
              165.256698,
              47.57735
            ],
            [
              165.100647,
              47.525076
            ],
            [
              164.952688,
              47.46246
            ],
            [
              164.814245,
              47.390103
            ],
            [
              164.68665,
              47.308704
            ],
            [
              164.571134,
              47.219045
            ],
            [
              164.468809,
              47.121991
            ],
            [
              164.380659,
              47.018476
            ],
            [
              164.307535,
              46.909496
            ],
            [
              164.250139,
              46.796103
            ],
            [
              164.209026,
              46.679386
            ],
            [
              164.18459,
              46.560472
            ],
            [
              164.177067,
              46.440504
            ],
            [
              164.18653,
              46.320638
            ],
            [
              164.212888,
              46.202029
            ],
            [
              164.255886,
              46.085818
            ],
            [
              164.31511,
              45.973126
            ],
            [
              164.389991,
              45.865036
            ],
            [
              164.479807,
              45.762591
            ],
            [
              164.583693,
              45.666777
            ],
            [
              164.700649,
              45.578516
            ]
          ]
        ],
        "type": "Polygon"
      },
      "properties": {
        "kind": "reachableSet",
        "observationStatus": "estimated",
        "vessel": "B"
      },
      "type": "Feature"
    }
  ],
  "properties": {
    "dateline": false
  },
  "type": "FeatureCollection"
}
