{
  "features": [
    {
      "geometry": {
        "coordinates": [
          -60.611217,
          -45.75822
        ],
        "type": "Point"
      },
      "properties": {
        "mmsi": "412329693",
        "observationStatus": "observed",
        "role": "off",
        "time": "2017-01-18T07:37:10Z",
        "vessel": "A"
      },
      "type": "Feature"
    },
    {
      "geometry": {
        "coordinates": [
          -60.63123,
          -45.78319
        ],
        "type": "Point"
      },
      "properties": {
        "mmsi": "412329685",
        "observationStatus": "observed",
        "role": "off",
        "time": "2017-01-18T07:41:34Z",
        "vessel": "B"
      },
      "type": "Feature"
    },
    {
      "geometry": {
        "coordinates": [
          -60.562968,
          -45.655425
        ],
        "type": "Point"
      },
      "properties": {
        "mmsi": "412329693",
        "observationStatus": "observed",
        "role": "on",
        "time": "2017-01-19T00:20:25Z",
        "vessel": "A"
      },
      "type": "Feature"
    },
    {
      "geometry": {
        "coordinates": [
          -60.591727,
          -45.639218
        ],
        "type": "Point"
      },
      "properties": {
        "mmsi": "412329685",
        "observationStatus": "observed",
        "role": "on",
        "time": "2017-01-19T00:22:41Z",
        "vessel": "B"
      },
      "type": "Feature"
    },
    {
      "geometry": {
        "coordinates": [
          [
            -60.611217,
            -45.75822
          ],
          [
            -60.618075,
            -45.734785
          ],
          [
            -60.562968,
            -45.655425
          ]
        ],
        "type": "LineString"
      },
      "properties": {
        "confidence": "low",
        "lineStyle": "dashed",
        "observationStatus": "estimated",
        "source": "reachable-set heuristic",
        "vessel": "A"
      },
      "type": "Feature"
    },
    {
      "geometry": {
        "coordinates": [
          [
            -60.63123,
            -45.78319
          ],
          [
            -60.618075,
            -45.734785
          ],
          [
            -60.591727,
            -45.639218
          ]
        ],
        "type": "LineString"
      },
      "properties": {
        "confidence": "low",
        "lineStyle": "dashed",
        "observationStatus": "estimated",
        "source": "reachable-set heuristic",
        "vessel": "B"
      },
      "type": "Feature"
    },
    {
      "geometry": {
        "coordinates": [
          -60.618075,
          -45.734785
        ],
        "type": "Point"
      },
      "properties": {
        "kind": "meetingPoint",
        "observationStatus": "estimated"
      },
      "type": "Feature"
    },
    {
      "geometry": {
        "coordinates": [
          [
            [
              -59.82421,
              -44.081472
            ],
            [
              -60.054367,
              -44.036752
            ],
            [
              -60.289653,
              -44.008117
            ],
            [
              -60.527805,
              -43.99584
            ],
            [
              -60.766527,
              -44.000042
            ],
            [
              -61.003521,
              -44.020681
            ],
            [
              -61.236505,
              -44.057558
            ],
            [
              -61.463234,
              -44.110318
            ],
            [
              -61.681526,
              -44.178454
            ],
            [
              -61.889278,
              -44.261309
            ],
            [
              -62.084489,
              -44.358084
            ],
            [
              -62.265279,
              -44.467849
            ],
            [
              -62.429908,
              -44.589546
            ],
            [
              -62.576789,
              -44.722003
            ],
            [
              -62.704508,
              -44.863944
            ],
            [
              -62.811836,
              -45.014003
            ],
            [
              -62.897737,
              -45.170734
            ],
            [
              -62.961387,
              -45.332627
            ],
            [
              -63.00217,
              -45.498125
            ],
            [
              -63.019695,
              -45.665632
            ],
            [
              -63.013792,
              -45.833536
            ],
            [
              -62.98452,
              -46.000219
            ],
            [
              -62.932158,
              -46.164077
            ],
            [
              -62.857212,
              -46.323532
            ],
            [
              -62.760404,
              -46.477047
            ],
            [
              -62.642666,
              -46.623144
            ],
            [
              -62.505131,
              -46.760417
            ],
            [
              -62.349125,
              -46.887543
            ],
            [
              -62.176149,
              -47.003298
            ],
            [
              -61.98787,
              -47.106568
            ],
            [
              -61.7861,
              -47.196357
            ],
            [
              -61.572784,
              -47.271801
            ],
            [
              -61.349975,
              -47.332173
            ],
            [
              -61.119818,
              -47.376893
            ],
            [
              -60.884532,
              -47.405528
            ],
            [
              -60.64638,
              -47.417805
            ],
            [
              -60.407658,
              -47.413603
            ],
            [
              -60.170664,
              -47.392964
            ],
            [
              -59.93768,
              -47.356087
            ],
            [
              -59.710951,
              -47.303327
            ],
            [
              -59.492659,
              -47.235191
            ],
            [
              -59.284907,
              -47.152336
            ],
            [
              -59.089696,
              -47.055561
            ],
            [
              -58.908906,
              -46.945796
            ],
            [
              -58.744277,
              -46.824099
            ],
            [
              -58.597396,
              -46.691642
            ],
            [
              -58.469677,
              -46.549701
            ],
            [
              -58.362349,
              -46.399642
            ],
            [
              -58.276448,
              -46.242911
            ],
            [
              -58.212798,
              -46.081018
            ],
            [
              -58.172015,
              -45.91552
            ],
            [
              -58.15449,
              -45.748013
            ],
            [
              -58.160393,
              -45.580109
            ],
            [
              -58.189665,
              -45.413426
            ],
            [
              -58.242027,
              -45.249568
            ],
            [
              -58.316973,
              -45.090113
            ],
            [
              -58.413781,
              -44.936598
            ],
            [
              -58.531519,
              -44.790501
            ],
            [
              -58.669054,
              -44.653228
            ],
            [
              -58.82506,
              -44.526102
            ],
            [
              -58.998036,
              -44.410347
            ],
            [
              -59.186315,
              -44.307077
            ],
            [
              -59.388085,
              -44.217288
            ],
            [
              -59.601401,
              -44.141844
            ],
            [
              -59.82421,
              -44.081472
            ]
          ]
        ],
        "type": "Polygon"
      },
      "properties": {
        "kind": "reachableSet",
        "observationStatus": "estimated",
        "vessel": "A"
      },
      "type": "Feature"
    },
    {
      "geometry": {
        "coordinates": [
          [
            [
              -60.151399,
              -44.034423
            ],
            [
              -60.387183,
              -44.010824
            ],
            [
              -60.625128,
              -44.0036
            ],
            [
              -60.862941,
              -44.012822
            ],
            [
              -61.098332,
              -44.038399
            ],
            [
              -61.329034,
              -44.080087
            ],
            [
              -61.552827,
              -44.137483
            ],
            [
              -61.767553,
              -44.210035
            ],
            [
              -61.971146,
              -44.297044
            ],
            [
              -62.161644,
              -44.397673
            ],
            [
              -62.337214,
              -44.510951
            ],
            [
              -62.496164,
              -44.635788
            ],
            [
              -62.636963,
              -44.770983
            ],
            [
              -62.758256,
              -44.915232
            ],
            [
              -62.858874,
              -45.067146
            ],
            [
              -62.937848,
              -45.225264
            ],
            [
              -62.994418,
              -45.388061
            ],
            [
              -63.02804,
              -45.55397
            ],
            [
              -63.038388,
              -45.721394
            ],
            [
              -63.025364,
              -45.888719
            ],
            [
              -62.989093,
              -46.054335
            ],
            [
              -62.929924,
              -46.216646
            ],
            [
              -62.848427,
              -46.37409
            ],
            [
              -62.745387,
              -46.52515
            ],
            [
              -62.621797,
              -46.66837
            ],
            [
              -62.478846,
              -46.802373
            ],
            [
              -62.317911,
              -46.925868
            ],
            [
              -62.140542,
              -47.037664
            ],
            [
              -61.948448,
              -47.136686
            ],
            [
              -61.743478,
              -47.22198
            ],
            [
              -61.527606,
              -47.292724
            ],
            [
              -61.302911,
              -47.348237
            ],
            [
              -61.071558,
              -47.387985
            ],
            [
              -60.835774,
              -47.411584
            ],
            [
              -60.597829,
              -47.418808
            ],
            [
              -60.360016,
              -47.409587
            ],
            [
              -60.124625,
              -47.384009
            ],
            [
              -59.893922,
              -47.342321
            ],
            [
              -59.67013,
              -47.284925
            ],
            [
              -59.455404,
              -47.212373
            ],
            [
              -59.251811,
              -47.125364
            ],
            [
              -59.061312,
              -47.024736
            ],
            [
              -58.885743,
              -46.911457
            ],
            [
              -58.726793,
              -46.78662
            ],
            [
              -58.585994,
              -46.651426
            ],
            [
              -58.464701,
              -46.507177
            ],
            [
              -58.364083,
              -46.355262
            ],
            [
              -58.285109,
              -46.197145
            ],
            [
              -58.228538,
              -46.034347
            ],
            [
              -58.194917,
              -45.868438
            ],
            [
              -58.184569,
              -45.701015
            ],
            [
              -58.197593,
              -45.533689
            ],
            [
              -58.233864,
              -45.368073
            ],
            [
              -58.293033,
              -45.205762
            ],
            [
              -58.37453,
              -45.048318
            ],
            [
              -58.477569,
              -44.897259
            ],
            [
              -58.60116,
              -44.754038
            ],
            [
              -58.744111,
              -44.620035
            ],
            [
              -58.905046,
              -44.496541
            ],
            [
              -59.082414,
              -44.384744
            ],
            [
              -59.274509,
              -44.285722
            ],
            [
              -59.479479,
              -44.200429
            ],
            [
              -59.69535,
              -44.129684
            ],
            [
              -59.920045,
              -44.074171
            ],
            [
              -60.151399,
              -44.034423
            ]
          ]
        ],
        "type": "Polygon"
      },
      "properties": {
        "kind": "reachableSet",
        "observationStatus": "estimated",
        "vessel": "B"
      },
      "type": "Feature"
    }
  ],
  "properties": {
    "dateline": false
  },
  "type": "FeatureCollection"
}
