{
  "features": [
    {
      "geometry": {
        "coordinates": [
          -57.691262,
          -42.069905
        ],
        "type": "Point"
      },
      "properties": {
        "mmsi": "412329689",
        "observationStatus": "observed",
        "role": "off",
        "time": "2019-05-12T05:01:30Z",
        "vessel": "A"
      },
      "type": "Feature"
    },
    {
      "geometry": {
        "coordinates": [
          -57.76892,
          -42.106363
        ],
        "type": "Point"
      },
      "properties": {
        "mmsi": "412329684",
        "observationStatus": "observed",
        "role": "off",
        "time": "2019-05-12T05:20:56Z",
        "vessel": "B"
      },
      "type": "Feature"
    },
    {
      "geometry": {
        "coordinates": [
          -57.92184,
          -42.046213
        ],
        "type": "Point"
      },
      "properties": {
        "mmsi": "412329684",
        "observationStatus": "observed",
        "role": "on",
        "time": "2019-05-12T23:10:41Z",
        "vessel": "B"
      },
      "type": "Feature"
    },
    {
      "geometry": {
        "coordinates": [
          -57.917013,
          -42.06672
        ],
        "type": "Point"
      },
      "properties": {
        "mmsi": "412329689",
        "observationStatus": "observed",
        "role": "on",
        "time": "2019-05-12T23:33:21Z",
        "vessel": "A"
      },
      "type": "Feature"
    },
    {
      "geometry": {
        "coordinates": [
          [
            -57.691262,
            -42.069905
          ],
          [
            -57.831957,
            -42.081473
          ],
          [
            -57.917013,
            -42.06672
          ]
        ],
        "type": "LineString"
      },
      "properties": {
        "confidence": "low",
        "lineStyle": "dashed",
        "observationStatus": "estimated",
        "source": "reachable-set heuristic",
        "vessel": "A"
      },
      "type": "Feature"
    },
    {
      "geometry": {
        "coordinates": [
          [
            -57.76892,
            -42.106363
          ],
          [
            -57.831957,
            -42.081473
          ],
          [
            -57.92184,
            -42.046213
          ]
        ],
        "type": "LineString"
      },
      "properties": {
        "confidence": "low",
        "lineStyle": "dashed",
        "observationStatus": "estimated",
        "source": "reachable-set heuristic",
        "vessel": "B"
      },
      "type": "Feature"
    },
    {
      "geometry": {
        "coordinates": [
          -57.831957,
          -42.081473
        ],
        "type": "Point"
      },
      "properties": {
        "kind": "meetingPoint",
        "observationStatus": "estimated"
      },
      "type": "Feature"
    },
    {
      "geometry": {
        "coordinates": [
          [
            [
              -60.357425,
              -42.03229
            ],
            [
              -60.34985,
              -42.219324
            ],
            [
              -60.317758,
              -42.404905
            ],
            [
              -60.261459,
              -42.587244
            ],
            [
              -60.181494,
              -42.764585
            ],
            [
              -60.078634,
              -42.935221
            ],
            [
              -59.95387,
              -43.097508
            ],
            [
              -59.808402,
              -43.249883
            ],
            [
              -59.643633,
              -43.390879
            ],
            [
              -59.461147,
              -43.519139
            ],
            [
              -59.262704,
              -43.633425
            ],
            [
              -59.050215,
              -43.732639
            ],
            [
              -58.825724,
              -43.815825
            ],
            [
              -58.591396,
              -43.882181
            ],
            [
              -58.349486,
              -43.931068
            ],
            [
              -58.102323,
              -43.962017
            ],
            [
              -57.852289,
              -43.974727
            ],
            [
              -57.601791,
              -43.969078
            ],
            [
              -57.353242,
              -43.945124
            ],
            [
              -57.109036,
              -43.903095
            ],
            [
              -56.871523,
              -43.843396
            ],
            [
              -56.642992,
              -43.766601
            ],
            [
              -56.425644,
              -43.673452
            ],
            [
              -56.221571,
              -43.564844
            ],
            [
              -56.032739,
              -43.441823
            ],
            [
              -55.860967,
              -43.305575
            ],
            [
              -55.707908,
              -43.157412
            ],
            [
              -55.575038,
              -42.99876
            ],
            [
              -55.463635,
              -42.831147
            ],
            [
              -55.374772,
              -42.656187
            ],
            [
              -55.309305,
              -42.475566
            ],
            [
              -55.267865,
              -42.291023
            ],
            [
              -55.25085,
              -42.104335
            ],
            [
              -55.258425,
              -41.917301
            ],
            [
              -55.290517,
              -41.73172
            ],
            [
              -55.346816,
              -41.549381
            ],
            [
              -55.426781,
              -41.37204
            ],
            [
              -55.529641,
              -41.201404
            ],
            [
              -55.654405,
              -41.039117
            ],
            [
              -55.799873,
              -40.886742
            ],
            [
              -55.964642,
              -40.745746
            ],
            [
              -56.147128,
              -40.617486
            ],
            [
              -56.345571,
              -40.5032
            ],
            [
              -56.55806,
              -40.403986
            ],
            [
              -56.782551,
              -40.3208
            ],
            [
              -57.016879,
              -40.254444
            ],
            [
              -57.258789,
              -40.205557
            ],
            [
              -57.505952,
              -40.174608
            ],
            [
              -57.755986,
              -40.161898
            ],
            [
              -58.006484,
              -40.167547
            ],
            [
              -58.255033,
              -40.191501
            ],
            [
              -58.499239,
              -40.23353
            ],
            [
              -58.736752,
              -40.293229
            ],
            [
              -58.965283,
              -40.370024
            ],
            [
              -59.182631,
              -40.463173
            ],
            [
              -59.386704,
              -40.571781
            ],
            [
              -59.575536,
              -40.694802
            ],
            [
              -59.747308,
              -40.83105
            ],
            [
              -59.900367,
              -40.979213
            ],
            [
              -60.033237,
              -41.137865
            ],
            [
              -60.14464,
              -41.305478
            ],
            [
              -60.233503,
              -41.480438
            ],
            [
              -60.29897,
              -41.661059
            ],
            [
              -60.34041,
              -41.845602
            ],
            [
              -60.357425,
              -42.03229
            ]
          ]
        ],
        "type": "Polygon"
      },
      "properties": {
        "kind": "reachableSet",
        "observationStatus": "estimated",
        "vessel": "A"
      },
      "type": "Feature"
    },
    {
      "geometry": {
        "coordinates": [
          [
            [
              -60.015015,
              -41.222878
            ],
            [
              -60.116435,
              -41.385808
            ],
            [
              -60.195983,
              -41.555387
            ],
            [
              -60.252894,
              -41.729984
            ],
            [
              -60.286619,
              -41.907915
            ],
            [
              -60.296833,
              -42.087468
            ],
            [
              -60.283439,
              -42.266913
            ],
            [
              -60.246565,
              -42.444523
            ],
            [
              -60.186566,
              -42.618586
            ],
            [
              -60.10402,
              -42.787426
            ],
            [
              -59.999722,
              -42.949418
            ],
            [
              -59.874677,
              -43.103002
            ],
            [
              -59.730088,
              -43.246697
            ],
            [
              -59.567349,
              -43.379121
            ],
            [
              -59.388026,
              -43.498997
            ],
            [
              -59.193847,
              -43.605172
            ],
            [
              -58.986681,
              -43.696624
            ],
            [
              -58.768524,
              -43.77247
            ],
            [
              -58.541477,
              -43.831982
            ],
            [
              -58.307725,
              -43.874585
            ],
            [
              -58.069521,
              -43.899869
            ],
            [
              -57.829159,
              -43.907592
            ],
            [
              -57.588952,
              -43.897678
            ],
            [
              -57.351216,
              -43.870223
            ],
            [
              -57.118238,
              -43.825491
            ],
            [
              -56.892263,
              -43.763914
            ],
            [
              -56.675467,
              -43.686084
            ],
            [
              -56.469938,
              -43.59275
            ],
            [
              -56.277655,
              -43.484813
            ],
            [
              -56.100471,
              -43.36331
            ],
            [
              -55.94009,
              -43.229413
            ],
            [
              -55.798059,
              -43.08441
            ],
            [
              -55.675745,
              -42.929699
            ],
            [
              -55.574325,
              -42.766769
            ],
            [
              -55.494777,
              -42.597189
            ],
            [
              -55.437866,
              -42.422593
            ],
            [
              -55.404141,
              -42.244662
            ],
            [
              -55.393927,
              -42.065109
            ],
            [
              -55.407321,
              -41.885663
            ],
            [
              -55.444195,
              -41.708054
            ],
            [
              -55.504194,
              -41.533991
            ],
            [
              -55.58674,
              -41.36515
            ],
            [
              -55.691038,
              -41.203158
            ],
            [
              -55.816083,
              -41.049575
            ],
            [
              -55.960672,
              -40.90588
            ],
            [
              -56.123411,
              -40.773456
            ],
            [
              -56.302734,
              -40.653579
            ],
            [
              -56.496913,
              -40.547404
            ],
            [
              -56.704079,
              -40.455953
            ],
            [
              -56.922236,
              -40.380106
            ],
            [
              -57.149283,
              -40.320595
            ],
            [
              -57.383035,
              -40.277992
            ],
            [
              -57.621239,
              -40.252707
            ],
            [
              -57.861601,
              -40.244985
            ],
            [
              -58.101808,
              -40.254899
            ],
            [
              -58.339544,
              -40.282354
            ],
            [
              -58.572522,
              -40.327086
            ],
            [
              -58.798497,
              -40.388663
            ],
            [
              -59.015293,
              -40.466493
            ],
            [
              -59.220822,
              -40.559826
            ],
            [
              -59.413105,
              -40.667764
            ],
            [
              -59.590289,
              -40.789267
            ],
            [
              -59.75067,
              -40.923164
            ],
            [
              -59.892701,
              -41.068166
            ],
            [
              -60.015015,
              -41.222878
            ]
          ]
        ],
        "type": "Polygon"
      },
      "properties": {
        "kind": "reachableSet",
        "observationStatus": "estimated",
        "vessel": "B"
      },
      "type": "Feature"
    }
  ],
  "properties": {
    "dateline": false
  },
  "type": "FeatureCollection"
}
