{
  "features": [
    {
      "geometry": {
        "coordinates": [
          -60.33573,
          -45.238402
        ],
        "type": "Point"
      },
      "properties": {
        "mmsi": "441239687",
        "observationStatus": "observed",
        "role": "off",
        "time": "2017-02-12T07:44:27Z",
        "vessel": "A"
      },
      "type": "Feature"
    },
    {
      "geometry": {
        "coordinates": [
          -60.43299,
          -45.241212
        ],
        "type": "Point"
      },
      "properties": {
        "mmsi": "412329691",
        "observationStatus": "observed",
        "role": "off",
        "time": "2017-02-12T08:00:05Z",
        "vessel": "B"
      },
      "type": "Feature"
    },
    {
      "geometry": {
        "coordinates": [
          -60.271667,
          -45.145
        ],
        "type": "Point"
      },
      "properties": {
        "mmsi": "441239687",
        "observationStatus": "observed",
        "role": "on",
        "time": "2017-02-13T00:41:17Z",
        "vessel": "A"
      },
      "type": "Feature"
    },
    {
      "geometry": {
        "coordinates": [
          -60.220697,
          -45.114127
        ],
        "type": "Point"
      },
      "properties": {
        "mmsi": "412329691",
        "observationStatus": "observed",
        "role": "on",
        "time": "2017-02-13T00:44:23Z",
        "vessel": "B"
      },
      "type": "Feature"
    },
    {
      "geometry": {
        "coordinates": [
          [
            -60.33573,
            -45.238402
          ],
          [
            -60.326843,
            -45.177669
          ],
          [
            -60.271667,
            -45.145
          ]
        ],
        "type": "LineString"
      },
      "properties": {
        "confidence": "low",
        "lineStyle": "dashed",
        "observationStatus": "estimated",
        "source": "reachable-set heuristic",
        "vessel": "A"
      },
      "type": "Feature"
    },
    {
      "geometry": {
        "coordinates": [
          [
            -60.43299,
            -45.241212
          ],
          [
            -60.326843,
            -45.177669
          ],
          [
            -60.220697,
            -45.114127
          ]
        ],
        "type": "LineString"
      },
      "properties": {
        "confidence": "low",
        "lineStyle": "dashed",
        "observationStatus": "estimated",
        "source": "reachable-set heuristic",
        "vessel": "B"
      },
      "type": "Feature"
    },
    {
      "geometry": {
        "coordinates": [
          -60.326843,
          -45.177669
        ],
        "type": "Point"
      },
      "properties": {
        "kind": "meetingPoint",
        "observationStatus": "estimated"
      },
      "type": "Feature"
    },
    {
      "geometry": {
        "coordinates": [
          [
            [
              -59.232914,
              -43.630542
            ],
            [
              -59.453642,
              -43.563625
            ],
            [
              -59.682556,
              -43.512387
            ],
            [
              -59.917452,
              -43.477323
            ],
            [
              -60.156068,
              -43.458768
            ],
            [
              -60.396106,
              -43.456903
            ],
            [
              -60.635254,
              -43.471744
            ],
            [
              -60.871209,
              -43.50315
            ],
            [
              -61.101698,
              -43.550818
            ],
            [
              -61.324503,
              -43.614288
            ],
            [
              -61.537476,
              -43.692949
            ],
            [
              -61.738567,
              -43.786044
            ],
            [
              -61.92584,
              -43.892677
            ],
            [
              -62.097491,
              -44.01182
            ],
            [
              -62.251866,
              -44.142325
            ],
            [
              -62.38748,
              -44.282937
            ],
            [
              -62.503025,
              -44.432301
            ],
            [
              -62.59739,
              -44.588978
            ],
            [
              -62.669666,
              -44.751459
            ],
            [
              -62.719155,
              -44.918181
            ],
            [
              -62.745383,
              -45.087536
            ],
            [
              -62.748096,
              -45.257895
            ],
            [
              -62.727268,
              -45.427616
            ],
            [
              -62.6831,
              -45.595066
            ],
            [
              -62.616016,
              -45.75863
            ],
            [
              -62.526664,
              -45.916735
            ],
            [
              -62.415904,
              -46.067857
            ],
            [
              -62.284802,
              -46.210542
            ],
            [
              -62.13462,
              -46.343414
            ],
            [
              -61.966806,
              -46.465195
            ],
            [
              -61.782975,
              -46.574711
            ],
            [
              -61.584898,
              -46.670908
            ],
            [
              -61.374483,
              -46.75286
            ],
            [
              -61.153755,
              -46.819777
            ],
            [
              -60.924841,
              -46.871014
            ],
            [
              -60.689944,
              -46.906079
            ],
            [
              -60.451328,
              -46.924634
            ],
            [
              -60.21129,
              -46.926499
            ],
            [
              -59.972142,
              -46.911657
            ],
            [
              -59.736188,
              -46.880251
            ],
            [
              -59.505698,
              -46.832584
            ],
            [
              -59.282894,
              -46.769114
            ],
            [
              -59.069921,
              -46.690452
            ],
            [
              -58.868829,
              -46.597357
            ],
            [
              -58.681557,
              -46.490725
            ],
            [
              -58.509906,
              -46.371582
            ],
            [
              -58.35553,
              -46.241076
            ],
            [
              -58.219917,
              -46.100465
            ],
            [
              -58.104371,
              -45.951101
            ],
            [
              -58.010006,
              -45.794424
            ],
            [
              -57.937731,
              -45.631942
            ],
            [
              -57.888241,
              -45.465221
            ],
            [
              -57.862014,
              -45.295865
            ],
            [
              -57.859301,
              -45.125507
            ],
            [
              -57.880129,
              -44.955785
            ],
            [
              -57.924297,
              -44.788336
            ],
            [
              -57.99138,
              -44.624772
            ],
            [
              -58.080732,
              -44.466667
            ],
            [
              -58.191493,
              -44.315545
            ],
            [
              -58.322595,
              -44.17286
            ],
            [
              -58.472776,
              -44.039988
            ],
            [
              -58.640591,
              -43.918207
            ],
            [
              -58.824421,
              -43.808691
            ],
            [
              -59.022498,
              -43.712493
            ],
            [
              -59.232914,
              -43.630542
            ]
          ]
        ],
        "type": "Polygon"
      },
      "properties": {
        "kind": "reachableSet",
        "observationStatus": "estimated",
        "vessel": "A"
      },
      "type": "Feature"
    },
    {
      "geometry": {
        "coordinates": [
          [
            [
              -58.48133,
              -44.072891
            ],
            [
              -58.642548,
              -43.950046
            ],
            [
              -58.819986,
              -43.839023
            ],
            [
              -59.011936,
              -43.740893
            ],
            [
              -59.216549,
              -43.656599
            ],
            [
              -59.431855,
              -43.586954
            ],
            [
              -59.65578,
              -43.532628
            ],
            [
              -59.886168,
              -43.494145
            ],
            [
              -60.1208,
              -43.471876
            ],
            [
              -60.357416,
              -43.466034
            ],
            [
              -60.593738,
              -43.476676
            ],
            [
              -60.827489,
              -43.5037
            ],
            [
              -61.056419,
              -43.546844
            ],
            [
              -61.278323,
              -43.605695
            ],
            [
              -61.491063,
              -43.679684
            ],
            [
              -61.692591,
              -43.7681
            ],
            [
              -61.880967,
              -43.870091
            ],
            [
              -62.054375,
              -43.984675
            ],
            [
              -62.211147,
              -44.110748
            ],
            [
              -62.349771,
              -44.247095
            ],
            [
              -62.468913,
              -44.392405
            ],
            [
              -62.567427,
              -44.545277
            ],
            [
              -62.644362,
              -44.70424
            ],
            [
              -62.698978,
              -44.867762
            ],
            [
              -62.730749,
              -45.034268
            ],
            [
              -62.73937,
              -45.202156
            ],
            [
              -62.724756,
              -45.369807
            ],
            [
              -62.687049,
              -45.535608
            ],
            [
              -62.626612,
              -45.697963
            ],
            [
              -62.544027,
              -45.855306
            ],
            [
              -62.44009,
              -46.006123
            ],
            [
              -62.3158,
              -46.148962
            ],
            [
              -62.172356,
              -46.282447
            ],
            [
              -62.011139,
              -46.405293
            ],
            [
              -61.833701,
              -46.516315
            ],
            [
              -61.641751,
              -46.614446
            ],
            [
              -61.437138,
              -46.698739
            ],
            [
              -61.221832,
              -46.768384
            ],
            [
              -60.997907,
              -46.82271
            ],
            [
              -60.767519,
              -46.861193
            ],
            [
              -60.532887,
              -46.883462
            ],
            [
              -60.296271,
              -46.889304
            ],
            [
              -60.059949,
              -46.878662
            ],
            [
              -59.826198,
              -46.851639
            ],
            [
              -59.597268,
              -46.808494
            ],
            [
              -59.375364,
              -46.749643
            ],
            [
              -59.162624,
              -46.675654
            ],
            [
              -58.961095,
              -46.587238
            ],
            [
              -58.77272,
              -46.485247
            ],
            [
              -58.599311,
              -46.370664
            ],
            [
              -58.44254,
              -46.244591
            ],
            [
              -58.303916,
              -46.108243
            ],
            [
              -58.184773,
              -45.962933
            ],
            [
              -58.08626,
              -45.810061
            ],
            [
              -58.009325,
              -45.651099
            ],
            [
              -57.954709,
              -45.487577
            ],
            [
              -57.922937,
              -45.32107
            ],
            [
              -57.914317,
              -45.153183
            ],
            [
              -57.928931,
              -44.985531
            ],
            [
              -57.966637,
              -44.81973
            ],
            [
              -58.027074,
              -44.657376
            ],
            [
              -58.109659,
              -44.500032
            ],
            [
              -58.213597,
              -44.349215
            ],
            [
              -58.337886,
              -44.206376
            ],
            [
              -58.48133,
              -44.072891
            ]
          ]
        ],
        "type": "Polygon"
      },
      "properties": {
        "kind": "reachableSet",
        "observationStatus": "estimated",
        "vessel": "B"
      },
      "type": "Feature"
    }
  ],
  "properties": {
    "dateline": false
  },
  "type": "FeatureCollection"
}
