{
  "features": [
    {
      "geometry": {
        "coordinates": [
          -60.629847,
          -45.656753
        ],
        "type": "Point"
      },
      "properties": {
        "mmsi": "412329686",
        "observationStatus": "observed",
        "role": "off",
        "time": "2017-01-04T06:13:16Z",
        "vessel": "A"
      },
      "type": "Feature"
    },
    {
      "geometry": {
        "coordinates": [
          -60.601165,
          -45.646462
        ],
        "type": "Point"
      },
      "properties": {
        "mmsi": "412329693",
        "observationStatus": "observed",
        "role": "off",
        "time": "2017-01-04T06:13:52Z",
        "vessel": "B"
      },
      "type": "Feature"
    },
    {
      "geometry": {
        "coordinates": [
          -60.101667,
          -45.023333
        ],
        "type": "Point"
      },
      "properties": {
        "mmsi": "412329693",
        "observationStatus": "observed",
        "role": "on",
        "time": "2017-01-05T00:09:55Z",
        "vessel": "B"
      },
      "type": "Feature"
    },
    {
      "geometry": {
        "coordinates": [
          -60.166933,
          -45.075665
        ],
        "type": "Point"
      },
      "properties": {
        "mmsi": "412329686",
        "observationStatus": "observed",
        "role": "on",
        "time": "2017-01-05T00:21:40Z",
        "vessel": "A"
      },
      "type": "Feature"
    },
    {
      "geometry": {
        "coordinates": [
          [
            -60.629847,
            -45.656753
          ],
          [
            -60.365757,
            -45.340043
          ],
          [
            -60.166933,
            -45.075665
          ]
        ],
        "type": "LineString"
      },
      "properties": {
        "confidence": "low",
        "lineStyle": "dashed",
        "observationStatus": "estimated",
        "source": "reachable-set heuristic",
        "vessel": "A"
      },
      "type": "Feature"
    },
    {
      "geometry": {
        "coordinates": [
          [
            -60.601165,
            -45.646462
          ],
          [
            -60.365757,
            -45.340043
          ],
          [
            -60.101667,
            -45.023333
          ]
        ],
        "type": "LineString"
      },
      "properties": {
        "confidence": "low",
        "lineStyle": "dashed",
        "observationStatus": "estimated",
        "source": "reachable-set heuristic",
        "vessel": "B"
      },
      "type": "Feature"
    },
    {
      "geometry": {
        "coordinates": [
          -60.365757,
          -45.340043
        ],
        "type": "Point"
      },
      "properties": {
        "kind": "meetingPoint",
        "observationStatus": "estimated"
      },
      "type": "Feature"
    },
    {
      "geometry": {
        "coordinates": [
          [
            [
              -59.103279,
              -43.740475
            ],
            [
              -59.331169,
              -43.659958
            ],
            [
              -59.569338,
              -43.595872
            ],
            [
              -59.81549,
              -43.548836
            ],
            [
              -60.067256,
              -43.519302
            ],
            [
              -60.322211,
              -43.507554
            ],
            [
              -60.5779,
              -43.513707
            ],
            [
              -60.83186,
              -43.5377
            ],
            [
              -61.081645,
              -43.579303
            ],
            [
              -61.32485,
              -43.638114
            ],
            [
              -61.559133,
              -43.713568
            ],
            [
              -61.782238,
              -43.804938
            ],
            [
              -61.992015,
              -43.911344
            ],
            [
              -62.186444,
              -44.031761
            ],
            [
              -62.363654,
              -44.16503
            ],
            [
              -62.521937,
              -44.309866
            ],
            [
              -62.65977,
              -44.464876
            ],
            [
              -62.775823,
              -44.628566
            ],
            [
              -62.868981,
              -44.799359
            ],
            [
              -62.938346,
              -44.975612
            ],
            [
              -62.98325,
              -45.155627
            ],
            [
              -63.00326,
              -45.33767
            ],
            [
              -62.998183,
              -45.519987
            ],
            [
              -62.96807,
              -45.700824
            ],
            [
              -62.913208,
              -45.878438
            ],
            [
              -62.834128,
              -46.051118
            ],
            [
              -62.731591,
              -46.217203
            ],
            [
              -62.606583,
              -46.375093
            ],
            [
              -62.460309,
              -46.523266
            ],
            [
              -62.294178,
              -46.660296
            ],
            [
              -62.109789,
              -46.784863
            ],
            [
              -61.908919,
              -46.895768
            ],
            [
              -61.693501,
              -46.991943
            ],
            [
              -61.465611,
              -47.072461
            ],
            [
              -61.227442,
              -47.136546
            ],
            [
              -60.98129,
              -47.183583
            ],
            [
              -60.729524,
              -47.213117
            ],
            [
              -60.474569,
              -47.224864
            ],
            [
              -60.21888,
              -47.218711
            ],
            [
              -59.96492,
              -47.194718
            ],
            [
              -59.715135,
              -47.153116
            ],
            [
              -59.47193,
              -47.094304
            ],
            [
              -59.237647,
              -47.01885
            ],
            [
              -59.014542,
              -46.92748
            ],
            [
              -58.804765,
              -46.821074
            ],
            [
              -58.610336,
              -46.700657
            ],
            [
              -58.433126,
              -46.567389
            ],
            [
              -58.274843,
              -46.422552
            ],
            [
              -58.13701,
              -46.267543
            ],
            [
              -58.020957,
              -46.103853
            ],
            [
              -57.927799,
              -45.933059
            ],
            [
              -57.858434,
              -45.756806
            ],
            [
              -57.81353,
              -45.576791
            ],
            [
              -57.79352,
              -45.394749
            ],
            [
              -57.798597,
              -45.212431
            ],
            [
              -57.82871,
              -45.031595
            ],
            [
              -57.883572,
              -44.853981
            ],
            [
              -57.962652,
              -44.6813
            ],
            [
              -58.065189,
              -44.515215
            ],
            [
              -58.190197,
              -44.357326
            ],
            [
              -58.336471,
              -44.209152
            ],
            [
              -58.502602,
              -44.072122
            ],
            [
              -58.686991,
              -43.947555
            ],
            [
              -58.887861,
              -43.83665
            ],
            [
              -59.103279,
              -43.740475
            ]
          ]
        ],
        "type": "Polygon"
      },
      "properties": {
        "kind": "reachableSet",
        "observationStatus": "estimated",
        "vessel": "A"
      },
      "type": "Feature"
    },
    {
      "geometry": {
        "coordinates": [
          [
            [
              -59.06599,
              -43.731318
            ],
            [
              -59.290036,
              -43.65157
            ],
            [
              -59.524303,
              -43.588032
            ],
            [
              -59.766535,
              -43.541318
            ],
            [
              -60.014401,
              -43.511878
            ],
            [
              -60.265512,
              -43.499993
            ],
            [
              -60.51745,
              -43.50578
            ],
            [
              -60.767789,
              -43.529183
            ],
            [
              -61.014118,
              -43.569975
            ],
            [
              -61.254066,
              -43.627765
            ],
            [
              -61.48532,
              -43.701995
            ],
            [
              -61.705654,
              -43.791951
            ],
            [
              -61.912946,
              -43.896766
            ],
            [
              -62.1052,
              -44.015432
            ],
            [
              -62.280563,
              -44.146804
            ],
            [
              -62.437348,
              -44.289619
            ],
            [
              -62.574045,
              -44.4425
            ],
            [
              -62.689336,
              -44.603975
            ],
            [
              -62.782112,
              -44.77249
            ],
            [
              -62.851478,
              -44.946421
            ],
            [
              -62.896768,
              -45.124093
            ],
            [
              -62.917545,
              -45.303795
            ],
            [
              -62.913608,
              -45.483797
            ],
            [
              -62.884997,
              -45.662365
            ],
            [
              -62.831985,
              -45.837779
            ],
            [
              -62.755084,
              -46.00835
            ],
            [
              -62.655035,
              -46.172435
            ],
            [
              -62.5328,
              -46.328455
            ],
            [
              -62.389558,
              -46.474906
            ],
            [
              -62.226687,
              -46.610378
            ],
            [
              -62.045756,
              -46.733566
            ],
            [
              -61.848508,
              -46.843285
            ],
            [
              -61.636842,
              -46.938477
            ],
            [
              -61.412796,
              -47.018225
            ],
            [
              -61.178529,
              -47.081763
            ],
            [
              -60.936296,
              -47.128477
            ],
            [
              -60.688431,
              -47.157917
            ],
            [
              -60.43732,
              -47.169802
            ],
            [
              -60.185382,
              -47.164015
            ],
            [
              -59.935043,
              -47.140612
            ],
            [
              -59.688713,
              -47.09982
            ],
            [
              -59.448766,
              -47.04203
            ],
            [
              -59.217512,
              -46.9678
            ],
            [
              -58.997178,
              -46.877844
            ],
            [
              -58.789886,
              -46.773029
            ],
            [
              -58.597632,
              -46.654363
            ],
            [
              -58.422268,
              -46.522991
            ],
            [
              -58.265483,
              -46.380176
            ],
            [
              -58.128787,
              -46.227295
            ],
            [
              -58.013496,
              -46.06582
            ],
            [
              -57.92072,
              -45.897305
            ],
            [
              -57.851353,
              -45.723374
            ],
            [
              -57.806064,
              -45.545702
            ],
            [
              -57.785287,
              -45.366
            ],
            [
              -57.789223,
              -45.185998
            ],
            [
              -57.817835,
              -45.00743
            ],
            [
              -57.870847,
              -44.832016
            ],
            [
              -57.947748,
              -44.661445
            ],
            [
              -58.047797,
              -44.49736
            ],
            [
              -58.170032,
              -44.34134
            ],
            [
              -58.313274,
              -44.194889
            ],
            [
              -58.476145,
              -44.059417
            ],
            [
              -58.657076,
              -43.936229
            ],
            [
              -58.854324,
              -43.82651
            ],
            [
              -59.06599,
              -43.731318
            ]
          ]
        ],
        "type": "Polygon"
      },
      "properties": {
        "kind": "reachableSet",
        "observationStatus": "estimated",
        "vessel": "B"
      },
      "type": "Feature"
    }
  ],
  "properties": {
    "dateline": false
  },
  "type": "FeatureCollection"
}
