{
  "features": [
    {
      "geometry": {
        "coordinates": [
          -57.877307,
          -42.032533
        ],
        "type": "Point"
      },
      "properties": {
        "mmsi": "412420417",
        "observationStatus": "observed",
        "role": "off",
        "time": "2018-04-13T18:03:02Z",
        "vessel": "A"
      },
      "type": "Feature"
    },
    {
      "geometry": {
        "coordinates": [
          -57.875393,
          -42.041093
        ],
        "type": "Point"
      },
      "properties": {
        "mmsi": "412420809",
        "observationStatus": "observed",
        "role": "off",
        "time": "2018-04-13T18:53:07Z",
        "vessel": "B"
      },
      "type": "Feature"
    },
    {
      "geometry": {
        "coordinates": [
          -58.003625,
          -42.132592
        ],
        "type": "Point"
      },
      "properties": {
        "mmsi": "412420417",
        "observationStatus": "observed",
        "role": "on",
        "time": "2018-04-14T10:30:36Z",
        "vessel": "A"
      },
      "type": "Feature"
    },
    {
      "geometry": {
        "coordinates": [
          -57.944993,
          -42.17663
        ],
        "type": "Point"
      },
      "properties": {
        "mmsi": "412420809",
        "observationStatus": "observed",
        "role": "on",
        "time": "2018-04-14T11:12:35Z",
        "vessel": "B"
      },
      "type": "Feature"
    },
    {
      "geometry": {
        "coordinates": [
          [
            -57.877307,
            -42.032533
          ],
          [
            -57.939509,
            -42.086891
          ],
          [
            -58.003625,
            -42.132592
          ]
        ],
        "type": "LineString"
      },
      "properties": {
        "confidence": "low",
        "lineStyle": "dashed",
        "observationStatus": "estimated",
        "source": "reachable-set heuristic",
        "vessel": "A"
      },
      "type": "Feature"
    },
    {
      "geometry": {
        "coordinates": [
          [
            -57.875393,
            -42.041093
          ],
          [
            -57.939509,
            -42.086891
          ],
          [
            -57.944993,
            -42.17663
          ]
        ],
        "type": "LineString"
      },
      "properties": {
        "confidence": "low",
        "lineStyle": "dashed",
        "observationStatus": "estimated",
        "source": "reachable-set heuristic",
        "vessel": "B"
      },
      "type": "Feature"
    },
    {
      "geometry": {
        "coordinates": [
          -57.939509,
          -42.086891
        ],
        "type": "Point"
      },
      "properties": {
        "kind": "meetingPoint",
        "observationStatus": "estimated"
      },
      "type": "Feature"
    },
    {
      "geometry": {
        "coordinates": [
          [
            [
              -59.367217,
              -43.21271
            ],
            [
              -59.212243,
              -43.311661
            ],
            [
              -59.045021,
              -43.398775
            ],
            [
              -58.867162,
              -43.473212
            ],
            [
              -58.680378,
              -43.534258
            ],
            [
              -58.486468,
              -43.581322
            ],
            [
              -58.2873,
              -43.613953
            ],
            [
              -58.084792,
              -43.631835
            ],
            [
              -57.880894,
              -43.634797
            ],
            [
              -57.677569,
              -43.622811
            ],
            [
              -57.476777,
              -43.595991
            ],
            [
              -57.280449,
              -43.554595
            ],
            [
              -57.090479,
              -43.499024
            ],
            [
              -56.908694,
              -43.42981
            ],
            [
              -56.736845,
              -43.347623
            ],
            [
              -56.576589,
              -43.253252
            ],
            [
              -56.429467,
              -43.147606
            ],
            [
              -56.296896,
              -43.031704
            ],
            [
              -56.180155,
              -42.906661
            ],
            [
              -56.080366,
              -42.773681
            ],
            [
              -55.99849,
              -42.634046
            ],
            [
              -55.935317,
              -42.489099
            ],
            [
              -55.891455,
              -42.340238
            ],
            [
              -55.867326,
              -42.188894
            ],
            [
              -55.863162,
              -42.036527
            ],
            [
              -55.879004,
              -41.884603
            ],
            [
              -55.914699,
              -41.734586
            ],
            [
              -55.969903,
              -41.587919
            ],
            [
              -56.044085,
              -41.446017
            ],
            [
              -56.13653,
              -41.310244
            ],
            [
              -56.246348,
              -41.18191
            ],
            [
              -56.372481,
              -41.062249
            ],
            [
              -56.513714,
              -40.952415
            ],
            [
              -56.668688,
              -40.853464
            ],
            [
              -56.83591,
              -40.76635
            ],
            [
              -57.01377,
              -40.691913
            ],
            [
              -57.200554,
              -40.630867
            ],
            [
              -57.394463,
              -40.583803
            ],
            [
              -57.593631,
              -40.551172
            ],
            [
              -57.79614,
              -40.53329
            ],
            [
              -58.000038,
              -40.530328
            ],
            [
              -58.203362,
              -40.542314
            ],
            [
              -58.404155,
              -40.569134
            ],
            [
              -58.600482,
              -40.61053
            ],
            [
              -58.790453,
              -40.666101
            ],
            [
              -58.972238,
              -40.735315
            ],
            [
              -59.144086,
              -40.817502
            ],
            [
              -59.304343,
              -40.911873
            ],
            [
              -59.451465,
              -41.017519
            ],
            [
              -59.584035,
              -41.133421
            ],
            [
              -59.700777,
              -41.258464
            ],
            [
              -59.800566,
              -41.391444
            ],
            [
              -59.882441,
              -41.531079
            ],
            [
              -59.945614,
              -41.676026
            ],
            [
              -59.989477,
              -41.824887
            ],
            [
              -60.013606,
              -41.976231
            ],
            [
              -60.017769,
              -42.128598
            ],
            [
              -60.001928,
              -42.280522
            ],
            [
              -59.966233,
              -42.430539
            ],
            [
              -59.911029,
              -42.577206
            ],
            [
              -59.836847,
              -42.719108
            ],
            [
              -59.744402,
              -42.854881
            ],
            [
              -59.634584,
              -42.983215
            ],
            [
              -59.508451,
              -43.102876
            ],
            [
              -59.367217,
              -43.21271
            ]
          ]
        ],
        "type": "Polygon"
      },
      "properties": {
        "kind": "reachableSet",
        "observationStatus": "estimated",
        "vessel": "A"
      },
      "type": "Feature"
    },
    {
      "geometry": {
        "coordinates": [
          [
            [
              -58.648591,
              -43.546791
            ],
            [
              -58.456543,
              -43.593865
            ],
            [
              -58.259235,
              -43.626637
            ],
            [
              -58.058564,
              -43.644792
            ],
            [
              -57.856465,
              -43.648155
            ],
            [
              -57.654884,
              -43.636694
            ],
            [
              -57.455761,
              -43.61052
            ],
            [
              -57.261014,
              -43.569883
            ],
            [
              -57.07252,
              -43.515176
            ],
            [
              -56.892092,
              -43.446925
            ],
            [
              -56.72147,
              -43.365788
            ],
            [
              -56.562296,
              -43.272547
            ],
            [
              -56.416102,
              -43.168098
            ],
            [
              -56.284298,
              -43.053448
            ],
            [
              -56.168152,
              -42.929702
            ],
            [
              -56.068782,
              -42.79805
            ],
            [
              -55.987147,
              -42.659761
            ],
            [
              -55.924031,
              -42.516166
            ],
            [
              -55.880043,
              -42.368649
            ],
            [
              -55.855607,
              -42.21863
            ],
            [
              -55.850958,
              -42.067554
            ],
            [
              -55.86614,
              -41.916876
            ],
            [
              -55.901007,
              -41.768047
            ],
            [
              -55.955224,
              -41.6225
            ],
            [
              -56.028268,
              -41.481636
            ],
            [
              -56.119437,
              -41.346814
            ],
            [
              -56.227851,
              -41.21933
            ],
            [
              -56.352467,
              -41.100413
            ],
            [
              -56.492085,
              -40.991208
            ],
            [
              -56.64536,
              -40.892766
            ],
            [
              -56.810816,
              -40.806037
            ],
            [
              -56.98686,
              -40.731854
            ],
            [
              -57.171796,
              -40.670932
            ],
            [
              -57.363843,
              -40.623859
            ],
            [
              -57.561152,
              -40.591086
            ],
            [
              -57.761822,
              -40.572931
            ],
            [
              -57.963921,
              -40.569568
            ],
            [
              -58.165503,
              -40.581029
            ],
            [
              -58.364626,
              -40.607204
            ],
            [
              -58.559372,
              -40.64784
            ],
            [
              -58.747867,
              -40.702547
            ],
            [
              -58.928294,
              -40.770798
            ],
            [
              -59.098917,
              -40.851935
            ],
            [
              -59.258091,
              -40.945177
            ],
            [
              -59.404284,
              -41.049625
            ],
            [
              -59.536089,
              -41.164275
            ],
            [
              -59.652235,
              -41.288022
            ],
            [
              -59.751604,
              -41.419673
            ],
            [
              -59.83324,
              -41.557962
            ],
            [
              -59.896355,
              -41.701557
            ],
            [
              -59.940343,
              -41.849074
            ],
            [
              -59.96478,
              -41.999093
            ],
            [
              -59.969429,
              -42.150169
            ],
            [
              -59.954247,
              -42.300847
            ],
            [
              -59.91938,
              -42.449677
            ],
            [
              -59.865163,
              -42.595224
            ],
            [
              -59.792118,
              -42.736087
            ],
            [
              -59.70095,
              -42.870909
            ],
            [
              -59.592536,
              -42.998393
            ],
            [
              -59.467919,
              -43.11731
            ],
            [
              -59.328301,
              -43.226515
            ],
            [
              -59.175026,
              -43.324957
            ],
            [
              -59.00957,
              -43.411687
            ],
            [
              -58.833526,
              -43.48587
            ],
            [
              -58.648591,
              -43.546791
            ]
          ]
        ],
        "type": "Polygon"
      },
      "properties": {
        "kind": "reachableSet",
        "observationStatus": "estimated",
        "vessel": "B"
      },
      "type": "Feature"
    }
  ],
  "properties": {
    "dateline": false
  },
  "type": "FeatureCollection"
}
