{
  "features": [
    {
      "geometry": {
        "coordinates": [
          -60.631513,
          -45.771443
        ],
        "type": "Point"
      },
      "properties": {
        "mmsi": "412331067",
        "observationStatus": "observed",
        "role": "off",
        "time": "2019-01-02T03:34:52Z",
        "vessel": "A"
      },
      "type": "Feature"
    },
    {
      "geometry": {
        "coordinates": [
          -60.646973,
          -45.804042
        ],
        "type": "Point"
      },
      "properties": {
        "mmsi": "412331209",
        "observationStatus": "observed",
        "role": "off",
        "time": "2019-01-02T04:24:48Z",
        "vessel": "B"
      },
      "type": "Feature"
    },
    {
      "geometry": {
        "coordinates": [
          -60.468483,
          -45.307327
        ],
        "type": "Point"
      },
      "properties": {
        "mmsi": "412331209",
        "observationStatus": "observed",
        "role": "on",
        "time": "2019-01-02T16:51:35Z",
        "vessel": "B"
      },
      "type": "Feature"
    },
    {
      "geometry": {
        "coordinates": [
          -60.442347,
          -45.300613
        ],
        "type": "Point"
      },
      "properties": {
        "mmsi": "412331067",
        "observationStatus": "observed",
        "role": "on",
        "time": "2019-01-02T17:20:01Z",
        "vessel": "A"
      },
      "type": "Feature"
    },
    {
      "geometry": {
        "coordinates": [
          [
            -60.631513,
            -45.771443
          ],
          [
            -60.588525,
            -45.643503
          ],
          [
            -60.442347,
            -45.300613
          ]
        ],
        "type": "LineString"
      },
      "properties": {
        "confidence": "low",
        "lineStyle": "dashed",
        "observationStatus": "estimated",
        "source": "reachable-set heuristic",
        "vessel": "A"
      },
      "type": "Feature"
    },
    {
      "geometry": {
        "coordinates": [
          [
            -60.646973,
            -45.804042
          ],
          [
            -60.588525,
            -45.643503
          ],
          [
            -60.468483,
            -45.307327
          ]
        ],
        "type": "LineString"
      },
      "properties": {
        "confidence": "low",
        "lineStyle": "dashed",
        "observationStatus": "estimated",
        "source": "reachable-set heuristic",
        "vessel": "B"
      },
      "type": "Feature"
    },
    {
      "geometry": {
        "coordinates": [
          -60.588525,
          -45.643503
        ],
        "type": "Point"
      },
      "properties": {
        "kind": "meetingPoint",
        "observationStatus": "estimated"
      },
      "type": "Feature"
    },
    {
      "geometry": {
        "coordinates": [
          [
            [
              -60.041522,
              -44.302974
            ],
            [
              -60.212137,
              -44.275297
            ],
            [
              -60.38588,
              -44.259762
            ],
            [
              -60.561077,
              -44.256518
            ],
            [
              -60.736042,
              -44.265596
            ],
            [
              -60.90909,
              -44.28691
            ],
            [
              -61.078553,
              -44.320253
            ],
            [
              -61.2428,
              -44.365305
            ],
            [
              -61.400249,
              -44.421631
            ],
            [
              -61.549384,
              -44.48869
            ],
            [
              -61.688769,
              -44.565835
            ],
            [
              -61.817061,
              -44.652323
            ],
            [
              -61.933024,
              -44.747323
            ],
            [
              -62.035542,
              -44.849917
            ],
            [
              -62.123628,
              -44.95912
            ],
            [
              -62.196433,
              -45.073878
            ],
            [
              -62.253256,
              -45.193087
            ],
            [
              -62.29355,
              -45.315599
            ],
            [
              -62.316926,
              -45.440234
            ],
            [
              -62.323161,
              -45.565791
            ],
            [
              -62.312193,
              -45.691062
            ],
            [
              -62.284128,
              -45.814839
            ],
            [
              -62.239237,
              -45.935932
            ],
            [
              -62.177951,
              -46.053173
            ],
            [
              -62.100862,
              -46.165434
            ],
            [
              -62.008711,
              -46.271633
            ],
            [
              -61.902386,
              -46.370748
            ],
            [
              -61.782911,
              -46.461824
            ],
            [
              -61.651437,
              -46.543985
            ],
            [
              -61.509229,
              -46.616438
            ],
            [
              -61.357657,
              -46.678486
            ],
            [
              -61.198182,
              -46.729531
            ],
            [
              -61.032338,
              -46.769083
            ],
            [
              -60.861723,
              -46.79676
            ],
            [
              -60.68798,
              -46.812295
            ],
            [
              -60.512783,
              -46.815539
            ],
            [
              -60.337818,
              -46.80646
            ],
            [
              -60.16477,
              -46.785147
            ],
            [
              -59.995307,
              -46.751804
            ],
            [
              -59.83106,
              -46.706752
            ],
            [
              -59.673611,
              -46.650426
            ],
            [
              -59.524476,
              -46.583367
            ],
            [
              -59.385091,
              -46.506222
            ],
            [
              -59.256799,
              -46.419733
            ],
            [
              -59.140836,
              -46.324734
            ],
            [
              -59.038318,
              -46.222139
            ],
            [
              -58.950232,
              -46.112937
            ],
            [
              -58.877427,
              -45.998179
            ],
            [
              -58.820604,
              -45.878969
            ],
            [
              -58.78031,
              -45.756458
            ],
            [
              -58.756934,
              -45.631823
            ],
            [
              -58.750699,
              -45.506266
            ],
            [
              -58.761667,
              -45.380995
            ],
            [
              -58.789732,
              -45.257217
            ],
            [
              -58.834623,
              -45.136125
            ],
            [
              -58.895909,
              -45.018884
            ],
            [
              -58.972998,
              -44.906623
            ],
            [
              -59.065149,
              -44.800424
            ],
            [
              -59.171474,
              -44.701309
            ],
            [
              -59.290949,
              -44.610232
            ],
            [
              -59.422423,
              -44.528072
            ],
            [
              -59.564631,
              -44.455619
            ],
            [
              -59.716203,
              -44.393571
            ],
            [
              -59.875678,
              -44.342525
            ],
            [
              -60.041522,
              -44.302974
            ]
          ]
        ],
        "type": "Polygon"
      },
      "properties": {
        "kind": "reachableSet",
        "observationStatus": "estimated",
        "vessel": "A"
      },
      "type": "Feature"
    },
    {
      "geometry": {
        "coordinates": [
          [
            [
              -60.09024,
              -44.254723
            ],
            [
              -60.270048,
              -44.229279
            ],
            [
              -60.452626,
              -44.216609
            ],
            [
              -60.636216,
              -44.216835
            ],
            [
              -60.819051,
              -44.229954
            ],
            [
              -60.999369,
              -44.255841
            ],
            [
              -61.175434,
              -44.294247
            ],
            [
              -61.345549,
              -44.3448
            ],
            [
              -61.508078,
              -44.407015
            ],
            [
              -61.661454,
              -44.480293
            ],
            [
              -61.804201,
              -44.563927
            ],
            [
              -61.934944,
              -44.657112
            ],
            [
              -62.052423,
              -44.758951
            ],
            [
              -62.155507,
              -44.868463
            ],
            [
              -62.243204,
              -44.984593
            ],
            [
              -62.314669,
              -45.106223
            ],
            [
              -62.369214,
              -45.232182
            ],
            [
              -62.406313,
              -45.361256
            ],
            [
              -62.425609,
              -45.492203
            ],
            [
              -62.426917,
              -45.623761
            ],
            [
              -62.410223,
              -45.754663
            ],
            [
              -62.375689,
              -45.883649
            ],
            [
              -62.323646,
              -46.009477
            ],
            [
              -62.254597,
              -46.130934
            ],
            [
              -62.169206,
              -46.246852
            ],
            [
              -62.068296,
              -46.356113
            ],
            [
              -61.952838,
              -46.457665
            ],
            [
              -61.823945,
              -46.550531
            ],
            [
              -61.682857,
              -46.633816
            ],
            [
              -61.530933,
              -46.706718
            ],
            [
              -61.369637,
              -46.768535
            ],
            [
              -61.200522,
              -46.818672
            ],
            [
              -61.025217,
              -46.856645
            ],
            [
              -60.845409,
              -46.882089
            ],
            [
              -60.662831,
              -46.894759
            ],
            [
              -60.47924,
              -46.894534
            ],
            [
              -60.296406,
              -46.881414
            ],
            [
              -60.116088,
              -46.855527
            ],
            [
              -59.940023,
              -46.817122
            ],
            [
              -59.769907,
              -46.766568
            ],
            [
              -59.607379,
              -46.704353
            ],
            [
              -59.454002,
              -46.631075
            ],
            [
              -59.311256,
              -46.547441
            ],
            [
              -59.180513,
              -46.454256
            ],
            [
              -59.063034,
              -46.352417
            ],
            [
              -58.959949,
              -46.242905
            ],
            [
              -58.872252,
              -46.126775
            ],
            [
              -58.800787,
              -46.005145
            ],
            [
              -58.746243,
              -45.879186
            ],
            [
              -58.709144,
              -45.750112
            ],
            [
              -58.689847,
              -45.619165
            ],
            [
              -58.68854,
              -45.487607
            ],
            [
              -58.705234,
              -45.356705
            ],
            [
              -58.739768,
              -45.227719
            ],
            [
              -58.79181,
              -45.101891
            ],
            [
              -58.860859,
              -44.980434
            ],
            [
              -58.94625,
              -44.864516
            ],
            [
              -59.047161,
              -44.755255
            ],
            [
              -59.162618,
              -44.653703
            ],
            [
              -59.291512,
              -44.560837
            ],
            [
              -59.4326,
              -44.477552
            ],
            [
              -59.584523,
              -44.40465
            ],
            [
              -59.745819,
              -44.342833
            ],
            [
              -59.914934,
              -44.292697
            ],
            [
              -60.09024,
              -44.254723
            ]
          ]
        ],
        "type": "Polygon"
      },
      "properties": {
        "kind": "reachableSet",
        "observationStatus": "estimated",
        "vessel": "B"
      },
      "type": "Feature"
    }
  ],
  "properties": {
    "dateline": false
  },
  "type": "FeatureCollection"
}
