{
  "features": [
    {
      "geometry": {
        "coordinates": [
          -62.800853,
          -44.245813
        ],
        "type": "Point"
      },
      "properties": {
        "mmsi": "701000662",
        "observationStatus": "observed",
        "role": "off",
        "time": "2018-09-08T19:22:23Z",
        "vessel": "A"
      },
      "type": "Feature"
    },
    {
      "geometry": {
        "coordinates": [
          -62.798288,
          -44.245338
        ],
        "type": "Point"
      },
      "properties": {
        "mmsi": "701006074",
        "observationStatus": "observed",
        "role": "off",
        "time": "2018-09-08T20:01:46Z",
        "vessel": "B"
      },
      "type": "Feature"
    },
    {
      "geometry": {
        "coordinates": [
          -62.73983,
          -44.375315
        ],
        "type": "Point"
      },
      "properties": {
        "mmsi": "701006074",
        "observationStatus": "observed",
        "role": "on",
        "time": "2018-09-09T09:41:16Z",
        "vessel": "B"
      },
      "type": "Feature"
    },
    {
      "geometry": {
        "coordinates": [
          -62.806763,
          -44.307158
        ],
        "type": "Point"
      },
      "properties": {
        "mmsi": "701000662",
        "observationStatus": "observed",
        "role": "on",
        "time": "2018-09-09T10:25:51Z",
        "vessel": "A"
      },
      "type": "Feature"
    },
    {
      "geometry": {
        "coordinates": [
          [
            -62.800853,
            -44.245813
          ],
          [
            -62.766571,
            -44.316008
          ],
          [
            -62.806763,
            -44.307158
          ]
        ],
        "type": "LineString"
      },
      "properties": {
        "confidence": "low",
        "lineStyle": "dashed",
        "observationStatus": "estimated",
        "source": "reachable-set heuristic",
        "vessel": "A"
      },
      "type": "Feature"
    },
    {
      "geometry": {
        "coordinates": [
          [
            -62.798288,
            -44.245338
          ],
          [
            -62.766571,
            -44.316008
          ],
          [
            -62.73983,
            -44.375315
          ]
        ],
        "type": "LineString"
      },
      "properties": {
        "confidence": "low",
        "lineStyle": "dashed",
        "observationStatus": "estimated",
        "source": "reachable-set heuristic",
        "vessel": "B"
      },
      "type": "Feature"
    },
    {
      "geometry": {
        "coordinates": [
          -62.766571,
          -44.316008
        ],
        "type": "Point"
      },
      "properties": {
        "kind": "meetingPoint",
        "observationStatus": "estimated"
      },
      "type": "Feature"
    },
    {
      "geometry": {
        "coordinates": [
          [
            [
              -62.950903,
              -45.80331
            ],
            [
              -62.742624,
              -45.806349
            ],
            [
              -62.534933,
              -45.794654
            ],
            [
              -62.329833,
              -45.768338
            ],
            [
              -62.129296,
              -45.727655
            ],
            [
              -61.935256,
              -45.672997
            ],
            [
              -61.749581,
              -45.60489
            ],
            [
              -61.574058,
              -45.523989
            ],
            [
              -61.410378,
              -45.431074
            ],
            [
              -61.260118,
              -45.327039
            ],
            [
              -61.124724,
              -45.212888
            ],
            [
              -61.005501,
              -45.089718
            ],
            [
              -60.903597,
              -44.958716
            ],
            [
              -60.819993,
              -44.821145
            ],
            [
              -60.755494,
              -44.678327
            ],
            [
              -60.710721,
              -44.53164
            ],
            [
              -60.686106,
              -44.382496
            ],
            [
              -60.681885,
              -44.23233
            ],
            [
              -60.6981,
              -44.08259
            ],
            [
              -60.734594,
              -43.934717
            ],
            [
              -60.791015,
              -43.790136
            ],
            [
              -60.866821,
              -43.650238
            ],
            [
              -60.961281,
              -43.516372
            ],
            [
              -61.073486,
              -43.389826
            ],
            [
              -61.202355,
              -43.271818
            ],
            [
              -61.346646,
              -43.163487
            ],
            [
              -61.504971,
              -43.065874
            ],
            [
              -61.675804,
              -42.97992
            ],
            [
              -61.857501,
              -42.906453
            ],
            [
              -62.048311,
              -42.846179
            ],
            [
              -62.246397,
              -42.799681
            ],
            [
              -62.449851,
              -42.767405
            ],
            [
              -62.656714,
              -42.749662
            ],
            [
              -62.864993,
              -42.746623
            ],
            [
              -63.072683,
              -42.758318
            ],
            [
              -63.277784,
              -42.784633
            ],
            [
              -63.47832,
              -42.825316
            ],
            [
              -63.67236,
              -42.879975
            ],
            [
              -63.858036,
              -42.948082
            ],
            [
              -64.033559,
              -43.028983
            ],
            [
              -64.197239,
              -43.121898
            ],
            [
              -64.347499,
              -43.225932
            ],
            [
              -64.482892,
              -43.340084
            ],
            [
              -64.602115,
              -43.463254
            ],
            [
              -64.70402,
              -43.594255
            ],
            [
              -64.787624,
              -43.731827
            ],
            [
              -64.852123,
              -43.874644
            ],
            [
              -64.896896,
              -44.021332
            ],
            [
              -64.921511,
              -44.170476
            ],
            [
              -64.925731,
              -44.320641
            ],
            [
              -64.909517,
              -44.470382
            ],
            [
              -64.873023,
              -44.618254
            ],
            [
              -64.816601,
              -44.762836
            ],
            [
              -64.740795,
              -44.902733
            ],
            [
              -64.646335,
              -45.0366
            ],
            [
              -64.534131,
              -45.163146
            ],
            [
              -64.405262,
              -45.281153
            ],
            [
              -64.26097,
              -45.389485
            ],
            [
              -64.102646,
              -45.487098
            ],
            [
              -63.931812,
              -45.573052
            ],
            [
              -63.750116,
              -45.646519
            ],
            [
              -63.559306,
              -45.706792
            ],
            [
              -63.36122,
              -45.753291
            ],
            [
              -63.157766,
              -45.785567
            ],
            [
              -62.950903,
              -45.80331
            ]
          ]
        ],
        "type": "Polygon"
      },
      "properties": {
        "kind": "reachableSet",
        "observationStatus": "estimated",
        "vessel": "A"
      },
      "type": "Feature"
    },
    {
      "geometry": {
        "coordinates": [
          [
            [
              -62.179407,
              -45.621364
            ],
            [
              -62.004092,
              -45.573465
            ],
            [
              -61.836144,
              -45.513401
            ],
            [
              -61.67718,
              -45.44175
            ],
            [
              -61.528732,
              -45.359204
            ],
            [
              -61.392229,
              -45.266556
            ],
            [
              -61.268985,
              -45.164699
            ],
            [
              -61.160188,
              -45.054615
            ],
            [
              -61.066885,
              -44.937362
            ],
            [
              -60.989976,
              -44.814071
            ],
            [
              -60.930199,
              -44.685928
            ],
            [
              -60.888132,
              -44.554168
            ],
            [
              -60.864179,
              -44.420059
            ],
            [
              -60.858572,
              -44.284894
            ],
            [
              -60.871363,
              -44.149974
            ],
            [
              -60.90243,
              -44.016598
            ],
            [
              -60.951474,
              -43.886051
            ],
            [
              -61.018022,
              -43.75959
            ],
            [
              -61.101434,
              -43.638433
            ],
            [
              -61.200906,
              -43.523746
            ],
            [
              -61.31548,
              -43.416635
            ],
            [
              -61.444053,
              -43.31813
            ],
            [
              -61.585386,
              -43.229181
            ],
            [
              -61.738119,
              -43.150644
            ],
            [
              -61.90078,
              -43.083275
            ],
            [
              -62.071803,
              -43.027724
            ],
            [
              -62.249541,
              -42.984524
            ],
            [
              -62.432283,
              -42.954093
            ],
            [
              -62.618267,
              -42.936723
            ],
            [
              -62.805704,
              -42.932582
            ],
            [
              -62.992788,
              -42.941709
            ],
            [
              -63.177718,
              -42.964016
            ],
            [
              -63.358712,
              -42.999289
            ],
            [
              -63.534027,
              -43.047189
            ],
            [
              -63.701975,
              -43.107253
            ],
            [
              -63.860938,
              -43.178903
            ],
            [
              -64.009387,
              -43.261449
            ],
            [
              -64.14589,
              -43.354097
            ],
            [
              -64.269133,
              -43.455954
            ],
            [
              -64.37793,
              -43.566039
            ],
            [
              -64.471233,
              -43.683291
            ],
            [
              -64.548143,
              -43.806583
            ],
            [
              -64.607919,
              -43.934726
            ],
            [
              -64.649986,
              -44.066486
            ],
            [
              -64.673939,
              -44.200594
            ],
            [
              -64.679547,
              -44.335759
            ],
            [
              -64.666755,
              -44.470679
            ],
            [
              -64.635688,
              -44.604055
            ],
            [
              -64.586644,
              -44.734602
            ],
            [
              -64.520096,
              -44.861063
            ],
            [
              -64.436684,
              -44.98222
            ],
            [
              -64.337212,
              -45.096907
            ],
            [
              -64.222638,
              -45.204018
            ],
            [
              -64.094066,
              -45.302523
            ],
            [
              -63.952732,
              -45.391472
            ],
            [
              -63.8,
              -45.470009
            ],
            [
              -63.637339,
              -45.537378
            ],
            [
              -63.466315,
              -45.59293
            ],
            [
              -63.288577,
              -45.636129
            ],
            [
              -63.105836,
              -45.66656
            ],
            [
              -62.919851,
              -45.68393
            ],
            [
              -62.732414,
              -45.688072
            ],
            [
              -62.54533,
              -45.678945
            ],
            [
              -62.360401,
              -45.656637
            ],
            [
              -62.179407,
              -45.621364
            ]
          ]
        ],
        "type": "Polygon"
      },
      "properties": {
        "kind": "reachableSet",
        "observationStatus": "estimated",
        "vessel": "B"
      },
      "type": "Feature"
    }
  ],
  "properties": {
    "dateline": false
  },
  "type": "FeatureCollection"
}
