{
  "features": [
    {
      "geometry": {
        "coordinates": [
          159.932773,
          42.026587
        ],
        "type": "Point"
      },
      "properties": {
        "mmsi": "416248500",
        "observationStatus": "observed",
        "role": "off",
        "time": "2018-09-17T12:38:41Z",
        "vessel": "A"
      },
      "type": "Feature"
    },
    {
      "geometry": {
        "coordinates": [
          159.85696,
          42.00688
        ],
        "type": "Point"
      },
      "properties": {
        "mmsi": "416253500",
        "observationStatus": "observed",
        "role": "off",
        "time": "2018-09-17T12:54:08Z",
        "vessel": "B"
      },
      "type": "Feature"
    },
    {
      "geometry": {
        "coordinates": [
          158.970813,
          43.028228
        ],
        "type": "Point"
      },
      "properties": {
        "mmsi": "416253500",
        "observationStatus": "observed",
        "role": "on",
        "time": "2018-09-22T19:40:53Z",
        "vessel": "B"
      },
      "type": "Feature"
    },
    {
      "geometry": {
        "coordinates": [
          158.985458,
          42.964815
        ],
        "type": "Point"
      },
      "properties": {
        "mmsi": "416248500",
        "observationStatus": "observed",
        "role": "on",
        "time": "2018-09-22T20:19:50Z",
        "vessel": "A"
      },
      "type": "Feature"
    },
    {
      "geometry": {
        "coordinates": [
          [
            159.932773,
            42.026587
          ],
          [
            159.211877,
            42.749446
          ],
          [
            158.985458,
            42.964815
          ]
        ],
        "type": "LineString"
      },
      "properties": {
        "confidence": "low",
        "lineStyle": "dashed",
        "observationStatus": "estimated",
        "source": "reachable-set heuristic",
        "vessel": "A"
      },
      "type": "Feature"
    },
    {
      "geometry": {
        "coordinates": [
          [
            159.85696,
            42.00688
          ],
          [
            159.211877,
            42.749446
          ],
          [
            158.970813,
            43.028228
          ]
        ],
        "type": "LineString"
      },
      "properties": {
        "confidence": "low",
        "lineStyle": "dashed",
        "observationStatus": "estimated",
        "source": "reachable-set heuristic",
        "vessel": "B"
      },
      "type": "Feature"
    },
    {
      "geometry": {
        "coordinates": [
          159.211877,
          42.749446
        ],
        "type": "Point"
      },
      "properties": {
        "kind": "meetingPoint",
        "observationStatus": "estimated"
      },
      "type": "Feature"
    },
    {
      "geometry": {
        "coordinates": [
          [
            [
              149.172817,
              52.683333
            ],
            [
              147.8786,
              51.88663
            ],
            [
              146.695911,
              50.999486
            ],
            [
              145.636138,
              50.030447
            ],
            [
              144.709487,
              48.988843
            ],
            [
              143.924884,
              47.884707
            ],
            [
              143.289884,
              46.728672
            ],
            [
              142.810602,
              45.531872
            ],
            [
              142.491655,
              44.305831
            ],
            [
              142.336114,
              43.062358
            ],
            [
              142.345476,
              41.813427
            ],
            [
              142.519652,
              40.571067
            ],
            [
              142.856965,
              39.347243
            ],
            [
              143.354165,
              38.15374
            ],
            [
              144.006465,
              37.002052
            ],
            [
              144.807582,
              35.903271
            ],
            [
              145.749802,
              34.867979
            ],
            [
              146.82405,
              33.906146
            ],
            [
              148.01998,
              33.027035
            ],
            [
              149.326075,
              32.239112
            ],
            [
              150.729757,
              31.549966
            ],
            [
              152.217508,
              30.966234
            ],
            [
              153.774999,
              30.493536
            ],
            [
              155.387232,
              30.136426
            ],
            [
              157.038679,
              29.898343
            ],
            [
              158.713436,
              29.781579
            ],
            [
              160.395374,
              29.787259
            ],
            [
              162.068296,
              29.915328
            ],
            [
              163.71609,
              30.164553
            ],
            [
              165.322886,
              30.532533
            ],
            [
              166.873212,
              31.015726
            ],
            [
              168.352136,
              31.609477
            ],
            [
              169.745415,
              32.308068
            ],
            [
              171.039631,
              33.104772
            ],
            [
              172.222321,
              33.991915
            ],
            [
              173.282094,
              34.960955
            ],
            [
              174.208744,
              36.002558
            ],
            [
              174.993348,
              37.106694
            ],
            [
              175.628348,
              38.262729
            ],
            [
              176.107629,
              39.45953
            ],
            [
              176.426577,
              40.685571
            ],
            [
              176.582118,
              41.929044
            ],
            [
              176.572755,
              43.177974
            ],
            [
              176.398579,
              44.420334
            ],
            [
              176.061267,
              45.644159
            ],
            [
              175.564066,
              46.837662
            ],
            [
              174.911767,
              47.98935
            ],
            [
              174.110649,
              49.088131
            ],
            [
              173.16843,
              50.123423
            ],
            [
              172.094182,
              51.085256
            ],
            [
              170.898252,
              51.964367
            ],
            [
              169.592156,
              52.752289
            ],
            [
              168.188474,
              53.441435
            ],
            [
              166.700724,
              54.025168
            ],
            [
              165.143232,
              54.497865
            ],
            [
              163.531,
              54.854975
            ],
            [
              161.879553,
              55.093059
            ],
            [
              160.204796,
              55.209823
            ],
            [
              158.522858,
              55.204143
            ],
            [
              156.849936,
              55.076074
            ],
            [
              155.202142,
              54.826849
            ],
            [
              153.595345,
              54.458868
            ],
            [
              152.04502,
              53.975676
            ],
            [
              150.566096,
              53.381925
            ],
            [
              149.172817,
              52.683333
            ]
          ]
        ],
        "type": "Polygon"
      },
      "properties": {
        "kind": "reachableSet",
        "observationStatus": "estimated",
        "vessel": "A"
      },
      "type": "Feature"
    },
    {
      "geometry": {
        "coordinates": [
          [
            [
              150.192639,
              53.145712
            ],
            [
              148.834831,
              52.424596
            ],
            [
              147.578905,
              51.60807
            ],
            [
              146.436956,
              50.703998
            ],
            [
              145.419983,
              49.721086
            ],
            [
              144.537778,
              48.668799
            ],
            [
              143.798839,
              47.557273
            ],
            [
              143.210281,
              46.397212
            ],
            [
              142.777772,
              45.199787
            ],
            [
              142.505479,
              43.976531
            ],
            [
              142.396022,
              42.739225
            ],
            [
              142.450457,
              41.499783
            ],
            [
              142.668259,
              40.270143
            ],
            [
              143.047331,
              39.062147
            ],
            [
              143.584021,
              37.887429
            ],
            [
              144.273162,
              36.757301
            ],
            [
              145.108116,
              35.682647
            ],
            [
              146.080843,
              34.673818
            ],
            [
              147.181974,
              33.740527
            ],
            [
              148.400905,
              32.891765
            ],
            [
              149.725897,
              32.135704
            ],
            [
              151.14419,
              31.479626
            ],
            [
              152.642124,
              30.929849
            ],
            [
              154.205274,
              30.491668
            ],
            [
              155.818586,
              30.169303
            ],
            [
              157.466523,
              29.965858
            ],
            [
              159.133214,
              29.883293
            ],
            [
              160.802608,
              29.922403
            ],
            [
              162.458628,
              30.082811
            ],
            [
              164.085325,
              30.362973
            ],
            [
              165.667034,
              30.76019
            ],
            [
              167.188521,
              31.270636
            ],
            [
              168.635135,
              31.889397
            ],
            [
              169.992943,
              32.610512
            ],
            [
              171.248868,
              33.427038
            ],
            [
              172.390817,
              34.33111
            ],
            [
              173.40779,
              35.314023
            ],
            [
              174.289995,
              36.366309
            ],
            [
              175.028935,
              37.477835
            ],
            [
              175.617493,
              38.637896
            ],
            [
              176.050001,
              39.835321
            ],
            [
              176.322295,
              41.058577
            ],
            [
              176.431751,
              42.295884
            ],
            [
              176.377316,
              43.535325
            ],
            [
              176.159514,
              44.764965
            ],
            [
              175.780443,
              45.972961
            ],
            [
              175.243752,
              47.14768
            ],
            [
              174.554611,
              48.277807
            ],
            [
              173.719657,
              49.352461
            ],
            [
              172.746931,
              50.361291
            ],
            [
              171.6458,
              51.294581
            ],
            [
              170.426869,
              52.143343
            ],
            [
              169.101877,
              52.899404
            ],
            [
              167.683584,
              53.555483
            ],
            [
              166.185649,
              54.105259
            ],
            [
              164.622499,
              54.54344
            ],
            [
              163.009187,
              54.865805
            ],
            [
              161.36125,
              55.06925
            ],
            [
              159.694559,
              55.151815
            ],
            [
              158.025166,
              55.112705
            ],
            [
              156.369146,
              54.952297
            ],
            [
              154.742448,
              54.672135
            ],
            [
              153.16074,
              54.274919
            ],
            [
              151.639252,
              53.764472
            ],
            [
              150.192639,
              53.145712
            ]
          ]
        ],
        "type": "Polygon"
      },
      "properties": {
        "kind": "reachableSet",
        "observationStatus": "estimated",
        "vessel": "B"
      },
      "type": "Feature"
    }
  ],
  "properties": {
    "dateline": false
  },
  "type": "FeatureCollection"
}
