{
  "features": [
    {
      "geometry": {
        "coordinates": [
          -60.405423,
          -45.610072
        ],
        "type": "Point"
      },
      "properties": {
        "mmsi": "740368000",
        "observationStatus": "observed",
        "role": "off",
        "time": "2017-02-13T02:07:38Z",
        "vessel": "A"
      },
      "type": "Feature"
    },
    {
      "geometry": {
        "coordinates": [
          -60.435792,
          -45.655383
        ],
        "type": "Point"
      },
      "properties": {
        "mmsi": "740353000",
        "observationStatus": "observed",
        "role": "off",
        "time": "2017-02-13T02:26:14Z",
        "vessel": "B"
      },
      "type": "Feature"
    },
    {
      "geometry": {
        "coordinates": [
          -60.358383,
          -45.204107
        ],
        "type": "Point"
      },
      "properties": {
        "mmsi": "740368000",
        "observationStatus": "observed",
        "role": "on",
        "time": "2017-02-13T22:01:14Z",
        "vessel": "A"
      },
      "type": "Feature"
    },
    {
      "geometry": {
        "coordinates": [
          -60.362063,
          -45.204262
        ],
        "type": "Point"
      },
      "properties": {
        "mmsi": "740353000",
        "observationStatus": "observed",
        "role": "on",
        "time": "2017-02-13T22:02:10Z",
        "vessel": "B"
      },
      "type": "Feature"
    },
    {
      "geometry": {
        "coordinates": [
          [
            -60.405423,
            -45.610072
          ],
          [
            -60.397087,
            -45.429745
          ],
          [
            -60.358383,
            -45.204107
          ]
        ],
        "type": "LineString"
      },
      "properties": {
        "confidence": "low",
        "lineStyle": "dashed",
        "observationStatus": "estimated",
        "source": "reachable-set heuristic",
        "vessel": "A"
      },
      "type": "Feature"
    },
    {
      "geometry": {
        "coordinates": [
          [
            -60.435792,
            -45.655383
          ],
          [
            -60.397087,
            -45.429745
          ],
          [
            -60.362063,
            -45.204262
          ]
        ],
        "type": "LineString"
      },
      "properties": {
        "confidence": "low",
        "lineStyle": "dashed",
        "observationStatus": "estimated",
        "source": "reachable-set heuristic",
        "vessel": "B"
      },
      "type": "Feature"
    },
    {
      "geometry": {
        "coordinates": [
          -60.397087,
          -45.429745
        ],
        "type": "Point"
      },
      "properties": {
        "kind": "meetingPoint",
        "observationStatus": "estimated"
      },
      "type": "Feature"
    },
    {
      "geometry": {
        "coordinates": [
          [
            [
              -60.144355,
              -43.356995
            ],
            [
              -60.428392,
              -43.35049
            ],
            [
              -60.711982,
              -43.363791
            ],
            [
              -60.992393,
              -43.39677
            ],
            [
              -61.266925,
              -43.44911
            ],
            [
              -61.532934,
              -43.520306
            ],
            [
              -61.787857,
              -43.609673
            ],
            [
              -62.029241,
              -43.71635
            ],
            [
              -62.254759,
              -43.839309
            ],
            [
              -62.462241,
              -43.977368
            ],
            [
              -62.649689,
              -44.129195
            ],
            [
              -62.815296,
              -44.293329
            ],
            [
              -62.957468,
              -44.468189
            ],
            [
              -63.074836,
              -44.652092
            ],
            [
              -63.16627,
              -44.843265
            ],
            [
              -63.230889,
              -45.039869
            ],
            [
              -63.26807,
              -45.240008
            ],
            [
              -63.277457,
              -45.441757
            ],
            [
              -63.258957,
              -45.643172
            ],
            [
              -63.21275,
              -45.842314
            ],
            [
              -63.13928,
              -46.037264
            ],
            [
              -63.039255,
              -46.226145
            ],
            [
              -62.913638,
              -46.407138
            ],
            [
              -62.76364,
              -46.5785
            ],
            [
              -62.590704,
              -46.738581
            ],
            [
              -62.396496,
              -46.885839
            ],
            [
              -62.182886,
              -47.018855
            ],
            [
              -61.951932,
              -47.13635
            ],
            [
              -61.705858,
              -47.23719
            ],
            [
              -61.447033,
              -47.320406
            ],
            [
              -61.177951,
              -47.385196
            ],
            [
              -60.901202,
              -47.430935
            ],
            [
              -60.619452,
              -47.457184
            ],
            [
              -60.335414,
              -47.463689
            ],
            [
              -60.051824,
              -47.450388
            ],
            [
              -59.771413,
              -47.417408
            ],
            [
              -59.496881,
              -47.365069
            ],
            [
              -59.230873,
              -47.293872
            ],
            [
              -58.975949,
              -47.204506
            ],
            [
              -58.734566,
              -47.097829
            ],
            [
              -58.509047,
              -46.974869
            ],
            [
              -58.301565,
              -46.836811
            ],
            [
              -58.114118,
              -46.684983
            ],
            [
              -57.948511,
              -46.520849
            ],
            [
              -57.806339,
              -46.345989
            ],
            [
              -57.68897,
              -46.162087
            ],
            [
              -57.597537,
              -45.970913
            ],
            [
              -57.532918,
              -45.77431
            ],
            [
              -57.495736,
              -45.57417
            ],
            [
              -57.48635,
              -45.372421
            ],
            [
              -57.50485,
              -45.171006
            ],
            [
              -57.551057,
              -44.971864
            ],
            [
              -57.624527,
              -44.776914
            ],
            [
              -57.724552,
              -44.588033
            ],
            [
              -57.850168,
              -44.40704
            ],
            [
              -58.000167,
              -44.235678
            ],
            [
              -58.173103,
              -44.075597
            ],
            [
              -58.367311,
              -43.92834
            ],
            [
              -58.58092,
              -43.795323
            ],
            [
              -58.811874,
              -43.677829
            ],
            [
              -59.057949,
              -43.576988
            ],
            [
              -59.316773,
              -43.493772
            ],
            [
              -59.585856,
              -43.428982
            ],
            [
              -59.862605,
              -43.383243
            ],
            [
              -60.144355,
              -43.356995
            ]
          ]
        ],
        "type": "Polygon"
      },
      "properties": {
        "kind": "reachableSet",
        "observationStatus": "estimated",
        "vessel": "A"
      },
      "type": "Feature"
    },
    {
      "geometry": {
        "coordinates": [
          [
            [
              -60.070175,
              -43.418287
            ],
            [
              -60.349055,
              -43.405349
            ],
            [
              -60.628414,
              -43.411909
            ],
            [
              -60.905563,
              -43.437902
            ],
            [
              -61.177833,
              -43.483078
            ],
            [
              -61.442602,
              -43.547002
            ],
            [
              -61.69732,
              -43.629059
            ],
            [
              -61.939533,
              -43.728459
            ],
            [
              -62.16691,
              -43.844243
            ],
            [
              -62.37726,
              -43.975297
            ],
            [
              -62.568558,
              -44.12036
            ],
            [
              -62.73896,
              -44.278033
            ],
            [
              -62.886827,
              -44.446798
            ],
            [
              -63.010735,
              -44.625031
            ],
            [
              -63.109489,
              -44.811014
            ],
            [
              -63.182138,
              -45.002957
            ],
            [
              -63.227985,
              -45.19901
            ],
            [
              -63.246585,
              -45.397287
            ],
            [
              -63.237761,
              -45.595876
            ],
            [
              -63.201598,
              -45.792867
            ],
            [
              -63.138443,
              -45.986361
            ],
            [
              -63.048906,
              -46.174496
            ],
            [
              -62.933847,
              -46.355458
            ],
            [
              -62.794376,
              -46.527507
            ],
            [
              -62.631836,
              -46.688984
            ],
            [
              -62.447791,
              -46.838335
            ],
            [
              -62.244015,
              -46.974121
            ],
            [
              -62.022469,
              -47.095034
            ],
            [
              -61.785288,
              -47.199911
            ],
            [
              -61.534755,
              -47.287741
            ],
            [
              -61.273284,
              -47.357678
            ],
            [
              -61.003393,
              -47.409049
            ],
            [
              -60.72768,
              -47.441358
            ],
            [
              -60.4488,
              -47.454296
            ],
            [
              -60.169441,
              -47.447736
            ],
            [
              -59.892292,
              -47.421743
            ],
            [
              -59.620022,
              -47.376567
            ],
            [
              -59.355253,
              -47.312643
            ],
            [
              -59.100535,
              -47.230586
            ],
            [
              -58.858322,
              -47.131186
            ],
            [
              -58.630945,
              -47.015402
            ],
            [
              -58.420595,
              -46.884348
            ],
            [
              -58.229297,
              -46.739285
            ],
            [
              -58.058895,
              -46.581612
            ],
            [
              -57.911028,
              -46.412847
            ],
            [
              -57.78712,
              -46.234614
            ],
            [
              -57.688366,
              -46.048631
            ],
            [
              -57.615717,
              -45.856688
            ],
            [
              -57.56987,
              -45.660635
            ],
            [
              -57.55127,
              -45.462358
            ],
            [
              -57.560094,
              -45.263769
            ],
            [
              -57.596257,
              -45.066778
            ],
            [
              -57.659412,
              -44.873284
            ],
            [
              -57.748949,
              -44.685149
            ],
            [
              -57.864008,
              -44.504187
            ],
            [
              -58.003479,
              -44.332138
            ],
            [
              -58.166019,
              -44.170661
            ],
            [
              -58.350064,
              -44.02131
            ],
            [
              -58.55384,
              -43.885524
            ],
            [
              -58.775386,
              -43.764611
            ],
            [
              -59.012567,
              -43.659734
            ],
            [
              -59.2631,
              -43.571904
            ],
            [
              -59.524571,
              -43.501967
            ],
            [
              -59.794462,
              -43.450596
            ],
            [
              -60.070175,
              -43.418287
            ]
          ]
        ],
        "type": "Polygon"
      },
      "properties": {
        "kind": "reachableSet",
        "observationStatus": "estimated",
        "vessel": "B"
      },
      "type": "Feature"
    }
  ],
  "properties": {
    "dateline": false
  },
  "type": "FeatureCollection"
}
