{
  "features": [
    {
      "geometry": {
        "coordinates": [
          -60.86415,
          -46.920483
        ],
        "type": "Point"
      },
      "properties": {
        "mmsi": "440216000",
        "observationStatus": "observed",
        "role": "off",
        "time": "2017-03-09T03:20:42Z",
        "vessel": "A"
      },
      "type": "Feature"
    },
    {
      "geometry": {
        "coordinates": [
          -60.841117,
          -46.941633
        ],
        "type": "Point"
      },
      "properties": {
        "mmsi": "441330000",
        "observationStatus": "observed",
        "role": "off",
        "time": "2017-03-09T03:21:21Z",
        "vessel": "B"
      },
      "type": "Feature"
    },
    {
      "geometry": {
        "coordinates": [
          -60.83115,
          -46.877167
        ],
        "type": "Point"
      },
      "properties": {
        "mmsi": "440216000",
        "observationStatus": "observed",
        "role": "on",
        "time": "2017-03-09T16:01:34Z",
        "vessel": "A"
      },
      "type": "Feature"
    },
    {
      "geometry": {
        "coordinates": [
          -60.838683,
          -46.92395
        ],
        "type": "Point"
      },
      "properties": {
        "mmsi": "441330000",
        "observationStatus": "observed",
        "role": "on",
        "time": "2017-03-09T16:01:58Z",
        "vessel": "B"
      },
      "type": "Feature"
    },
    {
      "geometry": {
        "coordinates": [
          [
            -60.86415,
            -46.920483
          ],
          [
            -60.835284,
            -46.904722
          ],
          [
            -60.83115,
            -46.877167
          ]
        ],
        "type": "LineString"
      },
      "properties": {
        "confidence": "low",
        "lineStyle": "dashed",
        "observationStatus": "estimated",
        "source": "reachable-set heuristic",
        "vessel": "A"
      },
      "type": "Feature"
    },
    {
      "geometry": {
        "coordinates": [
          [
            -60.841117,
            -46.941633
          ],
          [
            -60.835284,
            -46.904722
          ],
          [
            -60.838683,
            -46.92395
          ]
        ],
        "type": "LineString"
      },
      "properties": {
        "confidence": "low",
        "lineStyle": "dashed",
        "observationStatus": "estimated",
        "source": "reachable-set heuristic",
        "vessel": "B"
      },
      "type": "Feature"
    },
    {
      "geometry": {
        "coordinates": [
          -60.835284,
          -46.904722
        ],
        "type": "Point"
      },
      "properties": {
        "kind": "meetingPoint",
        "observationStatus": "estimated"
      },
      "type": "Feature"
    },
    {
      "geometry": {
        "coordinates": [
          [
            [
              -60.055513,
              -45.859045
            ],
            [
              -60.207445,
              -45.810651
            ],
            [
              -60.365544,
              -45.772736
            ],
            [
              -60.528285,
              -45.745667
            ],
            [
              -60.694102,
              -45.729703
            ],
            [
              -60.861398,
              -45.724998
            ],
            [
              -61.028561,
              -45.731598
            ],
            [
              -61.193982,
              -45.749439
            ],
            [
              -61.356068,
              -45.778349
            ],
            [
              -61.513257,
              -45.81805
            ],
            [
              -61.664036,
              -45.86816
            ],
            [
              -61.806953,
              -45.928195
            ],
            [
              -61.940632,
              -45.997578
            ],
            [
              -62.063784,
              -46.07564
            ],
            [
              -62.175224,
              -46.161631
            ],
            [
              -62.273879,
              -46.25472
            ],
            [
              -62.358799,
              -46.354013
            ],
            [
              -62.429165,
              -46.458553
            ],
            [
              -62.484301,
              -46.567333
            ],
            [
              -62.523675,
              -46.679305
            ],
            [
              -62.546907,
              -46.793391
            ],
            [
              -62.553775,
              -46.908493
            ],
            [
              -62.544212,
              -47.023502
            ],
            [
              -62.51831,
              -47.13731
            ],
            [
              -62.476319,
              -47.248821
            ],
            [
              -62.418643,
              -47.356961
            ],
            [
              -62.345837,
              -47.46069
            ],
            [
              -62.258603,
              -47.559007
            ],
            [
              -62.157781,
              -47.650966
            ],
            [
              -62.044342,
              -47.735682
            ],
            [
              -61.919377,
              -47.812339
            ],
            [
              -61.784092,
              -47.880198
            ],
            [
              -61.639787,
              -47.938605
            ],
            [
              -61.487855,
              -47.986999
            ],
            [
              -61.329756,
              -48.024914
            ],
            [
              -61.167015,
              -48.051983
            ],
            [
              -61.001198,
              -48.067947
            ],
            [
              -60.833902,
              -48.072652
            ],
            [
              -60.666739,
              -48.066052
            ],
            [
              -60.501318,
              -48.048211
            ],
            [
              -60.339232,
              -48.019301
            ],
            [
              -60.182043,
              -47.9796
            ],
            [
              -60.031264,
              -47.92949
            ],
            [
              -59.888347,
              -47.869455
            ],
            [
              -59.754668,
              -47.800072
            ],
            [
              -59.631516,
              -47.72201
            ],
            [
              -59.520076,
              -47.636019
            ],
            [
              -59.421421,
              -47.54293
            ],
            [
              -59.336501,
              -47.443637
            ],
            [
              -59.266135,
              -47.339097
            ],
            [
              -59.210999,
              -47.230317
            ],
            [
              -59.171625,
              -47.118345
            ],
            [
              -59.148393,
              -47.004259
            ],
            [
              -59.141525,
              -46.889157
            ],
            [
              -59.151088,
              -46.774148
            ],
            [
              -59.17699,
              -46.66034
            ],
            [
              -59.218981,
              -46.548829
            ],
            [
              -59.276657,
              -46.440689
            ],
            [
              -59.349463,
              -46.33696
            ],
            [
              -59.436697,
              -46.238643
            ],
            [
              -59.537519,
              -46.146684
            ],
            [
              -59.650958,
              -46.061968
            ],
            [
              -59.775923,
              -45.985311
            ],
            [
              -59.911208,
              -45.917452
            ],
            [
              -60.055513,
              -45.859045
            ]
          ]
        ],
        "type": "Polygon"
      },
      "properties": {
        "kind": "reachableSet",
        "observationStatus": "estimated",
        "vessel": "A"
      },
      "type": "Feature"
    },
    {
      "geometry": {
        "coordinates": [
          [
            [
              -60.679137,
              -45.764505
            ],
            [
              -60.846472,
              -45.759298
            ],
            [
              -61.013744,
              -45.765392
            ],
            [
              -61.179342,
              -45.782729
            ],
            [
              -61.341671,
              -45.811142
            ],
            [
              -61.499168,
              -45.850356
            ],
            [
              -61.650315,
              -45.899995
            ],
            [
              -61.793658,
              -45.959581
            ],
            [
              -61.927815,
              -46.028539
            ],
            [
              -62.051496,
              -46.106206
            ],
            [
              -62.163508,
              -46.191833
            ],
            [
              -62.262773,
              -46.284596
            ],
            [
              -62.348334,
              -46.383601
            ],
            [
              -62.419369,
              -46.487895
            ],
            [
              -62.475193,
              -46.596474
            ],
            [
              -62.515268,
              -46.708292
            ],
            [
              -62.539208,
              -46.822272
            ],
            [
              -62.546783,
              -46.937316
            ],
            [
              -62.53792,
              -47.052317
            ],
            [
              -62.512703,
              -47.166167
            ],
            [
              -62.471377,
              -47.277769
            ],
            [
              -62.414339,
              -47.386049
            ],
            [
              -62.342138,
              -47.489963
            ],
            [
              -62.25547,
              -47.588512
            ],
            [
              -62.155169,
              -47.680746
            ],
            [
              -62.042201,
              -47.765777
            ],
            [
              -61.917655,
              -47.842785
            ],
            [
              -61.782729,
              -47.91103
            ],
            [
              -61.638723,
              -47.969854
            ],
            [
              -61.487024,
              -48.01869
            ],
            [
              -61.329093,
              -48.057069
            ],
            [
              -61.16645,
              -48.08462
            ],
            [
              -61.000663,
              -48.101078
            ],
            [
              -60.833328,
              -48.106285
            ],
            [
              -60.666056,
              -48.100191
            ],
            [
              -60.500458,
              -48.082854
            ],
            [
              -60.338129,
              -48.054442
            ],
            [
              -60.180632,
              -48.015227
            ],
            [
              -60.029485,
              -47.965588
            ],
            [
              -59.886142,
              -47.906002
            ],
            [
              -59.751985,
              -47.837044
            ],
            [
              -59.628304,
              -47.759378
            ],
            [
              -59.516292,
              -47.673751
            ],
            [
              -59.417027,
              -47.580988
            ],
            [
              -59.331466,
              -47.481982
            ],
            [
              -59.260431,
              -47.377688
            ],
            [
              -59.204607,
              -47.269109
            ],
            [
              -59.164532,
              -47.157291
            ],
            [
              -59.140592,
              -47.043311
            ],
            [
              -59.133017,
              -46.928267
            ],
            [
              -59.14188,
              -46.813266
            ],
            [
              -59.167097,
              -46.699417
            ],
            [
              -59.208423,
              -46.587815
            ],
            [
              -59.265461,
              -46.479535
            ],
            [
              -59.337662,
              -46.37562
            ],
            [
              -59.42433,
              -46.277071
            ],
            [
              -59.524631,
              -46.184837
            ],
            [
              -59.637599,
              -46.099807
            ],
            [
              -59.762145,
              -46.022798
            ],
            [
              -59.897071,
              -45.954553
            ],
            [
              -60.041077,
              -45.89573
            ],
            [
              -60.192776,
              -45.846893
            ],
            [
              -60.350707,
              -45.808515
            ],
            [
              -60.51335,
              -45.780963
            ],
            [
              -60.679137,
              -45.764505
            ]
          ]
        ],
        "type": "Polygon"
      },
      "properties": {
        "kind": "reachableSet",
        "observationStatus": "estimated",
        "vessel": "B"
      },
      "type": "Feature"
    }
  ],
  "properties": {
    "dateline": false
  },
  "type": "FeatureCollection"
}
