{
  "features": [
    {
      "geometry": {
        "coordinates": [
          159.994052,
          42.391487
        ],
        "type": "Point"
      },
      "properties": {
        "mmsi": "416005006",
        "observationStatus": "observed",
        "role": "off",
        "time": "2018-08-17T04:34:02Z",
        "vessel": "A"
      },
      "type": "Feature"
    },
    {
      "geometry": {
        "coordinates": [
          159.993915,
          42.471387
        ],
        "type": "Point"
      },
      "properties": {
        "mmsi": "416252600",
        "observationStatus": "observed",
        "role": "off",
        "time": "2018-08-17T04:34:16Z",
        "vessel": "B"
      },
      "type": "Feature"
    },
    {
      "geometry": {
        "coordinates": [
          160.40842,
          42.188698
        ],
        "type": "Point"
      },
      "properties": {
        "mmsi": "416005006",
        "observationStatus": "observed",
        "role": "on",
        "time": "2018-08-17T17:43:05Z",
        "vessel": "A"
      },
      "type": "Feature"
    },
    {
      "geometry": {
        "coordinates": [
          160.401895,
          42.22007
        ],
        "type": "Point"
      },
      "properties": {
        "mmsi": "416252600",
        "observationStatus": "observed",
        "role": "on",
        "time": "2018-08-17T17:43:53Z",
        "vessel": "B"
      },
      "type": "Feature"
    },
    {
      "geometry": {
        "coordinates": [
          [
            159.994052,
            42.391487
          ],
          [
            160.201167,
            42.330043
          ],
          [
            160.40842,
            42.188698
          ]
        ],
        "type": "LineString"
      },
      "properties": {
        "confidence": "low",
        "lineStyle": "dashed",
        "observationStatus": "estimated",
        "source": "reachable-set heuristic",
        "vessel": "A"
      },
      "type": "Feature"
    },
    {
      "geometry": {
        "coordinates": [
          [
            159.993915,
            42.471387
          ],
          [
            160.201167,
            42.330043
          ],
          [
            160.401895,
            42.22007
          ]
        ],
        "type": "LineString"
      },
      "properties": {
        "confidence": "low",
        "lineStyle": "dashed",
        "observationStatus": "estimated",
        "source": "reachable-set heuristic",
        "vessel": "B"
      },
      "type": "Feature"
    },
    {
      "geometry": {
        "coordinates": [
          160.201167,
          42.330043
        ],
        "type": "Point"
      },
      "properties": {
        "kind": "meetingPoint",
        "observationStatus": "estimated"
      },
      "type": "Feature"
    },
    {
      "geometry": {
        "coordinates": [
          [
            [
              161.571492,
              41.619501
            ],
            [
              161.652134,
              41.721608
            ],
            [
              161.718804,
              41.829191
            ],
            [
              161.770858,
              41.941211
            ],
            [
              161.807797,
              42.056592
            ],
            [
              161.829263,
              42.174222
            ],
            [
              161.83505,
              42.292967
            ],
            [
              161.825103,
              42.411685
            ],
            [
              161.799517,
              42.529232
            ],
            [
              161.758539,
              42.644476
            ],
            [
              161.702563,
              42.756307
            ],
            [
              161.632128,
              42.863648
            ],
            [
              161.547914,
              42.965465
            ],
            [
              161.45073,
              43.060778
            ],
            [
              161.341512,
              43.148669
            ],
            [
              161.221313,
              43.228292
            ],
            [
              161.091291,
              43.298879
            ],
            [
              160.952696,
              43.359751
            ],
            [
              160.806865,
              43.410321
            ],
            [
              160.655201,
              43.450103
            ],
            [
              160.499165,
              43.478714
            ],
            [
              160.34026,
              43.495877
            ],
            [
              160.180016,
              43.501428
            ],
            [
              160.019976,
              43.495314
            ],
            [
              159.861682,
              43.477592
            ],
            [
              159.706658,
              43.448434
            ],
            [
              159.556398,
              43.408121
            ],
            [
              159.412347,
              43.35704
            ],
            [
              159.275894,
              43.295684
            ],
            [
              159.148352,
              43.224644
            ],
            [
              159.03095,
              43.144603
            ],
            [
              158.924819,
              43.056333
            ],
            [
              158.83098,
              42.960684
            ],
            [
              158.750337,
              42.858577
            ],
            [
              158.683668,
              42.750994
            ],
            [
              158.631613,
              42.638974
            ],
            [
              158.594675,
              42.523593
            ],
            [
              158.573209,
              42.405963
            ],
            [
              158.567422,
              42.287218
            ],
            [
              158.577369,
              42.1685
            ],
            [
              158.602955,
              42.050953
            ],
            [
              158.643933,
              41.935709
            ],
            [
              158.699909,
              41.823878
            ],
            [
              158.770343,
              41.716537
            ],
            [
              158.854558,
              41.61472
            ],
            [
              158.951742,
              41.519407
            ],
            [
              159.060959,
              41.431516
            ],
            [
              159.181158,
              41.351893
            ],
            [
              159.311181,
              41.281306
            ],
            [
              159.449775,
              41.220434
            ],
            [
              159.595607,
              41.169864
            ],
            [
              159.747271,
              41.130082
            ],
            [
              159.903307,
              41.101471
            ],
            [
              160.062212,
              41.084308
            ],
            [
              160.222456,
              41.078757
            ],
            [
              160.382495,
              41.084871
            ],
            [
              160.540789,
              41.102593
            ],
            [
              160.695813,
              41.131751
            ],
            [
              160.846074,
              41.172064
            ],
            [
              160.990125,
              41.223145
            ],
            [
              161.126578,
              41.284501
            ],
            [
              161.25412,
              41.355541
            ],
            [
              161.371522,
              41.435582
            ],
            [
              161.477653,
              41.523852
            ],
            [
              161.571492,
              41.619501
            ]
          ]
        ],
        "type": "Polygon"
      },
      "properties": {
        "kind": "reachableSet",
        "observationStatus": "estimated",
        "vessel": "A"
      },
      "type": "Feature"
    },
    {
      "geometry": {
        "coordinates": [
          [
            [
              161.462996,
              41.566429
            ],
            [
              161.558214,
              41.661244
            ],
            [
              161.640331,
              41.762651
            ],
            [
              161.708557,
              41.869673
            ],
            [
              161.762234,
              41.98128
            ],
            [
              161.800846,
              42.096397
            ],
            [
              161.824021,
              42.213914
            ],
            [
              161.831536,
              42.332702
            ],
            [
              161.823318,
              42.451614
            ],
            [
              161.799446,
              42.569507
            ],
            [
              161.76015,
              42.685245
            ],
            [
              161.705809,
              42.797714
            ],
            [
              161.636947,
              42.905829
            ],
            [
              161.554225,
              43.00855
            ],
            [
              161.458442,
              43.104888
            ],
            [
              161.350518,
              43.193915
            ],
            [
              161.231495,
              43.274773
            ],
            [
              161.102517,
              43.346684
            ],
            [
              160.964828,
              43.408955
            ],
            [
              160.819752,
              43.460987
            ],
            [
              160.668688,
              43.502278
            ],
            [
              160.51309,
              43.532432
            ],
            [
              160.354457,
              43.551156
            ],
            [
              160.194316,
              43.558272
            ],
            [
              160.034209,
              43.55371
            ],
            [
              159.875679,
              43.537514
            ],
            [
              159.720252,
              43.509841
            ],
            [
              159.569425,
              43.470957
            ],
            [
              159.424651,
              43.421237
            ],
            [
              159.287324,
              43.361158
            ],
            [
              159.158766,
              43.291301
            ],
            [
              159.040215,
              43.212337
            ],
            [
              158.932814,
              43.125027
            ],
            [
              158.837596,
              43.030213
            ],
            [
              158.755479,
              42.928806
            ],
            [
              158.687253,
              42.821784
            ],
            [
              158.633576,
              42.710177
            ],
            [
              158.594964,
              42.59506
            ],
            [
              158.571789,
              42.477542
            ],
            [
              158.564274,
              42.358755
            ],
            [
              158.572492,
              42.239842
            ],
            [
              158.596364,
              42.121949
            ],
            [
              158.63566,
              42.006211
            ],
            [
              158.690001,
              41.893743
            ],
            [
              158.758863,
              41.785628
            ],
            [
              158.841585,
              41.682907
            ],
            [
              158.937368,
              41.586569
            ],
            [
              159.045292,
              41.497542
            ],
            [
              159.164315,
              41.416684
            ],
            [
              159.293293,
              41.344773
            ],
            [
              159.430982,
              41.282501
            ],
            [
              159.576058,
              41.23047
            ],
            [
              159.727122,
              41.189178
            ],
            [
              159.88272,
              41.159025
            ],
            [
              160.041353,
              41.140301
            ],
            [
              160.201494,
              41.133185
            ],
            [
              160.361601,
              41.137747
            ],
            [
              160.520131,
              41.153942
            ],
            [
              160.675558,
              41.181615
            ],
            [
              160.826385,
              41.220499
            ],
            [
              160.971159,
              41.27022
            ],
            [
              161.108486,
              41.330298
            ],
            [
              161.237044,
              41.400156
            ],
            [
              161.355595,
              41.47912
            ],
            [
              161.462996,
              41.566429
            ]
          ]
        ],
        "type": "Polygon"
      },
      "properties": {
        "kind": "reachableSet",
        "observationStatus": "estimated",
        "vessel": "B"
      },
      "type": "Feature"
    }
  ],
  "properties": {
    "dateline": false
  },
  "type": "FeatureCollection"
}
