{
  "features": [
    {
      "geometry": {
        "coordinates": [
          -60.01552,
          -54.038533
        ],
        "type": "Point"
      },
      "properties": {
        "mmsi": "440818000",
        "observationStatus": "observed",
        "role": "off",
        "time": "2018-06-04T00:33:18Z",
        "vessel": "A"
      },
      "type": "Feature"
    },
    {
      "geometry": {
        "coordinates": [
          -59.950667,
          -54.052427
        ],
        "type": "Point"
      },
      "properties": {
        "mmsi": "440502000",
        "observationStatus": "observed",
        "role": "off",
        "time": "2018-06-04T00:37:16Z",
        "vessel": "B"
      },
      "type": "Feature"
    },
    {
      "geometry": {
        "coordinates": [
          -65.417717,
          -55.795967
        ],
        "type": "Point"
      },
      "properties": {
        "mmsi": "440818000",
        "observationStatus": "observed",
        "role": "on",
        "time": "2018-06-05T00:57:01Z",
        "vessel": "A"
      },
      "type": "Feature"
    },
    {
      "geometry": {
        "coordinates": [
          -65.388233,
          -55.813
        ],
        "type": "Point"
      },
      "properties": {
        "mmsi": "440502000",
        "observationStatus": "observed",
        "role": "on",
        "time": "2018-06-05T01:14:37Z",
        "vessel": "B"
      },
      "type": "Feature"
    },
    {
      "geometry": {
        "coordinates": [
          [
            -60.01552,
            -54.038533
          ],
          [
            -63.044431,
            -55.039574
          ],
          [
            -65.417717,
            -55.795967
          ]
        ],
        "type": "LineString"
      },
      "properties": {
        "confidence": "low",
        "lineStyle": "dashed",
        "observationStatus": "estimated",
        "source": "reachable-set heuristic",
        "vessel": "A"
      },
      "type": "Feature"
    },
    {
      "geometry": {
        "coordinates": [
          [
            -59.950667,
            -54.052427
          ],
          [
            -63.044431,
            -55.039574
          ],
          [
            -65.388233,
            -55.813
          ]
        ],
        "type": "LineString"
      },
      "properties": {
        "confidence": "low",
        "lineStyle": "dashed",
        "observationStatus": "estimated",
        "source": "reachable-set heuristic",
        "vessel": "B"
      },
      "type": "Feature"
    },
    {
      "geometry": {
        "coordinates": [
          -63.044431,
          -55.039574
        ],
        "type": "Point"
      },
      "properties": {
        "kind": "meetingPoint",
        "observationStatus": "estimated"
      },
      "type": "Feature"
    },
    {
      "geometry": {
        "coordinates": [
          [
            [
              -66.258411,
              -56.06946
            ],
            [
              -66.115116,
              -56.19385
            ],
            [
              -65.93909,
              -56.305945
            ],
            [
              -65.732031,
              -56.404666
            ],
            [
              -65.495931,
              -56.489063
            ],
            [
              -65.233066,
              -56.558322
            ],
            [
              -64.945965,
              -56.611777
            ],
            [
              -64.637395,
              -56.648913
            ],
            [
              -64.310326,
              -56.669372
            ],
            [
              -63.967909,
              -56.672957
            ],
            [
              -63.613442,
              -56.659633
            ],
            [
              -63.250338,
              -56.62953
            ],
            [
              -62.882093,
              -56.582936
            ],
            [
              -62.512256,
              -56.520301
            ],
            [
              -62.144386,
              -56.442227
            ],
            [
              -61.782027,
              -56.349467
            ],
            [
              -61.428669,
              -56.242915
            ],
            [
              -61.087714,
              -56.123595
            ],
            [
              -60.762447,
              -55.992657
            ],
            [
              -60.455999,
              -55.851363
            ],
            [
              -60.171322,
              -55.701073
            ],
            [
              -59.911158,
              -55.543234
            ],
            [
              -59.678012,
              -55.379366
            ],
            [
              -59.47413,
              -55.211048
            ],
            [
              -59.301474,
              -55.039901
            ],
            [
              -59.161709,
              -54.867572
            ],
            [
              -59.056178,
              -54.695722
            ],
            [
              -58.9859,
              -54.526005
            ],
            [
              -58.951551,
              -54.360057
            ],
            [
              -58.953462,
              -54.199474
            ],
            [
              -58.991613,
              -54.045804
            ],
            [
              -59.065639,
              -53.900526
            ],
            [
              -59.174825,
              -53.76504
            ],
            [
              -59.318121,
              -53.64065
            ],
            [
              -59.494146,
              -53.528555
            ],
            [
              -59.701206,
              -53.429834
            ],
            [
              -59.937305,
              -53.345437
            ],
            [
              -60.200171,
              -53.276178
            ],
            [
              -60.487272,
              -53.222723
            ],
            [
              -60.795842,
              -53.185587
            ],
            [
              -61.12291,
              -53.165128
            ],
            [
              -61.465327,
              -53.161543
            ],
            [
              -61.819795,
              -53.174867
            ],
            [
              -62.182899,
              -53.20497
            ],
            [
              -62.551143,
              -53.251564
            ],
            [
              -62.920981,
              -53.314199
            ],
            [
              -63.288851,
              -53.392273
            ],
            [
              -63.65121,
              -53.485033
            ],
            [
              -64.004568,
              -53.591585
            ],
            [
              -64.345523,
              -53.710905
            ],
            [
              -64.67079,
              -53.841843
            ],
            [
              -64.977238,
              -53.983137
            ],
            [
              -65.261914,
              -54.133427
            ],
            [
              -65.522078,
              -54.291266
            ],
            [
              -65.755224,
              -54.455134
            ],
            [
              -65.959107,
              -54.623452
            ],
            [
              -66.131762,
              -54.794599
            ],
            [
              -66.271528,
              -54.966928
            ],
            [
              -66.377058,
              -55.138778
            ],
            [
              -66.447336,
              -55.308495
            ],
            [
              -66.481685,
              -55.474443
            ],
            [
              -66.479775,
              -55.635026
            ],
            [
              -66.441623,
              -55.788696
            ],
            [
              -66.367598,
              -55.933974
            ],
            [
              -66.258411,
              -56.06946
            ]
          ]
        ],
        "type": "Polygon"
      },
      "properties": {
        "kind": "reachableSet",
        "observationStatus": "estimated",
        "vessel": "A"
      },
      "type": "Feature"
    },
    {
      "geometry": {
        "coordinates": [
          [
            [
              -66.250749,
              -56.092265
            ],
            [
              -66.10561,
              -56.218846
            ],
            [
              -65.927377,
              -56.33304
            ],
            [
              -65.71777,
              -56.433749
            ],
            [
              -65.478805,
              -56.520001
            ],
            [
              -65.212785,
              -56.590967
            ],
            [
              -64.922271,
              -56.645964
            ],
            [
              -64.610061,
              -56.684461
            ],
            [
              -64.279162,
              -56.706087
            ],
            [
              -63.932761,
              -56.710635
            ],
            [
              -63.574193,
              -56.698061
            ],
            [
              -63.206912,
              -56.668485
            ],
            [
              -62.834455,
              -56.622193
            ],
            [
              -62.460409,
              -56.55963
            ],
            [
              -62.088376,
              -56.481399
            ],
            [
              -61.721939,
              -56.388254
            ],
            [
              -61.364627,
              -56.281091
            ],
            [
              -61.019881,
              -56.160942
            ],
            [
              -60.691022,
              -56.028965
            ],
            [
              -60.381216,
              -55.88643
            ],
            [
              -60.093447,
              -55.73471
            ],
            [
              -59.830486,
              -55.575267
            ],
            [
              -59.594866,
              -55.409636
            ],
            [
              -59.388856,
              -55.239411
            ],
            [
              -59.21444,
              -55.066233
            ],
            [
              -59.073297,
              -54.891769
            ],
            [
              -58.966787,
              -54.717699
            ],
            [
              -58.895937,
              -54.545701
            ],
            [
              -58.861427,
              -54.377429
            ],
            [
              -58.86359,
              -54.214505
            ],
            [
              -58.902406,
              -54.058497
            ],
            [
              -58.9775,
              -53.910909
            ],
            [
              -59.088151,
              -53.773162
            ],
            [
              -59.23329,
              -53.646581
            ],
            [
              -59.411523,
              -53.532387
            ],
            [
              -59.62113,
              -53.431678
            ],
            [
              -59.860095,
              -53.345425
            ],
            [
              -60.126115,
              -53.274459
            ],
            [
              -60.416629,
              -53.219463
            ],
            [
              -60.728839,
              -53.180966
            ],
            [
              -61.059738,
              -53.15934
            ],
            [
              -61.406139,
              -53.154792
            ],
            [
              -61.764707,
              -53.167366
            ],
            [
              -62.131988,
              -53.196942
            ],
            [
              -62.504445,
              -53.243234
            ],
            [
              -62.878491,
              -53.305797
            ],
            [
              -63.250524,
              -53.384027
            ],
            [
              -63.616961,
              -53.477173
            ],
            [
              -63.974273,
              -53.584336
            ],
            [
              -64.319019,
              -53.704485
            ],
            [
              -64.647878,
              -53.836462
            ],
            [
              -64.957684,
              -53.978997
            ],
            [
              -65.245453,
              -54.130716
            ],
            [
              -65.508414,
              -54.29016
            ],
            [
              -65.744034,
              -54.455791
            ],
            [
              -65.950044,
              -54.626016
            ],
            [
              -66.12446,
              -54.799194
            ],
            [
              -66.265603,
              -54.973658
            ],
            [
              -66.372113,
              -55.147727
            ],
            [
              -66.442963,
              -55.319726
            ],
            [
              -66.477473,
              -55.487998
            ],
            [
              -66.47531,
              -55.650922
            ],
            [
              -66.436494,
              -55.806929
            ],
            [
              -66.3614,
              -55.954518
            ],
            [
              -66.250749,
              -56.092265
            ]
          ]
        ],
        "type": "Polygon"
      },
      "properties": {
        "kind": "reachableSet",
        "observationStatus": "estimated",
        "vessel": "B"
      },
      "type": "Feature"
    }
  ],
  "properties": {
    "dateline": false
  },
  "type": "FeatureCollection"
}
