{
  "features": [
    {
      "geometry": {
        "coordinates": [
          165.75664,
          46.996987
        ],
        "type": "Point"
      },
      "properties": {
        "mmsi": "412439762",
        "observationStatus": "observed",
        "role": "off",
        "time": "2019-07-20T04:00:27Z",
        "vessel": "A"
      },
      "type": "Feature"
    },
    {
      "geometry": {
        "coordinates": [
          165.740987,
          47.06088
        ],
        "type": "Point"
      },
      "properties": {
        "mmsi": "416004693",
        "observationStatus": "observed",
        "role": "off",
        "time": "2019-07-20T04:02:31Z",
        "vessel": "B"
      },
      "type": "Feature"
    },
    {
      "geometry": {
        "coordinates": [
          166.77963,
          47.121685
        ],
        "type": "Point"
      },
      "properties": {
        "mmsi": "412439762",
        "observationStatus": "observed",
        "role": "on",
        "time": "2019-07-20T17:21:35Z",
        "vessel": "A"
      },
      "type": "Feature"
    },
    {
      "geometry": {
        "coordinates": [
          166.813333,
          47.093333
        ],
        "type": "Point"
      },
      "properties": {
        "mmsi": "416004693",
        "observationStatus": "observed",
        "role": "on",
        "time": "2019-07-20T17:44:04Z",
        "vessel": "B"
      },
      "type": "Feature"
    },
    {
      "geometry": {
        "coordinates": [
          [
            165.75664,
            46.996987
          ],
          [
            166.756685,
            47.120346
          ],
          [
            166.77963,
            47.121685
          ]
        ],
        "type": "LineString"
      },
      "properties": {
        "confidence": "low",
        "lineStyle": "dashed",
        "observationStatus": "estimated",
        "source": "reachable-set heuristic",
        "vessel": "A"
      },
      "type": "Feature"
    },
    {
      "geometry": {
        "coordinates": [
          [
            165.740987,
            47.06088
          ],
          [
            166.756685,
            47.120346
          ],
          [
            166.813333,
            47.093333
          ]
        ],
        "type": "LineString"
      },
      "properties": {
        "confidence": "low",
        "lineStyle": "dashed",
        "observationStatus": "estimated",
        "source": "reachable-set heuristic",
        "vessel": "B"
      },
      "type": "Feature"
    },
    {
      "geometry": {
        "coordinates": [
          166.756685,
          47.120346
        ],
        "type": "Point"
      },
      "properties": {
        "kind": "meetingPoint",
        "observationStatus": "estimated"
      },
      "type": "Feature"
    },
    {
      "geometry": {
        "coordinates": [
          [
            [
              168.050147,
              47.276556
            ],
            [
              168.01183,
              47.390267
            ],
            [
              167.956719,
              47.500791
            ],
            [
              167.885347,
              47.607063
            ],
            [
              167.7984,
              47.708061
            ],
            [
              167.696715,
              47.802811
            ],
            [
              167.581273,
              47.8904
            ],
            [
              167.453184,
              47.969987
            ],
            [
              167.313683,
              48.040803
            ],
            [
              167.164112,
              48.102167
            ],
            [
              167.005913,
              48.153488
            ],
            [
              166.840609,
              48.194272
            ],
            [
              166.669791,
              48.224126
            ],
            [
              166.495105,
              48.242762
            ],
            [
              166.318233,
              48.250001
            ],
            [
              166.140879,
              48.245774
            ],
            [
              165.964751,
              48.23012
            ],
            [
              165.791544,
              48.203191
            ],
            [
              165.622927,
              48.165246
            ],
            [
              165.460523,
              48.116651
            ],
            [
              165.305898,
              48.057873
            ],
            [
              165.160539,
              47.989478
            ],
            [
              165.025847,
              47.912126
            ],
            [
              164.903119,
              47.826561
            ],
            [
              164.793537,
              47.733607
            ],
            [
              164.698156,
              47.63416
            ],
            [
              164.617895,
              47.529177
            ],
            [
              164.553526,
              47.419669
            ],
            [
              164.50567,
              47.30669
            ],
            [
              164.474788,
              47.19133
            ],
            [
              164.461176,
              47.074698
            ],
            [
              164.464967,
              46.957919
            ],
            [
              164.486123,
              46.842116
            ],
            [
              164.52444,
              46.728405
            ],
            [
              164.579551,
              46.617881
            ],
            [
              164.650923,
              46.511609
            ],
            [
              164.73787,
              46.410611
            ],
            [
              164.839555,
              46.315861
            ],
            [
              164.954997,
              46.228271
            ],
            [
              165.083086,
              46.148685
            ],
            [
              165.222587,
              46.077869
            ],
            [
              165.372158,
              46.016505
            ],
            [
              165.530357,
              45.965183
            ],
            [
              165.695661,
              45.9244
            ],
            [
              165.866479,
              45.894546
            ],
            [
              166.041165,
              45.87591
            ],
            [
              166.218037,
              45.868671
            ],
            [
              166.395391,
              45.872898
            ],
            [
              166.571519,
              45.888552
            ],
            [
              166.744726,
              45.915481
            ],
            [
              166.913343,
              45.953426
            ],
            [
              167.075747,
              46.002021
            ],
            [
              167.230372,
              46.060799
            ],
            [
              167.375731,
              46.129193
            ],
            [
              167.510423,
              46.206546
            ],
            [
              167.633151,
              46.292111
            ],
            [
              167.742733,
              46.385064
            ],
            [
              167.838114,
              46.484512
            ],
            [
              167.918375,
              46.589495
            ],
            [
              167.982744,
              46.699003
            ],
            [
              168.0306,
              46.811981
            ],
            [
              168.061482,
              46.927342
            ],
            [
              168.075094,
              47.043973
            ],
            [
              168.071303,
              47.160753
            ],
            [
              168.050147,
              47.276556
            ]
          ]
        ],
        "type": "Polygon"
      },
      "properties": {
        "kind": "reachableSet",
        "observationStatus": "estimated",
        "vessel": "A"
      },
      "type": "Feature"
    },
    {
      "geometry": {
        "coordinates": [
          [
            [
              168.135768,
              47.133355
            ],
            [
              168.119119,
              47.25268
            ],
            [
              168.084731,
              47.370313
            ],
            [
              168.032935,
              47.485123
            ],
            [
              167.96423,
              47.596003
            ],
            [
              167.879277,
              47.701886
            ],
            [
              167.778895,
              47.801752
            ],
            [
              167.664051,
              47.89464
            ],
            [
              167.53585,
              47.979654
            ],
            [
              167.395528,
              48.055976
            ],
            [
              167.244434,
              48.122871
            ],
            [
              167.084026,
              48.179694
            ],
            [
              166.915847,
              48.2259
            ],
            [
              166.741517,
              48.261041
            ],
            [
              166.562715,
              48.284781
            ],
            [
              166.381163,
              48.29689
            ],
            [
              166.198609,
              48.297252
            ],
            [
              166.016812,
              48.285864
            ],
            [
              165.837522,
              48.262834
            ],
            [
              165.662466,
              48.228385
            ],
            [
              165.49333,
              48.182849
            ],
            [
              165.331742,
              48.126664
            ],
            [
              165.17926,
              48.060371
            ],
            [
              165.037351,
              47.984608
            ],
            [
              164.907382,
              47.900106
            ],
            [
              164.790604,
              47.807678
            ],
            [
              164.688143,
              47.708214
            ],
            [
              164.600985,
              47.602672
            ],
            [
              164.52997,
              47.492069
            ],
            [
              164.475781,
              47.37747
            ],
            [
              164.43894,
              47.259977
            ],
            [
              164.419802,
              47.140724
            ],
            [
              164.418552,
              47.020858
            ],
            [
              164.435201,
              46.901534
            ],
            [
              164.469589,
              46.7839
            ],
            [
              164.521385,
              46.669091
            ],
            [
              164.59009,
              46.55821
            ],
            [
              164.675043,
              46.452327
            ],
            [
              164.775425,
              46.352461
            ],
            [
              164.890269,
              46.259574
            ],
            [
              165.01847,
              46.17456
            ],
            [
              165.158792,
              46.098238
            ],
            [
              165.309886,
              46.031343
            ],
            [
              165.470294,
              45.974519
            ],
            [
              165.638473,
              45.928314
            ],
            [
              165.812803,
              45.893172
            ],
            [
              165.991605,
              45.869432
            ],
            [
              166.173157,
              45.857323
            ],
            [
              166.355711,
              45.856961
            ],
            [
              166.537508,
              45.86835
            ],
            [
              166.716798,
              45.891379
            ],
            [
              166.891854,
              45.925828
            ],
            [
              167.06099,
              45.971364
            ],
            [
              167.222578,
              46.02755
            ],
            [
              167.37506,
              46.093843
            ],
            [
              167.516969,
              46.169605
            ],
            [
              167.646938,
              46.254107
            ],
            [
              167.763716,
              46.346535
            ],
            [
              167.866177,
              46.445999
            ],
            [
              167.953335,
              46.551541
            ],
            [
              168.02435,
              46.662144
            ],
            [
              168.078539,
              46.776744
            ],
            [
              168.11538,
              46.894236
            ],
            [
              168.134518,
              47.013489
            ],
            [
              168.135768,
              47.133355
            ]
          ]
        ],
        "type": "Polygon"
      },
      "properties": {
        "kind": "reachableSet",
        "observationStatus": "estimated",
        "vessel": "B"
      },
      "type": "Feature"
    }
  ],
  "properties": {
    "dateline": false
  },
  "type": "FeatureCollection"
}
