{
  "features": [
    {
      "geometry": {
        "coordinates": [
          164.483893,
          44.403647
        ],
        "type": "Point"
      },
      "properties": {
        "mmsi": "416253700",
        "observationStatus": "observed",
        "role": "off",
        "time": "2019-07-09T01:45:41Z",
        "vessel": "A"
      },
      "type": "Feature"
    },
    {
      "geometry": {
        "coordinates": [
          164.508145,
          44.34373
        ],
        "type": "Point"
      },
      "properties": {
        "mmsi": "416004186",
        "observationStatus": "observed",
        "role": "off",
        "time": "2019-07-09T02:11:54Z",
        "vessel": "B"
      },
      "type": "Feature"
    },
    {
      "geometry": {
        "coordinates": [
          163.927733,
          47.14608
        ],
        "type": "Point"
      },
      "properties": {
        "mmsi": "416253700",
        "observationStatus": "observed",
        "role": "on",
        "time": "2019-07-10T16:50:32Z",
        "vessel": "A"
      },
      "type": "Feature"
    },
    {
      "geometry": {
        "coordinates": [
          163.873022,
          47.128785
        ],
        "type": "Point"
      },
      "properties": {
        "mmsi": "416004186",
        "observationStatus": "observed",
        "role": "on",
        "time": "2019-07-10T17:05:42Z",
        "vessel": "B"
      },
      "type": "Feature"
    },
    {
      "geometry": {
        "coordinates": [
          [
            164.483893,
            44.403647
          ],
          [
            164.383123,
            44.952967
          ],
          [
            163.927733,
            47.14608
          ]
        ],
        "type": "LineString"
      },
      "properties": {
        "confidence": "low",
        "lineStyle": "dashed",
        "observationStatus": "estimated",
        "source": "reachable-set heuristic",
        "vessel": "A"
      },
      "type": "Feature"
    },
    {
      "geometry": {
        "coordinates": [
          [
            164.508145,
            44.34373
          ],
          [
            164.383123,
            44.952967
          ],
          [
            163.873022,
            47.128785
          ]
        ],
        "type": "LineString"
      },
      "properties": {
        "confidence": "low",
        "lineStyle": "dashed",
        "observationStatus": "estimated",
        "source": "reachable-set heuristic",
        "vessel": "B"
      },
      "type": "Feature"
    },
    {
      "geometry": {
        "coordinates": [
          164.383123,
          44.952967
        ],
        "type": "Point"
      },
      "properties": {
        "kind": "meetingPoint",
        "observationStatus": "estimated"
      },
      "type": "Feature"
    },
    {
      "geometry": {
        "coordinates": [
          [
            [
              163.437452,
              49.563664
            ],
            [
              162.948147,
              49.496119
            ],
            [
              162.470955,
              49.392737
            ],
            [
              162.01047,
              49.254513
            ],
            [
              161.571127,
              49.082778
            ],
            [
              161.157157,
              48.879186
            ],
            [
              160.772548,
              48.645697
            ],
            [
              160.421004,
              48.384561
            ],
            [
              160.105909,
              48.098292
            ],
            [
              159.830298,
              47.789647
            ],
            [
              159.596826,
              47.461599
            ],
            [
              159.407741,
              47.117306
            ],
            [
              159.264864,
              46.760085
            ],
            [
              159.169571,
              46.393376
            ],
            [
              159.122779,
              46.02071
            ],
            [
              159.124941,
              45.645677
            ],
            [
              159.176034,
              45.271887
            ],
            [
              159.275566,
              44.902942
            ],
            [
              159.422579,
              44.542393
            ],
            [
              159.615658,
              44.193714
            ],
            [
              159.852942,
              43.860263
            ],
            [
              160.132147,
              43.54525
            ],
            [
              160.450583,
              43.251709
            ],
            [
              160.805184,
              42.982468
            ],
            [
              161.192535,
              42.740119
            ],
            [
              161.608906,
              42.526996
            ],
            [
              162.050286,
              42.345152
            ],
            [
              162.512426,
              42.196338
            ],
            [
              162.990873,
              42.081987
            ],
            [
              163.481021,
              42.003201
            ],
            [
              163.978149,
              41.960738
            ],
            [
              164.47747,
              41.955007
            ],
            [
              164.974175,
              41.986063
            ],
            [
              165.463479,
              42.053607
            ],
            [
              165.940672,
              42.156989
            ],
            [
              166.401157,
              42.295214
            ],
            [
              166.8405,
              42.466949
            ],
            [
              167.254469,
              42.670541
            ],
            [
              167.639078,
              42.904029
            ],
            [
              167.990623,
              43.165166
            ],
            [
              168.305718,
              43.451435
            ],
            [
              168.581329,
              43.76008
            ],
            [
              168.814801,
              44.088128
            ],
            [
              169.003886,
              44.43242
            ],
            [
              169.146763,
              44.789642
            ],
            [
              169.242056,
              45.156351
            ],
            [
              169.288847,
              45.529017
            ],
            [
              169.286686,
              45.90405
            ],
            [
              169.235593,
              46.277839
            ],
            [
              169.136061,
              46.646785
            ],
            [
              168.989048,
              47.007333
            ],
            [
              168.795969,
              47.356012
            ],
            [
              168.558685,
              47.689464
            ],
            [
              168.27948,
              48.004477
            ],
            [
              167.961044,
              48.298017
            ],
            [
              167.606443,
              48.567259
            ],
            [
              167.219091,
              48.809608
            ],
            [
              166.802721,
              49.02273
            ],
            [
              166.36134,
              49.204574
            ],
            [
              165.899201,
              49.353388
            ],
            [
              165.420754,
              49.467739
            ],
            [
              164.930606,
              49.546526
            ],
            [
              164.433477,
              49.588989
            ],
            [
              163.934157,
              49.59472
            ],
            [
              163.437452,
              49.563664
            ]
          ]
        ],
        "type": "Polygon"
      },
      "properties": {
        "kind": "reachableSet",
        "observationStatus": "estimated",
        "vessel": "A"
      },
      "type": "Feature"
    },
    {
      "geometry": {
        "coordinates": [
          [
            [
              163.333004,
              49.496797
            ],
            [
              162.849875,
              49.423821
            ],
            [
              162.379658,
              49.315332
            ],
            [
              161.926882,
              49.172374
            ],
            [
              161.495906,
              48.996324
            ],
            [
              161.090881,
              48.788879
            ],
            [
              160.715708,
              48.552035
            ],
            [
              160.374,
              48.288073
            ],
            [
              160.069048,
              47.999536
            ],
            [
              159.803789,
              47.689203
            ],
            [
              159.580776,
              47.360062
            ],
            [
              159.402159,
              47.015282
            ],
            [
              159.269657,
              46.658185
            ],
            [
              159.184546,
              46.292209
            ],
            [
              159.147646,
              45.920879
            ],
            [
              159.159312,
              45.547771
            ],
            [
              159.219432,
              45.176478
            ],
            [
              159.327427,
              44.810576
            ],
            [
              159.482257,
              44.453589
            ],
            [
              159.68243,
              44.108955
            ],
            [
              159.92602,
              43.779993
            ],
            [
              160.210679,
              43.46987
            ],
            [
              160.533668,
              43.181574
            ],
            [
              160.891874,
              42.917881
            ],
            [
              161.281849,
              42.681331
            ],
            [
              161.699836,
              42.474201
            ],
            [
              162.141811,
              42.298487
            ],
            [
              162.603516,
              42.15588
            ],
            [
              163.080506,
              42.047754
            ],
            [
              163.568187,
              41.97515
            ],
            [
              164.061861,
              41.938768
            ],
            [
              164.556775,
              41.938958
            ],
            [
              165.048163,
              41.975718
            ],
            [
              165.531291,
              42.048694
            ],
            [
              166.001508,
              42.157183
            ],
            [
              166.454285,
              42.300141
            ],
            [
              166.885261,
              42.476191
            ],
            [
              167.290286,
              42.683636
            ],
            [
              167.665458,
              42.92048
            ],
            [
              168.007166,
              43.184442
            ],
            [
              168.312119,
              43.472979
            ],
            [
              168.577378,
              43.783312
            ],
            [
              168.80039,
              44.112453
            ],
            [
              168.979008,
              44.457233
            ],
            [
              169.11151,
              44.81433
            ],
            [
              169.196621,
              45.180306
            ],
            [
              169.233521,
              45.551636
            ],
            [
              169.221855,
              45.924744
            ],
            [
              169.161735,
              46.296037
            ],
            [
              169.05374,
              46.661939
            ],
            [
              168.89891,
              47.018926
            ],
            [
              168.698736,
              47.36356
            ],
            [
              168.455147,
              47.692522
            ],
            [
              168.170487,
              48.002645
            ],
            [
              167.847499,
              48.290941
            ],
            [
              167.489293,
              48.554634
            ],
            [
              167.099318,
              48.791184
            ],
            [
              166.68133,
              48.998314
            ],
            [
              166.239356,
              49.174028
            ],
            [
              165.77765,
              49.316635
            ],
            [
              165.30066,
              49.424761
            ],
            [
              164.81298,
              49.497365
            ],
            [
              164.319305,
              49.533747
            ],
            [
              163.824391,
              49.533557
            ],
            [
              163.333004,
              49.496797
            ]
          ]
        ],
        "type": "Polygon"
      },
      "properties": {
        "kind": "reachableSet",
        "observationStatus": "estimated",
        "vessel": "B"
      },
      "type": "Feature"
    }
  ],
  "properties": {
    "dateline": false
  },
  "type": "FeatureCollection"
}
