{
  "features": [
    {
      "geometry": {
        "coordinates": [
          165.64336,
          46.945173
        ],
        "type": "Point"
      },
      "properties": {
        "mmsi": "416252900",
        "observationStatus": "observed",
        "role": "off",
        "time": "2019-07-20T03:58:17Z",
        "vessel": "A"
      },
      "type": "Feature"
    },
    {
      "geometry": {
        "coordinates": [
          165.74864,
          46.898933
        ],
        "type": "Point"
      },
      "properties": {
        "mmsi": "416243800",
        "observationStatus": "observed",
        "role": "off",
        "time": "2019-07-20T03:58:51Z",
        "vessel": "B"
      },
      "type": "Feature"
    },
    {
      "geometry": {
        "coordinates": [
          166.778582,
          46.930365
        ],
        "type": "Point"
      },
      "properties": {
        "mmsi": "416252900",
        "observationStatus": "observed",
        "role": "on",
        "time": "2019-07-20T16:52:33Z",
        "vessel": "A"
      },
      "type": "Feature"
    },
    {
      "geometry": {
        "coordinates": [
          166.708422,
          46.866955
        ],
        "type": "Point"
      },
      "properties": {
        "mmsi": "416243800",
        "observationStatus": "observed",
        "role": "on",
        "time": "2019-07-20T17:22:30Z",
        "vessel": "B"
      },
      "type": "Feature"
    },
    {
      "geometry": {
        "coordinates": [
          [
            165.64336,
            46.945173
          ],
          [
            166.051769,
            46.939957
          ],
          [
            166.778582,
            46.930365
          ]
        ],
        "type": "LineString"
      },
      "properties": {
        "confidence": "low",
        "lineStyle": "dashed",
        "observationStatus": "estimated",
        "source": "reachable-set heuristic",
        "vessel": "A"
      },
      "type": "Feature"
    },
    {
      "geometry": {
        "coordinates": [
          [
            165.74864,
            46.898933
          ],
          [
            166.051769,
            46.939957
          ],
          [
            166.708422,
            46.866955
          ]
        ],
        "type": "LineString"
      },
      "properties": {
        "confidence": "low",
        "lineStyle": "dashed",
        "observationStatus": "estimated",
        "source": "reachable-set heuristic",
        "vessel": "B"
      },
      "type": "Feature"
    },
    {
      "geometry": {
        "coordinates": [
          166.051769,
          46.939957
        ],
        "type": "Point"
      },
      "properties": {
        "kind": "meetingPoint",
        "observationStatus": "estimated"
      },
      "type": "Feature"
    },
    {
      "geometry": {
        "coordinates": [
          [
            [
              167.951019,
              46.915071
            ],
            [
              167.9457,
              47.02601
            ],
            [
              167.923674,
              47.1361
            ],
            [
              167.885154,
              47.244279
            ],
            [
              167.830511,
              47.349507
            ],
            [
              167.76027,
              47.450769
            ],
            [
              167.675109,
              47.547091
            ],
            [
              167.575848,
              47.637545
            ],
            [
              167.463442,
              47.721259
            ],
            [
              167.338974,
              47.797428
            ],
            [
              167.203642,
              47.865319
            ],
            [
              167.058751,
              47.924276
            ],
            [
              166.905695,
              47.973733
            ],
            [
              166.745949,
              48.013212
            ],
            [
              166.58105,
              48.042335
            ],
            [
              166.412588,
              48.06082
            ],
            [
              166.242184,
              48.06849
            ],
            [
              166.071479,
              48.06527
            ],
            [
              165.902117,
              48.051191
            ],
            [
              165.73573,
              48.02639
            ],
            [
              165.57392,
              47.991105
            ],
            [
              165.418245,
              47.945675
            ],
            [
              165.270204,
              47.890539
            ],
            [
              165.131223,
              47.826227
            ],
            [
              165.002641,
              47.753359
            ],
            [
              164.885696,
              47.672636
            ],
            [
              164.781514,
              47.584836
            ],
            [
              164.691099,
              47.490805
            ],
            [
              164.61532,
              47.391447
            ],
            [
              164.554909,
              47.287721
            ],
            [
              164.510446,
              47.180624
            ],
            [
              164.48236,
              47.071188
            ],
            [
              164.470922,
              46.960467
            ],
            [
              164.476242,
              46.849528
            ],
            [
              164.498267,
              46.739438
            ],
            [
              164.536788,
              46.631259
            ],
            [
              164.591431,
              46.526031
            ],
            [
              164.661671,
              46.424769
            ],
            [
              164.746832,
              46.328447
            ],
            [
              164.846094,
              46.237993
            ],
            [
              164.9585,
              46.154279
            ],
            [
              165.082968,
              46.07811
            ],
            [
              165.218299,
              46.01022
            ],
            [
              165.36319,
              45.951262
            ],
            [
              165.516246,
              45.901806
            ],
            [
              165.675993,
              45.862326
            ],
            [
              165.840891,
              45.833203
            ],
            [
              166.009354,
              45.814718
            ],
            [
              166.179758,
              45.807049
            ],
            [
              166.350463,
              45.810269
            ],
            [
              166.519824,
              45.824347
            ],
            [
              166.686212,
              45.849148
            ],
            [
              166.848022,
              45.884434
            ],
            [
              167.003697,
              45.929863
            ],
            [
              167.151738,
              45.984999
            ],
            [
              167.290718,
              46.049311
            ],
            [
              167.4193,
              46.122179
            ],
            [
              167.536245,
              46.202902
            ],
            [
              167.640427,
              46.290702
            ],
            [
              167.730843,
              46.384733
            ],
            [
              167.806622,
              46.484091
            ],
            [
              167.867033,
              46.587818
            ],
            [
              167.911496,
              46.694915
            ],
            [
              167.939581,
              46.804351
            ],
            [
              167.951019,
              46.915071
            ]
          ]
        ],
        "type": "Polygon"
      },
      "properties": {
        "kind": "reachableSet",
        "observationStatus": "estimated",
        "vessel": "A"
      },
      "type": "Feature"
    },
    {
      "geometry": {
        "coordinates": [
          [
            [
              168.036517,
              46.822705
            ],
            [
              168.036083,
              46.940567
            ],
            [
              168.018242,
              47.057873
            ],
            [
              167.983166,
              47.173495
            ],
            [
              167.931191,
              47.286319
            ],
            [
              167.862818,
              47.395258
            ],
            [
              167.778707,
              47.499263
            ],
            [
              167.679666,
              47.597332
            ],
            [
              167.56665,
              47.688522
            ],
            [
              167.440747,
              47.771954
            ],
            [
              167.30317,
              47.846823
            ],
            [
              167.155244,
              47.912411
            ],
            [
              166.998393,
              47.968084
            ],
            [
              166.834128,
              48.013306
            ],
            [
              166.66403,
              48.047642
            ],
            [
              166.489739,
              48.070762
            ],
            [
              166.312931,
              48.082442
            ],
            [
              166.135311,
              48.082571
            ],
            [
              165.958589,
              48.071146
            ],
            [
              165.784467,
              48.048279
            ],
            [
              165.614621,
              48.014189
            ],
            [
              165.450687,
              47.969204
            ],
            [
              165.294244,
              47.913758
            ],
            [
              165.146799,
              47.848384
            ],
            [
              165.009772,
              47.773713
            ],
            [
              164.884482,
              47.690463
            ],
            [
              164.772136,
              47.599437
            ],
            [
              164.673816,
              47.50151
            ],
            [
              164.590468,
              47.397626
            ],
            [
              164.522896,
              47.288785
            ],
            [
              164.471751,
              47.176036
            ],
            [
              164.437524,
              47.060465
            ],
            [
              164.420545,
              46.943183
            ],
            [
              164.420978,
              46.825322
            ],
            [
              164.438819,
              46.708015
            ],
            [
              164.473896,
              46.592393
            ],
            [
              164.525871,
              46.47957
            ],
            [
              164.594244,
              46.370631
            ],
            [
              164.678355,
              46.266626
            ],
            [
              164.777396,
              46.168556
            ],
            [
              164.890412,
              46.077366
            ],
            [
              165.016314,
              45.993935
            ],
            [
              165.153891,
              45.919065
            ],
            [
              165.301818,
              45.853478
            ],
            [
              165.458669,
              45.797805
            ],
            [
              165.622934,
              45.752582
            ],
            [
              165.793031,
              45.718246
            ],
            [
              165.967323,
              45.695126
            ],
            [
              166.14413,
              45.683446
            ],
            [
              166.32175,
              45.683317
            ],
            [
              166.498473,
              45.694742
            ],
            [
              166.672595,
              45.717609
            ],
            [
              166.842441,
              45.7517
            ],
            [
              167.006375,
              45.796685
            ],
            [
              167.162817,
              45.852131
            ],
            [
              167.310262,
              45.917504
            ],
            [
              167.44729,
              45.992175
            ],
            [
              167.57258,
              46.075425
            ],
            [
              167.684926,
              46.166452
            ],
            [
              167.783246,
              46.264378
            ],
            [
              167.866593,
              46.368262
            ],
            [
              167.934165,
              46.477103
            ],
            [
              167.985311,
              46.589852
            ],
            [
              168.019538,
              46.705424
            ],
            [
              168.036517,
              46.822705
            ]
          ]
        ],
        "type": "Polygon"
      },
      "properties": {
        "kind": "reachableSet",
        "observationStatus": "estimated",
        "vessel": "B"
      },
      "type": "Feature"
    }
  ],
  "properties": {
    "dateline": false
  },
  "type": "FeatureCollection"
}
