{
  "features": [
    {
      "geometry": {
        "coordinates": [
          157.320885,
          42.256725
        ],
        "type": "Point"
      },
      "properties": {
        "mmsi": "412300377",
        "observationStatus": "observed",
        "role": "off",
        "time": "2019-10-10T04:34:02Z",
        "vessel": "A"
      },
      "type": "Feature"
    },
    {
      "geometry": {
        "coordinates": [
          157.389173,
          42.29128
        ],
        "type": "Point"
      },
      "properties": {
        "mmsi": "412439762",
        "observationStatus": "observed",
        "role": "off",
        "time": "2019-10-10T05:03:09Z",
        "vessel": "B"
      },
      "type": "Feature"
    },
    {
      "geometry": {
        "coordinates": [
          157.497592,
          42.284595
        ],
        "type": "Point"
      },
      "properties": {
        "mmsi": "412439762",
        "observationStatus": "observed",
        "role": "on",
        "time": "2019-10-10T18:32:53Z",
        "vessel": "B"
      },
      "type": "Feature"
    },
    {
      "geometry": {
        "coordinates": [
          157.569083,
          42.248295
        ],
        "type": "Point"
      },
      "properties": {
        "mmsi": "412300377",
        "observationStatus": "observed",
        "role": "on",
        "time": "2019-10-10T19:22:54Z",
        "vessel": "A"
      },
      "type": "Feature"
    },
    {
      "geometry": {
        "coordinates": [
          [
            157.320885,
            42.256725
          ],
          [
            157.409969,
            42.290081
          ],
          [
            157.569083,
            42.248295
          ]
        ],
        "type": "LineString"
      },
      "properties": {
        "confidence": "low",
        "lineStyle": "dashed",
        "observationStatus": "estimated",
        "source": "reachable-set heuristic",
        "vessel": "A"
      },
      "type": "Feature"
    },
    {
      "geometry": {
        "coordinates": [
          [
            157.389173,
            42.29128
          ],
          [
            157.409969,
            42.290081
          ],
          [
            157.497592,
            42.284595
          ]
        ],
        "type": "LineString"
      },
      "properties": {
        "confidence": "low",
        "lineStyle": "dashed",
        "observationStatus": "estimated",
        "source": "reachable-set heuristic",
        "vessel": "B"
      },
      "type": "Feature"
    },
    {
      "geometry": {
        "coordinates": [
          157.409969,
          42.290081
        ],
        "type": "Point"
      },
      "properties": {
        "kind": "meetingPoint",
        "observationStatus": "estimated"
      },
      "type": "Feature"
    },
    {
      "geometry": {
        "coordinates": [
          [
            [
              159.30604,
              42.1893
            ],
            [
              159.305374,
              42.325239
            ],
            [
              159.286792,
              42.460478
            ],
            [
              159.250471,
              42.593714
            ],
            [
              159.196763,
              42.723665
            ],
            [
              159.126185,
              42.849077
            ],
            [
              159.039415,
              42.968745
            ],
            [
              158.937291,
              43.081515
            ],
            [
              158.820794,
              43.1863
            ],
            [
              158.691048,
              43.282094
            ],
            [
              158.549302,
              43.367971
            ],
            [
              158.39692,
              43.443106
            ],
            [
              158.235371,
              43.506775
            ],
            [
              158.066209,
              43.558365
            ],
            [
              157.891065,
              43.597379
            ],
            [
              157.711625,
              43.62344
            ],
            [
              157.529618,
              43.6363
            ],
            [
              157.346795,
              43.635832
            ],
            [
              157.164917,
              43.622042
            ],
            [
              156.985737,
              43.595063
            ],
            [
              156.81098,
              43.555154
            ],
            [
              156.642329,
              43.502701
            ],
            [
              156.481407,
              43.438207
            ],
            [
              156.329765,
              43.362294
            ],
            [
              156.188864,
              43.275693
            ],
            [
              156.060059,
              43.179239
            ],
            [
              155.944593,
              43.07386
            ],
            [
              155.843575,
              42.96057
            ],
            [
              155.757981,
              42.840462
            ],
            [
              155.688633,
              42.714691
            ],
            [
              155.636199,
              42.58447
            ],
            [
              155.601185,
              42.451051
            ],
            [
              155.583928,
              42.31572
            ],
            [
              155.584594,
              42.179781
            ],
            [
              155.603177,
              42.044542
            ],
            [
              155.639497,
              41.911306
            ],
            [
              155.693205,
              41.781355
            ],
            [
              155.763783,
              41.655943
            ],
            [
              155.850553,
              41.536275
            ],
            [
              155.952678,
              41.423505
            ],
            [
              156.069174,
              41.31872
            ],
            [
              156.19892,
              41.222926
            ],
            [
              156.340667,
              41.137049
            ],
            [
              156.493048,
              41.061914
            ],
            [
              156.654598,
              40.998245
            ],
            [
              156.823759,
              40.946655
            ],
            [
              156.998903,
              40.907641
            ],
            [
              157.178343,
              40.88158
            ],
            [
              157.360351,
              40.86872
            ],
            [
              157.543174,
              40.869188
            ],
            [
              157.725051,
              40.882978
            ],
            [
              157.904231,
              40.909957
            ],
            [
              158.078988,
              40.949866
            ],
            [
              158.24764,
              41.002319
            ],
            [
              158.408561,
              41.066813
            ],
            [
              158.560203,
              41.142726
            ],
            [
              158.701104,
              41.229327
            ],
            [
              158.829909,
              41.325781
            ],
            [
              158.945376,
              41.43116
            ],
            [
              159.046393,
              41.54445
            ],
            [
              159.131988,
              41.664558
            ],
            [
              159.201336,
              41.790329
            ],
            [
              159.253769,
              41.92055
            ],
            [
              159.288783,
              42.053969
            ],
            [
              159.30604,
              42.1893
            ]
          ]
        ],
        "type": "Polygon"
      },
      "properties": {
        "kind": "reachableSet",
        "observationStatus": "estimated",
        "vessel": "A"
      },
      "type": "Feature"
    },
    {
      "geometry": {
        "coordinates": [
          [
            [
              159.123707,
              42.18433
            ],
            [
              159.129243,
              42.307432
            ],
            [
              159.118545,
              42.430347
            ],
            [
              159.091713,
              42.55189
            ],
            [
              159.049007,
              42.670892
            ],
            [
              158.990838,
              42.786205
            ],
            [
              158.917766,
              42.896719
            ],
            [
              158.830495,
              43.001371
            ],
            [
              158.729865,
              43.099152
            ],
            [
              158.616846,
              43.189121
            ],
            [
              158.492526,
              43.27041
            ],
            [
              158.358102,
              43.342238
            ],
            [
              158.214868,
              43.403912
            ],
            [
              158.064205,
              43.454839
            ],
            [
              157.907563,
              43.494528
            ],
            [
              157.746451,
              43.522597
            ],
            [
              157.58242,
              43.538776
            ],
            [
              157.41705,
              43.542908
            ],
            [
              157.251933,
              43.534954
            ],
            [
              157.088661,
              43.514991
            ],
            [
              156.928804,
              43.48321
            ],
            [
              156.773903,
              43.439919
            ],
            [
              156.62545,
              43.385533
            ],
            [
              156.484873,
              43.320577
            ],
            [
              156.353528,
              43.245675
            ],
            [
              156.232679,
              43.161551
            ],
            [
              156.123489,
              43.069013
            ],
            [
              156.027011,
              42.968952
            ],
            [
              155.944173,
              42.862334
            ],
            [
              155.875773,
              42.750183
            ],
            [
              155.82247,
              42.633581
            ],
            [
              155.784778,
              42.51365
            ],
            [
              155.763058,
              42.391545
            ],
            [
              155.757522,
              42.268443
            ],
            [
              155.76822,
              42.145528
            ],
            [
              155.795052,
              42.023985
            ],
            [
              155.837758,
              41.904983
            ],
            [
              155.895927,
              41.78967
            ],
            [
              155.968999,
              41.679156
            ],
            [
              156.05627,
              41.574504
            ],
            [
              156.1569,
              41.476723
            ],
            [
              156.269919,
              41.386754
            ],
            [
              156.394239,
              41.305465
            ],
            [
              156.528663,
              41.233637
            ],
            [
              156.671897,
              41.171963
            ],
            [
              156.82256,
              41.121036
            ],
            [
              156.979202,
              41.081347
            ],
            [
              157.140314,
              41.053278
            ],
            [
              157.304345,
              41.037099
            ],
            [
              157.469715,
              41.032967
            ],
            [
              157.634832,
              41.040921
            ],
            [
              157.798104,
              41.060884
            ],
            [
              157.957961,
              41.092665
            ],
            [
              158.112862,
              41.135956
            ],
            [
              158.261315,
              41.190342
            ],
            [
              158.401892,
              41.255298
            ],
            [
              158.533237,
              41.3302
            ],
            [
              158.654086,
              41.414324
            ],
            [
              158.763276,
              41.506862
            ],
            [
              158.859754,
              41.606923
            ],
            [
              158.942592,
              41.713541
            ],
            [
              159.010992,
              41.825692
            ],
            [
              159.064295,
              41.942294
            ],
            [
              159.101987,
              42.062225
            ],
            [
              159.123707,
              42.18433
            ]
          ]
        ],
        "type": "Polygon"
      },
      "properties": {
        "kind": "reachableSet",
        "observationStatus": "estimated",
        "vessel": "B"
      },
      "type": "Feature"
    }
  ],
  "properties": {
    "dateline": false
  },
  "type": "FeatureCollection"
}
