{
  "features": [
    {
      "geometry": {
        "coordinates": [
          -57.756083,
          -42.032692
        ],
        "type": "Point"
      },
      "properties": {
        "mmsi": "412329684",
        "observationStatus": "observed",
        "role": "off",
        "time": "2019-05-19T05:19:10Z",
        "vessel": "A"
      },
      "type": "Feature"
    },
    {
      "geometry": {
        "coordinates": [
          -57.850545,
          -42.034492
        ],
        "type": "Point"
      },
      "properties": {
        "mmsi": "412329693",
        "observationStatus": "observed",
        "role": "off",
        "time": "2019-05-19T05:29:27Z",
        "vessel": "B"
      },
      "type": "Feature"
    },
    {
      "geometry": {
        "coordinates": [
          -57.994387,
          -42.15201
        ],
        "type": "Point"
      },
      "properties": {
        "mmsi": "412329684",
        "observationStatus": "observed",
        "role": "on",
        "time": "2019-05-19T23:14:30Z",
        "vessel": "A"
      },
      "type": "Feature"
    },
    {
      "geometry": {
        "coordinates": [
          -57.955403,
          -42.09014
        ],
        "type": "Point"
      },
      "properties": {
        "mmsi": "412329693",
        "observationStatus": "observed",
        "role": "on",
        "time": "2019-05-19T23:41:03Z",
        "vessel": "B"
      },
      "type": "Feature"
    },
    {
      "geometry": {
        "coordinates": [
          [
            -57.756083,
            -42.032692
          ],
          [
            -57.875235,
            -42.092351
          ],
          [
            -57.994387,
            -42.15201
          ]
        ],
        "type": "LineString"
      },
      "properties": {
        "confidence": "low",
        "lineStyle": "dashed",
        "observationStatus": "estimated",
        "source": "reachable-set heuristic",
        "vessel": "A"
      },
      "type": "Feature"
    },
    {
      "geometry": {
        "coordinates": [
          [
            -57.850545,
            -42.034492
          ],
          [
            -57.875235,
            -42.092351
          ],
          [
            -57.955403,
            -42.09014
          ]
        ],
        "type": "LineString"
      },
      "properties": {
        "confidence": "low",
        "lineStyle": "dashed",
        "observationStatus": "estimated",
        "source": "reachable-set heuristic",
        "vessel": "B"
      },
      "type": "Feature"
    },
    {
      "geometry": {
        "coordinates": [
          -57.875235,
          -42.092351
        ],
        "type": "Point"
      },
      "properties": {
        "kind": "meetingPoint",
        "observationStatus": "estimated"
      },
      "type": "Feature"
    },
    {
      "geometry": {
        "coordinates": [
          [
            [
              -59.923748,
              -43.11804
            ],
            [
              -59.779544,
              -43.262857
            ],
            [
              -59.617001,
              -43.3964
            ],
            [
              -59.437684,
              -43.517386
            ],
            [
              -59.243319,
              -43.624647
            ],
            [
              -59.035779,
              -43.717152
            ],
            [
              -58.817062,
              -43.794008
            ],
            [
              -58.589275,
              -43.854477
            ],
            [
              -58.354612,
              -43.897976
            ],
            [
              -58.115331,
              -43.924085
            ],
            [
              -57.873739,
              -43.932554
            ],
            [
              -57.632161,
              -43.923301
            ],
            [
              -57.392924,
              -43.896415
            ],
            [
              -57.158331,
              -43.852154
            ],
            [
              -56.930643,
              -43.790946
            ],
            [
              -56.712052,
              -43.713379
            ],
            [
              -56.504663,
              -43.620201
            ],
            [
              -56.310473,
              -43.512309
            ],
            [
              -56.131353,
              -43.390742
            ],
            [
              -55.969028,
              -43.256671
            ],
            [
              -55.82506,
              -43.111386
            ],
            [
              -55.700836,
              -42.956288
            ],
            [
              -55.597553,
              -42.79287
            ],
            [
              -55.516206,
              -42.622705
            ],
            [
              -55.457577,
              -42.447432
            ],
            [
              -55.422232,
              -42.26874
            ],
            [
              -55.41051,
              -42.08835
            ],
            [
              -55.422525,
              -41.907997
            ],
            [
              -55.458161,
              -41.729421
            ],
            [
              -55.517074,
              -41.554339
            ],
            [
              -55.598698,
              -41.384439
            ],
            [
              -55.702247,
              -41.221356
            ],
            [
              -55.826722,
              -41.066662
            ],
            [
              -55.970926,
              -40.921845
            ],
            [
              -56.133469,
              -40.788301
            ],
            [
              -56.312786,
              -40.667316
            ],
            [
              -56.507151,
              -40.560055
            ],
            [
              -56.714691,
              -40.46755
            ],
            [
              -56.933408,
              -40.390693
            ],
            [
              -57.161195,
              -40.330224
            ],
            [
              -57.395858,
              -40.286726
            ],
            [
              -57.635139,
              -40.260616
            ],
            [
              -57.876731,
              -40.252147
            ],
            [
              -58.118309,
              -40.261401
            ],
            [
              -58.357546,
              -40.288287
            ],
            [
              -58.592139,
              -40.332547
            ],
            [
              -58.819827,
              -40.393756
            ],
            [
              -59.038418,
              -40.471322
            ],
            [
              -59.245807,
              -40.5645
            ],
            [
              -59.439997,
              -40.672393
            ],
            [
              -59.619117,
              -40.79396
            ],
            [
              -59.781442,
              -40.928031
            ],
            [
              -59.92541,
              -41.073315
            ],
            [
              -60.049634,
              -41.228414
            ],
            [
              -60.152917,
              -41.391832
            ],
            [
              -60.234264,
              -41.561997
            ],
            [
              -60.292893,
              -41.737269
            ],
            [
              -60.328238,
              -41.915961
            ],
            [
              -60.33996,
              -42.096352
            ],
            [
              -60.327945,
              -42.276704
            ],
            [
              -60.292309,
              -42.455281
            ],
            [
              -60.233396,
              -42.630363
            ],
            [
              -60.151772,
              -42.800263
            ],
            [
              -60.048223,
              -42.963345
            ],
            [
              -59.923748,
              -43.11804
            ]
          ]
        ],
        "type": "Polygon"
      },
      "properties": {
        "kind": "reachableSet",
        "observationStatus": "estimated",
        "vessel": "A"
      },
      "type": "Feature"
    },
    {
      "geometry": {
        "coordinates": [
          [
            [
              -59.94496,
              -43.145998
            ],
            [
              -59.793066,
              -43.290333
            ],
            [
              -59.622968,
              -43.422841
            ],
            [
              -59.436307,
              -43.542247
            ],
            [
              -59.234878,
              -43.6474
            ],
            [
              -59.020623,
              -43.737288
            ],
            [
              -58.795604,
              -43.811045
            ],
            [
              -58.561989,
              -43.867961
            ],
            [
              -58.322027,
              -43.907487
            ],
            [
              -58.078029,
              -43.929244
            ],
            [
              -57.832345,
              -43.933021
            ],
            [
              -57.587341,
              -43.918782
            ],
            [
              -57.345378,
              -43.886664
            ],
            [
              -57.108784,
              -43.836977
            ],
            [
              -56.879838,
              -43.770198
            ],
            [
              -56.660747,
              -43.686972
            ],
            [
              -56.453618,
              -43.5881
            ],
            [
              -56.260447,
              -43.474534
            ],
            [
              -56.083095,
              -43.347367
            ],
            [
              -55.923269,
              -43.207824
            ],
            [
              -55.782509,
              -43.057249
            ],
            [
              -55.662171,
              -42.897093
            ],
            [
              -55.563412,
              -42.728897
            ],
            [
              -55.487184,
              -42.554282
            ],
            [
              -55.434222,
              -42.374929
            ],
            [
              -55.405036,
              -42.192565
            ],
            [
              -55.399906,
              -42.008947
            ],
            [
              -55.418882,
              -41.825843
            ],
            [
              -55.461781,
              -41.645016
            ],
            [
              -55.52819,
              -41.468208
            ],
            [
              -55.617469,
              -41.297122
            ],
            [
              -55.728759,
              -41.133405
            ],
            [
              -55.860988,
              -40.978634
            ],
            [
              -56.012883,
              -40.834299
            ],
            [
              -56.18298,
              -40.701791
            ],
            [
              -56.369641,
              -40.582385
            ],
            [
              -56.57107,
              -40.477232
            ],
            [
              -56.785325,
              -40.387344
            ],
            [
              -57.010344,
              -40.313587
            ],
            [
              -57.24396,
              -40.256671
            ],
            [
              -57.483922,
              -40.217144
            ],
            [
              -57.72792,
              -40.195388
            ],
            [
              -57.973603,
              -40.191611
            ],
            [
              -58.218607,
              -40.20585
            ],
            [
              -58.460571,
              -40.237968
            ],
            [
              -58.697164,
              -40.287655
            ],
            [
              -58.92611,
              -40.354433
            ],
            [
              -59.145202,
              -40.437659
            ],
            [
              -59.35233,
              -40.536532
            ],
            [
              -59.545501,
              -40.650098
            ],
            [
              -59.722853,
              -40.777265
            ],
            [
              -59.882679,
              -40.916808
            ],
            [
              -60.023439,
              -41.067382
            ],
            [
              -60.143778,
              -41.227539
            ],
            [
              -60.242536,
              -41.395734
            ],
            [
              -60.318764,
              -41.570349
            ],
            [
              -60.371726,
              -41.749703
            ],
            [
              -60.400913,
              -41.932066
            ],
            [
              -60.406043,
              -42.115684
            ],
            [
              -60.387067,
              -42.298789
            ],
            [
              -60.344168,
              -42.479615
            ],
            [
              -60.277759,
              -42.656423
            ],
            [
              -60.188479,
              -42.82751
            ],
            [
              -60.077189,
              -42.991227
            ],
            [
              -59.94496,
              -43.145998
            ]
          ]
        ],
        "type": "Polygon"
      },
      "properties": {
        "kind": "reachableSet",
        "observationStatus": "estimated",
        "vessel": "B"
      },
      "type": "Feature"
    }
  ],
  "properties": {
    "dateline": false
  },
  "type": "FeatureCollection"
}
