{
  "features": [
    {
      "geometry": {
        "coordinates": [
          -60.599605,
          -45.743715
        ],
        "type": "Point"
      },
      "properties": {
        "mmsi": "412329694",
        "observationStatus": "observed",
        "role": "off",
        "time": "2017-01-06T07:27:43Z",
        "vessel": "A"
      },
      "type": "Feature"
    },
    {
      "geometry": {
        "coordinates": [
          -60.588553,
          -45.664077
        ],
        "type": "Point"
      },
      "properties": {
        "mmsi": "412329685",
        "observationStatus": "observed",
        "role": "off",
        "time": "2017-01-06T07:50:08Z",
        "vessel": "B"
      },
      "type": "Feature"
    },
    {
      "geometry": {
        "coordinates": [
          -60.653015,
          -45.771202
        ],
        "type": "Point"
      },
      "properties": {
        "mmsi": "412329694",
        "observationStatus": "observed",
        "role": "on",
        "time": "2017-01-06T23:09:26Z",
        "vessel": "A"
      },
      "type": "Feature"
    },
    {
      "geometry": {
        "coordinates": [
          -60.60888,
          -45.715763
        ],
        "type": "Point"
      },
      "properties": {
        "mmsi": "412329685",
        "observationStatus": "observed",
        "role": "on",
        "time": "2017-01-07T00:00:57Z",
        "vessel": "B"
      },
      "type": "Feature"
    },
    {
      "geometry": {
        "coordinates": [
          [
            -60.599605,
            -45.743715
          ],
          [
            -60.620784,
            -45.717639
          ],
          [
            -60.653015,
            -45.771202
          ]
        ],
        "type": "LineString"
      },
      "properties": {
        "confidence": "low",
        "lineStyle": "dashed",
        "observationStatus": "estimated",
        "source": "reachable-set heuristic",
        "vessel": "A"
      },
      "type": "Feature"
    },
    {
      "geometry": {
        "coordinates": [
          [
            -60.588553,
            -45.664077
          ],
          [
            -60.620784,
            -45.717639
          ],
          [
            -60.60888,
            -45.715763
          ]
        ],
        "type": "LineString"
      },
      "properties": {
        "confidence": "low",
        "lineStyle": "dashed",
        "observationStatus": "estimated",
        "source": "reachable-set heuristic",
        "vessel": "B"
      },
      "type": "Feature"
    },
    {
      "geometry": {
        "coordinates": [
          -60.620784,
          -45.717639
        ],
        "type": "Point"
      },
      "properties": {
        "kind": "meetingPoint",
        "observationStatus": "estimated"
      },
      "type": "Feature"
    },
    {
      "geometry": {
        "coordinates": [
          [
            [
              -62.463638,
              -46.703012
            ],
            [
              -62.322862,
              -46.824946
            ],
            [
              -62.165747,
              -46.936599
            ],
            [
              -61.993807,
              -47.036897
            ],
            [
              -61.808697,
              -47.124873
            ],
            [
              -61.6122,
              -47.199679
            ],
            [
              -61.406208,
              -47.260597
            ],
            [
              -61.192705,
              -47.307039
            ],
            [
              -60.973748,
              -47.338557
            ],
            [
              -60.751445,
              -47.354848
            ],
            [
              -60.527936,
              -47.355756
            ],
            [
              -60.305375,
              -47.341271
            ],
            [
              -60.085905,
              -47.311533
            ],
            [
              -59.871639,
              -47.266829
            ],
            [
              -59.664641,
              -47.207588
            ],
            [
              -59.466905,
              -47.134382
            ],
            [
              -59.280334,
              -47.047916
            ],
            [
              -59.106725,
              -46.949021
            ],
            [
              -58.947751,
              -46.838652
            ],
            [
              -58.804943,
              -46.717869
            ],
            [
              -58.679675,
              -46.587838
            ],
            [
              -58.573155,
              -46.449809
            ],
            [
              -58.486407,
              -46.305113
            ],
            [
              -58.420268,
              -46.155142
            ],
            [
              -58.375374,
              -46.001342
            ],
            [
              -58.352158,
              -45.845193
            ],
            [
              -58.350843,
              -45.688199
            ],
            [
              -58.371443,
              -45.531872
            ],
            [
              -58.413758,
              -45.377717
            ],
            [
              -58.477381,
              -45.22722
            ],
            [
              -58.561699,
              -45.081829
            ],
            [
              -58.665901,
              -44.942945
            ],
            [
              -58.788982,
              -44.811905
            ],
            [
              -58.929758,
              -44.689971
            ],
            [
              -59.086873,
              -44.578318
            ],
            [
              -59.258813,
              -44.47802
            ],
            [
              -59.443923,
              -44.390044
            ],
            [
              -59.64042,
              -44.315237
            ],
            [
              -59.846412,
              -44.25432
            ],
            [
              -60.059915,
              -44.207878
            ],
            [
              -60.278872,
              -44.17636
            ],
            [
              -60.501175,
              -44.160069
            ],
            [
              -60.724684,
              -44.159161
            ],
            [
              -60.947245,
              -44.173646
            ],
            [
              -61.166715,
              -44.203384
            ],
            [
              -61.380981,
              -44.248088
            ],
            [
              -61.587979,
              -44.307328
            ],
            [
              -61.785715,
              -44.380534
            ],
            [
              -61.972286,
              -44.467001
            ],
            [
              -62.145895,
              -44.565895
            ],
            [
              -62.304869,
              -44.676265
            ],
            [
              -62.447677,
              -44.797047
            ],
            [
              -62.572945,
              -44.927079
            ],
            [
              -62.679465,
              -45.065107
            ],
            [
              -62.766213,
              -45.209804
            ],
            [
              -62.832352,
              -45.359774
            ],
            [
              -62.877246,
              -45.513575
            ],
            [
              -62.900462,
              -45.669724
            ],
            [
              -62.901777,
              -45.826718
            ],
            [
              -62.881177,
              -45.983045
            ],
            [
              -62.838862,
              -46.137199
            ],
            [
              -62.775239,
              -46.287697
            ],
            [
              -62.690921,
              -46.433088
            ],
            [
              -62.586719,
              -46.571972
            ],
            [
              -62.463638,
              -46.703012
            ]
          ]
        ],
        "type": "Polygon"
      },
      "properties": {
        "kind": "reachableSet",
        "observationStatus": "estimated",
        "vessel": "A"
      },
      "type": "Feature"
    },
    {
      "geometry": {
        "coordinates": [
          [
            [
              -61.225155,
              -47.282828
            ],
            [
              -61.000162,
              -47.318335
            ],
            [
              -60.771302,
              -47.338159
            ],
            [
              -60.540781,
              -47.34211
            ],
            [
              -60.310817,
              -47.330149
            ],
            [
              -60.083626,
              -47.302392
            ],
            [
              -59.861396,
              -47.259105
            ],
            [
              -59.646266,
              -47.200707
            ],
            [
              -59.440309,
              -47.127759
            ],
            [
              -59.245508,
              -47.040964
            ],
            [
              -59.063739,
              -46.941158
            ],
            [
              -58.896753,
              -46.829301
            ],
            [
              -58.746158,
              -46.706472
            ],
            [
              -58.613404,
              -46.573852
            ],
            [
              -58.49977,
              -46.43272
            ],
            [
              -58.406349,
              -46.284435
            ],
            [
              -58.334042,
              -46.130423
            ],
            [
              -58.283546,
              -45.97217
            ],
            [
              -58.255345,
              -45.811198
            ],
            [
              -58.249713,
              -45.649058
            ],
            [
              -58.266703,
              -45.487312
            ],
            [
              -58.306151,
              -45.327517
            ],
            [
              -58.367678,
              -45.171213
            ],
            [
              -58.450691,
              -45.019903
            ],
            [
              -58.554391,
              -44.875047
            ],
            [
              -58.677779,
              -44.738037
            ],
            [
              -58.819666,
              -44.610196
            ],
            [
              -58.978687,
              -44.492752
            ],
            [
              -59.15331,
              -44.386838
            ],
            [
              -59.341852,
              -44.293473
            ],
            [
              -59.542499,
              -44.213557
            ],
            [
              -59.753318,
              -44.147859
            ],
            [
              -59.972278,
              -44.097012
            ],
            [
              -60.197272,
              -44.061505
            ],
            [
              -60.426131,
              -44.041681
            ],
            [
              -60.656653,
              -44.03773
            ],
            [
              -60.886616,
              -44.049691
            ],
            [
              -61.113807,
              -44.077448
            ],
            [
              -61.336038,
              -44.120735
            ],
            [
              -61.551167,
              -44.179133
            ],
            [
              -61.757124,
              -44.252081
            ],
            [
              -61.951925,
              -44.338876
            ],
            [
              -62.133694,
              -44.438682
            ],
            [
              -62.30068,
              -44.550539
            ],
            [
              -62.451275,
              -44.673368
            ],
            [
              -62.584029,
              -44.805988
            ],
            [
              -62.697664,
              -44.94712
            ],
            [
              -62.791084,
              -45.095405
            ],
            [
              -62.863391,
              -45.249417
            ],
            [
              -62.913888,
              -45.40767
            ],
            [
              -62.942088,
              -45.568642
            ],
            [
              -62.94772,
              -45.730782
            ],
            [
              -62.93073,
              -45.892528
            ],
            [
              -62.891282,
              -46.052323
            ],
            [
              -62.829755,
              -46.208627
            ],
            [
              -62.746742,
              -46.359937
            ],
            [
              -62.643042,
              -46.504793
            ],
            [
              -62.519654,
              -46.641803
            ],
            [
              -62.377767,
              -46.769644
            ],
            [
              -62.218746,
              -46.887088
            ],
            [
              -62.044124,
              -46.993002
            ],
            [
              -61.855581,
              -47.086367
            ],
            [
              -61.654934,
              -47.166283
            ],
            [
              -61.444116,
              -47.231981
            ],
            [
              -61.225155,
              -47.282828
            ]
          ]
        ],
        "type": "Polygon"
      },
      "properties": {
        "kind": "reachableSet",
        "observationStatus": "estimated",
        "vessel": "B"
      },
      "type": "Feature"
    }
  ],
  "properties": {
    "dateline": false
  },
  "type": "FeatureCollection"
}
