{
  "features": [
    {
      "geometry": {
        "coordinates": [
          -57.78472,
          -42.08816
        ],
        "type": "Point"
      },
      "properties": {
        "mmsi": "412329686",
        "observationStatus": "observed",
        "role": "off",
        "time": "2019-05-08T05:19:25Z",
        "vessel": "A"
      },
      "type": "Feature"
    },
    {
      "geometry": {
        "coordinates": [
          -57.772353,
          -42.058297
        ],
        "type": "Point"
      },
      "properties": {
        "mmsi": "412329689",
        "observationStatus": "observed",
        "role": "off",
        "time": "2019-05-08T05:26:02Z",
        "vessel": "B"
      },
      "type": "Feature"
    },
    {
      "geometry": {
        "coordinates": [
          -57.92913,
          -42.04283
        ],
        "type": "Point"
      },
      "properties": {
        "mmsi": "412329686",
        "observationStatus": "observed",
        "role": "on",
        "time": "2019-05-08T22:23:26Z",
        "vessel": "A"
      },
      "type": "Feature"
    },
    {
      "geometry": {
        "coordinates": [
          -57.895,
          -42.03
        ],
        "type": "Point"
      },
      "properties": {
        "mmsi": "412329689",
        "observationStatus": "observed",
        "role": "on",
        "time": "2019-05-08T22:32:47Z",
        "vessel": "B"
      },
      "type": "Feature"
    },
    {
      "geometry": {
        "coordinates": [
          [
            -57.78472,
            -42.08816
          ],
          [
            -57.814053,
            -42.054197
          ],
          [
            -57.92913,
            -42.04283
          ]
        ],
        "type": "LineString"
      },
      "properties": {
        "confidence": "low",
        "lineStyle": "dashed",
        "observationStatus": "estimated",
        "source": "reachable-set heuristic",
        "vessel": "A"
      },
      "type": "Feature"
    },
    {
      "geometry": {
        "coordinates": [
          [
            -57.772353,
            -42.058297
          ],
          [
            -57.814053,
            -42.054197
          ],
          [
            -57.895,
            -42.03
          ]
        ],
        "type": "LineString"
      },
      "properties": {
        "confidence": "low",
        "lineStyle": "dashed",
        "observationStatus": "estimated",
        "source": "reachable-set heuristic",
        "vessel": "B"
      },
      "type": "Feature"
    },
    {
      "geometry": {
        "coordinates": [
          -57.814053,
          -42.054197
        ],
        "type": "Point"
      },
      "properties": {
        "kind": "meetingPoint",
        "observationStatus": "estimated"
      },
      "type": "Feature"
    },
    {
      "geometry": {
        "coordinates": [
          [
            [
              -60.014741,
              -41.388161
            ],
            [
              -60.093127,
              -41.549415
            ],
            [
              -60.149978,
              -41.715638
            ],
            [
              -60.184745,
              -41.885231
            ],
            [
              -60.197094,
              -42.05656
            ],
            [
              -60.186906,
              -42.227975
            ],
            [
              -60.154279,
              -42.397825
            ],
            [
              -60.099527,
              -42.564475
            ],
            [
              -60.023178,
              -42.726319
            ],
            [
              -59.925966,
              -42.8818
            ],
            [
              -59.808828,
              -43.029418
            ],
            [
              -59.672893,
              -43.167754
            ],
            [
              -59.519469,
              -43.295474
            ],
            [
              -59.350033,
              -43.411349
            ],
            [
              -59.166219,
              -43.514263
            ],
            [
              -58.969794,
              -43.603224
            ],
            [
              -58.762653,
              -43.677376
            ],
            [
              -58.546789,
              -43.736005
            ],
            [
              -58.324281,
              -43.778545
            ],
            [
              -58.097272,
              -43.804588
            ],
            [
              -57.867948,
              -43.813883
            ],
            [
              -57.638518,
              -43.80634
            ],
            [
              -57.411192,
              -43.782032
            ],
            [
              -57.188158,
              -43.741192
            ],
            [
              -56.971565,
              -43.684214
            ],
            [
              -56.763498,
              -43.611648
            ],
            [
              -56.565962,
              -43.524191
            ],
            [
              -56.380858,
              -43.422686
            ],
            [
              -56.20997,
              -43.30811
            ],
            [
              -56.054943,
              -43.181567
            ],
            [
              -55.91727,
              -43.044277
            ],
            [
              -55.798276,
              -42.897559
            ],
            [
              -55.699109,
              -42.742829
            ],
            [
              -55.620723,
              -42.581575
            ],
            [
              -55.563872,
              -42.415352
            ],
            [
              -55.529105,
              -42.245759
            ],
            [
              -55.516756,
              -42.07443
            ],
            [
              -55.526944,
              -41.903015
            ],
            [
              -55.559571,
              -41.733165
            ],
            [
              -55.614323,
              -41.566515
            ],
            [
              -55.690672,
              -41.404671
            ],
            [
              -55.787884,
              -41.24919
            ],
            [
              -55.905022,
              -41.101572
            ],
            [
              -56.040957,
              -40.963236
            ],
            [
              -56.194381,
              -40.835516
            ],
            [
              -56.363817,
              -40.719641
            ],
            [
              -56.547631,
              -40.616727
            ],
            [
              -56.744056,
              -40.527766
            ],
            [
              -56.951197,
              -40.453614
            ],
            [
              -57.167061,
              -40.394985
            ],
            [
              -57.389569,
              -40.352445
            ],
            [
              -57.616578,
              -40.326402
            ],
            [
              -57.845902,
              -40.317107
            ],
            [
              -58.075332,
              -40.32465
            ],
            [
              -58.302658,
              -40.348958
            ],
            [
              -58.525692,
              -40.389798
            ],
            [
              -58.742285,
              -40.446776
            ],
            [
              -58.950352,
              -40.519342
            ],
            [
              -59.147888,
              -40.606799
            ],
            [
              -59.332992,
              -40.708304
            ],
            [
              -59.50388,
              -40.82288
            ],
            [
              -59.658907,
              -40.949423
            ],
            [
              -59.79658,
              -41.086713
            ],
            [
              -59.915574,
              -41.233431
            ],
            [
              -60.014741,
              -41.388161
            ]
          ]
        ],
        "type": "Polygon"
      },
      "properties": {
        "kind": "reachableSet",
        "observationStatus": "estimated",
        "vessel": "A"
      },
      "type": "Feature"
    },
    {
      "geometry": {
        "coordinates": [
          [
            [
              -60.0756,
              -41.526899
            ],
            [
              -60.13259,
              -41.693625
            ],
            [
              -60.167439,
              -41.863727
            ],
            [
              -60.179813,
              -42.035567
            ],
            [
              -60.169593,
              -42.20749
            ],
            [
              -60.136876,
              -42.377839
            ],
            [
              -60.081978,
              -42.544975
            ],
            [
              -60.005428,
              -42.707288
            ],
            [
              -59.907963,
              -42.863214
            ],
            [
              -59.790521,
              -43.011252
            ],
            [
              -59.654234,
              -43.149977
            ],
            [
              -59.500414,
              -43.278051
            ],
            [
              -59.330542,
              -43.394243
            ],
            [
              -59.146255,
              -43.497432
            ],
            [
              -58.949326,
              -43.586626
            ],
            [
              -58.741654,
              -43.660964
            ],
            [
              -58.525237,
              -43.719732
            ],
            [
              -58.30216,
              -43.762363
            ],
            [
              -58.074571,
              -43.788446
            ],
            [
              -57.844662,
              -43.797732
            ],
            [
              -57.614648,
              -43.790129
            ],
            [
              -57.386743,
              -43.765711
            ],
            [
              -57.163142,
              -43.724714
            ],
            [
              -56.945999,
              -43.667532
            ],
            [
              -56.737404,
              -43.594716
            ],
            [
              -56.539367,
              -43.506967
            ],
            [
              -56.353796,
              -43.40513
            ],
            [
              -56.182476,
              -43.290187
            ],
            [
              -56.027058,
              -43.163243
            ],
            [
              -55.889039,
              -43.025522
            ],
            [
              -55.769748,
              -42.878349
            ],
            [
              -55.670333,
              -42.723143
            ],
            [
              -55.591753,
              -42.561398
            ],
            [
              -55.534764,
              -42.394672
            ],
            [
              -55.499914,
              -42.224569
            ],
            [
              -55.48754,
              -42.052729
            ],
            [
              -55.497761,
              -41.880807
            ],
            [
              -55.530477,
              -41.710457
            ],
            [
              -55.585375,
              -41.543321
            ],
            [
              -55.661925,
              -41.381009
            ],
            [
              -55.75939,
              -41.225083
            ],
            [
              -55.876832,
              -41.077045
            ],
            [
              -56.013119,
              -40.93832
            ],
            [
              -56.16694,
              -40.810245
            ],
            [
              -56.336811,
              -40.694054
            ],
            [
              -56.521099,
              -40.590865
            ],
            [
              -56.718027,
              -40.501671
            ],
            [
              -56.9257,
              -40.427333
            ],
            [
              -57.142116,
              -40.368565
            ],
            [
              -57.365193,
              -40.325934
            ],
            [
              -57.592782,
              -40.29985
            ],
            [
              -57.822691,
              -40.290565
            ],
            [
              -58.052705,
              -40.298168
            ],
            [
              -58.28061,
              -40.322586
            ],
            [
              -58.504211,
              -40.363583
            ],
            [
              -58.721355,
              -40.420765
            ],
            [
              -58.929949,
              -40.493581
            ],
            [
              -59.127986,
              -40.58133
            ],
            [
              -59.313558,
              -40.683166
            ],
            [
              -59.484878,
              -40.79811
            ],
            [
              -59.640295,
              -40.925054
            ],
            [
              -59.778314,
              -41.062775
            ],
            [
              -59.897606,
              -41.209947
            ],
            [
              -59.99702,
              -41.365153
            ],
            [
              -60.0756,
              -41.526899
            ]
          ]
        ],
        "type": "Polygon"
      },
      "properties": {
        "kind": "reachableSet",
        "observationStatus": "estimated",
        "vessel": "B"
      },
      "type": "Feature"
    }
  ],
  "properties": {
    "dateline": false
  },
  "type": "FeatureCollection"
}
