{
  "features": [
    {
      "geometry": {
        "coordinates": [
          160.560208,
          47.883587
        ],
        "type": "Point"
      },
      "properties": {
        "mmsi": "416706000",
        "observationStatus": "observed",
        "role": "off",
        "time": "2018-08-04T02:27:11Z",
        "vessel": "A"
      },
      "type": "Feature"
    },
    {
      "geometry": {
        "coordinates": [
          160.518787,
          47.903087
        ],
        "type": "Point"
      },
      "properties": {
        "mmsi": "416004981",
        "observationStatus": "observed",
        "role": "off",
        "time": "2018-08-04T03:03:00Z",
        "vessel": "B"
      },
      "type": "Feature"
    },
    {
      "geometry": {
        "coordinates": [
          160.322697,
          47.435928
        ],
        "type": "Point"
      },
      "properties": {
        "mmsi": "416706000",
        "observationStatus": "observed",
        "role": "on",
        "time": "2018-08-04T17:26:33Z",
        "vessel": "A"
      },
      "type": "Feature"
    },
    {
      "geometry": {
        "coordinates": [
          160.318667,
          47.34681
        ],
        "type": "Point"
      },
      "properties": {
        "mmsi": "416004981",
        "observationStatus": "observed",
        "role": "on",
        "time": "2018-08-04T17:58:39Z",
        "vessel": "B"
      },
      "type": "Feature"
    },
    {
      "geometry": {
        "coordinates": [
          [
            160.560208,
            47.883587
          ],
          [
            160.463619,
            47.771419
          ],
          [
            160.322697,
            47.435928
          ]
        ],
        "type": "LineString"
      },
      "properties": {
        "confidence": "low",
        "lineStyle": "dashed",
        "observationStatus": "estimated",
        "source": "reachable-set heuristic",
        "vessel": "A"
      },
      "type": "Feature"
    },
    {
      "geometry": {
        "coordinates": [
          [
            160.518787,
            47.903087
          ],
          [
            160.463619,
            47.771419
          ],
          [
            160.318667,
            47.34681
          ]
        ],
        "type": "LineString"
      },
      "properties": {
        "confidence": "low",
        "lineStyle": "dashed",
        "observationStatus": "estimated",
        "source": "reachable-set heuristic",
        "vessel": "B"
      },
      "type": "Feature"
    },
    {
      "geometry": {
        "coordinates": [
          160.463619,
          47.771419
        ],
        "type": "Point"
      },
      "properties": {
        "kind": "meetingPoint",
        "observationStatus": "estimated"
      },
      "type": "Feature"
    },
    {
      "geometry": {
        "coordinates": [
          [
            [
              159.739573,
              46.336867
            ],
            [
              159.931416,
              46.297259
            ],
            [
              160.12817,
              46.270772
            ],
            [
              160.327941,
              46.257662
            ],
            [
              160.528805,
              46.258056
            ],
            [
              160.728829,
              46.271948
            ],
            [
              160.926084,
              46.299206
            ],
            [
              161.118673,
              46.339566
            ],
            [
              161.304739,
              46.392641
            ],
            [
              161.482491,
              46.457919
            ],
            [
              161.650218,
              46.534771
            ],
            [
              161.806303,
              46.622457
            ],
            [
              161.949245,
              46.720133
            ],
            [
              162.077665,
              46.826859
            ],
            [
              162.190328,
              46.941605
            ],
            [
              162.286148,
              47.063268
            ],
            [
              162.364203,
              47.190675
            ],
            [
              162.42374,
              47.3226
            ],
            [
              162.464188,
              47.457772
            ],
            [
              162.485155,
              47.594889
            ],
            [
              162.48644,
              47.73263
            ],
            [
              162.46803,
              47.86967
            ],
            [
              162.430104,
              48.004688
            ],
            [
              162.373026,
              48.136385
            ],
            [
              162.297346,
              48.263491
            ],
            [
              162.203792,
              48.384783
            ],
            [
              162.093266,
              48.499093
            ],
            [
              161.966833,
              48.605319
            ],
            [
              161.825709,
              48.702439
            ],
            [
              161.671254,
              48.789518
            ],
            [
              161.504955,
              48.865716
            ],
            [
              161.328414,
              48.9303
            ],
            [
              161.143332,
              48.982648
            ],
            [
              160.951489,
              49.022256
            ],
            [
              160.754735,
              49.048743
            ],
            [
              160.554964,
              49.061853
            ],
            [
              160.3541,
              49.061459
            ],
            [
              160.154076,
              49.047567
            ],
            [
              159.956821,
              49.020309
            ],
            [
              159.764232,
              48.979949
            ],
            [
              159.578166,
              48.926874
            ],
            [
              159.400414,
              48.861596
            ],
            [
              159.232687,
              48.784744
            ],
            [
              159.076602,
              48.697058
            ],
            [
              158.93366,
              48.599382
            ],
            [
              158.80524,
              48.492656
            ],
            [
              158.692577,
              48.37791
            ],
            [
              158.596757,
              48.256247
            ],
            [
              158.518702,
              48.12884
            ],
            [
              158.459165,
              47.996915
            ],
            [
              158.418717,
              47.861743
            ],
            [
              158.39775,
              47.724626
            ],
            [
              158.396465,
              47.586885
            ],
            [
              158.414875,
              47.449845
            ],
            [
              158.452801,
              47.314827
            ],
            [
              158.509879,
              47.18313
            ],
            [
              158.585559,
              47.056024
            ],
            [
              158.679113,
              46.934732
            ],
            [
              158.789639,
              46.820422
            ],
            [
              158.916072,
              46.714196
            ],
            [
              159.057196,
              46.617076
            ],
            [
              159.211651,
              46.529997
            ],
            [
              159.37795,
              46.453799
            ],
            [
              159.554491,
              46.389215
            ],
            [
              159.739573,
              46.336867
            ]
          ]
        ],
        "type": "Polygon"
      },
      "properties": {
        "kind": "reachableSet",
        "observationStatus": "estimated",
        "vessel": "A"
      },
      "type": "Feature"
    },
    {
      "geometry": {
        "coordinates": [
          [
            [
              159.929558,
              46.265197
            ],
            [
              160.124177,
              46.239898
            ],
            [
              160.321632,
              46.227938
            ],
            [
              160.520023,
              46.229432
            ],
            [
              160.717438,
              46.244365
            ],
            [
              160.911976,
              46.272594
            ],
            [
              161.101765,
              46.313847
            ],
            [
              161.284975,
              46.367727
            ],
            [
              161.459842,
              46.433714
            ],
            [
              161.624684,
              46.511174
            ],
            [
              161.777911,
              46.59936
            ],
            [
              161.918048,
              46.697422
            ],
            [
              162.043746,
              46.804418
            ],
            [
              162.153795,
              46.919315
            ],
            [
              162.247133,
              47.041009
            ],
            [
              162.322863,
              47.168325
            ],
            [
              162.380256,
              47.30004
            ],
            [
              162.418757,
              47.434883
            ],
            [
              162.437998,
              47.571557
            ],
            [
              162.437791,
              47.708745
            ],
            [
              162.41814,
              47.845126
            ],
            [
              162.379234,
              47.979387
            ],
            [
              162.321446,
              48.110234
            ],
            [
              162.245335,
              48.236407
            ],
            [
              162.151632,
              48.356692
            ],
            [
              162.04124,
              48.46993
            ],
            [
              161.915223,
              48.57503
            ],
            [
              161.774794,
              48.670981
            ],
            [
              161.621305,
              48.756857
            ],
            [
              161.456234,
              48.831833
            ],
            [
              161.281172,
              48.895186
            ],
            [
              161.097804,
              48.946305
            ],
            [
              160.907896,
              48.984699
            ],
            [
              160.713277,
              49.009998
            ],
            [
              160.515821,
              49.021959
            ],
            [
              160.31743,
              49.020465
            ],
            [
              160.120015,
              49.005532
            ],
            [
              159.925477,
              48.977302
            ],
            [
              159.735689,
              48.936049
            ],
            [
              159.552479,
              48.88217
            ],
            [
              159.377611,
              48.816183
            ],
            [
              159.21277,
              48.738723
            ],
            [
              159.059543,
              48.650537
            ],
            [
              158.919405,
              48.552474
            ],
            [
              158.793707,
              48.445479
            ],
            [
              158.683659,
              48.330581
            ],
            [
              158.59032,
              48.208888
            ],
            [
              158.51459,
              48.081571
            ],
            [
              158.457198,
              47.949857
            ],
            [
              158.418696,
              47.815013
            ],
            [
              158.399456,
              47.67834
            ],
            [
              158.399662,
              47.541152
            ],
            [
              158.419313,
              47.404771
            ],
            [
              158.45822,
              47.27051
            ],
            [
              158.516007,
              47.139663
            ],
            [
              158.592119,
              47.013489
            ],
            [
              158.685821,
              46.893204
            ],
            [
              158.796213,
              46.779966
            ],
            [
              158.92223,
              46.674866
            ],
            [
              159.06266,
              46.578916
            ],
            [
              159.216149,
              46.493039
            ],
            [
              159.381219,
              46.418064
            ],
            [
              159.556281,
              46.354711
            ],
            [
              159.73965,
              46.303592
            ],
            [
              159.929558,
              46.265197
            ]
          ]
        ],
        "type": "Polygon"
      },
      "properties": {
        "kind": "reachableSet",
        "observationStatus": "estimated",
        "vessel": "B"
      },
      "type": "Feature"
    }
  ],
  "properties": {
    "dateline": false
  },
  "type": "FeatureCollection"
}
