{
  "features": [
    {
      "geometry": {
        "coordinates": [
          -57.83473,
          -42.223503
        ],
        "type": "Point"
      },
      "properties": {
        "mmsi": "412421072",
        "observationStatus": "observed",
        "role": "off",
        "time": "2018-04-05T16:31:47Z",
        "vessel": "A"
      },
      "type": "Feature"
    },
    {
      "geometry": {
        "coordinates": [
          -57.868142,
          -42.178585
        ],
        "type": "Point"
      },
      "properties": {
        "mmsi": "412424702",
        "observationStatus": "observed",
        "role": "off",
        "time": "2018-04-05T16:31:48Z",
        "vessel": "B"
      },
      "type": "Feature"
    },
    {
      "geometry": {
        "coordinates": [
          -57.961323,
          -42.057923
        ],
        "type": "Point"
      },
      "properties": {
        "mmsi": "412421072",
        "observationStatus": "observed",
        "role": "on",
        "time": "2018-04-06T10:05:07Z",
        "vessel": "A"
      },
      "type": "Feature"
    },
    {
      "geometry": {
        "coordinates": [
          -57.917615,
          -42.002513
        ],
        "type": "Point"
      },
      "properties": {
        "mmsi": "412424702",
        "observationStatus": "observed",
        "role": "on",
        "time": "2018-04-06T10:56:56Z",
        "vessel": "B"
      },
      "type": "Feature"
    },
    {
      "geometry": {
        "coordinates": [
          [
            -57.83473,
            -42.223503
          ],
          [
            -57.952237,
            -42.070565
          ],
          [
            -57.961323,
            -42.057923
          ]
        ],
        "type": "LineString"
      },
      "properties": {
        "confidence": "low",
        "lineStyle": "dashed",
        "observationStatus": "estimated",
        "source": "reachable-set heuristic",
        "vessel": "A"
      },
      "type": "Feature"
    },
    {
      "geometry": {
        "coordinates": [
          [
            -57.868142,
            -42.178585
          ],
          [
            -57.952237,
            -42.070565
          ],
          [
            -57.917615,
            -42.002513
          ]
        ],
        "type": "LineString"
      },
      "properties": {
        "confidence": "low",
        "lineStyle": "dashed",
        "observationStatus": "estimated",
        "source": "reachable-set heuristic",
        "vessel": "B"
      },
      "type": "Feature"
    },
    {
      "geometry": {
        "coordinates": [
          -57.952237,
          -42.070565
        ],
        "type": "Point"
      },
      "properties": {
        "kind": "meetingPoint",
        "observationStatus": "estimated"
      },
      "type": "Feature"
    },
    {
      "geometry": {
        "coordinates": [
          [
            [
              -59.002789,
              -40.695719
            ],
            [
              -59.186882,
              -40.783383
            ],
            [
              -59.358562,
              -40.884118
            ],
            [
              -59.516176,
              -40.996956
            ],
            [
              -59.658206,
              -41.120808
            ],
            [
              -59.783285,
              -41.254482
            ],
            [
              -59.890208,
              -41.396692
            ],
            [
              -59.977945,
              -41.546066
            ],
            [
              -60.045652,
              -41.701168
            ],
            [
              -60.092675,
              -41.860502
            ],
            [
              -60.118563,
              -42.022535
            ],
            [
              -60.123066,
              -42.185706
            ],
            [
              -60.106141,
              -42.348444
            ],
            [
              -60.06795,
              -42.509182
            ],
            [
              -60.008861,
              -42.66637
            ],
            [
              -59.929445,
              -42.818497
            ],
            [
              -59.830464,
              -42.964096
            ],
            [
              -59.712873,
              -43.101765
            ],
            [
              -59.577804,
              -43.230179
            ],
            [
              -59.426558,
              -43.348101
            ],
            [
              -59.260592,
              -43.454395
            ],
            [
              -59.081503,
              -43.548037
            ],
            [
              -58.891016,
              -43.628127
            ],
            [
              -58.690967,
              -43.693891
            ],
            [
              -58.483281,
              -43.744698
            ],
            [
              -58.269959,
              -43.780057
            ],
            [
              -58.053055,
              -43.799629
            ],
            [
              -57.834658,
              -43.803224
            ],
            [
              -57.616871,
              -43.790809
            ],
            [
              -57.401792,
              -43.762502
            ],
            [
              -57.191491,
              -43.718576
            ],
            [
              -56.987996,
              -43.659455
            ],
            [
              -56.793264,
              -43.585707
            ],
            [
              -56.609172,
              -43.498044
            ],
            [
              -56.437492,
              -43.397308
            ],
            [
              -56.279878,
              -43.284471
            ],
            [
              -56.137847,
              -43.160619
            ],
            [
              -56.012768,
              -43.026944
            ],
            [
              -55.905845,
              -42.884735
            ],
            [
              -55.818108,
              -42.735361
            ],
            [
              -55.750402,
              -42.580259
            ],
            [
              -55.703378,
              -42.420925
            ],
            [
              -55.67749,
              -42.258891
            ],
            [
              -55.672987,
              -42.09572
            ],
            [
              -55.689913,
              -41.932982
            ],
            [
              -55.728104,
              -41.772245
            ],
            [
              -55.787192,
              -41.615056
            ],
            [
              -55.866609,
              -41.46293
            ],
            [
              -55.965589,
              -41.317331
            ],
            [
              -56.08318,
              -41.179661
            ],
            [
              -56.218249,
              -41.051248
            ],
            [
              -56.369495,
              -40.933326
            ],
            [
              -56.535462,
              -40.827032
            ],
            [
              -56.71455,
              -40.733389
            ],
            [
              -56.905037,
              -40.6533
            ],
            [
              -57.105086,
              -40.587536
            ],
            [
              -57.312772,
              -40.536729
            ],
            [
              -57.526094,
              -40.50137
            ],
            [
              -57.742999,
              -40.481798
            ],
            [
              -57.961396,
              -40.478203
            ],
            [
              -58.179183,
              -40.490618
            ],
            [
              -58.394262,
              -40.518925
            ],
            [
              -58.604562,
              -40.56285
            ],
            [
              -58.808058,
              -40.621972
            ],
            [
              -59.002789,
              -40.695719
            ]
          ]
        ],
        "type": "Polygon"
      },
      "properties": {
        "kind": "reachableSet",
        "observationStatus": "estimated",
        "vessel": "A"
      },
      "type": "Feature"
    },
    {
      "geometry": {
        "coordinates": [
          [
            [
              -58.374263,
              -40.377339
            ],
            [
              -58.59641,
              -40.420794
            ],
            [
              -58.811781,
              -40.48033
            ],
            [
              -59.018303,
              -40.555373
            ],
            [
              -59.213986,
              -40.645201
            ],
            [
              -59.396946,
              -40.748948
            ],
            [
              -59.565422,
              -40.865615
            ],
            [
              -59.71779,
              -40.99408
            ],
            [
              -59.852583,
              -41.133103
            ],
            [
              -59.968502,
              -41.281348
            ],
            [
              -60.064433,
              -41.437386
            ],
            [
              -60.13945,
              -41.599713
            ],
            [
              -60.192832,
              -41.766768
            ],
            [
              -60.224063,
              -41.936942
            ],
            [
              -60.232845,
              -42.108594
            ],
            [
              -60.219091,
              -42.280073
            ],
            [
              -60.182934,
              -42.449726
            ],
            [
              -60.124723,
              -42.615921
            ],
            [
              -60.045018,
              -42.777055
            ],
            [
              -59.944586,
              -42.931579
            ],
            [
              -59.824396,
              -43.078002
            ],
            [
              -59.685604,
              -43.214916
            ],
            [
              -59.529547,
              -43.341002
            ],
            [
              -59.357728,
              -43.455045
            ],
            [
              -59.171802,
              -43.555948
            ],
            [
              -58.973559,
              -43.642738
            ],
            [
              -58.764908,
              -43.714579
            ],
            [
              -58.54786,
              -43.77078
            ],
            [
              -58.324503,
              -43.8108
            ],
            [
              -58.09699,
              -43.834252
            ],
            [
              -57.867511,
              -43.840912
            ],
            [
              -57.638276,
              -43.830715
            ],
            [
              -57.411494,
              -43.803759
            ],
            [
              -57.189347,
              -43.760304
            ],
            [
              -56.973976,
              -43.700768
            ],
            [
              -56.767454,
              -43.625725
            ],
            [
              -56.571771,
              -43.535898
            ],
            [
              -56.38881,
              -43.43215
            ],
            [
              -56.220335,
              -43.315483
            ],
            [
              -56.067967,
              -43.187019
            ],
            [
              -55.933174,
              -43.047995
            ],
            [
              -55.817254,
              -42.89975
            ],
            [
              -55.721324,
              -42.743713
            ],
            [
              -55.646306,
              -42.581385
            ],
            [
              -55.592925,
              -42.41433
            ],
            [
              -55.561693,
              -42.244157
            ],
            [
              -55.552912,
              -42.072504
            ],
            [
              -55.566666,
              -41.901026
            ],
            [
              -55.602823,
              -41.731372
            ],
            [
              -55.661034,
              -41.565178
            ],
            [
              -55.740739,
              -41.404043
            ],
            [
              -55.84117,
              -41.24952
            ],
            [
              -55.961361,
              -41.103096
            ],
            [
              -56.100153,
              -40.966182
            ],
            [
              -56.25621,
              -40.840096
            ],
            [
              -56.428029,
              -40.726053
            ],
            [
              -56.613955,
              -40.62515
            ],
            [
              -56.812198,
              -40.538361
            ],
            [
              -57.020848,
              -40.466519
            ],
            [
              -57.237897,
              -40.410318
            ],
            [
              -57.461253,
              -40.370299
            ],
            [
              -57.688767,
              -40.346846
            ],
            [
              -57.918246,
              -40.340186
            ],
            [
              -58.14748,
              -40.350383
            ],
            [
              -58.374263,
              -40.377339
            ]
          ]
        ],
        "type": "Polygon"
      },
      "properties": {
        "kind": "reachableSet",
        "observationStatus": "estimated",
        "vessel": "B"
      },
      "type": "Feature"
    }
  ],
  "properties": {
    "dateline": false
  },
  "type": "FeatureCollection"
}
