{
  "features": [
    {
      "geometry": {
        "coordinates": [
          161.440507,
          43.497147
        ],
        "type": "Point"
      },
      "properties": {
        "mmsi": "416180600",
        "observationStatus": "observed",
        "role": "off",
        "time": "2019-09-20T03:32:33Z",
        "vessel": "A"
      },
      "type": "Feature"
    },
    {
      "geometry": {
        "coordinates": [
          161.533153,
          43.472738
        ],
        "type": "Point"
      },
      "properties": {
        "mmsi": "412439608",
        "observationStatus": "observed",
        "role": "off",
        "time": "2019-09-20T04:24:00Z",
        "vessel": "B"
      },
      "type": "Feature"
    },
    {
      "geometry": {
        "coordinates": [
          161.078617,
          43.396148
        ],
        "type": "Point"
      },
      "properties": {
        "mmsi": "416180600",
        "observationStatus": "observed",
        "role": "on",
        "time": "2019-09-20T17:20:47Z",
        "vessel": "A"
      },
      "type": "Feature"
    },
    {
      "geometry": {
        "coordinates": [
          161.126438,
          43.376038
        ],
        "type": "Point"
      },
      "properties": {
        "mmsi": "412439608",
        "observationStatus": "observed",
        "role": "on",
        "time": "2019-09-20T17:56:15Z",
        "vessel": "B"
      },
      "type": "Feature"
    },
    {
      "geometry": {
        "coordinates": [
          [
            161.440507,
            43.497147
          ],
          [
            161.317892,
            43.436592
          ],
          [
            161.078617,
            43.396148
          ]
        ],
        "type": "LineString"
      },
      "properties": {
        "confidence": "low",
        "lineStyle": "dashed",
        "observationStatus": "estimated",
        "source": "reachable-set heuristic",
        "vessel": "A"
      },
      "type": "Feature"
    },
    {
      "geometry": {
        "coordinates": [
          [
            161.533153,
            43.472738
          ],
          [
            161.317892,
            43.436592
          ],
          [
            161.126438,
            43.376038
          ]
        ],
        "type": "LineString"
      },
      "properties": {
        "confidence": "low",
        "lineStyle": "dashed",
        "observationStatus": "estimated",
        "source": "reachable-set heuristic",
        "vessel": "B"
      },
      "type": "Feature"
    },
    {
      "geometry": {
        "coordinates": [
          161.317892,
          43.436592
        ],
        "type": "Point"
      },
      "properties": {
        "kind": "meetingPoint",
        "observationStatus": "estimated"
      },
      "type": "Feature"
    },
    {
      "geometry": {
        "coordinates": [
          [
            [
              159.614948,
              42.987659
            ],
            [
              159.684043,
              42.872757
            ],
            [
              159.768311,
              42.763382
            ],
            [
              159.86694,
              42.660587
            ],
            [
              159.978981,
              42.565362
            ],
            [
              160.103355,
              42.478624
            ],
            [
              160.238864,
              42.401209
            ],
            [
              160.384203,
              42.333862
            ],
            [
              160.537971,
              42.277232
            ],
            [
              160.698689,
              42.231864
            ],
            [
              160.864809,
              42.198195
            ],
            [
              161.03473,
              42.176549
            ],
            [
              161.206817,
              42.167135
            ],
            [
              161.379411,
              42.170044
            ],
            [
              161.550851,
              42.185246
            ],
            [
              161.719486,
              42.212597
            ],
            [
              161.883692,
              42.251832
            ],
            [
              162.041887,
              42.302575
            ],
            [
              162.192548,
              42.364335
            ],
            [
              162.334223,
              42.436518
            ],
            [
              162.465549,
              42.518429
            ],
            [
              162.585261,
              42.60928
            ],
            [
              162.692205,
              42.708195
            ],
            [
              162.785353,
              42.814222
            ],
            [
              162.863806,
              42.926339
            ],
            [
              162.926809,
              43.043467
            ],
            [
              162.973756,
              43.164478
            ],
            [
              163.004194,
              43.288207
            ],
            [
              163.017831,
              43.413461
            ],
            [
              163.014534,
              43.539035
            ],
            [
              162.994336,
              43.663719
            ],
            [
              162.957431,
              43.786313
            ],
            [
              162.904175,
              43.905636
            ],
            [
              162.83508,
              44.020538
            ],
            [
              162.750812,
              44.129913
            ],
            [
              162.652183,
              44.232708
            ],
            [
              162.540142,
              44.327933
            ],
            [
              162.415768,
              44.414671
            ],
            [
              162.280259,
              44.492086
            ],
            [
              162.134921,
              44.559433
            ],
            [
              161.981152,
              44.616063
            ],
            [
              161.820434,
              44.661431
            ],
            [
              161.654314,
              44.6951
            ],
            [
              161.484393,
              44.716746
            ],
            [
              161.312307,
              44.72616
            ],
            [
              161.139712,
              44.723251
            ],
            [
              160.968272,
              44.708049
            ],
            [
              160.799637,
              44.680698
            ],
            [
              160.635431,
              44.641463
            ],
            [
              160.477236,
              44.59072
            ],
            [
              160.326576,
              44.52896
            ],
            [
              160.1849,
              44.456777
            ],
            [
              160.053574,
              44.374866
            ],
            [
              159.933863,
              44.284015
            ],
            [
              159.826918,
              44.1851
            ],
            [
              159.733771,
              44.079073
            ],
            [
              159.655318,
              43.966956
            ],
            [
              159.592314,
              43.849828
            ],
            [
              159.545367,
              43.728817
            ],
            [
              159.514929,
              43.605088
            ],
            [
              159.501293,
              43.479834
            ],
            [
              159.504589,
              43.35426
            ],
            [
              159.524787,
              43.229576
            ],
            [
              159.561692,
              43.106982
            ],
            [
              159.614948,
              42.987659
            ]
          ]
        ],
        "type": "Polygon"
      },
      "properties": {
        "kind": "reachableSet",
        "observationStatus": "estimated",
        "vessel": "A"
      },
      "type": "Feature"
    },
    {
      "geometry": {
        "coordinates": [
          [
            [
              159.691092,
              43.034772
            ],
            [
              159.750806,
              42.920109
            ],
            [
              159.825727,
              42.810302
            ],
            [
              159.915133,
              42.706409
            ],
            [
              160.018163,
              42.60943
            ],
            [
              160.133825,
              42.5203
            ],
            [
              160.261004,
              42.439877
            ],
            [
              160.398477,
              42.368935
            ],
            [
              160.544918,
              42.308158
            ],
            [
              160.698919,
              42.258131
            ],
            [
              160.858995,
              42.219335
            ],
            [
              161.023605,
              42.192145
            ],
            [
              161.191164,
              42.176822
            ],
            [
              161.360058,
              42.173513
            ],
            [
              161.528661,
              42.182252
            ],
            [
              161.695348,
              42.202952
            ],
            [
              161.858515,
              42.235416
            ],
            [
              162.016591,
              42.279331
            ],
            [
              162.168051,
              42.334272
            ],
            [
              162.31144,
              42.399713
            ],
            [
              162.445374,
              42.475021
            ],
            [
              162.568565,
              42.559472
            ],
            [
              162.679825,
              42.652253
            ],
            [
              162.778084,
              42.75247
            ],
            [
              162.862396,
              42.859158
            ],
            [
              162.931947,
              42.97129
            ],
            [
              162.986069,
              43.087785
            ],
            [
              163.02424,
              43.207521
            ],
            [
              163.046093,
              43.329347
            ],
            [
              163.051417,
              43.452087
            ],
            [
              163.04016,
              43.574561
            ],
            [
              163.012432,
              43.695589
            ],
            [
              162.9685,
              43.814004
            ],
            [
              162.908785,
              43.928668
            ],
            [
              162.833864,
              44.038475
            ],
            [
              162.744458,
              44.142368
            ],
            [
              162.641428,
              44.239346
            ],
            [
              162.525767,
              44.328476
            ],
            [
              162.398587,
              44.4089
            ],
            [
              162.261115,
              44.479841
            ],
            [
              162.114673,
              44.540619
            ],
            [
              161.960673,
              44.590646
            ],
            [
              161.800597,
              44.629441
            ],
            [
              161.635986,
              44.656632
            ],
            [
              161.468427,
              44.671955
            ],
            [
              161.299533,
              44.675263
            ],
            [
              161.130931,
              44.666525
            ],
            [
              160.964243,
              44.645824
            ],
            [
              160.801076,
              44.61336
            ],
            [
              160.643001,
              44.569446
            ],
            [
              160.49154,
              44.514504
            ],
            [
              160.348152,
              44.449064
            ],
            [
              160.214218,
              44.373756
            ],
            [
              160.091027,
              44.289304
            ],
            [
              159.979766,
              44.196523
            ],
            [
              159.881507,
              44.096306
            ],
            [
              159.797196,
              43.989618
            ],
            [
              159.727645,
              43.877487
            ],
            [
              159.673523,
              43.760992
            ],
            [
              159.635351,
              43.641255
            ],
            [
              159.613499,
              43.51943
            ],
            [
              159.608175,
              43.396689
            ],
            [
              159.619431,
              43.274216
            ],
            [
              159.647159,
              43.153188
            ],
            [
              159.691092,
              43.034772
            ]
          ]
        ],
        "type": "Polygon"
      },
      "properties": {
        "kind": "reachableSet",
        "observationStatus": "estimated",
        "vessel": "B"
      },
      "type": "Feature"
    }
  ],
  "properties": {
    "dateline": false
  },
  "type": "FeatureCollection"
}
