{
  "features": [
    {
      "geometry": {
        "coordinates": [
          -57.84385,
          -41.962087
        ],
        "type": "Point"
      },
      "properties": {
        "mmsi": "412328763",
        "observationStatus": "observed",
        "role": "off",
        "time": "2018-12-16T18:10:27Z",
        "vessel": "A"
      },
      "type": "Feature"
    },
    {
      "geometry": {
        "coordinates": [
          -57.899025,
          -42.01835
        ],
        "type": "Point"
      },
      "properties": {
        "mmsi": "412421068",
        "observationStatus": "observed",
        "role": "off",
        "time": "2018-12-16T18:24:08Z",
        "vessel": "B"
      },
      "type": "Feature"
    },
    {
      "geometry": {
        "coordinates": [
          -57.88691,
          -41.995735
        ],
        "type": "Point"
      },
      "properties": {
        "mmsi": "412421068",
        "observationStatus": "observed",
        "role": "on",
        "time": "2018-12-17T08:47:08Z",
        "vessel": "B"
      },
      "type": "Feature"
    },
    {
      "geometry": {
        "coordinates": [
          -57.908843,
          -41.975738
        ],
        "type": "Point"
      },
      "properties": {
        "mmsi": "412328763",
        "observationStatus": "observed",
        "role": "on",
        "time": "2018-12-17T09:23:55Z",
        "vessel": "A"
      },
      "type": "Feature"
    },
    {
      "geometry": {
        "coordinates": [
          [
            -57.84385,
            -41.962087
          ],
          [
            -57.888306,
            -41.999324
          ],
          [
            -57.908843,
            -41.975738
          ]
        ],
        "type": "LineString"
      },
      "properties": {
        "confidence": "low",
        "lineStyle": "dashed",
        "observationStatus": "estimated",
        "source": "reachable-set heuristic",
        "vessel": "A"
      },
      "type": "Feature"
    },
    {
      "geometry": {
        "coordinates": [
          [
            -57.899025,
            -42.01835
          ],
          [
            -57.888306,
            -41.999324
          ],
          [
            -57.88691,
            -41.995735
          ]
        ],
        "type": "LineString"
      },
      "properties": {
        "confidence": "low",
        "lineStyle": "dashed",
        "observationStatus": "estimated",
        "source": "reachable-set heuristic",
        "vessel": "B"
      },
      "type": "Feature"
    },
    {
      "geometry": {
        "coordinates": [
          -57.888306,
          -41.999324
        ],
        "type": "Point"
      },
      "properties": {
        "kind": "meetingPoint",
        "observationStatus": "estimated"
      },
      "type": "Feature"
    },
    {
      "geometry": {
        "coordinates": [
          [
            [
              -59.715046,
              -42.355126
            ],
            [
              -59.655628,
              -42.488152
            ],
            [
              -59.579075,
              -42.616178
            ],
            [
              -59.486123,
              -42.73797
            ],
            [
              -59.377669,
              -42.852355
            ],
            [
              -59.254756,
              -42.958233
            ],
            [
              -59.118568,
              -43.054582
            ],
            [
              -58.970417,
              -43.140477
            ],
            [
              -58.81173,
              -43.215088
            ],
            [
              -58.644034,
              -43.277698
            ],
            [
              -58.468945,
              -43.327704
            ],
            [
              -58.288149,
              -43.364624
            ],
            [
              -58.103387,
              -43.388102
            ],
            [
              -57.916438,
              -43.397913
            ],
            [
              -57.729104,
              -43.393962
            ],
            [
              -57.543187,
              -43.376286
            ],
            [
              -57.360479,
              -43.345057
            ],
            [
              -57.182739,
              -43.300575
            ],
            [
              -57.011679,
              -43.243269
            ],
            [
              -56.848946,
              -43.173689
            ],
            [
              -56.696108,
              -43.092507
            ],
            [
              -56.554635,
              -43.000504
            ],
            [
              -56.425892,
              -42.898566
            ],
            [
              -56.311117,
              -42.787676
            ],
            [
              -56.211417,
              -42.6689
            ],
            [
              -56.12775,
              -42.543383
            ],
            [
              -56.060924,
              -42.412333
            ],
            [
              -56.011581,
              -42.277013
            ],
            [
              -55.980196,
              -42.138726
            ],
            [
              -55.967073,
              -41.998803
            ],
            [
              -55.972337,
              -41.858593
            ],
            [
              -55.995938,
              -41.719444
            ],
            [
              -56.037648,
              -41.582699
            ],
            [
              -56.097066,
              -41.449673
            ],
            [
              -56.173619,
              -41.321647
            ],
            [
              -56.26657,
              -41.199855
            ],
            [
              -56.375024,
              -41.08547
            ],
            [
              -56.497937,
              -40.979592
            ],
            [
              -56.634125,
              -40.883243
            ],
            [
              -56.782276,
              -40.797348
            ],
            [
              -56.940964,
              -40.722737
            ],
            [
              -57.108659,
              -40.660127
            ],
            [
              -57.283749,
              -40.610121
            ],
            [
              -57.464545,
              -40.573201
            ],
            [
              -57.649307,
              -40.549723
            ],
            [
              -57.836255,
              -40.539912
            ],
            [
              -58.02359,
              -40.543863
            ],
            [
              -58.209506,
              -40.561539
            ],
            [
              -58.392214,
              -40.592768
            ],
            [
              -58.569954,
              -40.63725
            ],
            [
              -58.741014,
              -40.694556
            ],
            [
              -58.903747,
              -40.764136
            ],
            [
              -59.056586,
              -40.845318
            ],
            [
              -59.198058,
              -40.937321
            ],
            [
              -59.326801,
              -41.039259
            ],
            [
              -59.441576,
              -41.150149
            ],
            [
              -59.541277,
              -41.268925
            ],
            [
              -59.624943,
              -41.394442
            ],
            [
              -59.69177,
              -41.525492
            ],
            [
              -59.741113,
              -41.660812
            ],
            [
              -59.772497,
              -41.799099
            ],
            [
              -59.78562,
              -41.939022
            ],
            [
              -59.780356,
              -42.079232
            ],
            [
              -59.756756,
              -42.218381
            ],
            [
              -59.715046,
              -42.355126
            ]
          ]
        ],
        "type": "Polygon"
      },
      "properties": {
        "kind": "reachableSet",
        "observationStatus": "estimated",
        "vessel": "A"
      },
      "type": "Feature"
    },
    {
      "geometry": {
        "coordinates": [
          [
            [
              -57.224158,
              -40.758579
            ],
            [
              -57.390946,
              -40.715551
            ],
            [
              -57.56257,
              -40.684961
            ],
            [
              -57.737375,
              -40.667103
            ],
            [
              -57.913679,
              -40.662149
            ],
            [
              -58.089783,
              -40.670148
            ],
            [
              -58.263992,
              -40.691021
            ],
            [
              -58.434628,
              -40.724569
            ],
            [
              -58.600047,
              -40.770467
            ],
            [
              -58.758656,
              -40.828275
            ],
            [
              -58.908929,
              -40.897434
            ],
            [
              -59.049417,
              -40.97728
            ],
            [
              -59.178768,
              -41.067043
            ],
            [
              -59.295736,
              -41.165858
            ],
            [
              -59.399195,
              -41.272775
            ],
            [
              -59.488148,
              -41.386763
            ],
            [
              -59.561738,
              -41.506725
            ],
            [
              -59.619258,
              -41.631505
            ],
            [
              -59.660152,
              -41.759901
            ],
            [
              -59.684027,
              -41.890678
            ],
            [
              -59.690653,
              -42.022575
            ],
            [
              -59.679967,
              -42.154323
            ],
            [
              -59.652071,
              -42.284652
            ],
            [
              -59.607233,
              -42.412308
            ],
            [
              -59.545887,
              -42.536061
            ],
            [
              -59.468622,
              -42.654719
            ],
            [
              -59.376182,
              -42.76714
            ],
            [
              -59.269458,
              -42.872241
            ],
            [
              -59.149478,
              -42.969009
            ],
            [
              -59.017397,
              -43.056513
            ],
            [
              -58.874487,
              -43.13391
            ],
            [
              -58.722125,
              -43.200454
            ],
            [
              -58.561777,
              -43.255506
            ],
            [
              -58.394989,
              -43.298534
            ],
            [
              -58.223365,
              -43.329124
            ],
            [
              -58.04856,
              -43.346982
            ],
            [
              -57.872256,
              -43.351936
            ],
            [
              -57.696152,
              -43.343937
            ],
            [
              -57.521943,
              -43.323064
            ],
            [
              -57.351307,
              -43.289516
            ],
            [
              -57.185888,
              -43.243618
            ],
            [
              -57.027279,
              -43.18581
            ],
            [
              -56.877006,
              -43.116651
            ],
            [
              -56.736518,
              -43.036805
            ],
            [
              -56.607167,
              -42.947042
            ],
            [
              -56.490199,
              -42.848227
            ],
            [
              -56.38674,
              -42.74131
            ],
            [
              -56.297787,
              -42.627322
            ],
            [
              -56.224197,
              -42.50736
            ],
            [
              -56.166677,
              -42.38258
            ],
            [
              -56.125783,
              -42.254184
            ],
            [
              -56.101908,
              -42.123407
            ],
            [
              -56.095282,
              -41.99151
            ],
            [
              -56.105968,
              -41.859762
            ],
            [
              -56.133864,
              -41.729433
            ],
            [
              -56.178702,
              -41.601777
            ],
            [
              -56.240048,
              -41.478024
            ],
            [
              -56.317313,
              -41.359366
            ],
            [
              -56.409753,
              -41.246945
            ],
            [
              -56.516477,
              -41.141844
            ],
            [
              -56.636457,
              -41.045076
            ],
            [
              -56.768538,
              -40.957572
            ],
            [
              -56.911448,
              -40.880175
            ],
            [
              -57.06381,
              -40.813631
            ],
            [
              -57.224158,
              -40.758579
            ]
          ]
        ],
        "type": "Polygon"
      },
      "properties": {
        "kind": "reachableSet",
        "observationStatus": "estimated",
        "vessel": "B"
      },
      "type": "Feature"
    }
  ],
  "properties": {
    "dateline": false
  },
  "type": "FeatureCollection"
}
