{
  "features": [
    {
      "geometry": {
        "coordinates": [
          -57.753137,
          -41.99701
        ],
        "type": "Point"
      },
      "properties": {
        "mmsi": "412329684",
        "observationStatus": "observed",
        "role": "off",
        "time": "2019-05-03T05:59:52Z",
        "vessel": "A"
      },
      "type": "Feature"
    },
    {
      "geometry": {
        "coordinates": [
          -57.79092,
          -41.971883
        ],
        "type": "Point"
      },
      "properties": {
        "mmsi": "412329691",
        "observationStatus": "observed",
        "role": "off",
        "time": "2019-05-03T06:04:26Z",
        "vessel": "B"
      },
      "type": "Feature"
    },
    {
      "geometry": {
        "coordinates": [
          -57.880488,
          -41.986272
        ],
        "type": "Point"
      },
      "properties": {
        "mmsi": "412329691",
        "observationStatus": "observed",
        "role": "on",
        "time": "2019-05-03T23:05:11Z",
        "vessel": "B"
      },
      "type": "Feature"
    },
    {
      "geometry": {
        "coordinates": [
          -57.903493,
          -42.02328
        ],
        "type": "Point"
      },
      "properties": {
        "mmsi": "412329684",
        "observationStatus": "observed",
        "role": "on",
        "time": "2019-05-03T23:24:41Z",
        "vessel": "A"
      },
      "type": "Feature"
    },
    {
      "geometry": {
        "coordinates": [
          [
            -57.753137,
            -41.99701
          ],
          [
            -57.857254,
            -41.988002
          ],
          [
            -57.903493,
            -42.02328
          ]
        ],
        "type": "LineString"
      },
      "properties": {
        "confidence": "low",
        "lineStyle": "dashed",
        "observationStatus": "estimated",
        "source": "reachable-set heuristic",
        "vessel": "A"
      },
      "type": "Feature"
    },
    {
      "geometry": {
        "coordinates": [
          [
            -57.79092,
            -41.971883
          ],
          [
            -57.857254,
            -41.988002
          ],
          [
            -57.880488,
            -41.986272
          ]
        ],
        "type": "LineString"
      },
      "properties": {
        "confidence": "low",
        "lineStyle": "dashed",
        "observationStatus": "estimated",
        "source": "reachable-set heuristic",
        "vessel": "B"
      },
      "type": "Feature"
    },
    {
      "geometry": {
        "coordinates": [
          -57.857254,
          -41.988002
        ],
        "type": "Point"
      },
      "properties": {
        "kind": "meetingPoint",
        "observationStatus": "estimated"
      },
      "type": "Feature"
    },
    {
      "geometry": {
        "coordinates": [
          [
            [
              -60.154517,
              -42.416574
            ],
            [
              -60.090091,
              -42.585093
            ],
            [
              -60.003882,
              -42.748075
            ],
            [
              -59.896721,
              -42.90395
            ],
            [
              -59.76964,
              -43.051217
            ],
            [
              -59.623863,
              -43.188458
            ],
            [
              -59.460794,
              -43.314351
            ],
            [
              -59.282004,
              -43.427684
            ],
            [
              -59.089214,
              -43.527365
            ],
            [
              -58.88428,
              -43.612435
            ],
            [
              -58.669177,
              -43.682074
            ],
            [
              -58.445976,
              -43.735611
            ],
            [
              -58.216827,
              -43.772531
            ],
            [
              -57.983936,
              -43.792478
            ],
            [
              -57.749546,
              -43.795261
            ],
            [
              -57.515915,
              -43.780852
            ],
            [
              -57.285292,
              -43.74939
            ],
            [
              -57.0599,
              -43.701178
            ],
            [
              -56.841907,
              -43.63668
            ],
            [
              -56.633414,
              -43.556518
            ],
            [
              -56.436428,
              -43.461464
            ],
            [
              -56.252848,
              -43.352432
            ],
            [
              -56.084439,
              -43.230474
            ],
            [
              -55.932826,
              -43.096763
            ],
            [
              -55.799467,
              -42.952588
            ],
            [
              -55.685646,
              -42.799336
            ],
            [
              -55.592461,
              -42.638484
            ],
            [
              -55.520809,
              -42.471581
            ],
            [
              -55.471379,
              -42.300234
            ],
            [
              -55.444647,
              -42.126093
            ],
            [
              -55.440872,
              -41.950835
            ],
            [
              -55.460088,
              -41.776149
            ],
            [
              -55.502113,
              -41.603716
            ],
            [
              -55.566539,
              -41.435197
            ],
            [
              -55.652748,
              -41.272215
            ],
            [
              -55.759909,
              -41.11634
            ],
            [
              -55.88699,
              -40.969073
            ],
            [
              -56.032767,
              -40.831832
            ],
            [
              -56.195836,
              -40.705939
            ],
            [
              -56.374626,
              -40.592606
            ],
            [
              -56.567416,
              -40.492925
            ],
            [
              -56.77235,
              -40.407855
            ],
            [
              -56.987453,
              -40.338216
            ],
            [
              -57.210654,
              -40.284679
            ],
            [
              -57.439803,
              -40.247759
            ],
            [
              -57.672694,
              -40.227812
            ],
            [
              -57.907084,
              -40.225029
            ],
            [
              -58.140715,
              -40.239438
            ],
            [
              -58.371338,
              -40.2709
            ],
            [
              -58.59673,
              -40.319112
            ],
            [
              -58.814723,
              -40.38361
            ],
            [
              -59.023216,
              -40.463772
            ],
            [
              -59.220202,
              -40.558826
            ],
            [
              -59.403782,
              -40.667858
            ],
            [
              -59.572191,
              -40.789816
            ],
            [
              -59.723804,
              -40.923527
            ],
            [
              -59.857163,
              -41.067702
            ],
            [
              -59.970984,
              -41.220954
            ],
            [
              -60.064169,
              -41.381806
            ],
            [
              -60.135821,
              -41.548709
            ],
            [
              -60.185251,
              -41.720056
            ],
            [
              -60.211983,
              -41.894197
            ],
            [
              -60.215758,
              -42.069455
            ],
            [
              -60.196542,
              -42.244141
            ],
            [
              -60.154517,
              -42.416574
            ]
          ]
        ],
        "type": "Polygon"
      },
      "properties": {
        "kind": "reachableSet",
        "observationStatus": "estimated",
        "vessel": "A"
      },
      "type": "Feature"
    },
    {
      "geometry": {
        "coordinates": [
          [
            [
              -60.113128,
              -42.344925
            ],
            [
              -60.054259,
              -42.510201
            ],
            [
              -59.974023,
              -42.670362
            ],
            [
              -59.873194,
              -42.823865
            ],
            [
              -59.752743,
              -42.969233
            ],
            [
              -59.61383,
              -43.105065
            ],
            [
              -59.457793,
              -43.230053
            ],
            [
              -59.286134,
              -43.342993
            ],
            [
              -59.100506,
              -43.442798
            ],
            [
              -58.902698,
              -43.528507
            ],
            [
              -58.694614,
              -43.599294
            ],
            [
              -58.478258,
              -43.654477
            ],
            [
              -58.255714,
              -43.693526
            ],
            [
              -58.029126,
              -43.716063
            ],
            [
              -57.800674,
              -43.721872
            ],
            [
              -57.57256,
              -43.710897
            ],
            [
              -57.34698,
              -43.683244
            ],
            [
              -57.126107,
              -43.639179
            ],
            [
              -56.912067,
              -43.579126
            ],
            [
              -56.706923,
              -43.503663
            ],
            [
              -56.512649,
              -43.413518
            ],
            [
              -56.331118,
              -43.309559
            ],
            [
              -56.164076,
              -43.192786
            ],
            [
              -56.013133,
              -43.064325
            ],
            [
              -55.879742,
              -42.925412
            ],
            [
              -55.765188,
              -42.777385
            ],
            [
              -55.670574,
              -42.621671
            ],
            [
              -55.596812,
              -42.459767
            ],
            [
              -55.544612,
              -42.293235
            ],
            [
              -55.514476,
              -42.123677
            ],
            [
              -55.506695,
              -41.952726
            ],
            [
              -55.521343,
              -41.782029
            ],
            [
              -55.55828,
              -41.61323
            ],
            [
              -55.61715,
              -41.447954
            ],
            [
              -55.697385,
              -41.287793
            ],
            [
              -55.798214,
              -41.13429
            ],
            [
              -55.918665,
              -40.988922
            ],
            [
              -56.057578,
              -40.85309
            ],
            [
              -56.213616,
              -40.728102
            ],
            [
              -56.385275,
              -40.615162
            ],
            [
              -56.570902,
              -40.515357
            ],
            [
              -56.76871,
              -40.429648
            ],
            [
              -56.976794,
              -40.358861
            ],
            [
              -57.19315,
              -40.303678
            ],
            [
              -57.415694,
              -40.264629
            ],
            [
              -57.642283,
              -40.242092
            ],
            [
              -57.870734,
              -40.236283
            ],
            [
              -58.098848,
              -40.247258
            ],
            [
              -58.324428,
              -40.274911
            ],
            [
              -58.545302,
              -40.318976
            ],
            [
              -58.759341,
              -40.379029
            ],
            [
              -58.964485,
              -40.454492
            ],
            [
              -59.158759,
              -40.544637
            ],
            [
              -59.340291,
              -40.648596
            ],
            [
              -59.507333,
              -40.765369
            ],
            [
              -59.658276,
              -40.89383
            ],
            [
              -59.791667,
              -41.032743
            ],
            [
              -59.90622,
              -41.18077
            ],
            [
              -60.000834,
              -41.336484
            ],
            [
              -60.074596,
              -41.498388
            ],
            [
              -60.126796,
              -41.66492
            ],
            [
              -60.156932,
              -41.834478
            ],
            [
              -60.164714,
              -42.005429
            ],
            [
              -60.150065,
              -42.176126
            ],
            [
              -60.113128,
              -42.344925
            ]
          ]
        ],
        "type": "Polygon"
      },
      "properties": {
        "kind": "reachableSet",
        "observationStatus": "estimated",
        "vessel": "B"
      },
      "type": "Feature"
    }
  ],
  "properties": {
    "dateline": false
  },
  "type": "FeatureCollection"
}
