{
  "features": [
    {
      "geometry": {
        "coordinates": [
          -60.495987,
          -45.596692
        ],
        "type": "Point"
      },
      "properties": {
        "mmsi": "412420563",
        "observationStatus": "observed",
        "role": "off",
        "time": "2018-03-20T18:07:46Z",
        "vessel": "A"
      },
      "type": "Feature"
    },
    {
      "geometry": {
        "coordinates": [
          -60.49064,
          -45.582133
        ],
        "type": "Point"
      },
      "properties": {
        "mmsi": "412420666",
        "observationStatus": "observed",
        "role": "off",
        "time": "2018-03-20T19:05:21Z",
        "vessel": "B"
      },
      "type": "Feature"
    },
    {
      "geometry": {
        "coordinates": [
          -60.368853,
          -45.375773
        ],
        "type": "Point"
      },
      "properties": {
        "mmsi": "412420666",
        "observationStatus": "observed",
        "role": "on",
        "time": "2018-03-21T11:13:16Z",
        "vessel": "B"
      },
      "type": "Feature"
    },
    {
      "geometry": {
        "coordinates": [
          -60.328042,
          -45.383797
        ],
        "type": "Point"
      },
      "properties": {
        "mmsi": "412420563",
        "observationStatus": "observed",
        "role": "on",
        "time": "2018-03-21T11:25:59Z",
        "vessel": "A"
      },
      "type": "Feature"
    },
    {
      "geometry": {
        "coordinates": [
          [
            -60.495987,
            -45.596692
          ],
          [
            -60.429095,
            -45.47916
          ],
          [
            -60.328042,
            -45.383797
          ]
        ],
        "type": "LineString"
      },
      "properties": {
        "confidence": "low",
        "lineStyle": "dashed",
        "observationStatus": "estimated",
        "source": "reachable-set heuristic",
        "vessel": "A"
      },
      "type": "Feature"
    },
    {
      "geometry": {
        "coordinates": [
          [
            -60.49064,
            -45.582133
          ],
          [
            -60.429095,
            -45.47916
          ],
          [
            -60.368853,
            -45.375773
          ]
        ],
        "type": "LineString"
      },
      "properties": {
        "confidence": "low",
        "lineStyle": "dashed",
        "observationStatus": "estimated",
        "source": "reachable-set heuristic",
        "vessel": "B"
      },
      "type": "Feature"
    },
    {
      "geometry": {
        "coordinates": [
          -60.429095,
          -45.47916
        ],
        "type": "Point"
      },
      "properties": {
        "kind": "meetingPoint",
        "observationStatus": "estimated"
      },
      "type": "Feature"
    },
    {
      "geometry": {
        "coordinates": [
          [
            [
              -59.282722,
              -44.058701
            ],
            [
              -59.486418,
              -43.987687
            ],
            [
              -59.699027,
              -43.931143
            ],
            [
              -59.918503,
              -43.889615
            ],
            [
              -60.142732,
              -43.863501
            ],
            [
              -60.369553,
              -43.853054
            ],
            [
              -60.596784,
              -43.858374
            ],
            [
              -60.822236,
              -43.87941
            ],
            [
              -61.043737,
              -43.915959
            ],
            [
              -61.259154,
              -43.967669
            ],
            [
              -61.466412,
              -44.034043
            ],
            [
              -61.663516,
              -44.11444
            ],
            [
              -61.848568,
              -44.208087
            ],
            [
              -62.019784,
              -44.314083
            ],
            [
              -62.175517,
              -44.431405
            ],
            [
              -62.314267,
              -44.558924
            ],
            [
              -62.434696,
              -44.695413
            ],
            [
              -62.535647,
              -44.839556
            ],
            [
              -62.616145,
              -44.989965
            ],
            [
              -62.675417,
              -45.145193
            ],
            [
              -62.71289,
              -45.303744
            ],
            [
              -62.728205,
              -45.46409
            ],
            [
              -62.721214,
              -45.624689
            ],
            [
              -62.691984,
              -45.783993
            ],
            [
              -62.640796,
              -45.940468
            ],
            [
              -62.568145,
              -46.092606
            ],
            [
              -62.474728,
              -46.238944
            ],
            [
              -62.361446,
              -46.378072
            ],
            [
              -62.229391,
              -46.508649
            ],
            [
              -62.079833,
              -46.629419
            ],
            [
              -61.914213,
              -46.739217
            ],
            [
              -61.734126,
              -46.836987
            ],
            [
              -61.541306,
              -46.921788
            ],
            [
              -61.337611,
              -46.992802
            ],
            [
              -61.125001,
              -47.049345
            ],
            [
              -60.905525,
              -47.090873
            ],
            [
              -60.681297,
              -47.116987
            ],
            [
              -60.454475,
              -47.127434
            ],
            [
              -60.227244,
              -47.122114
            ],
            [
              -60.001793,
              -47.101078
            ],
            [
              -59.780292,
              -47.064529
            ],
            [
              -59.564875,
              -47.012819
            ],
            [
              -59.357616,
              -46.946446
            ],
            [
              -59.160512,
              -46.866048
            ],
            [
              -58.975461,
              -46.772401
            ],
            [
              -58.804244,
              -46.666406
            ],
            [
              -58.648511,
              -46.549084
            ],
            [
              -58.509762,
              -46.421564
            ],
            [
              -58.389332,
              -46.285076
            ],
            [
              -58.288382,
              -46.140933
            ],
            [
              -58.207883,
              -45.990523
            ],
            [
              -58.148612,
              -45.835295
            ],
            [
              -58.111138,
              -45.676745
            ],
            [
              -58.095823,
              -45.516398
            ],
            [
              -58.102814,
              -45.3558
            ],
            [
              -58.132044,
              -45.196496
            ],
            [
              -58.183232,
              -45.040021
            ],
            [
              -58.255884,
              -44.887882
            ],
            [
              -58.3493,
              -44.741544
            ],
            [
              -58.462582,
              -44.602416
            ],
            [
              -58.594638,
              -44.471839
            ],
            [
              -58.744196,
              -44.35107
            ],
            [
              -58.909816,
              -44.241271
            ],
            [
              -59.089903,
              -44.143501
            ],
            [
              -59.282722,
              -44.058701
            ]
          ]
        ],
        "type": "Polygon"
      },
      "properties": {
        "kind": "reachableSet",
        "observationStatus": "estimated",
        "vessel": "A"
      },
      "type": "Feature"
    },
    {
      "geometry": {
        "coordinates": [
          [
            [
              -59.463214,
              -43.841223
            ],
            [
              -59.694813,
              -43.782365
            ],
            [
              -59.93349,
              -43.739845
            ],
            [
              -60.176946,
              -43.714075
            ],
            [
              -60.422837,
              -43.705301
            ],
            [
              -60.668795,
              -43.713608
            ],
            [
              -60.91245,
              -43.738917
            ],
            [
              -61.151456,
              -43.780983
            ],
            [
              -61.383513,
              -43.839401
            ],
            [
              -61.606383,
              -43.913609
            ],
            [
              -61.817923,
              -44.002893
            ],
            [
              -62.016093,
              -44.106391
            ],
            [
              -62.198986,
              -44.223109
            ],
            [
              -62.36484,
              -44.35192
            ],
            [
              -62.512058,
              -44.491586
            ],
            [
              -62.639222,
              -44.64076
            ],
            [
              -62.745108,
              -44.798007
            ],
            [
              -62.828696,
              -44.961811
            ],
            [
              -62.88918,
              -45.130596
            ],
            [
              -62.925979,
              -45.302736
            ],
            [
              -62.938738,
              -45.476573
            ],
            [
              -62.927334,
              -45.650433
            ],
            [
              -62.891876,
              -45.822641
            ],
            [
              -62.832707,
              -45.99154
            ],
            [
              -62.750397,
              -46.155502
            ],
            [
              -62.645737,
              -46.312948
            ],
            [
              -62.519735,
              -46.462363
            ],
            [
              -62.373606,
              -46.602307
            ],
            [
              -62.208757,
              -46.731432
            ],
            [
              -62.026775,
              -46.848495
            ],
            [
              -61.829413,
              -46.952369
            ],
            [
              -61.618571,
              -47.042053
            ],
            [
              -61.39628,
              -47.116684
            ],
            [
              -61.16468,
              -47.175542
            ],
            [
              -60.926003,
              -47.218061
            ],
            [
              -60.682547,
              -47.243832
            ],
            [
              -60.436656,
              -47.252606
            ],
            [
              -60.190699,
              -47.244299
            ],
            [
              -59.947043,
              -47.21899
            ],
            [
              -59.708037,
              -47.176924
            ],
            [
              -59.475981,
              -47.118505
            ],
            [
              -59.25311,
              -47.044297
            ],
            [
              -59.041571,
              -46.955014
            ],
            [
              -58.8434,
              -46.851515
            ],
            [
              -58.660508,
              -46.734798
            ],
            [
              -58.494653,
              -46.605987
            ],
            [
              -58.347435,
              -46.466321
            ],
            [
              -58.220271,
              -46.317147
            ],
            [
              -58.114385,
              -46.1599
            ],
            [
              -58.030797,
              -45.996095
            ],
            [
              -57.970313,
              -45.82731
            ],
            [
              -57.933514,
              -45.65517
            ],
            [
              -57.920755,
              -45.481334
            ],
            [
              -57.93216,
              -45.307474
            ],
            [
              -57.967617,
              -45.135265
            ],
            [
              -58.026786,
              -44.966367
            ],
            [
              -58.109097,
              -44.802405
            ],
            [
              -58.213757,
              -44.644958
            ],
            [
              -58.339758,
              -44.495544
            ],
            [
              -58.485887,
              -44.3556
            ],
            [
              -58.650736,
              -44.226475
            ],
            [
              -58.832718,
              -44.109411
            ],
            [
              -59.030081,
              -44.005538
            ],
            [
              -59.240923,
              -43.915853
            ],
            [
              -59.463214,
              -43.841223
            ]
          ]
        ],
        "type": "Polygon"
      },
      "properties": {
        "kind": "reachableSet",
        "observationStatus": "estimated",
        "vessel": "B"
      },
      "type": "Feature"
    }
  ],
  "properties": {
    "dateline": false
  },
  "type": "FeatureCollection"
}
