{
  "features": [
    {
      "geometry": {
        "coordinates": [
          -124.43368,
          -62.251707
        ],
        "type": "Point"
      },
      "properties": {
        "mmsi": "440203000",
        "observationStatus": "observed",
        "role": "off",
        "time": "2018-11-15T10:20:08Z",
        "vessel": "A"
      },
      "type": "Feature"
    },
    {
      "geometry": {
        "coordinates": [
          -124.49056,
          -62.21808
        ],
        "type": "Point"
      },
      "properties": {
        "mmsi": "441864000",
        "observationStatus": "observed",
        "role": "off",
        "time": "2018-11-15T10:22:08Z",
        "vessel": "B"
      },
      "type": "Feature"
    },
    {
      "geometry": {
        "coordinates": [
          -157.1839,
          -68.855417
        ],
        "type": "Point"
      },
      "properties": {
        "mmsi": "441864000",
        "observationStatus": "observed",
        "role": "on",
        "time": "2018-11-21T23:52:07Z",
        "vessel": "B"
      },
      "type": "Feature"
    },
    {
      "geometry": {
        "coordinates": [
          -157.162277,
          -68.858605
        ],
        "type": "Point"
      },
      "properties": {
        "mmsi": "440203000",
        "observationStatus": "observed",
        "role": "on",
        "time": "2018-11-21T23:52:16Z",
        "vessel": "A"
      },
      "type": "Feature"
    },
    {
      "geometry": {
        "coordinates": [
          [
            -124.43368,
            -62.251707
          ],
          [
            -138.768245,
            -65.115068
          ],
          [
            -157.162277,
            -68.858605
          ]
        ],
        "type": "LineString"
      },
      "properties": {
        "confidence": "low",
        "lineStyle": "dashed",
        "observationStatus": "estimated",
        "source": "reachable-set heuristic",
        "vessel": "A"
      },
      "type": "Feature"
    },
    {
      "geometry": {
        "coordinates": [
          [
            -124.49056,
            -62.21808
          ],
          [
            -138.768245,
            -65.115068
          ],
          [
            -157.1839,
            -68.855417
          ]
        ],
        "type": "LineString"
      },
      "properties": {
        "confidence": "low",
        "lineStyle": "dashed",
        "observationStatus": "estimated",
        "source": "reachable-set heuristic",
        "vessel": "B"
      },
      "type": "Feature"
    },
    {
      "geometry": {
        "coordinates": [
          -138.768245,
          -65.115068
        ],
        "type": "Point"
      },
      "properties": {
        "kind": "meetingPoint",
        "observationStatus": "estimated"
      },
      "type": "Feature"
    }
  ],
  "properties": {
    "dateline": true
  },
  "type": "FeatureCollection"
}
