{
  "features": [
    {
      "geometry": {
        "coordinates": [
          -60.744053,
          -46.759055
        ],
        "type": "Point"
      },
      "properties": {
        "mmsi": "441239687",
        "observationStatus": "observed",
        "role": "off",
        "time": "2017-03-06T07:39:28Z",
        "vessel": "A"
      },
      "type": "Feature"
    },
    {
      "geometry": {
        "coordinates": [
          -60.81163,
          -46.733862
        ],
        "type": "Point"
      },
      "properties": {
        "mmsi": "412329691",
        "observationStatus": "observed",
        "role": "off",
        "time": "2017-03-06T08:04:38Z",
        "vessel": "B"
      },
      "type": "Feature"
    },
    {
      "geometry": {
        "coordinates": [
          -60.751202,
          -47.02255
        ],
        "type": "Point"
      },
      "properties": {
        "mmsi": "441239687",
        "observationStatus": "observed",
        "role": "on",
        "time": "2017-03-06T21:57:31Z",
        "vessel": "A"
      },
      "type": "Feature"
    },
    {
      "geometry": {
        "coordinates": [
          -60.686972,
          -47.058438
        ],
        "type": "Point"
      },
      "properties": {
        "mmsi": "412329691",
        "observationStatus": "observed",
        "role": "on",
        "time": "2017-03-06T22:49:35Z",
        "vessel": "B"
      },
      "type": "Feature"
    },
    {
      "geometry": {
        "coordinates": [
          [
            -60.744053,
            -46.759055
          ],
          [
            -60.758345,
            -46.991404
          ],
          [
            -60.751202,
            -47.02255
          ]
        ],
        "type": "LineString"
      },
      "properties": {
        "confidence": "low",
        "lineStyle": "dashed",
        "observationStatus": "estimated",
        "source": "reachable-set heuristic",
        "vessel": "A"
      },
      "type": "Feature"
    },
    {
      "geometry": {
        "coordinates": [
          [
            -60.81163,
            -46.733862
          ],
          [
            -60.758345,
            -46.991404
          ],
          [
            -60.686972,
            -47.058438
          ]
        ],
        "type": "LineString"
      },
      "properties": {
        "confidence": "low",
        "lineStyle": "dashed",
        "observationStatus": "estimated",
        "source": "reachable-set heuristic",
        "vessel": "B"
      },
      "type": "Feature"
    },
    {
      "geometry": {
        "coordinates": [
          -60.758345,
          -46.991404
        ],
        "type": "Point"
      },
      "properties": {
        "kind": "meetingPoint",
        "observationStatus": "estimated"
      },
      "type": "Feature"
    },
    {
      "geometry": {
        "coordinates": [
          [
            [
              -60.786906,
              -48.338641
            ],
            [
              -60.581311,
              -48.334308
            ],
            [
              -60.377319,
              -48.316072
            ],
            [
              -60.176892,
              -48.28411
            ],
            [
              -59.981962,
              -48.23873
            ],
            [
              -59.794406,
              -48.180369
            ],
            [
              -59.61603,
              -48.109588
            ],
            [
              -59.448552,
              -48.02707
            ],
            [
              -59.293584,
              -47.933609
            ],
            [
              -59.15262,
              -47.830105
            ],
            [
              -59.027017,
              -47.717556
            ],
            [
              -58.917984,
              -47.597044
            ],
            [
              -58.826571,
              -47.46973
            ],
            [
              -58.75366,
              -47.336841
            ],
            [
              -58.699951,
              -47.199657
            ],
            [
              -58.665963,
              -47.059498
            ],
            [
              -58.652022,
              -46.917715
            ],
            [
              -58.658263,
              -46.775672
            ],
            [
              -58.684625,
              -46.634738
            ],
            [
              -58.730856,
              -46.496271
            ],
            [
              -58.796509,
              -46.361602
            ],
            [
              -58.880953,
              -46.232031
            ],
            [
              -58.983373,
              -46.108803
            ],
            [
              -59.102784,
              -45.993107
            ],
            [
              -59.238036,
              -45.886056
            ],
            [
              -59.387827,
              -45.788681
            ],
            [
              -59.550713,
              -45.70192
            ],
            [
              -59.725125,
              -45.626609
            ],
            [
              -59.909385,
              -45.563473
            ],
            [
              -60.101718,
              -45.513119
            ],
            [
              -60.300272,
              -45.476034
            ],
            [
              -60.503133,
              -45.452573
            ],
            [
              -60.708349,
              -45.442964
            ],
            [
              -60.913944,
              -45.447297
            ],
            [
              -61.117936,
              -45.465533
            ],
            [
              -61.318363,
              -45.497495
            ],
            [
              -61.513293,
              -45.542875
            ],
            [
              -61.700849,
              -45.601236
            ],
            [
              -61.879225,
              -45.672017
            ],
            [
              -62.046703,
              -45.754535
            ],
            [
              -62.201671,
              -45.847996
            ],
            [
              -62.342635,
              -45.9515
            ],
            [
              -62.468238,
              -46.064049
            ],
            [
              -62.577271,
              -46.184561
            ],
            [
              -62.668684,
              -46.311875
            ],
            [
              -62.741595,
              -46.444764
            ],
            [
              -62.795304,
              -46.581948
            ],
            [
              -62.829292,
              -46.722107
            ],
            [
              -62.843233,
              -46.86389
            ],
            [
              -62.836992,
              -47.005933
            ],
            [
              -62.81063,
              -47.146867
            ],
            [
              -62.764399,
              -47.285334
            ],
            [
              -62.698746,
              -47.420003
            ],
            [
              -62.614302,
              -47.549574
            ],
            [
              -62.511882,
              -47.672802
            ],
            [
              -62.392471,
              -47.788498
            ],
            [
              -62.257219,
              -47.895549
            ],
            [
              -62.107428,
              -47.992924
            ],
            [
              -61.944542,
              -48.079685
            ],
            [
              -61.77013,
              -48.154996
            ],
            [
              -61.58587,
              -48.218132
            ],
            [
              -61.393537,
              -48.268486
            ],
            [
              -61.194983,
              -48.305571
            ],
            [
              -60.992122,
              -48.329032
            ],
            [
              -60.786906,
              -48.338641
            ]
          ]
        ],
        "type": "Polygon"
      },
      "properties": {
        "kind": "reachableSet",
        "observationStatus": "estimated",
        "vessel": "A"
      },
      "type": "Feature"
    },
    {
      "geometry": {
        "coordinates": [
          [
            [
              -60.193469,
              -48.343387
            ],
            [
              -59.99125,
              -48.299174
            ],
            [
              -59.796332,
              -48.241449
            ],
            [
              -59.610591,
              -48.170768
            ],
            [
              -59.435816,
              -48.087812
            ],
            [
              -59.273692,
              -47.993379
            ],
            [
              -59.125778,
              -47.888379
            ],
            [
              -58.993499,
              -47.773824
            ],
            [
              -58.87813,
              -47.650817
            ],
            [
              -58.780782,
              -47.520541
            ],
            [
              -58.702391,
              -47.384252
            ],
            [
              -58.643713,
              -47.243263
            ],
            [
              -58.605313,
              -47.09893
            ],
            [
              -58.587561,
              -46.952645
            ],
            [
              -58.590627,
              -46.805816
            ],
            [
              -58.614483,
              -46.659856
            ],
            [
              -58.658898,
              -46.516173
            ],
            [
              -58.723445,
              -46.376148
            ],
            [
              -58.807502,
              -46.241132
            ],
            [
              -58.91026,
              -46.112424
            ],
            [
              -59.030728,
              -45.991263
            ],
            [
              -59.167748,
              -45.878817
            ],
            [
              -59.319998,
              -45.776169
            ],
            [
              -59.486014,
              -45.684306
            ],
            [
              -59.664196,
              -45.604114
            ],
            [
              -59.852827,
              -45.536366
            ],
            [
              -60.050093,
              -45.481712
            ],
            [
              -60.254092,
              -45.440681
            ],
            [
              -60.46286,
              -45.413666
            ],
            [
              -60.674387,
              -45.400929
            ],
            [
              -60.886635,
              -45.402591
            ],
            [
              -61.097561,
              -45.418638
            ],
            [
              -61.305133,
              -45.448913
            ],
            [
              -61.507352,
              -45.493126
            ],
            [
              -61.70227,
              -45.550851
            ],
            [
              -61.888011,
              -45.621532
            ],
            [
              -62.062785,
              -45.704488
            ],
            [
              -62.22491,
              -45.798921
            ],
            [
              -62.372824,
              -45.903921
            ],
            [
              -62.505102,
              -46.018476
            ],
            [
              -62.620471,
              -46.141483
            ],
            [
              -62.71782,
              -46.271759
            ],
            [
              -62.796211,
              -46.408048
            ],
            [
              -62.854889,
              -46.549037
            ],
            [
              -62.893289,
              -46.69337
            ],
            [
              -62.911041,
              -46.839655
            ],
            [
              -62.907974,
              -46.986484
            ],
            [
              -62.884119,
              -47.132444
            ],
            [
              -62.839703,
              -47.276127
            ],
            [
              -62.775157,
              -47.416152
            ],
            [
              -62.691099,
              -47.551168
            ],
            [
              -62.588342,
              -47.679876
            ],
            [
              -62.467873,
              -47.801037
            ],
            [
              -62.330854,
              -47.913483
            ],
            [
              -62.178603,
              -48.016131
            ],
            [
              -62.012588,
              -48.107994
            ],
            [
              -61.834406,
              -48.188186
            ],
            [
              -61.645774,
              -48.255934
            ],
            [
              -61.448509,
              -48.310588
            ],
            [
              -61.24451,
              -48.351619
            ],
            [
              -61.035741,
              -48.378634
            ],
            [
              -60.824215,
              -48.391371
            ],
            [
              -60.611966,
              -48.389709
            ],
            [
              -60.40104,
              -48.373662
            ],
            [
              -60.193469,
              -48.343387
            ]
          ]
        ],
        "type": "Polygon"
      },
      "properties": {
        "kind": "reachableSet",
        "observationStatus": "estimated",
        "vessel": "B"
      },
      "type": "Feature"
    }
  ],
  "properties": {
    "dateline": false
  },
  "type": "FeatureCollection"
}
