{
  "features": [
    {
      "geometry": {
        "coordinates": [
          -61.057432,
          -47.24347
        ],
        "type": "Point"
      },
      "properties": {
        "mmsi": "701006149",
        "observationStatus": "observed",
        "role": "off",
        "time": "2017-03-09T03:22:23Z",
        "vessel": "A"
      },
      "type": "Feature"
    },
    {
      "geometry": {
        "coordinates": [
          -61.109395,
          -47.215577
        ],
        "type": "Point"
      },
      "properties": {
        "mmsi": "701006056",
        "observationStatus": "observed",
        "role": "off",
        "time": "2017-03-09T03:22:40Z",
        "vessel": "B"
      },
      "type": "Feature"
    },
    {
      "geometry": {
        "coordinates": [
          -61.069077,
          -47.18258
        ],
        "type": "Point"
      },
      "properties": {
        "mmsi": "701006056",
        "observationStatus": "observed",
        "role": "on",
        "time": "2017-03-09T16:01:02Z",
        "vessel": "B"
      },
      "type": "Feature"
    },
    {
      "geometry": {
        "coordinates": [
          -61.106212,
          -47.268377
        ],
        "type": "Point"
      },
      "properties": {
        "mmsi": "701006149",
        "observationStatus": "observed",
        "role": "on",
        "time": "2017-03-09T16:01:19Z",
        "vessel": "A"
      },
      "type": "Feature"
    },
    {
      "geometry": {
        "coordinates": [
          [
            -61.057432,
            -47.24347
          ],
          [
            -61.083413,
            -47.225478
          ],
          [
            -61.106212,
            -47.268377
          ]
        ],
        "type": "LineString"
      },
      "properties": {
        "confidence": "low",
        "lineStyle": "dashed",
        "observationStatus": "estimated",
        "source": "reachable-set heuristic",
        "vessel": "A"
      },
      "type": "Feature"
    },
    {
      "geometry": {
        "coordinates": [
          [
            -61.109395,
            -47.215577
          ],
          [
            -61.083413,
            -47.225478
          ],
          [
            -61.069077,
            -47.18258
          ]
        ],
        "type": "LineString"
      },
      "properties": {
        "confidence": "low",
        "lineStyle": "dashed",
        "observationStatus": "estimated",
        "source": "reachable-set heuristic",
        "vessel": "B"
      },
      "type": "Feature"
    },
    {
      "geometry": {
        "coordinates": [
          -61.083413,
          -47.225478
        ],
        "type": "Point"
      },
      "properties": {
        "kind": "meetingPoint",
        "observationStatus": "estimated"
      },
      "type": "Feature"
    },
    {
      "geometry": {
        "coordinates": [
          [
            [
              -62.454221,
              -47.956659
            ],
            [
              -62.347115,
              -48.045191
            ],
            [
              -62.227822,
              -48.126122
            ],
            [
              -62.097494,
              -48.198672
            ],
            [
              -61.957383,
              -48.262143
            ],
            [
              -61.808841,
              -48.315923
            ],
            [
              -61.653297,
              -48.359495
            ],
            [
              -61.49225,
              -48.392439
            ],
            [
              -61.327249,
              -48.414438
            ],
            [
              -61.159886,
              -48.42528
            ],
            [
              -60.99177,
              -48.42486
            ],
            [
              -60.824522,
              -48.413183
            ],
            [
              -60.659751,
              -48.390361
            ],
            [
              -60.499046,
              -48.356613
            ],
            [
              -60.343952,
              -48.312265
            ],
            [
              -60.195965,
              -48.257744
            ],
            [
              -60.056509,
              -48.193575
            ],
            [
              -59.926928,
              -48.120376
            ],
            [
              -59.808469,
              -48.038852
            ],
            [
              -59.702272,
              -47.949787
            ],
            [
              -59.609362,
              -47.854041
            ],
            [
              -59.530632,
              -47.752534
            ],
            [
              -59.466841,
              -47.646244
            ],
            [
              -59.418604,
              -47.536196
            ],
            [
              -59.386383,
              -47.423448
            ],
            [
              -59.370491,
              -47.309087
            ],
            [
              -59.37108,
              -47.194214
            ],
            [
              -59.388145,
              -47.079935
            ],
            [
              -59.42152,
              -46.967352
            ],
            [
              -59.470885,
              -46.857547
            ],
            [
              -59.535764,
              -46.751579
            ],
            [
              -59.615532,
              -46.650468
            ],
            [
              -59.709422,
              -46.555187
            ],
            [
              -59.816529,
              -46.466656
            ],
            [
              -59.935821,
              -46.385725
            ],
            [
              -60.06615,
              -46.313175
            ],
            [
              -60.20626,
              -46.249704
            ],
            [
              -60.354802,
              -46.195923
            ],
            [
              -60.510346,
              -46.152351
            ],
            [
              -60.671394,
              -46.119407
            ],
            [
              -60.836394,
              -46.097408
            ],
            [
              -61.003758,
              -46.086567
            ],
            [
              -61.171873,
              -46.086986
            ],
            [
              -61.339122,
              -46.098664
            ],
            [
              -61.503892,
              -46.121486
            ],
            [
              -61.664598,
              -46.155234
            ],
            [
              -61.819691,
              -46.199581
            ],
            [
              -61.967678,
              -46.254102
            ],
            [
              -62.107134,
              -46.318272
            ],
            [
              -62.236715,
              -46.391471
            ],
            [
              -62.355175,
              -46.472995
            ],
            [
              -62.461371,
              -46.562059
            ],
            [
              -62.554281,
              -46.657806
            ],
            [
              -62.633011,
              -46.759313
            ],
            [
              -62.696802,
              -46.865602
            ],
            [
              -62.74504,
              -46.975651
            ],
            [
              -62.77726,
              -47.088399
            ],
            [
              -62.793152,
              -47.20276
            ],
            [
              -62.792563,
              -47.317633
            ],
            [
              -62.775499,
              -47.431911
            ],
            [
              -62.742123,
              -47.544495
            ],
            [
              -62.692759,
              -47.6543
            ],
            [
              -62.627879,
              -47.760268
            ],
            [
              -62.548111,
              -47.861379
            ],
            [
              -62.454221,
              -47.956659
            ]
          ]
        ],
        "type": "Polygon"
      },
      "properties": {
        "kind": "reachableSet",
        "observationStatus": "estimated",
        "vessel": "A"
      },
      "type": "Feature"
    },
    {
      "geometry": {
        "coordinates": [
          [
            [
              -59.992585,
              -46.301575
            ],
            [
              -60.126444,
              -46.232379
            ],
            [
              -60.269576,
              -46.172493
            ],
            [
              -60.420601,
              -46.122493
            ],
            [
              -60.578066,
              -46.082862
            ],
            [
              -60.740454,
              -46.05398
            ],
            [
              -60.9062,
              -46.036126
            ],
            [
              -61.073709,
              -46.029472
            ],
            [
              -61.241368,
              -46.034082
            ],
            [
              -61.407562,
              -46.049911
            ],
            [
              -61.57069,
              -46.076808
            ],
            [
              -61.729181,
              -46.114513
            ],
            [
              -61.88151,
              -46.162662
            ],
            [
              -62.026208,
              -46.220793
            ],
            [
              -62.161883,
              -46.288346
            ],
            [
              -62.287227,
              -46.364669
            ],
            [
              -62.401035,
              -46.449028
            ],
            [
              -62.502209,
              -46.54061
            ],
            [
              -62.589775,
              -46.638534
            ],
            [
              -62.66289,
              -46.741856
            ],
            [
              -62.72085,
              -46.849582
            ],
            [
              -62.763097,
              -46.960673
            ],
            [
              -62.789224,
              -47.07406
            ],
            [
              -62.798978,
              -47.188651
            ],
            [
              -62.792267,
              -47.303343
            ],
            [
              -62.769155,
              -47.417031
            ],
            [
              -62.729864,
              -47.528619
            ],
            [
              -62.674774,
              -47.637034
            ],
            [
              -62.604413,
              -47.741231
            ],
            [
              -62.519461,
              -47.840207
            ],
            [
              -62.420734,
              -47.933009
            ],
            [
              -62.309185,
              -48.018742
            ],
            [
              -62.185887,
              -48.096582
            ],
            [
              -62.052028,
              -48.165778
            ],
            [
              -61.908896,
              -48.225664
            ],
            [
              -61.757871,
              -48.275664
            ],
            [
              -61.600406,
              -48.315295
            ],
            [
              -61.438018,
              -48.344177
            ],
            [
              -61.272272,
              -48.362031
            ],
            [
              -61.104762,
              -48.368685
            ],
            [
              -60.937103,
              -48.364075
            ],
            [
              -60.77091,
              -48.348245
            ],
            [
              -60.607782,
              -48.321349
            ],
            [
              -60.44929,
              -48.283644
            ],
            [
              -60.296962,
              -48.235494
            ],
            [
              -60.152264,
              -48.177363
            ],
            [
              -60.016589,
              -48.109811
            ],
            [
              -59.891244,
              -48.033488
            ],
            [
              -59.777437,
              -47.949129
            ],
            [
              -59.676263,
              -47.857546
            ],
            [
              -59.588697,
              -47.759623
            ],
            [
              -59.515582,
              -47.6563
            ],
            [
              -59.457621,
              -47.548575
            ],
            [
              -59.415375,
              -47.437484
            ],
            [
              -59.389248,
              -47.324096
            ],
            [
              -59.379493,
              -47.209505
            ],
            [
              -59.386204,
              -47.094814
            ],
            [
              -59.409317,
              -46.981126
            ],
            [
              -59.448607,
              -46.869537
            ],
            [
              -59.503698,
              -46.761123
            ],
            [
              -59.574059,
              -46.656925
            ],
            [
              -59.659011,
              -46.557949
            ],
            [
              -59.757737,
              -46.465148
            ],
            [
              -59.869287,
              -46.379415
            ],
            [
              -59.992585,
              -46.301575
            ]
          ]
        ],
        "type": "Polygon"
      },
      "properties": {
        "kind": "reachableSet",
        "observationStatus": "estimated",
        "vessel": "B"
      },
      "type": "Feature"
    }
  ],
  "properties": {
    "dateline": false
  },
  "type": "FeatureCollection"
}
