{
  "features": [
    {
      "geometry": {
        "coordinates": [
          -60.584713,
          -45.684467
        ],
        "type": "Point"
      },
      "properties": {
        "mmsi": "412331069",
        "observationStatus": "observed",
        "role": "off",
        "time": "2018-02-01T08:14:45Z",
        "vessel": "A"
      },
      "type": "Feature"
    },
    {
      "geometry": {
        "coordinates": [
          -60.614147,
          -45.692953
        ],
        "type": "Point"
      },
      "properties": {
        "mmsi": "412331067",
        "observationStatus": "observed",
        "role": "off",
        "time": "2018-02-01T08:19:24Z",
        "vessel": "B"
      },
      "type": "Feature"
    },
    {
      "geometry": {
        "coordinates": [
          -60.579013,
          -45.63856
        ],
        "type": "Point"
      },
      "properties": {
        "mmsi": "412331067",
        "observationStatus": "observed",
        "role": "on",
        "time": "2018-02-02T00:02:14Z",
        "vessel": "B"
      },
      "type": "Feature"
    },
    {
      "geometry": {
        "coordinates": [
          -60.594507,
          -45.558987
        ],
        "type": "Point"
      },
      "properties": {
        "mmsi": "412331069",
        "observationStatus": "observed",
        "role": "on",
        "time": "2018-02-02T00:02:19Z",
        "vessel": "A"
      },
      "type": "Feature"
    },
    {
      "geometry": {
        "coordinates": [
          [
            -60.584713,
            -45.684467
          ],
          [
            -60.603154,
            -45.620228
          ],
          [
            -60.594507,
            -45.558987
          ]
        ],
        "type": "LineString"
      },
      "properties": {
        "confidence": "low",
        "lineStyle": "dashed",
        "observationStatus": "estimated",
        "source": "reachable-set heuristic",
        "vessel": "A"
      },
      "type": "Feature"
    },
    {
      "geometry": {
        "coordinates": [
          [
            -60.614147,
            -45.692953
          ],
          [
            -60.603154,
            -45.620228
          ],
          [
            -60.579013,
            -45.63856
          ]
        ],
        "type": "LineString"
      },
      "properties": {
        "confidence": "low",
        "lineStyle": "dashed",
        "observationStatus": "estimated",
        "source": "reachable-set heuristic",
        "vessel": "B"
      },
      "type": "Feature"
    },
    {
      "geometry": {
        "coordinates": [
          -60.603154,
          -45.620228
        ],
        "type": "Point"
      },
      "properties": {
        "kind": "meetingPoint",
        "observationStatus": "estimated"
      },
      "type": "Feature"
    },
    {
      "geometry": {
        "coordinates": [
          [
            [
              -60.705463,
              -44.13733
            ],
            [
              -60.911351,
              -44.152467
            ],
            [
              -61.114141,
              -44.181753
            ],
            [
              -61.311879,
              -44.224907
            ],
            [
              -61.502661,
              -44.281513
            ],
            [
              -61.684651,
              -44.351026
            ],
            [
              -61.856094,
              -44.432777
            ],
            [
              -62.01534,
              -44.525978
            ],
            [
              -62.160856,
              -44.629731
            ],
            [
              -62.29124,
              -44.743038
            ],
            [
              -62.405236,
              -44.864808
            ],
            [
              -62.501747,
              -44.993867
            ],
            [
              -62.579843,
              -45.128972
            ],
            [
              -62.638772,
              -45.268823
            ],
            [
              -62.677966,
              -45.412072
            ],
            [
              -62.697049,
              -45.557341
            ],
            [
              -62.695835,
              -45.70323
            ],
            [
              -62.674338,
              -45.848334
            ],
            [
              -62.632763,
              -45.991255
            ],
            [
              -62.571512,
              -46.130618
            ],
            [
              -62.491173,
              -46.26508
            ],
            [
              -62.392522,
              -46.393346
            ],
            [
              -62.276508,
              -46.51418
            ],
            [
              -62.144248,
              -46.62642
            ],
            [
              -61.997016,
              -46.728985
            ],
            [
              -61.83623,
              -46.820885
            ],
            [
              -61.663438,
              -46.901238
            ],
            [
              -61.480305,
              -46.969268
            ],
            [
              -61.288594,
              -47.02432
            ],
            [
              -61.090151,
              -47.065864
            ],
            [
              -60.886888,
              -47.093501
            ],
            [
              -60.680761,
              -47.106964
            ],
            [
              -60.473757,
              -47.106123
            ],
            [
              -60.267869,
              -47.090986
            ],
            [
              -60.065079,
              -47.0617
            ],
            [
              -59.867341,
              -47.018546
            ],
            [
              -59.676559,
              -46.96194
            ],
            [
              -59.494569,
              -46.892427
            ],
            [
              -59.323126,
              -46.810676
            ],
            [
              -59.16388,
              -46.717475
            ],
            [
              -59.018364,
              -46.613722
            ],
            [
              -58.88798,
              -46.500415
            ],
            [
              -58.773984,
              -46.378646
            ],
            [
              -58.677473,
              -46.249587
            ],
            [
              -58.599377,
              -46.114481
            ],
            [
              -58.540448,
              -45.97463
            ],
            [
              -58.501254,
              -45.831381
            ],
            [
              -58.482171,
              -45.686112
            ],
            [
              -58.483385,
              -45.540224
            ],
            [
              -58.504882,
              -45.39512
            ],
            [
              -58.546457,
              -45.252198
            ],
            [
              -58.607708,
              -45.112836
            ],
            [
              -58.688047,
              -44.978374
            ],
            [
              -58.786698,
              -44.850108
            ],
            [
              -58.902712,
              -44.729273
            ],
            [
              -59.034972,
              -44.617033
            ],
            [
              -59.182204,
              -44.514469
            ],
            [
              -59.34299,
              -44.422568
            ],
            [
              -59.515782,
              -44.342216
            ],
            [
              -59.698915,
              -44.274186
            ],
            [
              -59.890626,
              -44.219134
            ],
            [
              -60.089069,
              -44.177589
            ],
            [
              -60.292332,
              -44.149952
            ],
            [
              -60.498459,
              -44.13649
            ],
            [
              -60.705463,
              -44.13733
            ]
          ]
        ],
        "type": "Polygon"
      },
      "properties": {
        "kind": "reachableSet",
        "observationStatus": "estimated",
        "vessel": "A"
      },
      "type": "Feature"
    },
    {
      "geometry": {
        "coordinates": [
          [
            [
              -59.727044,
              -44.319544
            ],
            [
              -59.918736,
              -44.266072
            ],
            [
              -60.116955,
              -44.226081
            ],
            [
              -60.319794,
              -44.199954
            ],
            [
              -60.525298,
              -44.187944
            ],
            [
              -60.731489,
              -44.190166
            ],
            [
              -60.93638,
              -44.206598
            ],
            [
              -61.137999,
              -44.237083
            ],
            [
              -61.334404,
              -44.281327
            ],
            [
              -61.523703,
              -44.338904
            ],
            [
              -61.704074,
              -44.409259
            ],
            [
              -61.873778,
              -44.491715
            ],
            [
              -62.031183,
              -44.585478
            ],
            [
              -62.174772,
              -44.689644
            ],
            [
              -62.303161,
              -44.803211
            ],
            [
              -62.415116,
              -44.925084
            ],
            [
              -62.509557,
              -45.054091
            ],
            [
              -62.585575,
              -45.188988
            ],
            [
              -62.642437,
              -45.328477
            ],
            [
              -62.679597,
              -45.471214
            ],
            [
              -62.696697,
              -45.615824
            ],
            [
              -62.693571,
              -45.760916
            ],
            [
              -62.67025,
              -45.905091
            ],
            [
              -62.626959,
              -46.046961
            ],
            [
              -62.564113,
              -46.18516
            ],
            [
              -62.48232,
              -46.318357
            ],
            [
              -62.382365,
              -46.445268
            ],
            [
              -62.265213,
              -46.564673
            ],
            [
              -62.131991,
              -46.675421
            ],
            [
              -61.983982,
              -46.776445
            ],
            [
              -61.822611,
              -46.866772
            ],
            [
              -61.649433,
              -46.945533
            ],
            [
              -61.466116,
              -47.01197
            ],
            [
              -61.274424,
              -47.065441
            ],
            [
              -61.076205,
              -47.105433
            ],
            [
              -60.873366,
              -47.131559
            ],
            [
              -60.667862,
              -47.14357
            ],
            [
              -60.461671,
              -47.141348
            ],
            [
              -60.25678,
              -47.124915
            ],
            [
              -60.055161,
              -47.09443
            ],
            [
              -59.858756,
              -47.050186
            ],
            [
              -59.669457,
              -46.992609
            ],
            [
              -59.489086,
              -46.922254
            ],
            [
              -59.319382,
              -46.839798
            ],
            [
              -59.161977,
              -46.746036
            ],
            [
              -59.018388,
              -46.641869
            ],
            [
              -58.889999,
              -46.528303
            ],
            [
              -58.778044,
              -46.406429
            ],
            [
              -58.683603,
              -46.277423
            ],
            [
              -58.607585,
              -46.142525
            ],
            [
              -58.550723,
              -46.003036
            ],
            [
              -58.513563,
              -45.860299
            ],
            [
              -58.496463,
              -45.715689
            ],
            [
              -58.499589,
              -45.570597
            ],
            [
              -58.52291,
              -45.426422
            ],
            [
              -58.566201,
              -45.284552
            ],
            [
              -58.629047,
              -45.146353
            ],
            [
              -58.71084,
              -45.013157
            ],
            [
              -58.810795,
              -44.886245
            ],
            [
              -58.927947,
              -44.76684
            ],
            [
              -59.061169,
              -44.656093
            ],
            [
              -59.209178,
              -44.555068
            ],
            [
              -59.370549,
              -44.464741
            ],
            [
              -59.543727,
              -44.38598
            ],
            [
              -59.727044,
              -44.319544
            ]
          ]
        ],
        "type": "Polygon"
      },
      "properties": {
        "kind": "reachableSet",
        "observationStatus": "estimated",
        "vessel": "B"
      },
      "type": "Feature"
    }
  ],
  "properties": {
    "dateline": false
  },
  "type": "FeatureCollection"
}
