{
  "features": [
    {
      "geometry": {
        "coordinates": [
          -60.742462,
          -46.275352
        ],
        "type": "Point"
      },
      "properties": {
        "mmsi": "412421137",
        "observationStatus": "observed",
        "role": "off",
        "time": "2019-02-17T17:56:14Z",
        "vessel": "A"
      },
      "type": "Feature"
    },
    {
      "geometry": {
        "coordinates": [
          -60.714147,
          -46.287877
        ],
        "type": "Point"
      },
      "properties": {
        "mmsi": "412424547",
        "observationStatus": "observed",
        "role": "off",
        "time": "2019-02-17T18:00:56Z",
        "vessel": "B"
      },
      "type": "Feature"
    },
    {
      "geometry": {
        "coordinates": [
          -60.79308,
          -46.227858
        ],
        "type": "Point"
      },
      "properties": {
        "mmsi": "412424547",
        "observationStatus": "observed",
        "role": "on",
        "time": "2019-02-18T14:28:13Z",
        "vessel": "B"
      },
      "type": "Feature"
    },
    {
      "geometry": {
        "coordinates": [
          -60.770272,
          -46.176998
        ],
        "type": "Point"
      },
      "properties": {
        "mmsi": "412421137",
        "observationStatus": "observed",
        "role": "on",
        "time": "2019-02-18T14:33:05Z",
        "vessel": "A"
      },
      "type": "Feature"
    },
    {
      "geometry": {
        "coordinates": [
          [
            -60.742462,
            -46.275352
          ],
          [
            -60.725936,
            -46.264769
          ],
          [
            -60.770272,
            -46.176998
          ]
        ],
        "type": "LineString"
      },
      "properties": {
        "confidence": "low",
        "lineStyle": "dashed",
        "observationStatus": "estimated",
        "source": "reachable-set heuristic",
        "vessel": "A"
      },
      "type": "Feature"
    },
    {
      "geometry": {
        "coordinates": [
          [
            -60.714147,
            -46.287877
          ],
          [
            -60.725936,
            -46.264769
          ],
          [
            -60.79308,
            -46.227858
          ]
        ],
        "type": "LineString"
      },
      "properties": {
        "confidence": "low",
        "lineStyle": "dashed",
        "observationStatus": "estimated",
        "source": "reachable-set heuristic",
        "vessel": "B"
      },
      "type": "Feature"
    },
    {
      "geometry": {
        "coordinates": [
          -60.725936,
          -46.264769
        ],
        "type": "Point"
      },
      "properties": {
        "kind": "meetingPoint",
        "observationStatus": "estimated"
      },
      "type": "Feature"
    },
    {
      "geometry": {
        "coordinates": [
          [
            [
              -61.303224,
              -44.292151
            ],
            [
              -61.572671,
              -44.338786
            ],
            [
              -61.834258,
              -44.403597
            ],
            [
              -62.085464,
              -44.48596
            ],
            [
              -62.32387,
              -44.585083
            ],
            [
              -62.547179,
              -44.70001
            ],
            [
              -62.753243,
              -44.829635
            ],
            [
              -62.940075,
              -44.97271
            ],
            [
              -63.105877,
              -45.127856
            ],
            [
              -63.249053,
              -45.293579
            ],
            [
              -63.368222,
              -45.468284
            ],
            [
              -63.462237,
              -45.650288
            ],
            [
              -63.530194,
              -45.837838
            ],
            [
              -63.571437,
              -46.029128
            ],
            [
              -63.585569,
              -46.222315
            ],
            [
              -63.572455,
              -46.41554
            ],
            [
              -63.53222,
              -46.606941
            ],
            [
              -63.465252,
              -46.794675
            ],
            [
              -63.372196,
              -46.976934
            ],
            [
              -63.253948,
              -47.151963
            ],
            [
              -63.111648,
              -47.318076
            ],
            [
              -62.946664,
              -47.473673
            ],
            [
              -62.760587,
              -47.617256
            ],
            [
              -62.555208,
              -47.747443
            ],
            [
              -62.332505,
              -47.862978
            ],
            [
              -62.094623,
              -47.962751
            ],
            [
              -61.843853,
              -48.045799
            ],
            [
              -61.58261,
              -48.111323
            ],
            [
              -61.31341,
              -48.158693
            ],
            [
              -61.038845,
              -48.187451
            ],
            [
              -60.76156,
              -48.197321
            ],
            [
              -60.484224,
              -48.188207
            ],
            [
              -60.20951,
              -48.160199
            ],
            [
              -59.940062,
              -48.113564
            ],
            [
              -59.678475,
              -48.048753
            ],
            [
              -59.42727,
              -47.96639
            ],
            [
              -59.188864,
              -47.867267
            ],
            [
              -58.965554,
              -47.75234
            ],
            [
              -58.75949,
              -47.622715
            ],
            [
              -58.572658,
              -47.47964
            ],
            [
              -58.406856,
              -47.324494
            ],
            [
              -58.263681,
              -47.158771
            ],
            [
              -58.144512,
              -46.984066
            ],
            [
              -58.050496,
              -46.802062
            ],
            [
              -57.98254,
              -46.614512
            ],
            [
              -57.941297,
              -46.423222
            ],
            [
              -57.927164,
              -46.230035
            ],
            [
              -57.940279,
              -46.03681
            ],
            [
              -57.980514,
              -45.845409
            ],
            [
              -58.047481,
              -45.657675
            ],
            [
              -58.140537,
              -45.475416
            ],
            [
              -58.258785,
              -45.300387
            ],
            [
              -58.401086,
              -45.134274
            ],
            [
              -58.566069,
              -44.978677
            ],
            [
              -58.752147,
              -44.835094
            ],
            [
              -58.957525,
              -44.704907
            ],
            [
              -59.180228,
              -44.589372
            ],
            [
              -59.41811,
              -44.489599
            ],
            [
              -59.66888,
              -44.406551
            ],
            [
              -59.930123,
              -44.341027
            ],
            [
              -60.199324,
              -44.293657
            ],
            [
              -60.473888,
              -44.264899
            ],
            [
              -60.751174,
              -44.255029
            ],
            [
              -61.028509,
              -44.264143
            ],
            [
              -61.303224,
              -44.292151
            ]
          ]
        ],
        "type": "Polygon"
      },
      "properties": {
        "kind": "reachableSet",
        "observationStatus": "estimated",
        "vessel": "A"
      },
      "type": "Feature"
    },
    {
      "geometry": {
        "coordinates": [
          [
            [
              -62.650191,
              -44.815771
            ],
            [
              -62.844074,
              -44.952091
            ],
            [
              -63.017824,
              -45.100986
            ],
            [
              -63.169769,
              -45.261023
            ],
            [
              -63.298445,
              -45.430659
            ],
            [
              -63.402612,
              -45.608263
            ],
            [
              -63.481269,
              -45.792122
            ],
            [
              -63.533656,
              -45.980466
            ],
            [
              -63.55927,
              -46.171482
            ],
            [
              -63.557864,
              -46.36333
            ],
            [
              -63.529452,
              -46.554163
            ],
            [
              -63.474307,
              -46.742142
            ],
            [
              -63.39296,
              -46.925457
            ],
            [
              -63.286195,
              -47.102343
            ],
            [
              -63.155039,
              -47.271096
            ],
            [
              -63.000757,
              -47.430091
            ],
            [
              -62.824833,
              -47.577797
            ],
            [
              -62.628963,
              -47.712791
            ],
            [
              -62.415031,
              -47.833774
            ],
            [
              -62.1851,
              -47.939579
            ],
            [
              -61.941382,
              -48.029189
            ],
            [
              -61.686225,
              -48.101741
            ],
            [
              -61.422087,
              -48.156534
            ],
            [
              -61.151512,
              -48.193043
            ],
            [
              -60.877104,
              -48.210914
            ],
            [
              -60.601507,
              -48.209977
            ],
            [
              -60.327374,
              -48.19024
            ],
            [
              -60.057347,
              -48.151893
            ],
            [
              -59.794025,
              -48.095306
            ],
            [
              -59.539945,
              -48.021023
            ],
            [
              -59.297552,
              -47.92976
            ],
            [
              -59.069183,
              -47.822395
            ],
            [
              -58.857035,
              -47.699964
            ],
            [
              -58.663153,
              -47.563644
            ],
            [
              -58.489402,
              -47.414749
            ],
            [
              -58.337458,
              -47.254712
            ],
            [
              -58.208782,
              -47.085076
            ],
            [
              -58.104614,
              -46.907472
            ],
            [
              -58.025958,
              -46.723613
            ],
            [
              -57.973571,
              -46.535269
            ],
            [
              -57.947956,
              -46.344253
            ],
            [
              -57.949362,
              -46.152405
            ],
            [
              -57.977775,
              -45.961572
            ],
            [
              -58.03292,
              -45.773593
            ],
            [
              -58.114267,
              -45.590278
            ],
            [
              -58.221032,
              -45.413392
            ],
            [
              -58.352187,
              -45.244639
            ],
            [
              -58.50647,
              -45.085644
            ],
            [
              -58.682393,
              -44.937938
            ],
            [
              -58.878264,
              -44.802944
            ],
            [
              -59.092195,
              -44.681961
            ],
            [
              -59.322127,
              -44.576156
            ],
            [
              -59.565845,
              -44.486546
            ],
            [
              -59.821001,
              -44.413994
            ],
            [
              -60.085139,
              -44.359201
            ],
            [
              -60.355715,
              -44.322692
            ],
            [
              -60.630123,
              -44.304821
            ],
            [
              -60.90572,
              -44.305758
            ],
            [
              -61.179852,
              -44.325495
            ],
            [
              -61.44988,
              -44.363842
            ],
            [
              -61.713202,
              -44.420429
            ],
            [
              -61.967282,
              -44.494712
            ],
            [
              -62.209674,
              -44.585975
            ],
            [
              -62.438044,
              -44.69334
            ],
            [
              -62.650191,
              -44.815771
            ]
          ]
        ],
        "type": "Polygon"
      },
      "properties": {
        "kind": "reachableSet",
        "observationStatus": "estimated",
        "vessel": "B"
      },
      "type": "Feature"
    }
  ],
  "properties": {
    "dateline": false
  },
  "type": "FeatureCollection"
}
