{
  "features": [
    {
      "geometry": {
        "coordinates": [
          -60.3678,
          -45.35825
        ],
        "type": "Point"
      },
      "properties": {
        "mmsi": "412329692",
        "observationStatus": "observed",
        "role": "off",
        "time": "2018-02-12T05:41:18Z",
        "vessel": "A"
      },
      "type": "Feature"
    },
    {
      "geometry": {
        "coordinates": [
          -60.310293,
          -45.278053
        ],
        "type": "Point"
      },
      "properties": {
        "mmsi": "412329694",
        "observationStatus": "observed",
        "role": "off",
        "time": "2018-02-12T05:48:09Z",
        "vessel": "B"
      },
      "type": "Feature"
    },
    {
      "geometry": {
        "coordinates": [
          -60.415982,
          -45.540653
        ],
        "type": "Point"
      },
      "properties": {
        "mmsi": "412329694",
        "observationStatus": "observed",
        "role": "on",
        "time": "2018-02-12T23:09:15Z",
        "vessel": "B"
      },
      "type": "Feature"
    },
    {
      "geometry": {
        "coordinates": [
          -60.485948,
          -45.482412
        ],
        "type": "Point"
      },
      "properties": {
        "mmsi": "412329692",
        "observationStatus": "observed",
        "role": "on",
        "time": "2018-02-12T23:09:25Z",
        "vessel": "A"
      },
      "type": "Feature"
    },
    {
      "geometry": {
        "coordinates": [
          [
            -60.3678,
            -45.35825
          ],
          [
            -60.344652,
            -45.363088
          ],
          [
            -60.485948,
            -45.482412
          ]
        ],
        "type": "LineString"
      },
      "properties": {
        "confidence": "low",
        "lineStyle": "dashed",
        "observationStatus": "estimated",
        "source": "reachable-set heuristic",
        "vessel": "A"
      },
      "type": "Feature"
    },
    {
      "geometry": {
        "coordinates": [
          [
            -60.310293,
            -45.278053
          ],
          [
            -60.344652,
            -45.363088
          ],
          [
            -60.415982,
            -45.540653
          ]
        ],
        "type": "LineString"
      },
      "properties": {
        "confidence": "low",
        "lineStyle": "dashed",
        "observationStatus": "estimated",
        "source": "reachable-set heuristic",
        "vessel": "B"
      },
      "type": "Feature"
    },
    {
      "geometry": {
        "coordinates": [
          -60.344652,
          -45.363088
        ],
        "type": "Point"
      },
      "properties": {
        "kind": "meetingPoint",
        "observationStatus": "estimated"
      },
      "type": "Feature"
    },
    {
      "geometry": {
        "coordinates": [
          [
            [
              -61.842685,
              -46.908201
            ],
            [
              -61.629673,
              -46.999017
            ],
            [
              -61.405077,
              -47.07463
            ],
            [
              -61.17106,
              -47.134311
            ],
            [
              -60.929877,
              -47.177485
            ],
            [
              -60.68385,
              -47.203736
            ],
            [
              -60.435347,
              -47.212813
            ],
            [
              -60.186763,
              -47.204627
            ],
            [
              -59.940492,
              -47.179257
            ],
            [
              -59.698904,
              -47.136948
            ],
            [
              -59.464328,
              -47.078107
            ],
            [
              -59.239021,
              -47.003301
            ],
            [
              -59.025154,
              -46.913249
            ],
            [
              -58.824786,
              -46.808821
            ],
            [
              -58.639847,
              -46.69102
            ],
            [
              -58.472118,
              -46.560982
            ],
            [
              -58.323215,
              -46.419958
            ],
            [
              -58.194571,
              -46.269308
            ],
            [
              -58.087425,
              -46.110482
            ],
            [
              -58.00281,
              -45.945009
            ],
            [
              -57.941539,
              -45.774483
            ],
            [
              -57.904204,
              -45.600546
            ],
            [
              -57.891163,
              -45.424874
            ],
            [
              -57.902543,
              -45.249158
            ],
            [
              -57.938233,
              -45.075091
            ],
            [
              -57.99789,
              -44.904348
            ],
            [
              -58.08094,
              -44.738575
            ],
            [
              -58.186583,
              -44.579367
            ],
            [
              -58.3138,
              -44.428259
            ],
            [
              -58.461368,
              -44.286704
            ],
            [
              -58.627864,
              -44.156067
            ],
            [
              -58.811686,
              -44.037606
            ],
            [
              -59.011064,
              -43.93246
            ],
            [
              -59.224076,
              -43.841644
            ],
            [
              -59.448671,
              -43.766032
            ],
            [
              -59.682688,
              -43.706351
            ],
            [
              -59.923871,
              -43.663177
            ],
            [
              -60.169899,
              -43.636925
            ],
            [
              -60.418401,
              -43.627849
            ],
            [
              -60.666985,
              -43.636035
            ],
            [
              -60.913257,
              -43.661404
            ],
            [
              -61.154844,
              -43.703713
            ],
            [
              -61.389421,
              -43.762555
            ],
            [
              -61.614727,
              -43.837361
            ],
            [
              -61.828595,
              -43.927412
            ],
            [
              -62.028962,
              -44.031841
            ],
            [
              -62.213901,
              -44.149642
            ],
            [
              -62.38163,
              -44.27968
            ],
            [
              -62.530533,
              -44.420703
            ],
            [
              -62.659177,
              -44.571354
            ],
            [
              -62.766323,
              -44.73018
            ],
            [
              -62.850939,
              -44.895653
            ],
            [
              -62.912209,
              -45.066179
            ],
            [
              -62.949544,
              -45.240115
            ],
            [
              -62.962585,
              -45.415788
            ],
            [
              -62.951205,
              -45.591503
            ],
            [
              -62.915515,
              -45.765571
            ],
            [
              -62.855858,
              -45.936313
            ],
            [
              -62.772808,
              -46.102087
            ],
            [
              -62.667166,
              -46.261294
            ],
            [
              -62.539948,
              -46.412403
            ],
            [
              -62.392381,
              -46.553958
            ],
            [
              -62.225884,
              -46.684595
            ],
            [
              -62.042062,
              -46.803056
            ],
            [
              -61.842685,
              -46.908201
            ]
          ]
        ],
        "type": "Polygon"
      },
      "properties": {
        "kind": "reachableSet",
        "observationStatus": "estimated",
        "vessel": "A"
      },
      "type": "Feature"
    },
    {
      "geometry": {
        "coordinates": [
          [
            [
              -61.052289,
              -47.121663
            ],
            [
              -60.812211,
              -47.16102
            ],
            [
              -60.567807,
              -47.183508
            ],
            [
              -60.321433,
              -47.18891
            ],
            [
              -60.075461,
              -47.177174
            ],
            [
              -59.832259,
              -47.148413
            ],
            [
              -59.594169,
              -47.102903
            ],
            [
              -59.363486,
              -47.041084
            ],
            [
              -59.142429,
              -46.96355
            ],
            [
              -58.933128,
              -46.871049
            ],
            [
              -58.7376,
              -46.764471
            ],
            [
              -58.557726,
              -46.644842
            ],
            [
              -58.395239,
              -46.513315
            ],
            [
              -58.251704,
              -46.371155
            ],
            [
              -58.128503,
              -46.219734
            ],
            [
              -58.026824,
              -46.060508
            ],
            [
              -57.947644,
              -45.895011
            ],
            [
              -57.891726,
              -45.724836
            ],
            [
              -57.85961,
              -45.551624
            ],
            [
              -57.851604,
              -45.377041
            ],
            [
              -57.867785,
              -45.20277
            ],
            [
              -57.907998,
              -45.030488
            ],
            [
              -57.971856,
              -44.861854
            ],
            [
              -58.058743,
              -44.698494
            ],
            [
              -58.167822,
              -44.541979
            ],
            [
              -58.298043,
              -44.393818
            ],
            [
              -58.448153,
              -44.255437
            ],
            [
              -58.616704,
              -44.128168
            ],
            [
              -58.802075,
              -44.013239
            ],
            [
              -59.00248,
              -43.911754
            ],
            [
              -59.215989,
              -43.824692
            ],
            [
              -59.440545,
              -43.752892
            ],
            [
              -59.673986,
              -43.697044
            ],
            [
              -59.914064,
              -43.657686
            ],
            [
              -60.158468,
              -43.635198
            ],
            [
              -60.404842,
              -43.629796
            ],
            [
              -60.650814,
              -43.641533
            ],
            [
              -60.894016,
              -43.670294
            ],
            [
              -61.132106,
              -43.715803
            ],
            [
              -61.362789,
              -43.777623
            ],
            [
              -61.583846,
              -43.855156
            ],
            [
              -61.793147,
              -43.947658
            ],
            [
              -61.988675,
              -44.054236
            ],
            [
              -62.168549,
              -44.173865
            ],
            [
              -62.331036,
              -44.305392
            ],
            [
              -62.474571,
              -44.447551
            ],
            [
              -62.597772,
              -44.598973
            ],
            [
              -62.699451,
              -44.758199
            ],
            [
              -62.778631,
              -44.923696
            ],
            [
              -62.834549,
              -45.09387
            ],
            [
              -62.866665,
              -45.267083
            ],
            [
              -62.874671,
              -45.441666
            ],
            [
              -62.85849,
              -45.615937
            ],
            [
              -62.818277,
              -45.788219
            ],
            [
              -62.754419,
              -45.956852
            ],
            [
              -62.667532,
              -46.120213
            ],
            [
              -62.558453,
              -46.276728
            ],
            [
              -62.428232,
              -46.424889
            ],
            [
              -62.278122,
              -46.56327
            ],
            [
              -62.109571,
              -46.690538
            ],
            [
              -61.9242,
              -46.805468
            ],
            [
              -61.723795,
              -46.906953
            ],
            [
              -61.510286,
              -46.994014
            ],
            [
              -61.28573,
              -47.065815
            ],
            [
              -61.052289,
              -47.121663
            ]
          ]
        ],
        "type": "Polygon"
      },
      "properties": {
        "kind": "reachableSet",
        "observationStatus": "estimated",
        "vessel": "B"
      },
      "type": "Feature"
    }
  ],
  "properties": {
    "dateline": false
  },
  "type": "FeatureCollection"
}
