{
  "features": [
    {
      "geometry": {
        "coordinates": [
          -60.82705,
          -46.919965
        ],
        "type": "Point"
      },
      "properties": {
        "mmsi": "440683000",
        "observationStatus": "observed",
        "role": "off",
        "time": "2017-03-09T03:22:12Z",
        "vessel": "A"
      },
      "type": "Feature"
    },
    {
      "geometry": {
        "coordinates": [
          -60.857063,
          -46.991305
        ],
        "type": "Point"
      },
      "properties": {
        "mmsi": "441767000",
        "observationStatus": "observed",
        "role": "off",
        "time": "2017-03-09T03:22:58Z",
        "vessel": "B"
      },
      "type": "Feature"
    },
    {
      "geometry": {
        "coordinates": [
          -60.816307,
          -46.859368
        ],
        "type": "Point"
      },
      "properties": {
        "mmsi": "440683000",
        "observationStatus": "observed",
        "role": "on",
        "time": "2017-03-09T15:59:20Z",
        "vessel": "A"
      },
      "type": "Feature"
    },
    {
      "geometry": {
        "coordinates": [
          -60.827677,
          -46.91814
        ],
        "type": "Point"
      },
      "properties": {
        "mmsi": "441767000",
        "observationStatus": "observed",
        "role": "on",
        "time": "2017-03-09T16:01:04Z",
        "vessel": "B"
      },
      "type": "Feature"
    },
    {
      "geometry": {
        "coordinates": [
          [
            -60.82705,
            -46.919965
          ],
          [
            -60.836685,
            -46.925337
          ],
          [
            -60.816307,
            -46.859368
          ]
        ],
        "type": "LineString"
      },
      "properties": {
        "confidence": "low",
        "lineStyle": "dashed",
        "observationStatus": "estimated",
        "source": "reachable-set heuristic",
        "vessel": "A"
      },
      "type": "Feature"
    },
    {
      "geometry": {
        "coordinates": [
          [
            -60.857063,
            -46.991305
          ],
          [
            -60.836685,
            -46.925337
          ],
          [
            -60.827677,
            -46.91814
          ]
        ],
        "type": "LineString"
      },
      "properties": {
        "confidence": "low",
        "lineStyle": "dashed",
        "observationStatus": "estimated",
        "source": "reachable-set heuristic",
        "vessel": "B"
      },
      "type": "Feature"
    },
    {
      "geometry": {
        "coordinates": [
          -60.836685,
          -46.925337
        ],
        "type": "Point"
      },
      "properties": {
        "kind": "meetingPoint",
        "observationStatus": "estimated"
      },
      "type": "Feature"
    },
    {
      "geometry": {
        "coordinates": [
          [
            [
              -60.616183,
              -45.73059
            ],
            [
              -60.782236,
              -45.722318
            ],
            [
              -60.948669,
              -45.725287
            ],
            [
              -61.113879,
              -45.73947
            ],
            [
              -61.276275,
              -45.764731
            ],
            [
              -61.434293,
              -45.800825
            ],
            [
              -61.586411,
              -45.847405
            ],
            [
              -61.731164,
              -45.904023
            ],
            [
              -61.867159,
              -45.970133
            ],
            [
              -61.993085,
              -46.045098
            ],
            [
              -62.107729,
              -46.128197
            ],
            [
              -62.209989,
              -46.21863
            ],
            [
              -62.298878,
              -46.315525
            ],
            [
              -62.373541,
              -46.41795
            ],
            [
              -62.433258,
              -46.524917
            ],
            [
              -62.477455,
              -46.635397
            ],
            [
              -62.505707,
              -46.748326
            ],
            [
              -62.51774,
              -46.862616
            ],
            [
              -62.513439,
              -46.977166
            ],
            [
              -62.492845,
              -47.090874
            ],
            [
              -62.456157,
              -47.202644
            ],
            [
              -62.403729,
              -47.3114
            ],
            [
              -62.336064,
              -47.416094
            ],
            [
              -62.253815,
              -47.515719
            ],
            [
              -62.157773,
              -47.609314
            ],
            [
              -62.048865,
              -47.695979
            ],
            [
              -61.928138,
              -47.774879
            ],
            [
              -61.796755,
              -47.845253
            ],
            [
              -61.655981,
              -47.906425
            ],
            [
              -61.507173,
              -47.957805
            ],
            [
              -61.351763,
              -47.998898
            ],
            [
              -61.191248,
              -48.029308
            ],
            [
              -61.027174,
              -48.048743
            ],
            [
              -60.861121,
              -48.057016
            ],
            [
              -60.694688,
              -48.054046
            ],
            [
              -60.529478,
              -48.039863
            ],
            [
              -60.367082,
              -48.014603
            ],
            [
              -60.209064,
              -47.978509
            ],
            [
              -60.056946,
              -47.931929
            ],
            [
              -59.912192,
              -47.875311
            ],
            [
              -59.776198,
              -47.809201
            ],
            [
              -59.650272,
              -47.734235
            ],
            [
              -59.535627,
              -47.651136
            ],
            [
              -59.433368,
              -47.560703
            ],
            [
              -59.344479,
              -47.463808
            ],
            [
              -59.269816,
              -47.361384
            ],
            [
              -59.210098,
              -47.254417
            ],
            [
              -59.165901,
              -47.143937
            ],
            [
              -59.13765,
              -47.031008
            ],
            [
              -59.125617,
              -46.916718
            ],
            [
              -59.129918,
              -46.802167
            ],
            [
              -59.150512,
              -46.688459
            ],
            [
              -59.187199,
              -46.576689
            ],
            [
              -59.239628,
              -46.467933
            ],
            [
              -59.307293,
              -46.363239
            ],
            [
              -59.389542,
              -46.263614
            ],
            [
              -59.485583,
              -46.170019
            ],
            [
              -59.594492,
              -46.083354
            ],
            [
              -59.715219,
              -46.004455
            ],
            [
              -59.846602,
              -45.93408
            ],
            [
              -59.987375,
              -45.872908
            ],
            [
              -60.136184,
              -45.821529
            ],
            [
              -60.291594,
              -45.780436
            ],
            [
              -60.452109,
              -45.750025
            ],
            [
              -60.616183,
              -45.73059
            ]
          ]
        ],
        "type": "Polygon"
      },
      "properties": {
        "kind": "reachableSet",
        "observationStatus": "estimated",
        "vessel": "A"
      },
      "type": "Feature"
    },
    {
      "geometry": {
        "coordinates": [
          [
            [
              -60.389655,
              -45.827582
            ],
            [
              -60.552516,
              -45.802532
            ],
            [
              -60.718168,
              -45.788578
            ],
            [
              -60.885016,
              -45.785854
            ],
            [
              -61.051454,
              -45.794388
            ],
            [
              -61.215878,
              -45.814095
            ],
            [
              -61.376705,
              -45.844788
            ],
            [
              -61.532386,
              -45.88617
            ],
            [
              -61.681422,
              -45.937843
            ],
            [
              -61.822377,
              -45.999309
            ],
            [
              -61.953895,
              -46.069976
            ],
            [
              -62.074707,
              -46.149164
            ],
            [
              -62.183652,
              -46.236109
            ],
            [
              -62.279679,
              -46.329976
            ],
            [
              -62.361864,
              -46.429859
            ],
            [
              -62.429416,
              -46.534796
            ],
            [
              -62.481684,
              -46.643778
            ],
            [
              -62.518164,
              -46.755754
            ],
            [
              -62.538505,
              -46.869647
            ],
            [
              -62.542512,
              -46.984359
            ],
            [
              -62.530145,
              -47.098785
            ],
            [
              -62.501524,
              -47.211824
            ],
            [
              -62.456925,
              -47.322387
            ],
            [
              -62.396776,
              -47.429409
            ],
            [
              -62.321658,
              -47.53186
            ],
            [
              -62.232293,
              -47.628752
            ],
            [
              -62.129543,
              -47.719154
            ],
            [
              -62.014396,
              -47.802193
            ],
            [
              -61.887962,
              -47.877071
            ],
            [
              -61.751459,
              -47.943066
            ],
            [
              -61.6062,
              -47.999543
            ],
            [
              -61.453586,
              -48.045957
            ],
            [
              -61.295085,
              -48.081863
            ],
            [
              -61.132224,
              -48.106913
            ],
            [
              -60.966572,
              -48.120867
            ],
            [
              -60.799724,
              -48.123591
            ],
            [
              -60.633286,
              -48.115057
            ],
            [
              -60.468862,
              -48.09535
            ],
            [
              -60.308035,
              -48.064657
            ],
            [
              -60.152354,
              -48.023275
            ],
            [
              -60.003318,
              -47.971602
            ],
            [
              -59.862363,
              -47.910136
            ],
            [
              -59.730845,
              -47.839469
            ],
            [
              -59.610033,
              -47.760281
            ],
            [
              -59.501088,
              -47.673336
            ],
            [
              -59.405061,
              -47.579469
            ],
            [
              -59.322876,
              -47.479586
            ],
            [
              -59.255324,
              -47.374649
            ],
            [
              -59.203056,
              -47.265667
            ],
            [
              -59.166576,
              -47.153691
            ],
            [
              -59.146235,
              -47.039798
            ],
            [
              -59.142228,
              -46.925086
            ],
            [
              -59.154595,
              -46.81066
            ],
            [
              -59.183216,
              -46.697621
            ],
            [
              -59.227815,
              -46.587058
            ],
            [
              -59.287964,
              -46.480036
            ],
            [
              -59.363082,
              -46.377585
            ],
            [
              -59.452447,
              -46.280693
            ],
            [
              -59.555197,
              -46.190291
            ],
            [
              -59.670344,
              -46.107252
            ],
            [
              -59.796778,
              -46.032374
            ],
            [
              -59.933281,
              -45.966379
            ],
            [
              -60.07854,
              -45.909902
            ],
            [
              -60.231154,
              -45.863488
            ],
            [
              -60.389655,
              -45.827582
            ]
          ]
        ],
        "type": "Polygon"
      },
      "properties": {
        "kind": "reachableSet",
        "observationStatus": "estimated",
        "vessel": "B"
      },
      "type": "Feature"
    }
  ],
  "properties": {
    "dateline": false
  },
  "type": "FeatureCollection"
}
