{
  "features": [
    {
      "geometry": {
        "coordinates": [
          -57.703315,
          -42.044037
        ],
        "type": "Point"
      },
      "properties": {
        "mmsi": "412329686",
        "observationStatus": "observed",
        "role": "off",
        "time": "2019-05-05T04:46:27Z",
        "vessel": "A"
      },
      "type": "Feature"
    },
    {
      "geometry": {
        "coordinates": [
          -57.75904,
          -42.051227
        ],
        "type": "Point"
      },
      "properties": {
        "mmsi": "412329689",
        "observationStatus": "observed",
        "role": "off",
        "time": "2019-05-05T05:08:45Z",
        "vessel": "B"
      },
      "type": "Feature"
    },
    {
      "geometry": {
        "coordinates": [
          -57.939712,
          -42.085155
        ],
        "type": "Point"
      },
      "properties": {
        "mmsi": "412329689",
        "observationStatus": "observed",
        "role": "on",
        "time": "2019-05-05T20:41:38Z",
        "vessel": "B"
      },
      "type": "Feature"
    },
    {
      "geometry": {
        "coordinates": [
          -57.90712,
          -42.008027
        ],
        "type": "Point"
      },
      "properties": {
        "mmsi": "412329686",
        "observationStatus": "observed",
        "role": "on",
        "time": "2019-05-05T21:41:07Z",
        "vessel": "A"
      },
      "type": "Feature"
    },
    {
      "geometry": {
        "coordinates": [
          [
            -57.703315,
            -42.044037
          ],
          [
            -57.907072,
            -42.078872
          ],
          [
            -57.90712,
            -42.008027
          ]
        ],
        "type": "LineString"
      },
      "properties": {
        "confidence": "low",
        "lineStyle": "dashed",
        "observationStatus": "estimated",
        "source": "reachable-set heuristic",
        "vessel": "A"
      },
      "type": "Feature"
    },
    {
      "geometry": {
        "coordinates": [
          [
            -57.75904,
            -42.051227
          ],
          [
            -57.907072,
            -42.078872
          ],
          [
            -57.939712,
            -42.085155
          ]
        ],
        "type": "LineString"
      },
      "properties": {
        "confidence": "low",
        "lineStyle": "dashed",
        "observationStatus": "estimated",
        "source": "reachable-set heuristic",
        "vessel": "B"
      },
      "type": "Feature"
    },
    {
      "geometry": {
        "coordinates": [
          -57.907072,
          -42.078872
        ],
        "type": "Point"
      },
      "properties": {
        "kind": "meetingPoint",
        "observationStatus": "estimated"
      },
      "type": "Feature"
    },
    {
      "geometry": {
        "coordinates": [
          [
            [
              -60.059415,
              -41.627741
            ],
            [
              -60.100707,
              -41.794734
            ],
            [
              -60.119892,
              -41.963954
            ],
            [
              -60.116786,
              -42.133773
            ],
            [
              -60.091418,
              -42.302553
            ],
            [
              -60.044033,
              -42.468671
            ],
            [
              -59.975086,
              -42.630526
            ],
            [
              -59.885243,
              -42.786559
            ],
            [
              -59.775368,
              -42.935268
            ],
            [
              -59.646519,
              -43.07522
            ],
            [
              -59.499937,
              -43.205068
            ],
            [
              -59.337035,
              -43.323562
            ],
            [
              -59.15938,
              -43.429559
            ],
            [
              -58.968684,
              -43.52204
            ],
            [
              -58.766783,
              -43.600113
            ],
            [
              -58.555621,
              -43.663027
            ],
            [
              -58.337233,
              -43.710176
            ],
            [
              -58.113721,
              -43.741106
            ],
            [
              -57.887239,
              -43.755518
            ],
            [
              -57.659966,
              -43.753275
            ],
            [
              -57.434092,
              -43.734398
            ],
            [
              -57.211792,
              -43.699067
            ],
            [
              -56.995207,
              -43.647625
            ],
            [
              -56.786423,
              -43.580566
            ],
            [
              -56.587451,
              -43.498536
            ],
            [
              -56.400206,
              -43.402325
            ],
            [
              -56.226493,
              -43.292859
            ],
            [
              -56.067983,
              -43.171193
            ],
            [
              -55.926204,
              -43.038499
            ],
            [
              -55.802521,
              -42.896054
            ],
            [
              -55.698125,
              -42.74523
            ],
            [
              -55.614021,
              -42.58748
            ],
            [
              -55.55102,
              -42.424322
            ],
            [
              -55.509728,
              -42.25733
            ],
            [
              -55.490543,
              -42.088109
            ],
            [
              -55.493649,
              -41.918291
            ],
            [
              -55.519017,
              -41.74951
            ],
            [
              -55.566402,
              -41.583393
            ],
            [
              -55.635349,
              -41.421538
            ],
            [
              -55.725192,
              -41.265505
            ],
            [
              -55.835067,
              -41.116796
            ],
            [
              -55.963916,
              -40.976843
            ],
            [
              -56.110498,
              -40.846995
            ],
            [
              -56.2734,
              -40.728502
            ],
            [
              -56.451055,
              -40.622504
            ],
            [
              -56.641751,
              -40.530024
            ],
            [
              -56.843652,
              -40.45195
            ],
            [
              -57.054814,
              -40.389036
            ],
            [
              -57.273202,
              -40.341887
            ],
            [
              -57.496714,
              -40.310957
            ],
            [
              -57.723196,
              -40.296545
            ],
            [
              -57.950469,
              -40.298788
            ],
            [
              -58.176343,
              -40.317666
            ],
            [
              -58.398643,
              -40.352996
            ],
            [
              -58.615228,
              -40.404438
            ],
            [
              -58.824012,
              -40.471497
            ],
            [
              -59.022984,
              -40.553528
            ],
            [
              -59.210229,
              -40.649739
            ],
            [
              -59.383942,
              -40.759204
            ],
            [
              -59.542452,
              -40.88087
            ],
            [
              -59.684231,
              -41.013565
            ],
            [
              -59.807914,
              -41.15601
            ],
            [
              -59.91231,
              -41.306834
            ],
            [
              -59.996414,
              -41.464584
            ],
            [
              -60.059415,
              -41.627741
            ]
          ]
        ],
        "type": "Polygon"
      },
      "properties": {
        "kind": "reachableSet",
        "observationStatus": "estimated",
        "vessel": "A"
      },
      "type": "Feature"
    },
    {
      "geometry": {
        "coordinates": [
          [
            [
              -59.904721,
              -42.454164
            ],
            [
              -59.844253,
              -42.602727
            ],
            [
              -59.764574,
              -42.746142
            ],
            [
              -59.666451,
              -42.883028
            ],
            [
              -59.550828,
              -43.012067
            ],
            [
              -59.418819,
              -43.132016
            ],
            [
              -59.271695,
              -43.24172
            ],
            [
              -59.110874,
              -43.340121
            ],
            [
              -58.937904,
              -43.426274
            ],
            [
              -58.754451,
              -43.499347
            ],
            [
              -58.562281,
              -43.558638
            ],
            [
              -58.363246,
              -43.603574
            ],
            [
              -58.159262,
              -43.633725
            ],
            [
              -57.952293,
              -43.648798
            ],
            [
              -57.744334,
              -43.648649
            ],
            [
              -57.537385,
              -43.633279
            ],
            [
              -57.333442,
              -43.602837
            ],
            [
              -57.134467,
              -43.557615
            ],
            [
              -56.942378,
              -43.49805
            ],
            [
              -56.759023,
              -43.424713
            ],
            [
              -56.586169,
              -43.338313
            ],
            [
              -56.42548,
              -43.239681
            ],
            [
              -56.278504,
              -43.129767
            ],
            [
              -56.146657,
              -43.009629
            ],
            [
              -56.031207,
              -42.880425
            ],
            [
              -55.933268,
              -42.743399
            ],
            [
              -55.853781,
              -42.59987
            ],
            [
              -55.793514,
              -42.45122
            ],
            [
              -55.753045,
              -42.298882
            ],
            [
              -55.732766,
              -42.144322
            ],
            [
              -55.73287,
              -41.989029
            ],
            [
              -55.753357,
              -41.834498
            ],
            [
              -55.794031,
              -41.682218
            ],
            [
              -55.854498,
              -41.533655
            ],
            [
              -55.934177,
              -41.390239
            ],
            [
              -56.032301,
              -41.253353
            ],
            [
              -56.147924,
              -41.124314
            ],
            [
              -56.279933,
              -41.004366
            ],
            [
              -56.427056,
              -40.894662
            ],
            [
              -56.587878,
              -40.79626
            ],
            [
              -56.760848,
              -40.710108
            ],
            [
              -56.944301,
              -40.637034
            ],
            [
              -57.136471,
              -40.577744
            ],
            [
              -57.335506,
              -40.532807
            ],
            [
              -57.53949,
              -40.502657
            ],
            [
              -57.746458,
              -40.487584
            ],
            [
              -57.954418,
              -40.487733
            ],
            [
              -58.161366,
              -40.503102
            ],
            [
              -58.36531,
              -40.533545
            ],
            [
              -58.564284,
              -40.578766
            ],
            [
              -58.756374,
              -40.638332
            ],
            [
              -58.939729,
              -40.711668
            ],
            [
              -59.112583,
              -40.798068
            ],
            [
              -59.273272,
              -40.8967
            ],
            [
              -59.420248,
              -41.006614
            ],
            [
              -59.552095,
              -41.126752
            ],
            [
              -59.667545,
              -41.255956
            ],
            [
              -59.765484,
              -41.392983
            ],
            [
              -59.84497,
              -41.536512
            ],
            [
              -59.905238,
              -41.685162
            ],
            [
              -59.945706,
              -41.8375
            ],
            [
              -59.965986,
              -41.99206
            ],
            [
              -59.965882,
              -42.147353
            ],
            [
              -59.945394,
              -42.301884
            ],
            [
              -59.904721,
              -42.454164
            ]
          ]
        ],
        "type": "Polygon"
      },
      "properties": {
        "kind": "reachableSet",
        "observationStatus": "estimated",
        "vessel": "B"
      },
      "type": "Feature"
    }
  ],
  "properties": {
    "dateline": false
  },
  "type": "FeatureCollection"
}
