{
  "features": [
    {
      "geometry": {
        "coordinates": [
          -60.67848,
          -45.91132
        ],
        "type": "Point"
      },
      "properties": {
        "mmsi": "224388201",
        "observationStatus": "observed",
        "role": "off",
        "time": "2017-01-16T06:39:38Z",
        "vessel": "A"
      },
      "type": "Feature"
    },
    {
      "geometry": {
        "coordinates": [
          -60.657138,
          -45.8361
        ],
        "type": "Point"
      },
      "properties": {
        "mmsi": "412329685",
        "observationStatus": "observed",
        "role": "off",
        "time": "2017-01-16T07:24:47Z",
        "vessel": "B"
      },
      "type": "Feature"
    },
    {
      "geometry": {
        "coordinates": [
          -60.63877,
          -45.833968
        ],
        "type": "Point"
      },
      "properties": {
        "mmsi": "412329685",
        "observationStatus": "observed",
        "role": "on",
        "time": "2017-01-17T00:21:30Z",
        "vessel": "B"
      },
      "type": "Feature"
    },
    {
      "geometry": {
        "coordinates": [
          -60.606762,
          -45.747603
        ],
        "type": "Point"
      },
      "properties": {
        "mmsi": "224388201",
        "observationStatus": "observed",
        "role": "on",
        "time": "2017-01-17T00:22:18Z",
        "vessel": "A"
      },
      "type": "Feature"
    },
    {
      "geometry": {
        "coordinates": [
          [
            -60.67848,
            -45.91132
          ],
          [
            -60.649806,
            -45.823264
          ],
          [
            -60.606762,
            -45.747603
          ]
        ],
        "type": "LineString"
      },
      "properties": {
        "confidence": "low",
        "lineStyle": "dashed",
        "observationStatus": "estimated",
        "source": "reachable-set heuristic",
        "vessel": "A"
      },
      "type": "Feature"
    },
    {
      "geometry": {
        "coordinates": [
          [
            -60.657138,
            -45.8361
          ],
          [
            -60.649806,
            -45.823264
          ],
          [
            -60.63877,
            -45.833968
          ]
        ],
        "type": "LineString"
      },
      "properties": {
        "confidence": "low",
        "lineStyle": "dashed",
        "observationStatus": "estimated",
        "source": "reachable-set heuristic",
        "vessel": "B"
      },
      "type": "Feature"
    },
    {
      "geometry": {
        "coordinates": [
          -60.649806,
          -45.823264
        ],
        "type": "Point"
      },
      "properties": {
        "kind": "meetingPoint",
        "observationStatus": "estimated"
      },
      "type": "Feature"
    },
    {
      "geometry": {
        "coordinates": [
          [
            [
              -59.880781,
              -44.090355
            ],
            [
              -60.127169,
              -44.046402
            ],
            [
              -60.378521,
              -44.019621
            ],
            [
              -60.632417,
              -44.01027
            ],
            [
              -60.886411,
              -44.018439
            ],
            [
              -61.138057,
              -44.044049
            ],
            [
              -61.384932,
              -44.086853
            ],
            [
              -61.624658,
              -44.146439
            ],
            [
              -61.854926,
              -44.222235
            ],
            [
              -62.073519,
              -44.313508
            ],
            [
              -62.278332,
              -44.419381
            ],
            [
              -62.467392,
              -44.538834
            ],
            [
              -62.638878,
              -44.670716
            ],
            [
              -62.79114,
              -44.813758
            ],
            [
              -62.92271,
              -44.966581
            ],
            [
              -63.032321,
              -45.127715
            ],
            [
              -63.118919,
              -45.295606
            ],
            [
              -63.181668,
              -45.468639
            ],
            [
              -63.219965,
              -45.645147
            ],
            [
              -63.233441,
              -45.82343
            ],
            [
              -63.221965,
              -46.001771
            ],
            [
              -63.185649,
              -46.178452
            ],
            [
              -63.124843,
              -46.351773
            ],
            [
              -63.040131,
              -46.520064
            ],
            [
              -62.93233,
              -46.681703
            ],
            [
              -62.802478,
              -46.835135
            ],
            [
              -62.651825,
              -46.978882
            ],
            [
              -62.481822,
              -47.111559
            ],
            [
              -62.294107,
              -47.231889
            ],
            [
              -62.090487,
              -47.338713
            ],
            [
              -61.872924,
              -47.431002
            ],
            [
              -61.643512,
              -47.507867
            ],
            [
              -61.40446,
              -47.568569
            ],
            [
              -61.158072,
              -47.612521
            ],
            [
              -60.90672,
              -47.639302
            ],
            [
              -60.652825,
              -47.648653
            ],
            [
              -60.398831,
              -47.640485
            ],
            [
              -60.147185,
              -47.614875
            ],
            [
              -59.90031,
              -47.57207
            ],
            [
              -59.660584,
              -47.512484
            ],
            [
              -59.430316,
              -47.436689
            ],
            [
              -59.211723,
              -47.345415
            ],
            [
              -59.00691,
              -47.239542
            ],
            [
              -58.81785,
              -47.12009
            ],
            [
              -58.646363,
              -46.988207
            ],
            [
              -58.494102,
              -46.845166
            ],
            [
              -58.362532,
              -46.692342
            ],
            [
              -58.25292,
              -46.531209
            ],
            [
              -58.166323,
              -46.363317
            ],
            [
              -58.103574,
              -46.190284
            ],
            [
              -58.065277,
              -46.013776
            ],
            [
              -58.051801,
              -45.835493
            ],
            [
              -58.063276,
              -45.657152
            ],
            [
              -58.099592,
              -45.480471
            ],
            [
              -58.160399,
              -45.30715
            ],
            [
              -58.245111,
              -45.13886
            ],
            [
              -58.352912,
              -44.97722
            ],
            [
              -58.482764,
              -44.823788
            ],
            [
              -58.633417,
              -44.680041
            ],
            [
              -58.803419,
              -44.547364
            ],
            [
              -58.991135,
              -44.427034
            ],
            [
              -59.194754,
              -44.32021
            ],
            [
              -59.412318,
              -44.227921
            ],
            [
              -59.64173,
              -44.151056
            ],
            [
              -59.880781,
              -44.090355
            ]
          ]
        ],
        "type": "Polygon"
      },
      "properties": {
        "kind": "reachableSet",
        "observationStatus": "estimated",
        "vessel": "A"
      },
      "type": "Feature"
    },
    {
      "geometry": {
        "coordinates": [
          [
            [
              -58.206284,
              -45.551675
            ],
            [
              -58.257636,
              -45.385166
            ],
            [
              -58.332008,
              -45.222988
            ],
            [
              -58.428684,
              -45.066705
            ],
            [
              -58.546733,
              -44.917822
            ],
            [
              -58.685017,
              -44.777771
            ],
            [
              -58.842206,
              -44.647903
            ],
            [
              -59.016785,
              -44.529467
            ],
            [
              -59.207073,
              -44.423605
            ],
            [
              -59.411238,
              -44.331335
            ],
            [
              -59.627313,
              -44.253547
            ],
            [
              -59.853217,
              -44.19099
            ],
            [
              -60.086775,
              -44.144266
            ],
            [
              -60.325738,
              -44.113824
            ],
            [
              -60.567803,
              -44.099959
            ],
            [
              -60.810641,
              -44.102804
            ],
            [
              -61.051911,
              -44.12233
            ],
            [
              -61.289292,
              -44.158352
            ],
            [
              -61.520496,
              -44.21052
            ],
            [
              -61.743296,
              -44.278334
            ],
            [
              -61.955549,
              -44.361139
            ],
            [
              -62.155208,
              -44.458139
            ],
            [
              -62.340352,
              -44.568399
            ],
            [
              -62.509196,
              -44.690857
            ],
            [
              -62.660117,
              -44.824335
            ],
            [
              -62.791659,
              -44.967546
            ],
            [
              -62.902555,
              -45.119111
            ],
            [
              -62.991739,
              -45.277571
            ],
            [
              -63.058351,
              -45.4414
            ],
            [
              -63.10175,
              -45.60902
            ],
            [
              -63.121517,
              -45.778816
            ],
            [
              -63.117462,
              -45.949154
            ],
            [
              -63.089624,
              -46.118393
            ],
            [
              -63.038272,
              -46.284903
            ],
            [
              -62.9639,
              -46.44708
            ],
            [
              -62.867224,
              -46.603363
            ],
            [
              -62.749176,
              -46.752247
            ],
            [
              -62.610891,
              -46.892297
            ],
            [
              -62.453702,
              -47.022166
            ],
            [
              -62.279123,
              -47.140601
            ],
            [
              -62.088835,
              -47.246463
            ],
            [
              -61.88467,
              -47.338733
            ],
            [
              -61.668595,
              -47.416521
            ],
            [
              -61.442691,
              -47.479078
            ],
            [
              -61.209133,
              -47.525803
            ],
            [
              -60.970171,
              -47.556244
            ],
            [
              -60.728105,
              -47.570109
            ],
            [
              -60.485268,
              -47.567265
            ],
            [
              -60.243997,
              -47.547738
            ],
            [
              -60.006617,
              -47.511717
            ],
            [
              -59.775413,
              -47.459548
            ],
            [
              -59.552612,
              -47.391735
            ],
            [
              -59.34036,
              -47.308929
            ],
            [
              -59.1407,
              -47.21193
            ],
            [
              -58.955557,
              -47.10167
            ],
            [
              -58.786712,
              -46.979211
            ],
            [
              -58.635792,
              -46.845734
            ],
            [
              -58.50425,
              -46.702523
            ],
            [
              -58.393353,
              -46.550957
            ],
            [
              -58.304169,
              -46.392497
            ],
            [
              -58.237557,
              -46.228668
            ],
            [
              -58.194159,
              -46.061048
            ],
            [
              -58.174392,
              -45.891252
            ],
            [
              -58.178446,
              -45.720914
            ],
            [
              -58.206284,
              -45.551675
            ]
          ]
        ],
        "type": "Polygon"
      },
      "properties": {
        "kind": "reachableSet",
        "observationStatus": "estimated",
        "vessel": "B"
      },
      "type": "Feature"
    }
  ],
  "properties": {
    "dateline": false
  },
  "type": "FeatureCollection"
}
