{
  "features": [
    {
      "geometry": {
        "coordinates": [
          161.525453,
          41.809173
        ],
        "type": "Point"
      },
      "properties": {
        "mmsi": "416251900",
        "observationStatus": "observed",
        "role": "off",
        "time": "2018-09-08T00:41:27Z",
        "vessel": "A"
      },
      "type": "Feature"
    },
    {
      "geometry": {
        "coordinates": [
          161.568478,
          41.830817
        ],
        "type": "Point"
      },
      "properties": {
        "mmsi": "416241900",
        "observationStatus": "observed",
        "role": "off",
        "time": "2018-09-08T00:51:21Z",
        "vessel": "B"
      },
      "type": "Feature"
    },
    {
      "geometry": {
        "coordinates": [
          157.686827,
          46.232
        ],
        "type": "Point"
      },
      "properties": {
        "mmsi": "416251900",
        "observationStatus": "observed",
        "role": "on",
        "time": "2018-09-09T18:22:07Z",
        "vessel": "A"
      },
      "type": "Feature"
    },
    {
      "geometry": {
        "coordinates": [
          157.689988,
          46.1599
        ],
        "type": "Point"
      },
      "properties": {
        "mmsi": "416241900",
        "observationStatus": "observed",
        "role": "on",
        "time": "2018-09-09T18:26:00Z",
        "vessel": "B"
      },
      "type": "Feature"
    },
    {
      "geometry": {
        "coordinates": [
          [
            161.525453,
            41.809173
          ],
          [
            159.324176,
            44.377526
          ],
          [
            157.686827,
            46.232
          ]
        ],
        "type": "LineString"
      },
      "properties": {
        "confidence": "low",
        "lineStyle": "dashed",
        "observationStatus": "estimated",
        "source": "reachable-set heuristic",
        "vessel": "A"
      },
      "type": "Feature"
    },
    {
      "geometry": {
        "coordinates": [
          [
            161.568478,
            41.830817
          ],
          [
            159.324176,
            44.377526
          ],
          [
            157.689988,
            46.1599
          ]
        ],
        "type": "LineString"
      },
      "properties": {
        "confidence": "low",
        "lineStyle": "dashed",
        "observationStatus": "estimated",
        "source": "reachable-set heuristic",
        "vessel": "B"
      },
      "type": "Feature"
    },
    {
      "geometry": {
        "coordinates": [
          159.324176,
          44.377526
        ],
        "type": "Point"
      },
      "properties": {
        "kind": "meetingPoint",
        "observationStatus": "estimated"
      },
      "type": "Feature"
    },
    {
      "geometry": {
        "coordinates": [
          [
            [
              156.60193,
              47.482007
            ],
            [
              156.255868,
              47.301335
            ],
            [
              155.942071,
              47.089069
            ],
            [
              155.663561,
              46.847251
            ],
            [
              155.423021,
              46.578211
            ],
            [
              155.222766,
              46.284539
            ],
            [
              155.064725,
              45.969065
            ],
            [
              154.95042,
              45.634825
            ],
            [
              154.880953,
              45.28504
            ],
            [
              154.856992,
              44.923077
            ],
            [
              154.878768,
              44.552422
            ],
            [
              154.946071,
              44.176646
            ],
            [
              155.058252,
              43.799367
            ],
            [
              155.214233,
              43.424218
            ],
            [
              155.41251,
              43.054813
            ],
            [
              155.651174,
              42.694709
            ],
            [
              155.927926,
              42.347373
            ],
            [
              156.240102,
              42.016152
            ],
            [
              156.584695,
              41.704234
            ],
            [
              156.958385,
              41.414624
            ],
            [
              157.357575,
              41.150111
            ],
            [
              157.77842,
              40.913242
            ],
            [
              158.216867,
              40.706299
            ],
            [
              158.668693,
              40.531274
            ],
            [
              159.129547,
              40.389852
            ],
            [
              159.594992,
              40.283397
            ],
            [
              160.060543,
              40.212933
            ],
            [
              160.521719,
              40.179139
            ],
            [
              160.974077,
              40.18234
            ],
            [
              161.41326,
              40.222506
            ],
            [
              161.835041,
              40.299249
            ],
            [
              162.235356,
              40.411831
            ],
            [
              162.61035,
              40.559167
            ],
            [
              162.956412,
              40.739838
            ],
            [
              163.270209,
              40.952105
            ],
            [
              163.548719,
              41.193922
            ],
            [
              163.789259,
              41.462963
            ],
            [
              163.989514,
              41.756634
            ],
            [
              164.147555,
              42.072109
            ],
            [
              164.26186,
              42.406348
            ],
            [
              164.331327,
              42.756134
            ],
            [
              164.355288,
              43.118097
            ],
            [
              164.333512,
              43.488751
            ],
            [
              164.266209,
              43.864527
            ],
            [
              164.154028,
              44.241806
            ],
            [
              163.998047,
              44.616955
            ],
            [
              163.79977,
              44.98636
            ],
            [
              163.561106,
              45.346465
            ],
            [
              163.284354,
              45.6938
            ],
            [
              162.972178,
              46.025022
            ],
            [
              162.627585,
              46.336939
            ],
            [
              162.253895,
              46.626549
            ],
            [
              161.854705,
              46.891062
            ],
            [
              161.43386,
              47.127931
            ],
            [
              160.995413,
              47.334875
            ],
            [
              160.543587,
              47.5099
            ],
            [
              160.082733,
              47.651321
            ],
            [
              159.617288,
              47.757776
            ],
            [
              159.151737,
              47.82824
            ],
            [
              158.690561,
              47.862034
            ],
            [
              158.238203,
              47.858833
            ],
            [
              157.79902,
              47.818667
            ],
            [
              157.377239,
              47.741924
            ],
            [
              156.976924,
              47.629343
            ],
            [
              156.60193,
              47.482007
            ]
          ]
        ],
        "type": "Polygon"
      },
      "properties": {
        "kind": "reachableSet",
        "observationStatus": "estimated",
        "vessel": "A"
      },
      "type": "Feature"
    },
    {
      "geometry": {
        "coordinates": [
          [
            [
              156.564441,
              47.416211
            ],
            [
              156.220711,
              47.231259
            ],
            [
              155.909808,
              47.015143
            ],
            [
              155.634724,
              46.769945
            ],
            [
              155.39811,
              46.498026
            ],
            [
              155.202244,
              46.202006
            ],
            [
              155.049013,
              45.884733
            ],
            [
              154.939891,
              45.549266
            ],
            [
              154.87593,
              45.198833
            ],
            [
              154.857747,
              44.83681
            ],
            [
              154.885515,
              44.466684
            ],
            [
              154.958968,
              44.092018
            ],
            [
              155.077398,
              43.716422
            ],
            [
              155.239664,
              43.343511
            ],
            [
              155.444205,
              42.976879
            ],
            [
              155.68905,
              42.620055
            ],
            [
              155.971841,
              42.276476
            ],
            [
              156.289854,
              41.94945
            ],
            [
              156.640028,
              41.642128
            ],
            [
              157.018989,
              41.357469
            ],
            [
              157.423089,
              41.098214
            ],
            [
              157.848434,
              40.86686
            ],
            [
              158.29093,
              40.665636
            ],
            [
              158.746315,
              40.496478
            ],
            [
              159.210202,
              40.361017
            ],
            [
              159.678125,
              40.260556
            ],
            [
              160.145577,
              40.196063
            ],
            [
              160.608056,
              40.16816
            ],
            [
              161.061109,
              40.177115
            ],
            [
              161.500372,
              40.222841
            ],
            [
              161.921615,
              40.304899
            ],
            [
              162.320781,
              40.422498
            ],
            [
              162.694026,
              40.574506
            ],
            [
              163.037755,
              40.759458
            ],
            [
              163.348659,
              40.975574
            ],
            [
              163.623742,
              41.220772
            ],
            [
              163.860356,
              41.49269
            ],
            [
              164.056222,
              41.788711
            ],
            [
              164.209454,
              42.105983
            ],
            [
              164.318576,
              42.441451
            ],
            [
              164.382536,
              42.791884
            ],
            [
              164.40072,
              43.153906
            ],
            [
              164.372952,
              43.524033
            ],
            [
              164.299499,
              43.898699
            ],
            [
              164.181069,
              44.274295
            ],
            [
              164.018802,
              44.647205
            ],
            [
              163.814262,
              45.013838
            ],
            [
              163.569417,
              45.370662
            ],
            [
              163.286626,
              45.714241
            ],
            [
              162.968612,
              46.041266
            ],
            [
              162.618439,
              46.348588
            ],
            [
              162.239477,
              46.633248
            ],
            [
              161.835378,
              46.892502
            ],
            [
              161.410032,
              47.123856
            ],
            [
              160.967537,
              47.325081
            ],
            [
              160.512152,
              47.494239
            ],
            [
              160.048265,
              47.6297
            ],
            [
              159.580342,
              47.730161
            ],
            [
              159.11289,
              47.794654
            ],
            [
              158.65041,
              47.822557
            ],
            [
              158.197358,
              47.813602
            ],
            [
              157.758095,
              47.767876
            ],
            [
              157.336852,
              47.685818
            ],
            [
              156.937685,
              47.568219
            ],
            [
              156.564441,
              47.416211
            ]
          ]
        ],
        "type": "Polygon"
      },
      "properties": {
        "kind": "reachableSet",
        "observationStatus": "estimated",
        "vessel": "B"
      },
      "type": "Feature"
    }
  ],
  "properties": {
    "dateline": false
  },
  "type": "FeatureCollection"
}
