{
  "features": [
    {
      "geometry": {
        "coordinates": [
          160.560208,
          47.883587
        ],
        "type": "Point"
      },
      "properties": {
        "mmsi": "416706000",
        "observationStatus": "observed",
        "role": "off",
        "time": "2018-08-04T02:27:11Z",
        "vessel": "A"
      },
      "type": "Feature"
    },
    {
      "geometry": {
        "coordinates": [
          160.507427,
          47.852647
        ],
        "type": "Point"
      },
      "properties": {
        "mmsi": "416251900",
        "observationStatus": "observed",
        "role": "off",
        "time": "2018-08-04T03:03:41Z",
        "vessel": "B"
      },
      "type": "Feature"
    },
    {
      "geometry": {
        "coordinates": [
          160.322697,
          47.435928
        ],
        "type": "Point"
      },
      "properties": {
        "mmsi": "416706000",
        "observationStatus": "observed",
        "role": "on",
        "time": "2018-08-04T17:26:33Z",
        "vessel": "A"
      },
      "type": "Feature"
    },
    {
      "geometry": {
        "coordinates": [
          160.329107,
          47.402387
        ],
        "type": "Point"
      },
      "properties": {
        "mmsi": "416251900",
        "observationStatus": "observed",
        "role": "on",
        "time": "2018-08-04T17:57:38Z",
        "vessel": "B"
      },
      "type": "Feature"
    },
    {
      "geometry": {
        "coordinates": [
          [
            160.560208,
            47.883587
          ],
          [
            160.429967,
            47.676157
          ],
          [
            160.322697,
            47.435928
          ]
        ],
        "type": "LineString"
      },
      "properties": {
        "confidence": "low",
        "lineStyle": "dashed",
        "observationStatus": "estimated",
        "source": "reachable-set heuristic",
        "vessel": "A"
      },
      "type": "Feature"
    },
    {
      "geometry": {
        "coordinates": [
          [
            160.507427,
            47.852647
          ],
          [
            160.429967,
            47.676157
          ],
          [
            160.329107,
            47.402387
          ]
        ],
        "type": "LineString"
      },
      "properties": {
        "confidence": "low",
        "lineStyle": "dashed",
        "observationStatus": "estimated",
        "source": "reachable-set heuristic",
        "vessel": "B"
      },
      "type": "Feature"
    },
    {
      "geometry": {
        "coordinates": [
          160.429967,
          47.676157
        ],
        "type": "Point"
      },
      "properties": {
        "kind": "meetingPoint",
        "observationStatus": "estimated"
      },
      "type": "Feature"
    },
    {
      "geometry": {
        "coordinates": [
          [
            [
              159.739573,
              46.336867
            ],
            [
              159.931416,
              46.297259
            ],
            [
              160.12817,
              46.270772
            ],
            [
              160.327941,
              46.257662
            ],
            [
              160.528805,
              46.258056
            ],
            [
              160.728829,
              46.271948
            ],
            [
              160.926084,
              46.299206
            ],
            [
              161.118673,
              46.339566
            ],
            [
              161.304739,
              46.392641
            ],
            [
              161.482491,
              46.457919
            ],
            [
              161.650218,
              46.534771
            ],
            [
              161.806303,
              46.622457
            ],
            [
              161.949245,
              46.720133
            ],
            [
              162.077665,
              46.826859
            ],
            [
              162.190328,
              46.941605
            ],
            [
              162.286148,
              47.063268
            ],
            [
              162.364203,
              47.190675
            ],
            [
              162.42374,
              47.3226
            ],
            [
              162.464188,
              47.457772
            ],
            [
              162.485155,
              47.594889
            ],
            [
              162.48644,
              47.73263
            ],
            [
              162.46803,
              47.86967
            ],
            [
              162.430104,
              48.004688
            ],
            [
              162.373026,
              48.136385
            ],
            [
              162.297346,
              48.263491
            ],
            [
              162.203792,
              48.384783
            ],
            [
              162.093266,
              48.499093
            ],
            [
              161.966833,
              48.605319
            ],
            [
              161.825709,
              48.702439
            ],
            [
              161.671254,
              48.789518
            ],
            [
              161.504955,
              48.865716
            ],
            [
              161.328414,
              48.9303
            ],
            [
              161.143332,
              48.982648
            ],
            [
              160.951489,
              49.022256
            ],
            [
              160.754735,
              49.048743
            ],
            [
              160.554964,
              49.061853
            ],
            [
              160.3541,
              49.061459
            ],
            [
              160.154076,
              49.047567
            ],
            [
              159.956821,
              49.020309
            ],
            [
              159.764232,
              48.979949
            ],
            [
              159.578166,
              48.926874
            ],
            [
              159.400414,
              48.861596
            ],
            [
              159.232687,
              48.784744
            ],
            [
              159.076602,
              48.697058
            ],
            [
              158.93366,
              48.599382
            ],
            [
              158.80524,
              48.492656
            ],
            [
              158.692577,
              48.37791
            ],
            [
              158.596757,
              48.256247
            ],
            [
              158.518702,
              48.12884
            ],
            [
              158.459165,
              47.996915
            ],
            [
              158.418717,
              47.861743
            ],
            [
              158.39775,
              47.724626
            ],
            [
              158.396465,
              47.586885
            ],
            [
              158.414875,
              47.449845
            ],
            [
              158.452801,
              47.314827
            ],
            [
              158.509879,
              47.18313
            ],
            [
              158.585559,
              47.056024
            ],
            [
              158.679113,
              46.934732
            ],
            [
              158.789639,
              46.820422
            ],
            [
              158.916072,
              46.714196
            ],
            [
              159.057196,
              46.617076
            ],
            [
              159.211651,
              46.529997
            ],
            [
              159.37795,
              46.453799
            ],
            [
              159.554491,
              46.389215
            ],
            [
              159.739573,
              46.336867
            ]
          ]
        ],
        "type": "Polygon"
      },
      "properties": {
        "kind": "reachableSet",
        "observationStatus": "estimated",
        "vessel": "A"
      },
      "type": "Feature"
    },
    {
      "geometry": {
        "coordinates": [
          [
            [
              159.884022,
              46.278542
            ],
            [
              160.078731,
              46.250005
            ],
            [
              160.27671,
              46.234735
            ],
            [
              160.476052,
              46.232877
            ],
            [
              160.674838,
              46.244451
            ],
            [
              160.871152,
              46.269345
            ],
            [
              161.063106,
              46.307318
            ],
            [
              161.248849,
              46.358006
            ],
            [
              161.426593,
              46.420919
            ],
            [
              161.594626,
              46.495453
            ],
            [
              161.751331,
              46.58089
            ],
            [
              161.895197,
              46.676406
            ],
            [
              162.02484,
              46.781081
            ],
            [
              162.13901,
              46.893908
            ],
            [
              162.236609,
              47.013801
            ],
            [
              162.316696,
              47.139603
            ],
            [
              162.3785,
              47.270105
            ],
            [
              162.421426,
              47.404049
            ],
            [
              162.445061,
              47.540144
            ],
            [
              162.449176,
              47.677082
            ],
            [
              162.433733,
              47.813542
            ],
            [
              162.39888,
              47.94821
            ],
            [
              162.344952,
              48.07979
            ],
            [
              162.272469,
              48.207014
            ],
            [
              162.182129,
              48.328658
            ],
            [
              162.074803,
              48.443549
            ],
            [
              161.951523,
              48.550581
            ],
            [
              161.813476,
              48.648723
            ],
            [
              161.661994,
              48.737031
            ],
            [
              161.498533,
              48.814654
            ],
            [
              161.324669,
              48.880843
            ],
            [
              161.142076,
              48.934963
            ],
            [
              160.952512,
              48.976491
            ],
            [
              160.757803,
              49.005028
            ],
            [
              160.559824,
              49.020299
            ],
            [
              160.360481,
              49.022156
            ],
            [
              160.161696,
              49.010582
            ],
            [
              159.965381,
              48.985689
            ],
            [
              159.773428,
              48.947715
            ],
            [
              159.587685,
              48.897028
            ],
            [
              159.40994,
              48.834114
            ],
            [
              159.241907,
              48.75958
            ],
            [
              159.085203,
              48.674144
            ],
            [
              158.941336,
              48.578628
            ],
            [
              158.811694,
              48.473952
            ],
            [
              158.697523,
              48.361125
            ],
            [
              158.599924,
              48.241233
            ],
            [
              158.519837,
              48.11543
            ],
            [
              158.458033,
              47.984928
            ],
            [
              158.415107,
              47.850985
            ],
            [
              158.391472,
              47.714889
            ],
            [
              158.387357,
              47.577952
            ],
            [
              158.4028,
              47.441492
            ],
            [
              158.437654,
              47.306823
            ],
            [
              158.491581,
              47.175243
            ],
            [
              158.564064,
              47.048019
            ],
            [
              158.654404,
              46.926376
            ],
            [
              158.761731,
              46.811485
            ],
            [
              158.885011,
              46.704453
            ],
            [
              159.023057,
              46.60631
            ],
            [
              159.17454,
              46.518002
            ],
            [
              159.338,
              46.44038
            ],
            [
              159.511864,
              46.37419
            ],
            [
              159.694458,
              46.32007
            ],
            [
              159.884022,
              46.278542
            ]
          ]
        ],
        "type": "Polygon"
      },
      "properties": {
        "kind": "reachableSet",
        "observationStatus": "estimated",
        "vessel": "B"
      },
      "type": "Feature"
    }
  ],
  "properties": {
    "dateline": false
  },
  "type": "FeatureCollection"
}
