{
  "features": [
    {
      "geometry": {
        "coordinates": [
          -60.824485,
          -46.93366
        ],
        "type": "Point"
      },
      "properties": {
        "mmsi": "440502000",
        "observationStatus": "observed",
        "role": "off",
        "time": "2017-03-09T03:22:09Z",
        "vessel": "A"
      },
      "type": "Feature"
    },
    {
      "geometry": {
        "coordinates": [
          -60.825868,
          -47.019258
        ],
        "type": "Point"
      },
      "properties": {
        "mmsi": "440201000",
        "observationStatus": "observed",
        "role": "off",
        "time": "2017-03-09T03:22:29Z",
        "vessel": "B"
      },
      "type": "Feature"
    },
    {
      "geometry": {
        "coordinates": [
          -60.811227,
          -46.933263
        ],
        "type": "Point"
      },
      "properties": {
        "mmsi": "440201000",
        "observationStatus": "observed",
        "role": "on",
        "time": "2017-03-09T16:01:05Z",
        "vessel": "B"
      },
      "type": "Feature"
    },
    {
      "geometry": {
        "coordinates": [
          -60.851702,
          -46.878808
        ],
        "type": "Point"
      },
      "properties": {
        "mmsi": "440502000",
        "observationStatus": "observed",
        "role": "on",
        "time": "2017-03-09T16:01:28Z",
        "vessel": "A"
      },
      "type": "Feature"
    },
    {
      "geometry": {
        "coordinates": [
          [
            -60.824485,
            -46.93366
          ],
          [
            -60.845116,
            -46.913986
          ],
          [
            -60.851702,
            -46.878808
          ]
        ],
        "type": "LineString"
      },
      "properties": {
        "confidence": "low",
        "lineStyle": "dashed",
        "observationStatus": "estimated",
        "source": "reachable-set heuristic",
        "vessel": "A"
      },
      "type": "Feature"
    },
    {
      "geometry": {
        "coordinates": [
          [
            -60.825868,
            -47.019258
          ],
          [
            -60.845116,
            -46.913986
          ],
          [
            -60.811227,
            -46.933263
          ]
        ],
        "type": "LineString"
      },
      "properties": {
        "confidence": "low",
        "lineStyle": "dashed",
        "observationStatus": "estimated",
        "source": "reachable-set heuristic",
        "vessel": "B"
      },
      "type": "Feature"
    },
    {
      "geometry": {
        "coordinates": [
          -60.845116,
          -46.913986
        ],
        "type": "Point"
      },
      "properties": {
        "kind": "meetingPoint",
        "observationStatus": "estimated"
      },
      "type": "Feature"
    },
    {
      "geometry": {
        "coordinates": [
          [
            [
              -61.388137,
              -45.797692
            ],
            [
              -61.54341,
              -45.840102
            ],
            [
              -61.69189,
              -45.89278
            ],
            [
              -61.832148,
              -45.955217
            ],
            [
              -61.962832,
              -46.026813
            ],
            [
              -62.082685,
              -46.106879
            ],
            [
              -62.190551,
              -46.194643
            ],
            [
              -62.285393,
              -46.28926
            ],
            [
              -62.366296,
              -46.389819
            ],
            [
              -62.432482,
              -46.495351
            ],
            [
              -62.483313,
              -46.60484
            ],
            [
              -62.5183,
              -46.717231
            ],
            [
              -62.537105,
              -46.831443
            ],
            [
              -62.539548,
              -46.946375
            ],
            [
              -62.525605,
              -47.060921
            ],
            [
              -62.49541,
              -47.173977
            ],
            [
              -62.449255,
              -47.284454
            ],
            [
              -62.387583,
              -47.391289
            ],
            [
              -62.310988,
              -47.493453
            ],
            [
              -62.220209,
              -47.589961
            ],
            [
              -62.11612,
              -47.679884
            ],
            [
              -61.999722,
              -47.762357
            ],
            [
              -61.872137,
              -47.836585
            ],
            [
              -61.734594,
              -47.901854
            ],
            [
              -61.588417,
              -47.957534
            ],
            [
              -61.435014,
              -48.003089
            ],
            [
              -61.275862,
              -48.038081
            ],
            [
              -61.112494,
              -48.062173
            ],
            [
              -60.946484,
              -48.075132
            ],
            [
              -60.77943,
              -48.076834
            ],
            [
              -60.612941,
              -48.067263
            ],
            [
              -60.44862,
              -48.04651
            ],
            [
              -60.28805,
              -48.014776
            ],
            [
              -60.132777,
              -47.972366
            ],
            [
              -59.984297,
              -47.919689
            ],
            [
              -59.844039,
              -47.857251
            ],
            [
              -59.713354,
              -47.785655
            ],
            [
              -59.593502,
              -47.705589
            ],
            [
              -59.485635,
              -47.617825
            ],
            [
              -59.390794,
              -47.523208
            ],
            [
              -59.309891,
              -47.42265
            ],
            [
              -59.243705,
              -47.317118
            ],
            [
              -59.192874,
              -47.207629
            ],
            [
              -59.157887,
              -47.095237
            ],
            [
              -59.139082,
              -46.981025
            ],
            [
              -59.136639,
              -46.866093
            ],
            [
              -59.150582,
              -46.751547
            ],
            [
              -59.180776,
              -46.638492
            ],
            [
              -59.226932,
              -46.528014
            ],
            [
              -59.288604,
              -46.421179
            ],
            [
              -59.365198,
              -46.319016
            ],
            [
              -59.455977,
              -46.222508
            ],
            [
              -59.560067,
              -46.132584
            ],
            [
              -59.676465,
              -46.050111
            ],
            [
              -59.80405,
              -45.975883
            ],
            [
              -59.941593,
              -45.910615
            ],
            [
              -60.08777,
              -45.854935
            ],
            [
              -60.241173,
              -45.809379
            ],
            [
              -60.400325,
              -45.774388
            ],
            [
              -60.563692,
              -45.750296
            ],
            [
              -60.729703,
              -45.737336
            ],
            [
              -60.896757,
              -45.735634
            ],
            [
              -61.063246,
              -45.745206
            ],
            [
              -61.227567,
              -45.765958
            ],
            [
              -61.388137,
              -45.797692
            ]
          ]
        ],
        "type": "Polygon"
      },
      "properties": {
        "kind": "reachableSet",
        "observationStatus": "estimated",
        "vessel": "A"
      },
      "type": "Feature"
    },
    {
      "geometry": {
        "coordinates": [
          [
            [
              -60.620669,
              -45.814058
            ],
            [
              -60.787341,
              -45.80634
            ],
            [
              -60.954315,
              -45.809889
            ],
            [
              -61.11998,
              -45.824671
            ],
            [
              -61.282743,
              -45.850543
            ],
            [
              -61.441035,
              -45.887257
            ],
            [
              -61.593333,
              -45.934458
            ],
            [
              -61.738168,
              -45.991692
            ],
            [
              -61.874148,
              -46.058409
            ],
            [
              -61.999961,
              -46.133965
            ],
            [
              -62.114397,
              -46.217632
            ],
            [
              -62.216353,
              -46.308606
            ],
            [
              -62.304847,
              -46.406009
            ],
            [
              -62.379027,
              -46.508904
            ],
            [
              -62.43818,
              -46.616301
            ],
            [
              -62.481734,
              -46.727163
            ],
            [
              -62.509271,
              -46.840425
            ],
            [
              -62.520525,
              -46.954995
            ],
            [
              -62.515388,
              -47.06977
            ],
            [
              -62.49391,
              -47.183644
            ],
            [
              -62.456297,
              -47.295521
            ],
            [
              -62.402912,
              -47.404323
            ],
            [
              -62.334268,
              -47.509003
            ],
            [
              -62.251027,
              -47.608552
            ],
            [
              -62.153991,
              -47.702012
            ],
            [
              -62.044093,
              -47.788483
            ],
            [
              -61.922393,
              -47.867131
            ],
            [
              -61.790062,
              -47.9372
            ],
            [
              -61.648375,
              -47.998014
            ],
            [
              -61.498697,
              -48.048989
            ],
            [
              -61.342468,
              -48.089632
            ],
            [
              -61.181193,
              -48.119553
            ],
            [
              -61.016426,
              -48.138464
            ],
            [
              -60.849754,
              -48.146182
            ],
            [
              -60.68278,
              -48.142633
            ],
            [
              -60.517115,
              -48.127851
            ],
            [
              -60.354352,
              -48.101978
            ],
            [
              -60.19606,
              -48.065265
            ],
            [
              -60.043762,
              -48.018064
            ],
            [
              -59.898927,
              -47.960829
            ],
            [
              -59.762947,
              -47.894113
            ],
            [
              -59.637134,
              -47.818557
            ],
            [
              -59.522698,
              -47.73489
            ],
            [
              -59.420742,
              -47.643916
            ],
            [
              -59.332248,
              -47.546513
            ],
            [
              -59.258068,
              -47.443617
            ],
            [
              -59.198915,
              -47.336221
            ],
            [
              -59.155361,
              -47.225358
            ],
            [
              -59.127824,
              -47.112097
            ],
            [
              -59.11657,
              -46.997527
            ],
            [
              -59.121707,
              -46.882752
            ],
            [
              -59.143185,
              -46.768878
            ],
            [
              -59.180798,
              -46.657001
            ],
            [
              -59.234183,
              -46.548199
            ],
            [
              -59.302827,
              -46.443519
            ],
            [
              -59.386068,
              -46.343969
            ],
            [
              -59.483104,
              -46.25051
            ],
            [
              -59.593002,
              -46.164039
            ],
            [
              -59.714702,
              -46.085391
            ],
            [
              -59.847033,
              -46.015322
            ],
            [
              -59.98872,
              -45.954507
            ],
            [
              -60.138398,
              -45.903533
            ],
            [
              -60.294627,
              -45.862889
            ],
            [
              -60.455902,
              -45.832968
            ],
            [
              -60.620669,
              -45.814058
            ]
          ]
        ],
        "type": "Polygon"
      },
      "properties": {
        "kind": "reachableSet",
        "observationStatus": "estimated",
        "vessel": "B"
      },
      "type": "Feature"
    }
  ],
  "properties": {
    "dateline": false
  },
  "type": "FeatureCollection"
}
