{
  "features": [
    {
      "geometry": {
        "coordinates": [
          160.369173,
          41.830105
        ],
        "type": "Point"
      },
      "properties": {
        "mmsi": "416236800",
        "observationStatus": "observed",
        "role": "off",
        "time": "2018-09-15T02:46:17Z",
        "vessel": "A"
      },
      "type": "Feature"
    },
    {
      "geometry": {
        "coordinates": [
          160.404255,
          41.836352
        ],
        "type": "Point"
      },
      "properties": {
        "mmsi": "416252900",
        "observationStatus": "observed",
        "role": "off",
        "time": "2018-09-15T02:50:49Z",
        "vessel": "B"
      },
      "type": "Feature"
    },
    {
      "geometry": {
        "coordinates": [
          160.120943,
          41.86795
        ],
        "type": "Point"
      },
      "properties": {
        "mmsi": "416252900",
        "observationStatus": "observed",
        "role": "on",
        "time": "2018-09-15T18:14:18Z",
        "vessel": "B"
      },
      "type": "Feature"
    },
    {
      "geometry": {
        "coordinates": [
          160.157978,
          41.835067
        ],
        "type": "Point"
      },
      "properties": {
        "mmsi": "416236800",
        "observationStatus": "observed",
        "role": "on",
        "time": "2018-09-15T18:17:49Z",
        "vessel": "A"
      },
      "type": "Feature"
    },
    {
      "geometry": {
        "coordinates": [
          [
            160.369173,
            41.830105
          ],
          [
            160.290373,
            41.849028
          ],
          [
            160.157978,
            41.835067
          ]
        ],
        "type": "LineString"
      },
      "properties": {
        "confidence": "low",
        "lineStyle": "dashed",
        "observationStatus": "estimated",
        "source": "reachable-set heuristic",
        "vessel": "A"
      },
      "type": "Feature"
    },
    {
      "geometry": {
        "coordinates": [
          [
            160.404255,
            41.836352
          ],
          [
            160.290373,
            41.849028
          ],
          [
            160.120943,
            41.86795
          ]
        ],
        "type": "LineString"
      },
      "properties": {
        "confidence": "low",
        "lineStyle": "dashed",
        "observationStatus": "estimated",
        "source": "reachable-set heuristic",
        "vessel": "B"
      },
      "type": "Feature"
    },
    {
      "geometry": {
        "coordinates": [
          160.290373,
          41.849028
        ],
        "type": "Point"
      },
      "properties": {
        "kind": "meetingPoint",
        "observationStatus": "estimated"
      },
      "type": "Feature"
    },
    {
      "geometry": {
        "coordinates": [
          [
            [
              158.318546,
              41.878281
            ],
            [
              158.32195,
              41.735258
            ],
            [
              158.344053,
              41.593173
            ],
            [
              158.384642,
              41.453394
            ],
            [
              158.443326,
              41.317266
            ],
            [
              158.51954,
              41.186101
            ],
            [
              158.61255,
              41.061162
            ],
            [
              158.721461,
              40.943652
            ],
            [
              158.845223,
              40.834704
            ],
            [
              158.982644,
              40.735365
            ],
            [
              159.132401,
              40.646593
            ],
            [
              159.293053,
              40.569243
            ],
            [
              159.46305,
              40.50406
            ],
            [
              159.640758,
              40.451671
            ],
            [
              159.824463,
              40.412581
            ],
            [
              160.012398,
              40.387167
            ],
            [
              160.202751,
              40.375672
            ],
            [
              160.39369,
              40.378209
            ],
            [
              160.583376,
              40.394752
            ],
            [
              160.769982,
              40.425142
            ],
            [
              160.951712,
              40.469086
            ],
            [
              161.126814,
              40.526162
            ],
            [
              161.293602,
              40.59582
            ],
            [
              161.450471,
              40.677388
            ],
            [
              161.59591,
              40.770081
            ],
            [
              161.728517,
              40.873007
            ],
            [
              161.847016,
              40.985174
            ],
            [
              161.950266,
              41.105502
            ],
            [
              162.037272,
              41.232832
            ],
            [
              162.107197,
              41.365939
            ],
            [
              162.159366,
              41.503539
            ],
            [
              162.193278,
              41.644308
            ],
            [
              162.208605,
              41.786891
            ],
            [
              162.205201,
              41.929913
            ],
            [
              162.183099,
              42.071998
            ],
            [
              162.14251,
              42.211778
            ],
            [
              162.083825,
              42.347906
            ],
            [
              162.007611,
              42.479071
            ],
            [
              161.914601,
              42.60401
            ],
            [
              161.805691,
              42.721519
            ],
            [
              161.681929,
              42.830468
            ],
            [
              161.544508,
              42.929807
            ],
            [
              161.39475,
              43.018578
            ],
            [
              161.234099,
              43.095928
            ],
            [
              161.064101,
              43.161112
            ],
            [
              160.886394,
              43.213501
            ],
            [
              160.702688,
              43.252591
            ],
            [
              160.514754,
              43.278005
            ],
            [
              160.324401,
              43.289499
            ],
            [
              160.133461,
              43.286963
            ],
            [
              159.943775,
              43.27042
            ],
            [
              159.757169,
              43.24003
            ],
            [
              159.57544,
              43.196085
            ],
            [
              159.400338,
              43.139009
            ],
            [
              159.233549,
              43.069352
            ],
            [
              159.07668,
              42.987784
            ],
            [
              158.931242,
              42.895091
            ],
            [
              158.798634,
              42.792165
            ],
            [
              158.680135,
              42.679998
            ],
            [
              158.576885,
              42.55967
            ],
            [
              158.489879,
              42.432339
            ],
            [
              158.419955,
              42.299233
            ],
            [
              158.367786,
              42.161633
            ],
            [
              158.333874,
              42.020863
            ],
            [
              158.318546,
              41.878281
            ]
          ]
        ],
        "type": "Polygon"
      },
      "properties": {
        "kind": "reachableSet",
        "observationStatus": "estimated",
        "vessel": "A"
      },
      "type": "Feature"
    },
    {
      "geometry": {
        "coordinates": [
          [
            [
              158.354983,
              42.064911
            ],
            [
              158.336437,
              41.924054
            ],
            [
              158.336441,
              41.782505
            ],
            [
              158.354995,
              41.641626
            ],
            [
              158.39192,
              41.502775
            ],
            [
              158.446861,
              41.367288
            ],
            [
              158.519288,
              41.236471
            ],
            [
              158.608505,
              41.111583
            ],
            [
              158.713651,
              40.993827
            ],
            [
              158.833715,
              40.884338
            ],
            [
              158.967539,
              40.784169
            ],
            [
              159.113836,
              40.694285
            ],
            [
              159.271196,
              40.615552
            ],
            [
              159.438103,
              40.548728
            ],
            [
              159.612951,
              40.494457
            ],
            [
              159.794055,
              40.453262
            ],
            [
              159.979672,
              40.425538
            ],
            [
              160.168014,
              40.411553
            ],
            [
              160.357266,
              40.411442
            ],
            [
              160.545607,
              40.425206
            ],
            [
              160.731222,
              40.452712
            ],
            [
              160.912324,
              40.493696
            ],
            [
              161.087169,
              40.547762
            ],
            [
              161.254073,
              40.61439
            ],
            [
              161.411428,
              40.692939
            ],
            [
              161.55772,
              40.782651
            ],
            [
              161.691539,
              40.882663
            ],
            [
              161.811596,
              40.992012
            ],
            [
              161.916736,
              41.109645
            ],
            [
              162.005945,
              41.234428
            ],
            [
              162.078365,
              41.36516
            ],
            [
              162.133298,
              41.500582
            ],
            [
              162.170216,
              41.63939
            ],
            [
              162.188762,
              41.780247
            ],
            [
              162.188758,
              41.921797
            ],
            [
              162.170204,
              42.062676
            ],
            [
              162.133279,
              42.201527
            ],
            [
              162.078338,
              42.337014
            ],
            [
              162.00591,
              42.467831
            ],
            [
              161.916694,
              42.592718
            ],
            [
              161.811547,
              42.710474
            ],
            [
              161.691484,
              42.819964
            ],
            [
              161.557659,
              42.920133
            ],
            [
              161.411363,
              43.010017
            ],
            [
              161.254003,
              43.088749
            ],
            [
              161.087095,
              43.155573
            ],
            [
              160.912247,
              43.209844
            ],
            [
              160.731143,
              43.25104
            ],
            [
              160.545526,
              43.278764
            ],
            [
              160.357185,
              43.292748
            ],
            [
              160.167932,
              43.292859
            ],
            [
              159.979592,
              43.279095
            ],
            [
              159.793976,
              43.251589
            ],
            [
              159.612874,
              43.210606
            ],
            [
              159.438029,
              43.156539
            ],
            [
              159.271126,
              43.089911
            ],
            [
              159.11377,
              43.011363
            ],
            [
              158.967479,
              42.921651
            ],
            [
              158.83366,
              42.821638
            ],
            [
              158.713602,
              42.712289
            ],
            [
              158.608463,
              42.594657
            ],
            [
              158.519253,
              42.469874
            ],
            [
              158.446833,
              42.339141
            ],
            [
              158.3919,
              42.203719
            ],
            [
              158.354983,
              42.064911
            ]
          ]
        ],
        "type": "Polygon"
      },
      "properties": {
        "kind": "reachableSet",
        "observationStatus": "estimated",
        "vessel": "B"
      },
      "type": "Feature"
    }
  ],
  "properties": {
    "dateline": false
  },
  "type": "FeatureCollection"
}
