{
  "features": [
    {
      "geometry": {
        "coordinates": [
          162.491638,
          41.943107
        ],
        "type": "Point"
      },
      "properties": {
        "mmsi": "416236900",
        "observationStatus": "observed",
        "role": "off",
        "time": "2019-09-05T04:47:35Z",
        "vessel": "A"
      },
      "type": "Feature"
    },
    {
      "geometry": {
        "coordinates": [
          162.583507,
          41.975393
        ],
        "type": "Point"
      },
      "properties": {
        "mmsi": "416253700",
        "observationStatus": "observed",
        "role": "off",
        "time": "2019-09-05T05:26:13Z",
        "vessel": "B"
      },
      "type": "Feature"
    },
    {
      "geometry": {
        "coordinates": [
          162.315413,
          41.979147
        ],
        "type": "Point"
      },
      "properties": {
        "mmsi": "416236900",
        "observationStatus": "observed",
        "role": "on",
        "time": "2019-09-05T18:09:45Z",
        "vessel": "A"
      },
      "type": "Feature"
    },
    {
      "geometry": {
        "coordinates": [
          162.384707,
          42.018377
        ],
        "type": "Point"
      },
      "properties": {
        "mmsi": "416253700",
        "observationStatus": "observed",
        "role": "on",
        "time": "2019-09-05T18:12:16Z",
        "vessel": "B"
      },
      "type": "Feature"
    },
    {
      "geometry": {
        "coordinates": [
          [
            162.491638,
            41.943107
          ],
          [
            162.44946,
            41.975258
          ],
          [
            162.315413,
            41.979147
          ]
        ],
        "type": "LineString"
      },
      "properties": {
        "confidence": "low",
        "lineStyle": "dashed",
        "observationStatus": "estimated",
        "source": "reachable-set heuristic",
        "vessel": "A"
      },
      "type": "Feature"
    },
    {
      "geometry": {
        "coordinates": [
          [
            162.583507,
            41.975393
          ],
          [
            162.44946,
            41.975258
          ],
          [
            162.384707,
            42.018377
          ]
        ],
        "type": "LineString"
      },
      "properties": {
        "confidence": "low",
        "lineStyle": "dashed",
        "observationStatus": "estimated",
        "source": "reachable-set heuristic",
        "vessel": "B"
      },
      "type": "Feature"
    },
    {
      "geometry": {
        "coordinates": [
          162.44946,
          41.975258
        ],
        "type": "Point"
      },
      "properties": {
        "kind": "meetingPoint",
        "observationStatus": "estimated"
      },
      "type": "Feature"
    },
    {
      "geometry": {
        "coordinates": [
          [
            [
              160.801749,
              42.288708
            ],
            [
              160.766637,
              42.169771
            ],
            [
              160.74729,
              42.048824
            ],
            [
              160.743894,
              41.927032
            ],
            [
              160.75648,
              41.805569
            ],
            [
              160.784929,
              41.685604
            ],
            [
              160.828965,
              41.568293
            ],
            [
              160.888166,
              41.454764
            ],
            [
              160.96196,
              41.346113
            ],
            [
              161.049637,
              41.243384
            ],
            [
              161.150353,
              41.147567
            ],
            [
              161.263138,
              41.059585
            ],
            [
              161.386905,
              40.980286
            ],
            [
              161.520463,
              40.910433
            ],
            [
              161.662525,
              40.850698
            ],
            [
              161.811723,
              40.801658
            ],
            [
              161.966621,
              40.763784
            ],
            [
              162.125726,
              40.737441
            ],
            [
              162.287507,
              40.722882
            ],
            [
              162.450405,
              40.720249
            ],
            [
              162.612852,
              40.729566
            ],
            [
              162.773283,
              40.750744
            ],
            [
              162.930153,
              40.783578
            ],
            [
              163.081951,
              40.827753
            ],
            [
              163.227215,
              40.882842
            ],
            [
              163.364547,
              40.948316
            ],
            [
              163.492624,
              41.023545
            ],
            [
              163.610212,
              41.107802
            ],
            [
              163.716179,
              41.200278
            ],
            [
              163.809504,
              41.30008
            ],
            [
              163.88929,
              41.40625
            ],
            [
              163.954766,
              41.517762
            ],
            [
              164.005303,
              41.633545
            ],
            [
              164.040414,
              41.752483
            ],
            [
              164.059761,
              41.87343
            ],
            [
              164.063158,
              41.995221
            ],
            [
              164.050571,
              42.116684
            ],
            [
              164.022123,
              42.236649
            ],
            [
              163.978086,
              42.353961
            ],
            [
              163.918886,
              42.467489
            ],
            [
              163.845092,
              42.576141
            ],
            [
              163.757415,
              42.67887
            ],
            [
              163.656699,
              42.774686
            ],
            [
              163.543914,
              42.862668
            ],
            [
              163.420147,
              42.941967
            ],
            [
              163.286589,
              43.01182
            ],
            [
              163.144527,
              43.071555
            ],
            [
              162.995328,
              43.120595
            ],
            [
              162.840431,
              43.158469
            ],
            [
              162.681325,
              43.184813
            ],
            [
              162.519544,
              43.199371
            ],
            [
              162.356646,
              43.202004
            ],
            [
              162.1942,
              43.192687
            ],
            [
              162.033769,
              43.17151
            ],
            [
              161.876899,
              43.138675
            ],
            [
              161.725101,
              43.094501
            ],
            [
              161.579837,
              43.039411
            ],
            [
              161.442505,
              42.973937
            ],
            [
              161.314428,
              42.898709
            ],
            [
              161.19684,
              42.814451
            ],
            [
              161.090873,
              42.721976
            ],
            [
              160.997547,
              42.622173
            ],
            [
              160.917762,
              42.516004
            ],
            [
              160.852286,
              42.404491
            ],
            [
              160.801749,
              42.288708
            ]
          ]
        ],
        "type": "Polygon"
      },
      "properties": {
        "kind": "reachableSet",
        "observationStatus": "estimated",
        "vessel": "A"
      },
      "type": "Feature"
    },
    {
      "geometry": {
        "coordinates": [
          [
            [
              160.965682,
              42.32519
            ],
            [
              160.930078,
              42.212488
            ],
            [
              160.90944,
              42.097711
            ],
            [
              160.903967,
              41.981962
            ],
            [
              160.913712,
              41.866358
            ],
            [
              160.93858,
              41.75201
            ],
            [
              160.978333,
              41.64002
            ],
            [
              161.032587,
              41.531467
            ],
            [
              161.10082,
              41.427397
            ],
            [
              161.182374,
              41.328811
            ],
            [
              161.276466,
              41.236659
            ],
            [
              161.382187,
              41.151828
            ],
            [
              161.498521,
              41.075136
            ],
            [
              161.624346,
              41.00732
            ],
            [
              161.758451,
              40.949035
            ],
            [
              161.899545,
              40.900841
            ],
            [
              162.046268,
              40.863203
            ],
            [
              162.197208,
              40.836482
            ],
            [
              162.350911,
              40.820937
            ],
            [
              162.505897,
              40.816717
            ],
            [
              162.660673,
              40.823862
            ],
            [
              162.813748,
              40.842305
            ],
            [
              162.963649,
              40.871866
            ],
            [
              163.108932,
              40.912262
            ],
            [
              163.248197,
              40.963104
            ],
            [
              163.380103,
              41.023902
            ],
            [
              163.503381,
              41.09407
            ],
            [
              163.616842,
              41.172932
            ],
            [
              163.719395,
              41.25973
            ],
            [
              163.810051,
              41.353626
            ],
            [
              163.887937,
              41.453718
            ],
            [
              163.952304,
              41.559041
            ],
            [
              164.002532,
              41.66858
            ],
            [
              164.038136,
              41.781282
            ],
            [
              164.058773,
              41.896059
            ],
            [
              164.064246,
              42.011808
            ],
            [
              164.054502,
              42.127412
            ],
            [
              164.029633,
              42.24176
            ],
            [
              163.989881,
              42.35375
            ],
            [
              163.935627,
              42.462303
            ],
            [
              163.867394,
              42.566373
            ],
            [
              163.785839,
              42.664959
            ],
            [
              163.691748,
              42.757111
            ],
            [
              163.586026,
              42.841942
            ],
            [
              163.469693,
              42.918634
            ],
            [
              163.343867,
              42.98645
            ],
            [
              163.209762,
              43.044735
            ],
            [
              163.068668,
              43.092929
            ],
            [
              162.921945,
              43.130567
            ],
            [
              162.771005,
              43.157288
            ],
            [
              162.617302,
              43.172833
            ],
            [
              162.462316,
              43.177053
            ],
            [
              162.307541,
              43.169908
            ],
            [
              162.154465,
              43.151465
            ],
            [
              162.004564,
              43.121904
            ],
            [
              161.859282,
              43.081508
            ],
            [
              161.720017,
              43.030666
            ],
            [
              161.58811,
              42.969868
            ],
            [
              161.464833,
              42.8997
            ],
            [
              161.351371,
              42.820838
            ],
            [
              161.248819,
              42.73404
            ],
            [
              161.158162,
              42.640144
            ],
            [
              161.080276,
              42.540052
            ],
            [
              161.015909,
              42.434729
            ],
            [
              160.965682,
              42.32519
            ]
          ]
        ],
        "type": "Polygon"
      },
      "properties": {
        "kind": "reachableSet",
        "observationStatus": "estimated",
        "vessel": "B"
      },
      "type": "Feature"
    }
  ],
  "properties": {
    "dateline": false
  },
  "type": "FeatureCollection"
}
