{
  "features": [
    {
      "geometry": {
        "coordinates": [
          156.297493,
          43.495173
        ],
        "type": "Point"
      },
      "properties": {
        "mmsi": "412439617",
        "observationStatus": "observed",
        "role": "off",
        "time": "2018-07-04T09:24:38Z",
        "vessel": "A"
      },
      "type": "Feature"
    },
    {
      "geometry": {
        "coordinates": [
          156.322533,
          43.532107
        ],
        "type": "Point"
      },
      "properties": {
        "mmsi": "412439618",
        "observationStatus": "observed",
        "role": "off",
        "time": "2018-07-04T09:26:10Z",
        "vessel": "B"
      },
      "type": "Feature"
    },
    {
      "geometry": {
        "coordinates": [
          161.013333,
          45.953333
        ],
        "type": "Point"
      },
      "properties": {
        "mmsi": "412439618",
        "observationStatus": "observed",
        "role": "on",
        "time": "2018-07-05T17:32:19Z",
        "vessel": "B"
      },
      "type": "Feature"
    },
    {
      "geometry": {
        "coordinates": [
          160.945,
          45.883333
        ],
        "type": "Point"
      },
      "properties": {
        "mmsi": "412439617",
        "observationStatus": "observed",
        "role": "on",
        "time": "2018-07-05T17:33:48Z",
        "vessel": "A"
      },
      "type": "Feature"
    },
    {
      "geometry": {
        "coordinates": [
          [
            156.297493,
            43.495173
          ],
          [
            158.655413,
            44.724253
          ],
          [
            160.945,
            45.883333
          ]
        ],
        "type": "LineString"
      },
      "properties": {
        "confidence": "low",
        "lineStyle": "dashed",
        "observationStatus": "estimated",
        "source": "reachable-set heuristic",
        "vessel": "A"
      },
      "type": "Feature"
    },
    {
      "geometry": {
        "coordinates": [
          [
            156.322533,
            43.532107
          ],
          [
            158.655413,
            44.724253
          ],
          [
            161.013333,
            45.953333
          ]
        ],
        "type": "LineString"
      },
      "properties": {
        "confidence": "low",
        "lineStyle": "dashed",
        "observationStatus": "estimated",
        "source": "reachable-set heuristic",
        "vessel": "B"
      },
      "type": "Feature"
    },
    {
      "geometry": {
        "coordinates": [
          158.655413,
          44.724253
        ],
        "type": "Point"
      },
      "properties": {
        "kind": "meetingPoint",
        "observationStatus": "estimated"
      },
      "type": "Feature"
    },
    {
      "geometry": {
        "coordinates": [
          [
            [
              162.174465,
              46.515104
            ],
            [
              161.968201,
              46.694894
            ],
            [
              161.729703,
              46.855369
            ],
            [
              161.46127,
              46.994983
            ],
            [
              161.165486,
              47.112391
            ],
            [
              160.845199,
              47.206464
            ],
            [
              160.503494,
              47.276294
            ],
            [
              160.143663,
              47.321209
            ],
            [
              159.769169,
              47.340778
            ],
            [
              159.383621,
              47.33481
            ],
            [
              158.99073,
              47.303365
            ],
            [
              158.594281,
              47.246744
            ],
            [
              158.198092,
              47.165493
            ],
            [
              157.805978,
              47.060395
            ],
            [
              157.421715,
              46.932461
            ],
            [
              157.049005,
              46.782924
            ],
            [
              156.691436,
              46.613224
            ],
            [
              156.352452,
              46.424995
            ],
            [
              156.035318,
              46.22005
            ],
            [
              155.743088,
              46.000362
            ],
            [
              155.478576,
              45.768048
            ],
            [
              155.24433,
              45.525344
            ],
            [
              155.042605,
              45.274588
            ],
            [
              154.875345,
              45.018195
            ],
            [
              154.74416,
              44.758635
            ],
            [
              154.650313,
              44.498406
            ],
            [
              154.594708,
              44.240015
            ],
            [
              154.577881,
              43.98595
            ],
            [
              154.599994,
              43.738659
            ],
            [
              154.660834,
              43.500522
            ],
            [
              154.759815,
              43.273834
            ],
            [
              154.895984,
              43.060777
            ],
            [
              155.068028,
              42.863403
            ],
            [
              155.274293,
              42.683612
            ],
            [
              155.51279,
              42.523138
            ],
            [
              155.781223,
              42.383524
            ],
            [
              156.077008,
              42.266115
            ],
            [
              156.397294,
              42.172043
            ],
            [
              156.738999,
              42.102213
            ],
            [
              157.098831,
              42.057297
            ],
            [
              157.473324,
              42.037729
            ],
            [
              157.858873,
              42.043696
            ],
            [
              158.251763,
              42.075142
            ],
            [
              158.648212,
              42.131763
            ],
            [
              159.044401,
              42.213013
            ],
            [
              159.436515,
              42.318112
            ],
            [
              159.820778,
              42.446045
            ],
            [
              160.193488,
              42.595582
            ],
            [
              160.551057,
              42.765283
            ],
            [
              160.890041,
              42.953512
            ],
            [
              161.207175,
              43.158457
            ],
            [
              161.499405,
              43.378145
            ],
            [
              161.763917,
              43.610459
            ],
            [
              161.998163,
              43.853163
            ],
            [
              162.199888,
              44.103919
            ],
            [
              162.367148,
              44.360311
            ],
            [
              162.498334,
              44.619872
            ],
            [
              162.59218,
              44.880101
            ],
            [
              162.647785,
              45.138492
            ],
            [
              162.664612,
              45.392556
            ],
            [
              162.642499,
              45.639848
            ],
            [
              162.581659,
              45.877984
            ],
            [
              162.482678,
              46.104673
            ],
            [
              162.34651,
              46.31773
            ],
            [
              162.174465,
              46.515104
            ]
          ]
        ],
        "type": "Polygon"
      },
      "properties": {
        "kind": "reachableSet",
        "observationStatus": "estimated",
        "vessel": "A"
      },
      "type": "Feature"
    },
    {
      "geometry": {
        "coordinates": [
          [
            [
              162.212154,
              46.572123
            ],
            [
              162.007092,
              46.749559
            ],
            [
              161.769871,
              46.907668
            ],
            [
              161.502777,
              47.044928
            ],
            [
              161.208382,
              47.160016
            ],
            [
              160.889521,
              47.251824
            ],
            [
              160.549265,
              47.319468
            ],
            [
              160.190891,
              47.362297
            ],
            [
              159.81785,
              47.379897
            ],
            [
              159.433735,
              47.372101
            ],
            [
              159.042244,
              47.338981
            ],
            [
              158.647149,
              47.280859
            ],
            [
              158.252253,
              47.198293
            ],
            [
              157.861361,
              47.092078
            ],
            [
              157.478237,
              46.963238
            ],
            [
              157.10657,
              46.813012
            ],
            [
              156.74994,
              46.642849
            ],
            [
              156.411781,
              46.454387
            ],
            [
              156.095351,
              46.24944
            ],
            [
              155.803695,
              46.029983
            ],
            [
              155.539624,
              45.798128
            ],
            [
              155.30568,
              45.55611
            ],
            [
              155.104117,
              45.306258
            ],
            [
              154.936875,
              45.050979
            ],
            [
              154.805565,
              44.792731
            ],
            [
              154.711452,
              44.534002
            ],
            [
              154.655441,
              44.277282
            ],
            [
              154.638074,
              44.025046
            ],
            [
              154.659516,
              43.77972
            ],
            [
              154.719561,
              43.543669
            ],
            [
              154.817632,
              43.319166
            ],
            [
              154.952783,
              43.108372
            ],
            [
              155.123712,
              42.913317
            ],
            [
              155.328775,
              42.735881
            ],
            [
              155.565996,
              42.577772
            ],
            [
              155.833089,
              42.440512
            ],
            [
              156.127484,
              42.325424
            ],
            [
              156.446345,
              42.233616
            ],
            [
              156.786601,
              42.165972
            ],
            [
              157.144975,
              42.123143
            ],
            [
              157.518017,
              42.105543
            ],
            [
              157.902132,
              42.113339
            ],
            [
              158.293623,
              42.146459
            ],
            [
              158.688718,
              42.204581
            ],
            [
              159.083613,
              42.287147
            ],
            [
              159.474505,
              42.393362
            ],
            [
              159.85763,
              42.522202
            ],
            [
              160.229296,
              42.672428
            ],
            [
              160.585926,
              42.842591
            ],
            [
              160.924085,
              43.031053
            ],
            [
              161.240516,
              43.236
            ],
            [
              161.532171,
              43.455457
            ],
            [
              161.796243,
              43.687312
            ],
            [
              162.030186,
              43.92933
            ],
            [
              162.23175,
              44.179182
            ],
            [
              162.398992,
              44.434461
            ],
            [
              162.530302,
              44.692709
            ],
            [
              162.624415,
              44.951438
            ],
            [
              162.680425,
              45.208158
            ],
            [
              162.697793,
              45.460394
            ],
            [
              162.676351,
              45.70572
            ],
            [
              162.616305,
              45.941771
            ],
            [
              162.518235,
              46.166274
            ],
            [
              162.383084,
              46.377068
            ],
            [
              162.212154,
              46.572123
            ]
          ]
        ],
        "type": "Polygon"
      },
      "properties": {
        "kind": "reachableSet",
        "observationStatus": "estimated",
        "vessel": "B"
      },
      "type": "Feature"
    }
  ],
  "properties": {
    "dateline": false
  },
  "type": "FeatureCollection"
}
