{
  "features": [
    {
      "geometry": {
        "coordinates": [
          -60.86415,
          -46.920483
        ],
        "type": "Point"
      },
      "properties": {
        "mmsi": "440216000",
        "observationStatus": "observed",
        "role": "off",
        "time": "2017-03-09T03:20:42Z",
        "vessel": "A"
      },
      "type": "Feature"
    },
    {
      "geometry": {
        "coordinates": [
          -60.82705,
          -46.919965
        ],
        "type": "Point"
      },
      "properties": {
        "mmsi": "440683000",
        "observationStatus": "observed",
        "role": "off",
        "time": "2017-03-09T03:22:12Z",
        "vessel": "B"
      },
      "type": "Feature"
    },
    {
      "geometry": {
        "coordinates": [
          -60.816307,
          -46.859368
        ],
        "type": "Point"
      },
      "properties": {
        "mmsi": "440683000",
        "observationStatus": "observed",
        "role": "on",
        "time": "2017-03-09T15:59:20Z",
        "vessel": "B"
      },
      "type": "Feature"
    },
    {
      "geometry": {
        "coordinates": [
          -60.83115,
          -46.877167
        ],
        "type": "Point"
      },
      "properties": {
        "mmsi": "440216000",
        "observationStatus": "observed",
        "role": "on",
        "time": "2017-03-09T16:01:34Z",
        "vessel": "A"
      },
      "type": "Feature"
    },
    {
      "geometry": {
        "coordinates": [
          [
            -60.86415,
            -46.920483
          ],
          [
            -60.833921,
            -46.880672
          ],
          [
            -60.83115,
            -46.877167
          ]
        ],
        "type": "LineString"
      },
      "properties": {
        "confidence": "low",
        "lineStyle": "dashed",
        "observationStatus": "estimated",
        "source": "reachable-set heuristic",
        "vessel": "A"
      },
      "type": "Feature"
    },
    {
      "geometry": {
        "coordinates": [
          [
            -60.82705,
            -46.919965
          ],
          [
            -60.833921,
            -46.880672
          ],
          [
            -60.816307,
            -46.859368
          ]
        ],
        "type": "LineString"
      },
      "properties": {
        "confidence": "low",
        "lineStyle": "dashed",
        "observationStatus": "estimated",
        "source": "reachable-set heuristic",
        "vessel": "B"
      },
      "type": "Feature"
    },
    {
      "geometry": {
        "coordinates": [
          -60.833921,
          -46.880672
        ],
        "type": "Point"
      },
      "properties": {
        "kind": "meetingPoint",
        "observationStatus": "estimated"
      },
      "type": "Feature"
    },
    {
      "geometry": {
        "coordinates": [
          [
            [
              -60.055513,
              -45.859045
            ],
            [
              -60.207445,
              -45.810651
            ],
            [
              -60.365544,
              -45.772736
            ],
            [
              -60.528285,
              -45.745667
            ],
            [
              -60.694102,
              -45.729703
            ],
            [
              -60.861398,
              -45.724998
            ],
            [
              -61.028561,
              -45.731598
            ],
            [
              -61.193982,
              -45.749439
            ],
            [
              -61.356068,
              -45.778349
            ],
            [
              -61.513257,
              -45.81805
            ],
            [
              -61.664036,
              -45.86816
            ],
            [
              -61.806953,
              -45.928195
            ],
            [
              -61.940632,
              -45.997578
            ],
            [
              -62.063784,
              -46.07564
            ],
            [
              -62.175224,
              -46.161631
            ],
            [
              -62.273879,
              -46.25472
            ],
            [
              -62.358799,
              -46.354013
            ],
            [
              -62.429165,
              -46.458553
            ],
            [
              -62.484301,
              -46.567333
            ],
            [
              -62.523675,
              -46.679305
            ],
            [
              -62.546907,
              -46.793391
            ],
            [
              -62.553775,
              -46.908493
            ],
            [
              -62.544212,
              -47.023502
            ],
            [
              -62.51831,
              -47.13731
            ],
            [
              -62.476319,
              -47.248821
            ],
            [
              -62.418643,
              -47.356961
            ],
            [
              -62.345837,
              -47.46069
            ],
            [
              -62.258603,
              -47.559007
            ],
            [
              -62.157781,
              -47.650966
            ],
            [
              -62.044342,
              -47.735682
            ],
            [
              -61.919377,
              -47.812339
            ],
            [
              -61.784092,
              -47.880198
            ],
            [
              -61.639787,
              -47.938605
            ],
            [
              -61.487855,
              -47.986999
            ],
            [
              -61.329756,
              -48.024914
            ],
            [
              -61.167015,
              -48.051983
            ],
            [
              -61.001198,
              -48.067947
            ],
            [
              -60.833902,
              -48.072652
            ],
            [
              -60.666739,
              -48.066052
            ],
            [
              -60.501318,
              -48.048211
            ],
            [
              -60.339232,
              -48.019301
            ],
            [
              -60.182043,
              -47.9796
            ],
            [
              -60.031264,
              -47.92949
            ],
            [
              -59.888347,
              -47.869455
            ],
            [
              -59.754668,
              -47.800072
            ],
            [
              -59.631516,
              -47.72201
            ],
            [
              -59.520076,
              -47.636019
            ],
            [
              -59.421421,
              -47.54293
            ],
            [
              -59.336501,
              -47.443637
            ],
            [
              -59.266135,
              -47.339097
            ],
            [
              -59.210999,
              -47.230317
            ],
            [
              -59.171625,
              -47.118345
            ],
            [
              -59.148393,
              -47.004259
            ],
            [
              -59.141525,
              -46.889157
            ],
            [
              -59.151088,
              -46.774148
            ],
            [
              -59.17699,
              -46.66034
            ],
            [
              -59.218981,
              -46.548829
            ],
            [
              -59.276657,
              -46.440689
            ],
            [
              -59.349463,
              -46.33696
            ],
            [
              -59.436697,
              -46.238643
            ],
            [
              -59.537519,
              -46.146684
            ],
            [
              -59.650958,
              -46.061968
            ],
            [
              -59.775923,
              -45.985311
            ],
            [
              -59.911208,
              -45.917452
            ],
            [
              -60.055513,
              -45.859045
            ]
          ]
        ],
        "type": "Polygon"
      },
      "properties": {
        "kind": "reachableSet",
        "observationStatus": "estimated",
        "vessel": "A"
      },
      "type": "Feature"
    },
    {
      "geometry": {
        "coordinates": [
          [
            [
              -60.616183,
              -45.73059
            ],
            [
              -60.782236,
              -45.722318
            ],
            [
              -60.948669,
              -45.725287
            ],
            [
              -61.113879,
              -45.73947
            ],
            [
              -61.276275,
              -45.764731
            ],
            [
              -61.434293,
              -45.800825
            ],
            [
              -61.586411,
              -45.847405
            ],
            [
              -61.731164,
              -45.904023
            ],
            [
              -61.867159,
              -45.970133
            ],
            [
              -61.993085,
              -46.045098
            ],
            [
              -62.107729,
              -46.128197
            ],
            [
              -62.209989,
              -46.21863
            ],
            [
              -62.298878,
              -46.315525
            ],
            [
              -62.373541,
              -46.41795
            ],
            [
              -62.433258,
              -46.524917
            ],
            [
              -62.477455,
              -46.635397
            ],
            [
              -62.505707,
              -46.748326
            ],
            [
              -62.51774,
              -46.862616
            ],
            [
              -62.513439,
              -46.977166
            ],
            [
              -62.492845,
              -47.090874
            ],
            [
              -62.456157,
              -47.202644
            ],
            [
              -62.403729,
              -47.3114
            ],
            [
              -62.336064,
              -47.416094
            ],
            [
              -62.253815,
              -47.515719
            ],
            [
              -62.157773,
              -47.609314
            ],
            [
              -62.048865,
              -47.695979
            ],
            [
              -61.928138,
              -47.774879
            ],
            [
              -61.796755,
              -47.845253
            ],
            [
              -61.655981,
              -47.906425
            ],
            [
              -61.507173,
              -47.957805
            ],
            [
              -61.351763,
              -47.998898
            ],
            [
              -61.191248,
              -48.029308
            ],
            [
              -61.027174,
              -48.048743
            ],
            [
              -60.861121,
              -48.057016
            ],
            [
              -60.694688,
              -48.054046
            ],
            [
              -60.529478,
              -48.039863
            ],
            [
              -60.367082,
              -48.014603
            ],
            [
              -60.209064,
              -47.978509
            ],
            [
              -60.056946,
              -47.931929
            ],
            [
              -59.912192,
              -47.875311
            ],
            [
              -59.776198,
              -47.809201
            ],
            [
              -59.650272,
              -47.734235
            ],
            [
              -59.535627,
              -47.651136
            ],
            [
              -59.433368,
              -47.560703
            ],
            [
              -59.344479,
              -47.463808
            ],
            [
              -59.269816,
              -47.361384
            ],
            [
              -59.210098,
              -47.254417
            ],
            [
              -59.165901,
              -47.143937
            ],
            [
              -59.13765,
              -47.031008
            ],
            [
              -59.125617,
              -46.916718
            ],
            [
              -59.129918,
              -46.802167
            ],
            [
              -59.150512,
              -46.688459
            ],
            [
              -59.187199,
              -46.576689
            ],
            [
              -59.239628,
              -46.467933
            ],
            [
              -59.307293,
              -46.363239
            ],
            [
              -59.389542,
              -46.263614
            ],
            [
              -59.485583,
              -46.170019
            ],
            [
              -59.594492,
              -46.083354
            ],
            [
              -59.715219,
              -46.004455
            ],
            [
              -59.846602,
              -45.93408
            ],
            [
              -59.987375,
              -45.872908
            ],
            [
              -60.136184,
              -45.821529
            ],
            [
              -60.291594,
              -45.780436
            ],
            [
              -60.452109,
              -45.750025
            ],
            [
              -60.616183,
              -45.73059
            ]
          ]
        ],
        "type": "Polygon"
      },
      "properties": {
        "kind": "reachableSet",
        "observationStatus": "estimated",
        "vessel": "B"
      },
      "type": "Feature"
    }
  ],
  "properties": {
    "dateline": false
  },
  "type": "FeatureCollection"
}
