{
  "features": [
    {
      "geometry": {
        "coordinates": [
          -57.719598,
          -42.00795
        ],
        "type": "Point"
      },
      "properties": {
        "mmsi": "412329689",
        "observationStatus": "observed",
        "role": "off",
        "time": "2019-04-30T09:26:11Z",
        "vessel": "A"
      },
      "type": "Feature"
    },
    {
      "geometry": {
        "coordinates": [
          -57.613325,
          -41.983137
        ],
        "type": "Point"
      },
      "properties": {
        "mmsi": "412329684",
        "observationStatus": "observed",
        "role": "off",
        "time": "2019-04-30T09:26:12Z",
        "vessel": "B"
      },
      "type": "Feature"
    },
    {
      "geometry": {
        "coordinates": [
          -57.821677,
          -41.989935
        ],
        "type": "Point"
      },
      "properties": {
        "mmsi": "412329684",
        "observationStatus": "observed",
        "role": "on",
        "time": "2019-04-30T22:22:40Z",
        "vessel": "B"
      },
      "type": "Feature"
    },
    {
      "geometry": {
        "coordinates": [
          -57.768768,
          -42.008213
        ],
        "type": "Point"
      },
      "properties": {
        "mmsi": "412329689",
        "observationStatus": "observed",
        "role": "on",
        "time": "2019-04-30T22:25:43Z",
        "vessel": "A"
      },
      "type": "Feature"
    },
    {
      "geometry": {
        "coordinates": [
          [
            -57.719598,
            -42.00795
          ],
          [
            -57.717501,
            -41.98619
          ],
          [
            -57.768768,
            -42.008213
          ]
        ],
        "type": "LineString"
      },
      "properties": {
        "confidence": "low",
        "lineStyle": "dashed",
        "observationStatus": "estimated",
        "source": "reachable-set heuristic",
        "vessel": "A"
      },
      "type": "Feature"
    },
    {
      "geometry": {
        "coordinates": [
          [
            -57.613325,
            -41.983137
          ],
          [
            -57.717501,
            -41.98619
          ],
          [
            -57.821677,
            -41.989935
          ]
        ],
        "type": "LineString"
      },
      "properties": {
        "confidence": "low",
        "lineStyle": "dashed",
        "observationStatus": "estimated",
        "source": "reachable-set heuristic",
        "vessel": "B"
      },
      "type": "Feature"
    },
    {
      "geometry": {
        "coordinates": [
          -57.717501,
          -41.98619
        ],
        "type": "Point"
      },
      "properties": {
        "kind": "meetingPoint",
        "observationStatus": "estimated"
      },
      "type": "Feature"
    },
    {
      "geometry": {
        "coordinates": [
          [
            [
              -59.489408,
              -42.017428
            ],
            [
              -59.47978,
              -42.14534
            ],
            [
              -59.453437,
              -42.271931
            ],
            [
              -59.410633,
              -42.39598
            ],
            [
              -59.35178,
              -42.516294
            ],
            [
              -59.277445,
              -42.631713
            ],
            [
              -59.188344,
              -42.741126
            ],
            [
              -59.085335,
              -42.84348
            ],
            [
              -58.96941,
              -42.937788
            ],
            [
              -58.841685,
              -43.023143
            ],
            [
              -58.703391,
              -43.098722
            ],
            [
              -58.555859,
              -43.163798
            ],
            [
              -58.40051,
              -43.217743
            ],
            [
              -58.238841,
              -43.260039
            ],
            [
              -58.072407,
              -43.290278
            ],
            [
              -57.902813,
              -43.308168
            ],
            [
              -57.731691,
              -43.313538
            ],
            [
              -57.560689,
              -43.306336
            ],
            [
              -57.391454,
              -43.286631
            ],
            [
              -57.225616,
              -43.254613
            ],
            [
              -57.064773,
              -43.21059
            ],
            [
              -56.910472,
              -43.154986
            ],
            [
              -56.764201,
              -43.088337
            ],
            [
              -56.627367,
              -43.011284
            ],
            [
              -56.501289,
              -42.92457
            ],
            [
              -56.387181,
              -42.82903
            ],
            [
              -56.286141,
              -42.725583
            ],
            [
              -56.199143,
              -42.615227
            ],
            [
              -56.127025,
              -42.499023
            ],
            [
              -56.070481,
              -42.378092
            ],
            [
              -56.030055,
              -42.253597
            ],
            [
              -56.006138,
              -42.126737
            ],
            [
              -55.998958,
              -41.998735
            ],
            [
              -56.008587,
              -41.870823
            ],
            [
              -56.03493,
              -41.744233
            ],
            [
              -56.077734,
              -41.620183
            ],
            [
              -56.136587,
              -41.49987
            ],
            [
              -56.210921,
              -41.384451
            ],
            [
              -56.300023,
              -41.275037
            ],
            [
              -56.403032,
              -41.172684
            ],
            [
              -56.518957,
              -41.078375
            ],
            [
              -56.646681,
              -40.993021
            ],
            [
              -56.784976,
              -40.917441
            ],
            [
              -56.932508,
              -40.852366
            ],
            [
              -57.087857,
              -40.79842
            ],
            [
              -57.249526,
              -40.756124
            ],
            [
              -57.41596,
              -40.725886
            ],
            [
              -57.585554,
              -40.707995
            ],
            [
              -57.756676,
              -40.702625
            ],
            [
              -57.927678,
              -40.709827
            ],
            [
              -58.096913,
              -40.729532
            ],
            [
              -58.26275,
              -40.761551
            ],
            [
              -58.423594,
              -40.805574
            ],
            [
              -58.577894,
              -40.861178
            ],
            [
              -58.724166,
              -40.927827
            ],
            [
              -58.860999,
              -41.004879
            ],
            [
              -58.987077,
              -41.091593
            ],
            [
              -59.101186,
              -41.187134
            ],
            [
              -59.202225,
              -41.29058
            ],
            [
              -59.289223,
              -41.400937
            ],
            [
              -59.361342,
              -41.51714
            ],
            [
              -59.417886,
              -41.638072
            ],
            [
              -59.458311,
              -41.762567
            ],
            [
              -59.482229,
              -41.889426
            ],
            [
              -59.489408,
              -42.017428
            ]
          ]
        ],
        "type": "Polygon"
      },
      "properties": {
        "kind": "reachableSet",
        "observationStatus": "estimated",
        "vessel": "A"
      },
      "type": "Feature"
    },
    {
      "geometry": {
        "coordinates": [
          [
            [
              -59.453095,
              -42.043167
            ],
            [
              -59.437333,
              -42.169971
            ],
            [
              -59.405009,
              -42.295009
            ],
            [
              -59.356433,
              -42.417076
            ],
            [
              -59.292073,
              -42.534997
            ],
            [
              -59.212549,
              -42.647636
            ],
            [
              -59.118627,
              -42.753908
            ],
            [
              -59.011212,
              -42.85279
            ],
            [
              -58.891337,
              -42.943329
            ],
            [
              -58.760158,
              -43.024654
            ],
            [
              -58.618937,
              -43.095981
            ],
            [
              -58.469035,
              -43.156624
            ],
            [
              -58.311895,
              -43.205998
            ],
            [
              -58.149031,
              -43.243628
            ],
            [
              -57.982011,
              -43.269152
            ],
            [
              -57.812444,
              -43.282323
            ],
            [
              -57.641962,
              -43.283015
            ],
            [
              -57.472208,
              -43.271221
            ],
            [
              -57.304816,
              -43.247056
            ],
            [
              -57.141399,
              -43.21075
            ],
            [
              -56.983529,
              -43.162655
            ],
            [
              -56.832728,
              -43.103233
            ],
            [
              -56.690449,
              -43.033057
            ],
            [
              -56.55806,
              -42.952802
            ],
            [
              -56.436837,
              -42.863241
            ],
            [
              -56.327947,
              -42.765237
            ],
            [
              -56.23244,
              -42.659734
            ],
            [
              -56.151235,
              -42.547748
            ],
            [
              -56.085114,
              -42.430357
            ],
            [
              -56.034713,
              -42.308692
            ],
            [
              -56.000519,
              -42.183924
            ],
            [
              -55.98286,
              -42.057255
            ],
            [
              -55.981907,
              -41.929905
            ],
            [
              -55.997668,
              -41.8031
            ],
            [
              -56.029993,
              -41.678062
            ],
            [
              -56.078569,
              -41.555995
            ],
            [
              -56.142928,
              -41.438075
            ],
            [
              -56.222452,
              -41.325436
            ],
            [
              -56.316374,
              -41.219164
            ],
            [
              -56.42379,
              -41.120282
            ],
            [
              -56.543664,
              -41.029742
            ],
            [
              -56.674844,
              -40.948417
            ],
            [
              -56.816065,
              -40.87709
            ],
            [
              -56.965967,
              -40.816448
            ],
            [
              -57.123106,
              -40.767073
            ],
            [
              -57.28597,
              -40.729443
            ],
            [
              -57.45299,
              -40.70392
            ],
            [
              -57.622558,
              -40.690749
            ],
            [
              -57.793039,
              -40.690057
            ],
            [
              -57.962794,
              -40.70185
            ],
            [
              -58.130186,
              -40.726016
            ],
            [
              -58.293603,
              -40.762322
            ],
            [
              -58.451472,
              -40.810417
            ],
            [
              -58.602273,
              -40.869839
            ],
            [
              -58.744553,
              -40.940015
            ],
            [
              -58.876942,
              -41.02027
            ],
            [
              -58.998165,
              -41.109831
            ],
            [
              -59.107054,
              -41.207834
            ],
            [
              -59.202561,
              -41.313337
            ],
            [
              -59.283767,
              -41.425324
            ],
            [
              -59.349888,
              -41.542715
            ],
            [
              -59.400288,
              -41.66438
            ],
            [
              -59.434483,
              -41.789148
            ],
            [
              -59.452141,
              -41.915817
            ],
            [
              -59.453095,
              -42.043167
            ]
          ]
        ],
        "type": "Polygon"
      },
      "properties": {
        "kind": "reachableSet",
        "observationStatus": "estimated",
        "vessel": "B"
      },
      "type": "Feature"
    }
  ],
  "properties": {
    "dateline": false
  },
  "type": "FeatureCollection"
}
