{
  "features": [
    {
      "geometry": {
        "coordinates": [
          166.343813,
          43.807383
        ],
        "type": "Point"
      },
      "properties": {
        "mmsi": "416253700",
        "observationStatus": "observed",
        "role": "off",
        "time": "2019-07-14T04:00:46Z",
        "vessel": "A"
      },
      "type": "Feature"
    },
    {
      "geometry": {
        "coordinates": [
          166.31176,
          43.8736
        ],
        "type": "Point"
      },
      "properties": {
        "mmsi": "416241900",
        "observationStatus": "observed",
        "role": "off",
        "time": "2019-07-14T04:17:04Z",
        "vessel": "B"
      },
      "type": "Feature"
    },
    {
      "geometry": {
        "coordinates": [
          167.303547,
          43.295093
        ],
        "type": "Point"
      },
      "properties": {
        "mmsi": "416253700",
        "observationStatus": "observed",
        "role": "on",
        "time": "2019-07-14T16:22:44Z",
        "vessel": "A"
      },
      "type": "Feature"
    },
    {
      "geometry": {
        "coordinates": [
          167.353333,
          43.283333
        ],
        "type": "Point"
      },
      "properties": {
        "mmsi": "416241900",
        "observationStatus": "observed",
        "role": "on",
        "time": "2019-07-14T17:06:08Z",
        "vessel": "B"
      },
      "type": "Feature"
    },
    {
      "geometry": {
        "coordinates": [
          [
            166.343813,
            43.807383
          ],
          [
            166.958562,
            43.496919
          ],
          [
            167.303547,
            43.295093
          ]
        ],
        "type": "LineString"
      },
      "properties": {
        "confidence": "low",
        "lineStyle": "dashed",
        "observationStatus": "estimated",
        "source": "reachable-set heuristic",
        "vessel": "A"
      },
      "type": "Feature"
    },
    {
      "geometry": {
        "coordinates": [
          [
            166.31176,
            43.8736
          ],
          [
            166.958562,
            43.496919
          ],
          [
            167.353333,
            43.283333
          ]
        ],
        "type": "LineString"
      },
      "properties": {
        "confidence": "low",
        "lineStyle": "dashed",
        "observationStatus": "estimated",
        "source": "reachable-set heuristic",
        "vessel": "B"
      },
      "type": "Feature"
    },
    {
      "geometry": {
        "coordinates": [
          166.958562,
          43.496919
        ],
        "type": "Point"
      },
      "properties": {
        "kind": "meetingPoint",
        "observationStatus": "estimated"
      },
      "type": "Feature"
    },
    {
      "geometry": {
        "coordinates": [
          [
            [
              168.087144,
              42.876822
            ],
            [
              168.164866,
              42.963662
            ],
            [
              168.229671,
              43.056161
            ],
            [
              168.280936,
              43.153427
            ],
            [
              168.318167,
              43.254525
            ],
            [
              168.341006,
              43.35848
            ],
            [
              168.349231,
              43.464292
            ],
            [
              168.342765,
              43.570941
            ],
            [
              168.321669,
              43.6774
            ],
            [
              168.286146,
              43.782644
            ],
            [
              168.23654,
              43.88566
            ],
            [
              168.173326,
              43.985455
            ],
            [
              168.097115,
              44.081068
            ],
            [
              168.00864,
              44.171579
            ],
            [
              167.908753,
              44.256115
            ],
            [
              167.798416,
              44.333863
            ],
            [
              167.678692,
              44.404074
            ],
            [
              167.550734,
              44.466072
            ],
            [
              167.415774,
              44.519259
            ],
            [
              167.275112,
              44.563124
            ],
            [
              167.130102,
              44.597244
            ],
            [
              166.982141,
              44.62129
            ],
            [
              166.832654,
              44.635031
            ],
            [
              166.683081,
              44.638335
            ],
            [
              166.534861,
              44.631169
            ],
            [
              166.389423,
              44.613603
            ],
            [
              166.248168,
              44.585805
            ],
            [
              166.112454,
              44.548045
            ],
            [
              165.983591,
              44.500684
            ],
            [
              165.862818,
              44.44418
            ],
            [
              165.751298,
              44.379076
            ],
            [
              165.650106,
              44.306
            ],
            [
              165.560216,
              44.225655
            ],
            [
              165.482494,
              44.138815
            ],
            [
              165.417689,
              44.046316
            ],
            [
              165.366424,
              43.949049
            ],
            [
              165.329193,
              43.847952
            ],
            [
              165.306354,
              43.743996
            ],
            [
              165.298129,
              43.638185
            ],
            [
              165.304595,
              43.531536
            ],
            [
              165.325691,
              43.425077
            ],
            [
              165.361214,
              43.319832
            ],
            [
              165.41082,
              43.216817
            ],
            [
              165.474034,
              43.117022
            ],
            [
              165.550245,
              43.021409
            ],
            [
              165.63872,
              42.930898
            ],
            [
              165.738607,
              42.846362
            ],
            [
              165.848944,
              42.768613
            ],
            [
              165.968668,
              42.698402
            ],
            [
              166.096626,
              42.636405
            ],
            [
              166.231586,
              42.583217
            ],
            [
              166.372248,
              42.539353
            ],
            [
              166.517258,
              42.505233
            ],
            [
              166.665219,
              42.481187
            ],
            [
              166.814706,
              42.467446
            ],
            [
              166.964279,
              42.464142
            ],
            [
              167.112499,
              42.471308
            ],
            [
              167.257937,
              42.488874
            ],
            [
              167.399192,
              42.516671
            ],
            [
              167.534906,
              42.554432
            ],
            [
              167.663769,
              42.601793
            ],
            [
              167.784542,
              42.658297
            ],
            [
              167.896062,
              42.723401
            ],
            [
              167.997254,
              42.796477
            ],
            [
              168.087144,
              42.876822
            ]
          ]
        ],
        "type": "Polygon"
      },
      "properties": {
        "kind": "reachableSet",
        "observationStatus": "estimated",
        "vessel": "A"
      },
      "type": "Feature"
    },
    {
      "geometry": {
        "coordinates": [
          [
            [
              168.118398,
              42.849766
            ],
            [
              168.201745,
              42.937322
            ],
            [
              168.271906,
              43.031051
            ],
            [
              168.328205,
              43.130053
            ],
            [
              168.370101,
              43.233374
            ],
            [
              168.397188,
              43.340017
            ],
            [
              168.409208,
              43.448958
            ],
            [
              168.406043,
              43.559145
            ],
            [
              168.387725,
              43.669518
            ],
            [
              168.354429,
              43.779015
            ],
            [
              168.306477,
              43.88658
            ],
            [
              168.24433,
              43.991178
            ],
            [
              168.168587,
              44.091801
            ],
            [
              168.079977,
              44.187481
            ],
            [
              167.979354,
              44.277295
            ],
            [
              167.867686,
              44.36038
            ],
            [
              167.74605,
              44.435934
            ],
            [
              167.615616,
              44.50323
            ],
            [
              167.47764,
              44.56162
            ],
            [
              167.333452,
              44.610542
            ],
            [
              167.18444,
              44.649525
            ],
            [
              167.032038,
              44.678192
            ],
            [
              166.877716,
              44.696269
            ],
            [
              166.722959,
              44.70358
            ],
            [
              166.569257,
              44.700056
            ],
            [
              166.418091,
              44.685731
            ],
            [
              166.270916,
              44.660742
            ],
            [
              166.12915,
              44.62533
            ],
            [
              165.994158,
              44.579837
            ],
            [
              165.86724,
              44.524699
            ],
            [
              165.749619,
              44.460449
            ],
            [
              165.642426,
              44.387705
            ],
            [
              165.546696,
              44.307167
            ],
            [
              165.463348,
              44.219612
            ],
            [
              165.393187,
              44.125882
            ],
            [
              165.336888,
              44.02688
            ],
            [
              165.294993,
              43.92356
            ],
            [
              165.267905,
              43.816916
            ],
            [
              165.255885,
              43.707976
            ],
            [
              165.25905,
              43.597788
            ],
            [
              165.277368,
              43.487415
            ],
            [
              165.310664,
              43.377918
            ],
            [
              165.358616,
              43.270353
            ],
            [
              165.420763,
              43.165755
            ],
            [
              165.496506,
              43.065132
            ],
            [
              165.585116,
              42.969452
            ],
            [
              165.685739,
              42.879638
            ],
            [
              165.797407,
              42.796554
            ],
            [
              165.919044,
              42.721
            ],
            [
              166.049478,
              42.653703
            ],
            [
              166.187453,
              42.595313
            ],
            [
              166.331642,
              42.546391
            ],
            [
              166.480654,
              42.507409
            ],
            [
              166.633055,
              42.478741
            ],
            [
              166.787377,
              42.460665
            ],
            [
              166.942134,
              42.453353
            ],
            [
              167.095836,
              42.456877
            ],
            [
              167.247003,
              42.471202
            ],
            [
              167.394178,
              42.496191
            ],
            [
              167.535944,
              42.531603
            ],
            [
              167.670936,
              42.577097
            ],
            [
              167.797853,
              42.632234
            ],
            [
              167.915475,
              42.696484
            ],
            [
              168.022667,
              42.769229
            ],
            [
              168.118398,
              42.849766
            ]
          ]
        ],
        "type": "Polygon"
      },
      "properties": {
        "kind": "reachableSet",
        "observationStatus": "estimated",
        "vessel": "B"
      },
      "type": "Feature"
    }
  ],
  "properties": {
    "dateline": false
  },
  "type": "FeatureCollection"
}
