{
  "features": [
    {
      "geometry": {
        "coordinates": [
          154.43872,
          41.331307
        ],
        "type": "Point"
      },
      "properties": {
        "mmsi": "416236800",
        "observationStatus": "observed",
        "role": "off",
        "time": "2019-11-09T03:32:02Z",
        "vessel": "A"
      },
      "type": "Feature"
    },
    {
      "geometry": {
        "coordinates": [
          154.478947,
          41.394413
        ],
        "type": "Point"
      },
      "properties": {
        "mmsi": "412331039",
        "observationStatus": "observed",
        "role": "off",
        "time": "2019-11-09T03:33:38Z",
        "vessel": "B"
      },
      "type": "Feature"
    },
    {
      "geometry": {
        "coordinates": [
          154.778328,
          41.622613
        ],
        "type": "Point"
      },
      "properties": {
        "mmsi": "412331039",
        "observationStatus": "observed",
        "role": "on",
        "time": "2019-11-09T19:55:17Z",
        "vessel": "B"
      },
      "type": "Feature"
    },
    {
      "geometry": {
        "coordinates": [
          154.744133,
          41.550027
        ],
        "type": "Point"
      },
      "properties": {
        "mmsi": "416236800",
        "observationStatus": "observed",
        "role": "on",
        "time": "2019-11-09T20:30:38Z",
        "vessel": "A"
      },
      "type": "Feature"
    },
    {
      "geometry": {
        "coordinates": [
          [
            154.43872,
            41.331307
          ],
          [
            154.608524,
            41.47696
          ],
          [
            154.744133,
            41.550027
          ]
        ],
        "type": "LineString"
      },
      "properties": {
        "confidence": "low",
        "lineStyle": "dashed",
        "observationStatus": "estimated",
        "source": "reachable-set heuristic",
        "vessel": "A"
      },
      "type": "Feature"
    },
    {
      "geometry": {
        "coordinates": [
          [
            154.478947,
            41.394413
          ],
          [
            154.608524,
            41.47696
          ],
          [
            154.778328,
            41.622613
          ]
        ],
        "type": "LineString"
      },
      "properties": {
        "confidence": "low",
        "lineStyle": "dashed",
        "observationStatus": "estimated",
        "source": "reachable-set heuristic",
        "vessel": "B"
      },
      "type": "Feature"
    },
    {
      "geometry": {
        "coordinates": [
          154.608524,
          41.47696
        ],
        "type": "Point"
      },
      "properties": {
        "kind": "meetingPoint",
        "observationStatus": "estimated"
      },
      "type": "Feature"
    },
    {
      "geometry": {
        "coordinates": [
          [
            [
              156.134662,
              42.545846
            ],
            [
              155.984405,
              42.654127
            ],
            [
              155.820732,
              42.750721
            ],
            [
              155.645221,
              42.834699
            ],
            [
              155.45956,
              42.905251
            ],
            [
              155.26554,
              42.961699
            ],
            [
              155.065027,
              43.003498
            ],
            [
              154.859953,
              43.030247
            ],
            [
              154.652293,
              43.041686
            ],
            [
              154.444047,
              43.037708
            ],
            [
              154.23722,
              43.018348
            ],
            [
              154.033805,
              42.983795
            ],
            [
              153.835759,
              42.934381
            ],
            [
              153.644991,
              42.870581
            ],
            [
              153.463338,
              42.793011
            ],
            [
              153.292549,
              42.702417
            ],
            [
              153.134269,
              42.599671
            ],
            [
              152.990022,
              42.485764
            ],
            [
              152.861197,
              42.361791
            ],
            [
              152.749036,
              42.228948
            ],
            [
              152.654618,
              42.088513
            ],
            [
              152.578852,
              41.941839
            ],
            [
              152.522468,
              41.790339
            ],
            [
              152.48601,
              41.635471
            ],
            [
              152.469828,
              41.478727
            ],
            [
              152.474078,
              41.321616
            ],
            [
              152.49872,
              41.165652
            ],
            [
              152.543515,
              41.012336
            ],
            [
              152.608033,
              40.863146
            ],
            [
              152.691652,
              40.719517
            ],
            [
              152.793566,
              40.582834
            ],
            [
              152.912796,
              40.454411
            ],
            [
              153.048191,
              40.335487
            ],
            [
              153.198448,
              40.227207
            ],
            [
              153.362121,
              40.130612
            ],
            [
              153.537633,
              40.046635
            ],
            [
              153.723293,
              39.976082
            ],
            [
              153.917314,
              39.919635
            ],
            [
              154.117827,
              39.877835
            ],
            [
              154.3229,
              39.851087
            ],
            [
              154.53056,
              39.839647
            ],
            [
              154.738806,
              39.843626
            ],
            [
              154.945633,
              39.862985
            ],
            [
              155.149049,
              39.897538
            ],
            [
              155.347094,
              39.946952
            ],
            [
              155.537862,
              40.010752
            ],
            [
              155.719515,
              40.088322
            ],
            [
              155.890304,
              40.178917
            ],
            [
              156.048584,
              40.281662
            ],
            [
              156.192831,
              40.39557
            ],
            [
              156.321656,
              40.519542
            ],
            [
              156.433817,
              40.652385
            ],
            [
              156.528236,
              40.79282
            ],
            [
              156.604001,
              40.939494
            ],
            [
              156.660385,
              41.090994
            ],
            [
              156.696843,
              41.245863
            ],
            [
              156.713025,
              41.402607
            ],
            [
              156.708775,
              41.559717
            ],
            [
              156.684134,
              41.715681
            ],
            [
              156.639339,
              41.868997
            ],
            [
              156.574821,
              42.018187
            ],
            [
              156.491202,
              42.161816
            ],
            [
              156.389287,
              42.2985
            ],
            [
              156.270058,
              42.426922
            ],
            [
              156.134662,
              42.545846
            ]
          ]
        ],
        "type": "Polygon"
      },
      "properties": {
        "kind": "reachableSet",
        "observationStatus": "estimated",
        "vessel": "A"
      },
      "type": "Feature"
    },
    {
      "geometry": {
        "coordinates": [
          [
            [
              156.068526,
              42.606051
            ],
            [
              155.919678,
              42.706595
            ],
            [
              155.758397,
              42.795602
            ],
            [
              155.586235,
              42.872213
            ],
            [
              155.404852,
              42.93569
            ],
            [
              155.215992,
              42.985424
            ],
            [
              155.021477,
              43.020933
            ],
            [
              154.823178,
              43.041878
            ],
            [
              154.623005,
              43.048055
            ],
            [
              154.422887,
              43.039406
            ],
            [
              154.22475,
              43.016013
            ],
            [
              154.030503,
              42.978102
            ],
            [
              153.842016,
              42.926038
            ],
            [
              153.661105,
              42.860323
            ],
            [
              153.489512,
              42.781589
            ],
            [
              153.328889,
              42.690595
            ],
            [
              153.180783,
              42.588216
            ],
            [
              153.046621,
              42.47544
            ],
            [
              152.927695,
              42.353351
            ],
            [
              152.82515,
              42.223126
            ],
            [
              152.739973,
              42.086019
            ],
            [
              152.672985,
              41.943351
            ],
            [
              152.624831,
              41.796494
            ],
            [
              152.595975,
              41.646864
            ],
            [
              152.586695,
              41.495902
            ],
            [
              152.597079,
              41.345062
            ],
            [
              152.627029,
              41.195795
            ],
            [
              152.676255,
              41.04954
            ],
            [
              152.744284,
              40.907705
            ],
            [
              152.83046,
              40.771656
            ],
            [
              152.933953,
              40.642704
            ],
            [
              153.053767,
              40.52209
            ],
            [
              153.188749,
              40.410976
            ],
            [
              153.337597,
              40.310431
            ],
            [
              153.498878,
              40.221425
            ],
            [
              153.67104,
              40.144814
            ],
            [
              153.852423,
              40.081336
            ],
            [
              154.041283,
              40.031603
            ],
            [
              154.235798,
              39.996093
            ],
            [
              154.434097,
              39.975149
            ],
            [
              154.63427,
              39.968972
            ],
            [
              154.834388,
              39.977621
            ],
            [
              155.032525,
              40.001014
            ],
            [
              155.226772,
              40.038925
            ],
            [
              155.415259,
              40.090988
            ],
            [
              155.59617,
              40.156704
            ],
            [
              155.767763,
              40.235438
            ],
            [
              155.928386,
              40.326432
            ],
            [
              156.076492,
              40.42881
            ],
            [
              156.210654,
              40.541587
            ],
            [
              156.32958,
              40.663676
            ],
            [
              156.432125,
              40.7939
            ],
            [
              156.517302,
              40.931007
            ],
            [
              156.58429,
              41.073676
            ],
            [
              156.632444,
              41.220532
            ],
            [
              156.6613,
              41.370162
            ],
            [
              156.67058,
              41.521124
            ],
            [
              156.660196,
              41.671965
            ],
            [
              156.630246,
              41.821232
            ],
            [
              156.58102,
              41.967487
            ],
            [
              156.512991,
              42.109321
            ],
            [
              156.426815,
              42.24537
            ],
            [
              156.323322,
              42.374323
            ],
            [
              156.203508,
              42.494937
            ],
            [
              156.068526,
              42.606051
            ]
          ]
        ],
        "type": "Polygon"
      },
      "properties": {
        "kind": "reachableSet",
        "observationStatus": "estimated",
        "vessel": "B"
      },
      "type": "Feature"
    }
  ],
  "properties": {
    "dateline": false
  },
  "type": "FeatureCollection"
}
