{
  "features": [
    {
      "geometry": {
        "coordinates": [
          162.9688,
          48.874667
        ],
        "type": "Point"
      },
      "properties": {
        "mmsi": "416164900",
        "observationStatus": "observed",
        "role": "off",
        "time": "2018-08-01T23:20:02Z",
        "vessel": "A"
      },
      "type": "Feature"
    },
    {
      "geometry": {
        "coordinates": [
          162.91728,
          48.88928
        ],
        "type": "Point"
      },
      "properties": {
        "mmsi": "416004545",
        "observationStatus": "observed",
        "role": "off",
        "time": "2018-08-02T00:19:51Z",
        "vessel": "B"
      },
      "type": "Feature"
    },
    {
      "geometry": {
        "coordinates": [
          161.258755,
          47.983508
        ],
        "type": "Point"
      },
      "properties": {
        "mmsi": "416004545",
        "observationStatus": "observed",
        "role": "on",
        "time": "2018-08-02T18:42:51Z",
        "vessel": "B"
      },
      "type": "Feature"
    },
    {
      "geometry": {
        "coordinates": [
          161.138847,
          47.972725
        ],
        "type": "Point"
      },
      "properties": {
        "mmsi": "416164900",
        "observationStatus": "observed",
        "role": "on",
        "time": "2018-08-02T19:11:05Z",
        "vessel": "A"
      },
      "type": "Feature"
    },
    {
      "geometry": {
        "coordinates": [
          [
            162.9688,
            48.874667
          ],
          [
            161.584329,
            48.161066
          ],
          [
            161.138847,
            47.972725
          ]
        ],
        "type": "LineString"
      },
      "properties": {
        "confidence": "low",
        "lineStyle": "dashed",
        "observationStatus": "estimated",
        "source": "reachable-set heuristic",
        "vessel": "A"
      },
      "type": "Feature"
    },
    {
      "geometry": {
        "coordinates": [
          [
            162.91728,
            48.88928
          ],
          [
            161.584329,
            48.161066
          ],
          [
            161.258755,
            47.983508
          ]
        ],
        "type": "LineString"
      },
      "properties": {
        "confidence": "low",
        "lineStyle": "dashed",
        "observationStatus": "estimated",
        "source": "reachable-set heuristic",
        "vessel": "B"
      },
      "type": "Feature"
    },
    {
      "geometry": {
        "coordinates": [
          161.584329,
          48.161066
        ],
        "type": "Point"
      },
      "properties": {
        "kind": "meetingPoint",
        "observationStatus": "estimated"
      },
      "type": "Feature"
    },
    {
      "geometry": {
        "coordinates": [
          [
            [
              159.772019,
              47.299047
            ],
            [
              159.934154,
              47.167574
            ],
            [
              160.116703,
              47.048198
            ],
            [
              160.317906,
              46.942068
            ],
            [
              160.535828,
              46.850207
            ],
            [
              160.768369,
              46.7735
            ],
            [
              161.01329,
              46.712685
            ],
            [
              161.268231,
              46.668348
            ],
            [
              161.530738,
              46.640916
            ],
            [
              161.798283,
              46.630654
            ],
            [
              162.068288,
              46.637659
            ],
            [
              162.338155,
              46.661865
            ],
            [
              162.605283,
              46.703038
            ],
            [
              162.8671,
              46.760782
            ],
            [
              163.121085,
              46.83454
            ],
            [
              163.364792,
              46.923604
            ],
            [
              163.595873,
              47.027113
            ],
            [
              163.812103,
              47.144073
            ],
            [
              164.011401,
              47.273356
            ],
            [
              164.191846,
              47.413718
            ],
            [
              164.3517,
              47.563806
            ],
            [
              164.489425,
              47.722176
            ],
            [
              164.603693,
              47.887301
            ],
            [
              164.693405,
              48.057592
            ],
            [
              164.757696,
              48.231409
            ],
            [
              164.795948,
              48.407078
            ],
            [
              164.807791,
              48.582907
            ],
            [
              164.793112,
              48.757203
            ],
            [
              164.752052,
              48.928287
            ],
            [
              164.685007,
              49.094511
            ],
            [
              164.592622,
              49.254275
            ],
            [
              164.475787,
              49.40604
            ],
            [
              164.335627,
              49.548344
            ],
            [
              164.173492,
              49.679818
            ],
            [
              163.990944,
              49.799194
            ],
            [
              163.78974,
              49.905324
            ],
            [
              163.571818,
              49.997184
            ],
            [
              163.339278,
              50.073892
            ],
            [
              163.094357,
              50.134706
            ],
            [
              162.839416,
              50.179043
            ],
            [
              162.576909,
              50.206475
            ],
            [
              162.309364,
              50.216738
            ],
            [
              162.039358,
              50.209733
            ],
            [
              161.769492,
              50.185527
            ],
            [
              161.502364,
              50.144354
            ],
            [
              161.240547,
              50.08661
            ],
            [
              160.986562,
              50.012851
            ],
            [
              160.742855,
              49.923788
            ],
            [
              160.511774,
              49.820278
            ],
            [
              160.295543,
              49.703318
            ],
            [
              160.096246,
              49.574035
            ],
            [
              159.915801,
              49.433674
            ],
            [
              159.755947,
              49.283585
            ],
            [
              159.618222,
              49.125216
            ],
            [
              159.503954,
              48.96009
            ],
            [
              159.414242,
              48.789799
            ],
            [
              159.349951,
              48.615982
            ],
            [
              159.311699,
              48.440313
            ],
            [
              159.299856,
              48.264484
            ],
            [
              159.314535,
              48.090189
            ],
            [
              159.355595,
              47.919105
            ],
            [
              159.42264,
              47.752881
            ],
            [
              159.515025,
              47.593117
            ],
            [
              159.63186,
              47.441352
            ],
            [
              159.772019,
              47.299047
            ]
          ]
        ],
        "type": "Polygon"
      },
      "properties": {
        "kind": "reachableSet",
        "observationStatus": "estimated",
        "vessel": "A"
      },
      "type": "Feature"
    },
    {
      "geometry": {
        "coordinates": [
          [
            [
              160.063229,
              47.330595
            ],
            [
              160.221014,
              47.214983
            ],
            [
              160.396779,
              47.111134
            ],
            [
              160.588832,
              47.020048
            ],
            [
              160.795323,
              46.942603
            ],
            [
              161.014263,
              46.879543
            ],
            [
              161.243543,
              46.831477
            ],
            [
              161.480957,
              46.798867
            ],
            [
              161.724217,
              46.782027
            ],
            [
              161.97098,
              46.78112
            ],
            [
              162.218871,
              46.796153
            ],
            [
              162.465502,
              46.826984
            ],
            [
              162.708497,
              46.873313
            ],
            [
              162.945516,
              46.934697
            ],
            [
              163.174277,
              47.010542
            ],
            [
              163.392578,
              47.100119
            ],
            [
              163.598314,
              47.202565
            ],
            [
              163.789505,
              47.316893
            ],
            [
              163.964311,
              47.442003
            ],
            [
              164.121046,
              47.57669
            ],
            [
              164.258202,
              47.719656
            ],
            [
              164.374459,
              47.869524
            ],
            [
              164.468695,
              48.024852
            ],
            [
              164.540004,
              48.184143
            ],
            [
              164.5877,
              48.345863
            ],
            [
              164.611322,
              48.508456
            ],
            [
              164.610643,
              48.670354
            ],
            [
              164.58567,
              48.829999
            ],
            [
              164.536643,
              48.985853
            ],
            [
              164.464035,
              49.136416
            ],
            [
              164.368544,
              49.280238
            ],
            [
              164.251091,
              49.415932
            ],
            [
              164.112806,
              49.542193
            ],
            [
              163.955021,
              49.657805
            ],
            [
              163.779256,
              49.761654
            ],
            [
              163.587203,
              49.85274
            ],
            [
              163.380712,
              49.930186
            ],
            [
              163.161772,
              49.993245
            ],
            [
              162.932492,
              50.041312
            ],
            [
              162.695078,
              50.073922
            ],
            [
              162.451818,
              50.090761
            ],
            [
              162.205055,
              50.091669
            ],
            [
              161.957164,
              50.076635
            ],
            [
              161.710533,
              50.045805
            ],
            [
              161.467538,
              49.999475
            ],
            [
              161.230519,
              49.938092
            ],
            [
              161.001758,
              49.862247
            ],
            [
              160.783457,
              49.77267
            ],
            [
              160.577721,
              49.670223
            ],
            [
              160.38653,
              49.555895
            ],
            [
              160.211724,
              49.430785
            ],
            [
              160.054989,
              49.296099
            ],
            [
              159.917833,
              49.153133
            ],
            [
              159.801576,
              49.003264
            ],
            [
              159.70734,
              48.847937
            ],
            [
              159.636031,
              48.688645
            ],
            [
              159.588335,
              48.526925
            ],
            [
              159.564713,
              48.364333
            ],
            [
              159.565392,
              48.202435
            ],
            [
              159.590365,
              48.042789
            ],
            [
              159.639392,
              47.886935
            ],
            [
              159.712,
              47.736372
            ],
            [
              159.807491,
              47.592551
            ],
            [
              159.924944,
              47.456856
            ],
            [
              160.063229,
              47.330595
            ]
          ]
        ],
        "type": "Polygon"
      },
      "properties": {
        "kind": "reachableSet",
        "observationStatus": "estimated",
        "vessel": "B"
      },
      "type": "Feature"
    }
  ],
  "properties": {
    "dateline": false
  },
  "type": "FeatureCollection"
}
