{
  "features": [
    {
      "geometry": {
        "coordinates": [
          -60.140835,
          -45.077332
        ],
        "type": "Point"
      },
      "properties": {
        "mmsi": "412329686",
        "observationStatus": "observed",
        "role": "off",
        "time": "2018-02-24T07:04:11Z",
        "vessel": "A"
      },
      "type": "Feature"
    },
    {
      "geometry": {
        "coordinates": [
          -60.148388,
          -45.092175
        ],
        "type": "Point"
      },
      "properties": {
        "mmsi": "412329692",
        "observationStatus": "observed",
        "role": "off",
        "time": "2018-02-24T07:25:25Z",
        "vessel": "B"
      },
      "type": "Feature"
    },
    {
      "geometry": {
        "coordinates": [
          -60.170797,
          -45.233363
        ],
        "type": "Point"
      },
      "properties": {
        "mmsi": "412329692",
        "observationStatus": "observed",
        "role": "on",
        "time": "2018-02-24T22:11:21Z",
        "vessel": "B"
      },
      "type": "Feature"
    },
    {
      "geometry": {
        "coordinates": [
          -60.197333,
          -45.234453
        ],
        "type": "Point"
      },
      "properties": {
        "mmsi": "412329686",
        "observationStatus": "observed",
        "role": "on",
        "time": "2018-02-24T22:24:16Z",
        "vessel": "A"
      },
      "type": "Feature"
    },
    {
      "geometry": {
        "coordinates": [
          [
            -60.140835,
            -45.077332
          ],
          [
            -60.169084,
            -45.222953
          ],
          [
            -60.197333,
            -45.234453
          ]
        ],
        "type": "LineString"
      },
      "properties": {
        "confidence": "low",
        "lineStyle": "dashed",
        "observationStatus": "estimated",
        "source": "reachable-set heuristic",
        "vessel": "A"
      },
      "type": "Feature"
    },
    {
      "geometry": {
        "coordinates": [
          [
            -60.148388,
            -45.092175
          ],
          [
            -60.169084,
            -45.222953
          ],
          [
            -60.170797,
            -45.233363
          ]
        ],
        "type": "LineString"
      },
      "properties": {
        "confidence": "low",
        "lineStyle": "dashed",
        "observationStatus": "estimated",
        "source": "reachable-set heuristic",
        "vessel": "B"
      },
      "type": "Feature"
    },
    {
      "geometry": {
        "coordinates": [
          -60.169084,
          -45.222953
        ],
        "type": "Point"
      },
      "properties": {
        "kind": "meetingPoint",
        "observationStatus": "estimated"
      },
      "type": "Feature"
    },
    {
      "geometry": {
        "coordinates": [
          [
            [
              -60.71283,
              -46.668047
            ],
            [
              -60.501726,
              -46.698553
            ],
            [
              -60.287419,
              -46.714202
            ],
            [
              -60.071973,
              -46.714844
            ],
            [
              -59.857461,
              -46.700472
            ],
            [
              -59.645951,
              -46.671226
            ],
            [
              -59.439479,
              -46.627385
            ],
            [
              -59.240033,
              -46.569374
            ],
            [
              -59.049534,
              -46.49775
            ],
            [
              -58.869818,
              -46.413203
            ],
            [
              -58.702614,
              -46.316547
            ],
            [
              -58.549533,
              -46.208714
            ],
            [
              -58.412049,
              -46.090741
            ],
            [
              -58.291486,
              -45.963766
            ],
            [
              -58.189006,
              -45.82901
            ],
            [
              -58.105595,
              -45.687771
            ],
            [
              -58.042056,
              -45.541411
            ],
            [
              -57.999002,
              -45.391337
            ],
            [
              -57.976847,
              -45.238996
            ],
            [
              -57.975804,
              -45.085855
            ],
            [
              -57.995884,
              -44.933388
            ],
            [
              -58.036893,
              -44.783065
            ],
            [
              -58.098436,
              -44.636331
            ],
            [
              -58.179921,
              -44.494601
            ],
            [
              -58.280562,
              -44.35924
            ],
            [
              -58.399391,
              -44.231551
            ],
            [
              -58.535263,
              -44.112764
            ],
            [
              -58.686869,
              -44.004023
            ],
            [
              -58.85275,
              -43.906375
            ],
            [
              -59.031309,
              -43.820761
            ],
            [
              -59.220824,
              -43.748005
            ],
            [
              -59.419472,
              -43.688807
            ],
            [
              -59.625339,
              -43.643738
            ],
            [
              -59.836442,
              -43.613232
            ],
            [
              -60.050749,
              -43.597583
            ],
            [
              -60.266196,
              -43.596941
            ],
            [
              -60.480707,
              -43.611313
            ],
            [
              -60.692217,
              -43.640559
            ],
            [
              -60.89869,
              -43.6844
            ],
            [
              -61.098135,
              -43.742411
            ],
            [
              -61.288634,
              -43.814035
            ],
            [
              -61.468351,
              -43.898582
            ],
            [
              -61.635555,
              -43.995238
            ],
            [
              -61.788636,
              -44.103071
            ],
            [
              -61.926119,
              -44.221044
            ],
            [
              -62.046682,
              -44.348019
            ],
            [
              -62.149162,
              -44.482775
            ],
            [
              -62.232574,
              -44.624014
            ],
            [
              -62.296112,
              -44.770374
            ],
            [
              -62.339166,
              -44.920448
            ],
            [
              -62.361321,
              -45.072789
            ],
            [
              -62.362364,
              -45.22593
            ],
            [
              -62.342284,
              -45.378397
            ],
            [
              -62.301275,
              -45.52872
            ],
            [
              -62.239732,
              -45.675454
            ],
            [
              -62.158248,
              -45.817184
            ],
            [
              -62.057606,
              -45.952545
            ],
            [
              -61.938777,
              -46.080234
            ],
            [
              -61.802905,
              -46.199021
            ],
            [
              -61.651299,
              -46.307762
            ],
            [
              -61.485418,
              -46.40541
            ],
            [
              -61.30686,
              -46.491024
            ],
            [
              -61.117344,
              -46.56378
            ],
            [
              -60.918697,
              -46.622978
            ],
            [
              -60.71283,
              -46.668047
            ]
          ]
        ],
        "type": "Polygon"
      },
      "properties": {
        "kind": "reachableSet",
        "observationStatus": "estimated",
        "vessel": "A"
      },
      "type": "Feature"
    },
    {
      "geometry": {
        "coordinates": [
          [
            [
              -60.395957,
              -46.652033
            ],
            [
              -60.189418,
              -46.66129
            ],
            [
              -59.982592,
              -46.656115
            ],
            [
              -59.777471,
              -46.636558
            ],
            [
              -59.57603,
              -46.602808
            ],
            [
              -59.380208,
              -46.55519
            ],
            [
              -59.191893,
              -46.494161
            ],
            [
              -59.012897,
              -46.420311
            ],
            [
              -58.844944,
              -46.33435
            ],
            [
              -58.689653,
              -46.237106
            ],
            [
              -58.548517,
              -46.129515
            ],
            [
              -58.422897,
              -46.012615
            ],
            [
              -58.314002,
              -45.887529
            ],
            [
              -58.222882,
              -45.755464
            ],
            [
              -58.150413,
              -45.617691
            ],
            [
              -58.097293,
              -45.475537
            ],
            [
              -58.064035,
              -45.330371
            ],
            [
              -58.050958,
              -45.18359
            ],
            [
              -58.058188,
              -45.036609
            ],
            [
              -58.085656,
              -44.890843
            ],
            [
              -58.133097,
              -44.747696
            ],
            [
              -58.200054,
              -44.608546
            ],
            [
              -58.285883,
              -44.474734
            ],
            [
              -58.389756,
              -44.347548
            ],
            [
              -58.510674,
              -44.228213
            ],
            [
              -58.647472,
              -44.117878
            ],
            [
              -58.798833,
              -44.017606
            ],
            [
              -58.963298,
              -43.928362
            ],
            [
              -59.139285,
              -43.851007
            ],
            [
              -59.325097,
              -43.786284
            ],
            [
              -59.518947,
              -43.734818
            ],
            [
              -59.718965,
              -43.697104
            ],
            [
              -59.923228,
              -43.673505
            ],
            [
              -60.129767,
              -43.664248
            ],
            [
              -60.336593,
              -43.669423
            ],
            [
              -60.541714,
              -43.68898
            ],
            [
              -60.743155,
              -43.72273
            ],
            [
              -60.938977,
              -43.770349
            ],
            [
              -61.127292,
              -43.831377
            ],
            [
              -61.306288,
              -43.905227
            ],
            [
              -61.474241,
              -43.991188
            ],
            [
              -61.629532,
              -44.088432
            ],
            [
              -61.770668,
              -44.196023
            ],
            [
              -61.896288,
              -44.312924
            ],
            [
              -62.005183,
              -44.438009
            ],
            [
              -62.096303,
              -44.570074
            ],
            [
              -62.168772,
              -44.707847
            ],
            [
              -62.221892,
              -44.850001
            ],
            [
              -62.25515,
              -44.995168
            ],
            [
              -62.268227,
              -45.141948
            ],
            [
              -62.260997,
              -45.288929
            ],
            [
              -62.233529,
              -45.434695
            ],
            [
              -62.186088,
              -45.577842
            ],
            [
              -62.119131,
              -45.716992
            ],
            [
              -62.033302,
              -45.850805
            ],
            [
              -61.929429,
              -45.977991
            ],
            [
              -61.808511,
              -46.097326
            ],
            [
              -61.671713,
              -46.207661
            ],
            [
              -61.520352,
              -46.307933
            ],
            [
              -61.355887,
              -46.397176
            ],
            [
              -61.1799,
              -46.474531
            ],
            [
              -60.994088,
              -46.539254
            ],
            [
              -60.800238,
              -46.59072
            ],
            [
              -60.60022,
              -46.628434
            ],
            [
              -60.395957,
              -46.652033
            ]
          ]
        ],
        "type": "Polygon"
      },
      "properties": {
        "kind": "reachableSet",
        "observationStatus": "estimated",
        "vessel": "B"
      },
      "type": "Feature"
    }
  ],
  "properties": {
    "dateline": false
  },
  "type": "FeatureCollection"
}
