{
  "features": [
    {
      "geometry": {
        "coordinates": [
          -164.809973,
          58.396427
        ],
        "type": "Point"
      },
      "properties": {
        "mmsi": "367184150",
        "observationStatus": "observed",
        "role": "off",
        "time": "2019-06-04T22:58:01Z",
        "vessel": "A"
      },
      "type": "Feature"
    },
    {
      "geometry": {
        "coordinates": [
          -164.947573,
          58.365787
        ],
        "type": "Point"
      },
      "properties": {
        "mmsi": "338250000",
        "observationStatus": "observed",
        "role": "off",
        "time": "2019-06-04T23:00:22Z",
        "vessel": "B"
      },
      "type": "Feature"
    },
    {
      "geometry": {
        "coordinates": [
          -164.884398,
          58.208945
        ],
        "type": "Point"
      },
      "properties": {
        "mmsi": "338250000",
        "observationStatus": "observed",
        "role": "on",
        "time": "2019-06-07T15:27:42Z",
        "vessel": "B"
      },
      "type": "Feature"
    },
    {
      "geometry": {
        "coordinates": [
          -164.831173,
          58.244027
        ],
        "type": "Point"
      },
      "properties": {
        "mmsi": "367184150",
        "observationStatus": "observed",
        "role": "on",
        "time": "2019-06-07T15:33:34Z",
        "vessel": "A"
      },
      "type": "Feature"
    },
    {
      "geometry": {
        "coordinates": [
          [
            -164.809973,
            58.396427
          ],
          [
            -164.878773,
            58.223953
          ],
          [
            -164.831173,
            58.244027
          ]
        ],
        "type": "LineString"
      },
      "properties": {
        "confidence": "low",
        "lineStyle": "dashed",
        "observationStatus": "estimated",
        "source": "reachable-set heuristic",
        "vessel": "A"
      },
      "type": "Feature"
    },
    {
      "geometry": {
        "coordinates": [
          [
            -164.947573,
            58.365787
          ],
          [
            -164.878773,
            58.223953
          ],
          [
            -164.884398,
            58.208945
          ]
        ],
        "type": "LineString"
      },
      "properties": {
        "confidence": "low",
        "lineStyle": "dashed",
        "observationStatus": "estimated",
        "source": "reachable-set heuristic",
        "vessel": "B"
      },
      "type": "Feature"
    },
    {
      "geometry": {
        "coordinates": [
          -164.878773,
          58.223953
        ],
        "type": "Point"
      },
      "properties": {
        "kind": "meetingPoint",
        "observationStatus": "estimated"
      },
      "type": "Feature"
    },
    {
      "geometry": {
        "coordinates": [
          [
            [
              -165.781084,
              51.415422
            ],
            [
              -164.496518,
              51.398895
            ],
            [
              -163.215072,
              51.449025
            ],
            [
              -161.949088,
              51.565327
            ],
            [
              -160.710758,
              51.746684
            ],
            [
              -159.512008,
              51.991346
            ],
            [
              -158.364382,
              52.29696
            ],
            [
              -157.278933,
              52.660581
            ],
            [
              -156.266114,
              53.078707
            ],
            [
              -155.335679,
              53.547312
            ],
            [
              -154.496589,
              54.061883
            ],
            [
              -153.756924,
              54.617464
            ],
            [
              -153.123808,
              55.208705
            ],
            [
              -152.603339,
              55.829911
            ],
            [
              -152.200528,
              56.4751
            ],
            [
              -151.919256,
              57.138059
            ],
            [
              -151.76223,
              57.812403
            ],
            [
              -151.730963,
              58.491638
            ],
            [
              -151.825756,
              59.169222
            ],
            [
              -152.045696,
              59.838629
            ],
            [
              -152.388665,
              60.493413
            ],
            [
              -152.851361,
              61.127269
            ],
            [
              -153.429326,
              61.734091
            ],
            [
              -154.116995,
              62.308036
            ],
            [
              -154.907746,
              62.843575
            ],
            [
              -155.793963,
              63.335553
            ],
            [
              -156.767111,
              63.77923
            ],
            [
              -157.817818,
              64.170334
            ],
            [
              -158.935965,
              64.505099
            ],
            [
              -160.110785,
              64.780299
            ],
            [
              -161.330962,
              64.993286
            ],
            [
              -162.584746,
              65.142007
            ],
            [
              -163.860062,
              65.225031
            ],
            [
              -165.144629,
              65.241558
            ],
            [
              -166.426075,
              65.191429
            ],
            [
              -167.692059,
              65.075126
            ],
            [
              -168.930389,
              64.89377
            ],
            [
              -170.129139,
              64.649107
            ],
            [
              -171.276765,
              64.343493
            ],
            [
              -172.362214,
              63.979872
            ],
            [
              -173.375033,
              63.561746
            ],
            [
              -174.305468,
              63.093141
            ],
            [
              -175.144558,
              62.57857
            ],
            [
              -175.884223,
              62.022989
            ],
            [
              -176.517338,
              61.431749
            ],
            [
              -177.037808,
              60.810542
            ],
            [
              -177.440618,
              60.165353
            ],
            [
              -177.721891,
              59.502394
            ],
            [
              -177.878917,
              58.82805
            ],
            [
              -177.910184,
              58.148816
            ],
            [
              -177.815391,
              57.471232
            ],
            [
              -177.595451,
              56.801824
            ],
            [
              -177.252481,
              56.14704
            ],
            [
              -176.789786,
              55.513185
            ],
            [
              -176.211821,
              54.906363
            ],
            [
              -175.524151,
              54.332418
            ],
            [
              -174.7334,
              53.796878
            ],
            [
              -173.847184,
              53.3049
            ],
            [
              -172.874036,
              52.861223
            ],
            [
              -171.823329,
              52.470119
            ],
            [
              -170.705181,
              52.135355
            ],
            [
              -169.530362,
              51.860154
            ],
            [
              -168.310185,
              51.647167
            ],
            [
              -167.056401,
              51.498446
            ],
            [
              -165.781084,
              51.415422
            ]
          ]
        ],
        "type": "Polygon"
      },
      "properties": {
        "kind": "reachableSet",
        "observationStatus": "estimated",
        "vessel": "A"
      },
      "type": "Feature"
    },
    {
      "geometry": {
        "coordinates": [
          [
            [
              -162.194408,
              51.53063
            ],
            [
              -160.95619,
              51.704333
            ],
            [
              -159.756107,
              51.941434
            ],
            [
              -158.605717,
              52.23965
            ],
            [
              -157.516097,
              52.596108
            ],
            [
              -156.497743,
              53.007377
            ],
            [
              -155.560461,
              53.469494
            ],
            [
              -154.713278,
              53.978011
            ],
            [
              -153.964352,
              54.528028
            ],
            [
              -153.320897,
              55.114251
            ],
            [
              -152.789109,
              55.731032
            ],
            [
              -152.374109,
              56.372432
            ],
            [
              -152.079894,
              57.032274
            ],
            [
              -151.909298,
              57.704203
            ],
            [
              -151.863964,
              58.381748
            ],
            [
              -151.944327,
              59.058384
            ],
            [
              -152.149615,
              59.727595
            ],
            [
              -152.47785,
              60.382936
            ],
            [
              -152.92587,
              61.018095
            ],
            [
              -153.489363,
              61.626956
            ],
            [
              -154.1629,
              62.203655
            ],
            [
              -154.939995,
              62.742638
            ],
            [
              -155.813164,
              63.238714
            ],
            [
              -156.773998,
              63.687106
            ],
            [
              -157.813244,
              64.083495
            ],
            [
              -158.920894,
              64.424065
            ],
            [
              -160.086279,
              64.705535
            ],
            [
              -161.298177,
              64.925194
            ],
            [
              -162.544917,
              65.080927
            ],
            [
              -163.814491,
              65.171235
            ],
            [
              -165.094674,
              65.195247
            ],
            [
              -166.373135,
              65.152733
            ],
            [
              -167.637563,
              65.044101
            ],
            [
              -168.875781,
              64.870399
            ],
            [
              -170.075864,
              64.633298
            ],
            [
              -171.226255,
              64.335082
            ],
            [
              -172.315874,
              63.978623
            ],
            [
              -173.334229,
              63.567355
            ],
            [
              -174.271511,
              63.105237
            ],
            [
              -175.118694,
              62.596721
            ],
            [
              -175.867619,
              62.046703
            ],
            [
              -176.511075,
              61.460481
            ],
            [
              -177.042863,
              60.8437
            ],
            [
              -177.457863,
              60.2023
            ],
            [
              -177.752077,
              59.542458
            ],
            [
              -177.922673,
              58.870529
            ],
            [
              -177.968008,
              58.192984
            ],
            [
              -177.887645,
              57.516347
            ],
            [
              -177.682357,
              56.847136
            ],
            [
              -177.354122,
              56.191796
            ],
            [
              -176.906101,
              55.556636
            ],
            [
              -176.342609,
              54.947776
            ],
            [
              -175.669072,
              54.371077
            ],
            [
              -174.891977,
              53.832094
            ],
            [
              -174.018808,
              53.336018
            ],
            [
              -173.057974,
              52.887626
            ],
            [
              -172.018727,
              52.491236
            ],
            [
              -170.911078,
              52.150667
            ],
            [
              -169.745693,
              51.869197
            ],
            [
              -168.533794,
              51.649538
            ],
            [
              -167.287055,
              51.493804
            ],
            [
              -166.01748,
              51.403497
            ],
            [
              -164.737298,
              51.379484
            ],
            [
              -163.458837,
              51.421999
            ],
            [
              -162.194408,
              51.53063
            ]
          ]
        ],
        "type": "Polygon"
      },
      "properties": {
        "kind": "reachableSet",
        "observationStatus": "estimated",
        "vessel": "B"
      },
      "type": "Feature"
    }
  ],
  "properties": {
    "dateline": false
  },
  "type": "FeatureCollection"
}
