{
  "features": [
    {
      "geometry": {
        "coordinates": [
          -60.40925,
          -45.617522
        ],
        "type": "Point"
      },
      "properties": {
        "mmsi": "412329684",
        "observationStatus": "observed",
        "role": "off",
        "time": "2018-02-02T06:14:07Z",
        "vessel": "A"
      },
      "type": "Feature"
    },
    {
      "geometry": {
        "coordinates": [
          -60.438693,
          -45.64184
        ],
        "type": "Point"
      },
      "properties": {
        "mmsi": "412329693",
        "observationStatus": "observed",
        "role": "off",
        "time": "2018-02-02T06:36:25Z",
        "vessel": "B"
      },
      "type": "Feature"
    },
    {
      "geometry": {
        "coordinates": [
          -60.501782,
          -45.670552
        ],
        "type": "Point"
      },
      "properties": {
        "mmsi": "412329693",
        "observationStatus": "observed",
        "role": "on",
        "time": "2018-02-02T23:32:36Z",
        "vessel": "B"
      },
      "type": "Feature"
    },
    {
      "geometry": {
        "coordinates": [
          -60.523442,
          -45.7289
        ],
        "type": "Point"
      },
      "properties": {
        "mmsi": "412329684",
        "observationStatus": "observed",
        "role": "on",
        "time": "2018-02-03T00:01:38Z",
        "vessel": "A"
      },
      "type": "Feature"
    },
    {
      "geometry": {
        "coordinates": [
          [
            -60.40925,
            -45.617522
          ],
          [
            -60.495223,
            -45.667815
          ],
          [
            -60.523442,
            -45.7289
          ]
        ],
        "type": "LineString"
      },
      "properties": {
        "confidence": "low",
        "lineStyle": "dashed",
        "observationStatus": "estimated",
        "source": "reachable-set heuristic",
        "vessel": "A"
      },
      "type": "Feature"
    },
    {
      "geometry": {
        "coordinates": [
          [
            -60.438693,
            -45.64184
          ],
          [
            -60.495223,
            -45.667815
          ],
          [
            -60.501782,
            -45.670552
          ]
        ],
        "type": "LineString"
      },
      "properties": {
        "confidence": "low",
        "lineStyle": "dashed",
        "observationStatus": "estimated",
        "source": "reachable-set heuristic",
        "vessel": "B"
      },
      "type": "Feature"
    },
    {
      "geometry": {
        "coordinates": [
          -60.495223,
          -45.667815
        ],
        "type": "Point"
      },
      "properties": {
        "kind": "meetingPoint",
        "observationStatus": "estimated"
      },
      "type": "Feature"
    },
    {
      "geometry": {
        "coordinates": [
          [
            [
              -61.986541,
              -47.155953
            ],
            [
              -61.772776,
              -47.253563
            ],
            [
              -61.54643,
              -47.335953
            ],
            [
              -61.309681,
              -47.40233
            ],
            [
              -61.064812,
              -47.452054
            ],
            [
              -60.814178,
              -47.484648
            ],
            [
              -60.560195,
              -47.499796
            ],
            [
              -60.305308,
              -47.497353
            ],
            [
              -60.051971,
              -47.477343
            ],
            [
              -59.802626,
              -47.439958
            ],
            [
              -59.559672,
              -47.385558
            ],
            [
              -59.32545,
              -47.314668
            ],
            [
              -59.102216,
              -47.227969
            ],
            [
              -58.892119,
              -47.126297
            ],
            [
              -58.697183,
              -47.010631
            ],
            [
              -58.519284,
              -46.882085
            ],
            [
              -58.360137,
              -46.741897
            ],
            [
              -58.221274,
              -46.591417
            ],
            [
              -58.104032,
              -46.432094
            ],
            [
              -58.00954,
              -46.265463
            ],
            [
              -57.938709,
              -46.093128
            ],
            [
              -57.892221,
              -45.916749
            ],
            [
              -57.870522,
              -45.738024
            ],
            [
              -57.873823,
              -45.558675
            ],
            [
              -57.902091,
              -45.380429
            ],
            [
              -57.955055,
              -45.205003
            ],
            [
              -58.032203,
              -45.034086
            ],
            [
              -58.132794,
              -44.869325
            ],
            [
              -58.255858,
              -44.712305
            ],
            [
              -58.40021,
              -44.564539
            ],
            [
              -58.56446,
              -44.42745
            ],
            [
              -58.747027,
              -44.302358
            ],
            [
              -58.946151,
              -44.190469
            ],
            [
              -59.159916,
              -44.092859
            ],
            [
              -59.386262,
              -44.010469
            ],
            [
              -59.62301,
              -43.944092
            ],
            [
              -59.86788,
              -43.894367
            ],
            [
              -60.118514,
              -43.861774
            ],
            [
              -60.372497,
              -43.846626
            ],
            [
              -60.627384,
              -43.849068
            ],
            [
              -60.88072,
              -43.869079
            ],
            [
              -61.130066,
              -43.906463
            ],
            [
              -61.373019,
              -43.960863
            ],
            [
              -61.607241,
              -44.031754
            ],
            [
              -61.830476,
              -44.118452
            ],
            [
              -62.040573,
              -44.220124
            ],
            [
              -62.235509,
              -44.33579
            ],
            [
              -62.413407,
              -44.464336
            ],
            [
              -62.572555,
              -44.604524
            ],
            [
              -62.711418,
              -44.755004
            ],
            [
              -62.82866,
              -44.914327
            ],
            [
              -62.923151,
              -45.080959
            ],
            [
              -62.993982,
              -45.253294
            ],
            [
              -63.040471,
              -45.429673
            ],
            [
              -63.062169,
              -45.608398
            ],
            [
              -63.058869,
              -45.787746
            ],
            [
              -63.0306,
              -45.965992
            ],
            [
              -62.977637,
              -46.141418
            ],
            [
              -62.900489,
              -46.312335
            ],
            [
              -62.799898,
              -46.477097
            ],
            [
              -62.676834,
              -46.634117
            ],
            [
              -62.532482,
              -46.781883
            ],
            [
              -62.368232,
              -46.918972
            ],
            [
              -62.185665,
              -47.044063
            ],
            [
              -61.986541,
              -47.155953
            ]
          ]
        ],
        "type": "Polygon"
      },
      "properties": {
        "kind": "reachableSet",
        "observationStatus": "estimated",
        "vessel": "A"
      },
      "type": "Feature"
    },
    {
      "geometry": {
        "coordinates": [
          [
            [
              -62.540572,
              -46.59841
            ],
            [
              -62.399379,
              -46.736658
            ],
            [
              -62.239607,
              -46.8645
            ],
            [
              -62.062796,
              -46.980706
            ],
            [
              -61.870647,
              -47.084156
            ],
            [
              -61.665012,
              -47.173853
            ],
            [
              -61.44787,
              -47.248935
            ],
            [
              -61.221313,
              -47.308678
            ],
            [
              -60.987523,
              -47.352507
            ],
            [
              -60.748751,
              -47.379999
            ],
            [
              -60.507297,
              -47.39089
            ],
            [
              -60.265486,
              -47.385075
            ],
            [
              -60.025647,
              -47.36261
            ],
            [
              -59.79009,
              -47.323712
            ],
            [
              -59.561082,
              -47.268754
            ],
            [
              -59.340831,
              -47.198266
            ],
            [
              -59.131456,
              -47.112928
            ],
            [
              -58.934974,
              -47.01356
            ],
            [
              -58.753278,
              -46.90112
            ],
            [
              -58.588117,
              -46.776691
            ],
            [
              -58.441082,
              -46.641471
            ],
            [
              -58.313589,
              -46.496762
            ],
            [
              -58.206865,
              -46.343958
            ],
            [
              -58.121939,
              -46.18453
            ],
            [
              -58.059629,
              -46.020015
            ],
            [
              -58.020534,
              -45.851995
            ],
            [
              -58.00503,
              -45.68209
            ],
            [
              -58.013269,
              -45.511935
            ],
            [
              -58.045169,
              -45.34317
            ],
            [
              -58.100424,
              -45.17742
            ],
            [
              -58.178501,
              -45.01628
            ],
            [
              -58.278649,
              -44.861303
            ],
            [
              -58.399903,
              -44.713981
            ],
            [
              -58.541096,
              -44.575734
            ],
            [
              -58.700868,
              -44.447891
            ],
            [
              -58.877679,
              -44.331686
            ],
            [
              -59.069828,
              -44.228236
            ],
            [
              -59.275463,
              -44.138538
            ],
            [
              -59.492605,
              -44.063456
            ],
            [
              -59.719162,
              -44.003713
            ],
            [
              -59.952952,
              -43.959885
            ],
            [
              -60.191724,
              -43.932392
            ],
            [
              -60.433178,
              -43.921501
            ],
            [
              -60.674989,
              -43.927316
            ],
            [
              -60.914828,
              -43.949781
            ],
            [
              -61.150385,
              -43.98868
            ],
            [
              -61.379393,
              -44.043638
            ],
            [
              -61.599644,
              -44.114125
            ],
            [
              -61.809019,
              -44.199464
            ],
            [
              -62.005501,
              -44.298832
            ],
            [
              -62.187197,
              -44.411272
            ],
            [
              -62.352358,
              -44.535701
            ],
            [
              -62.499393,
              -44.670921
            ],
            [
              -62.626886,
              -44.81563
            ],
            [
              -62.73361,
              -44.968434
            ],
            [
              -62.818536,
              -45.127861
            ],
            [
              -62.880846,
              -45.292377
            ],
            [
              -62.919941,
              -45.460397
            ],
            [
              -62.935445,
              -45.630302
            ],
            [
              -62.927206,
              -45.800456
            ],
            [
              -62.895306,
              -45.969221
            ],
            [
              -62.840051,
              -46.134972
            ],
            [
              -62.761974,
              -46.296112
            ],
            [
              -62.661826,
              -46.451089
            ],
            [
              -62.540572,
              -46.59841
            ]
          ]
        ],
        "type": "Polygon"
      },
      "properties": {
        "kind": "reachableSet",
        "observationStatus": "estimated",
        "vessel": "B"
      },
      "type": "Feature"
    }
  ],
  "properties": {
    "dateline": false
  },
  "type": "FeatureCollection"
}
