{
  "features": [
    {
      "geometry": {
        "coordinates": [
          -60.573187,
          -45.600445
        ],
        "type": "Point"
      },
      "properties": {
        "mmsi": "224388201",
        "observationStatus": "observed",
        "role": "off",
        "time": "2017-01-15T07:32:48Z",
        "vessel": "A"
      },
      "type": "Feature"
    },
    {
      "geometry": {
        "coordinates": [
          -60.586443,
          -45.64982
        ],
        "type": "Point"
      },
      "properties": {
        "mmsi": "412329685",
        "observationStatus": "observed",
        "role": "off",
        "time": "2017-01-15T07:36:39Z",
        "vessel": "B"
      },
      "type": "Feature"
    },
    {
      "geometry": {
        "coordinates": [
          -60.660922,
          -45.842818
        ],
        "type": "Point"
      },
      "properties": {
        "mmsi": "412329685",
        "observationStatus": "observed",
        "role": "on",
        "time": "2017-01-15T23:55:05Z",
        "vessel": "B"
      },
      "type": "Feature"
    },
    {
      "geometry": {
        "coordinates": [
          -60.678448,
          -45.909928
        ],
        "type": "Point"
      },
      "properties": {
        "mmsi": "224388201",
        "observationStatus": "observed",
        "role": "on",
        "time": "2017-01-16T00:10:11Z",
        "vessel": "A"
      },
      "type": "Feature"
    },
    {
      "geometry": {
        "coordinates": [
          [
            -60.573187,
            -45.600445
          ],
          [
            -60.625817,
            -45.755187
          ],
          [
            -60.678448,
            -45.909928
          ]
        ],
        "type": "LineString"
      },
      "properties": {
        "confidence": "low",
        "lineStyle": "dashed",
        "observationStatus": "estimated",
        "source": "reachable-set heuristic",
        "vessel": "A"
      },
      "type": "Feature"
    },
    {
      "geometry": {
        "coordinates": [
          [
            -60.586443,
            -45.64982
          ],
          [
            -60.625817,
            -45.755187
          ],
          [
            -60.660922,
            -45.842818
          ]
        ],
        "type": "LineString"
      },
      "properties": {
        "confidence": "low",
        "lineStyle": "dashed",
        "observationStatus": "estimated",
        "source": "reachable-set heuristic",
        "vessel": "B"
      },
      "type": "Feature"
    },
    {
      "geometry": {
        "coordinates": [
          -60.625817,
          -45.755187
        ],
        "type": "Point"
      },
      "properties": {
        "kind": "meetingPoint",
        "observationStatus": "estimated"
      },
      "type": "Feature"
    },
    {
      "geometry": {
        "coordinates": [
          [
            [
              -61.188497,
              -47.409541
            ],
            [
              -60.955961,
              -47.440147
            ],
            [
              -60.720244,
              -47.454526
            ],
            [
              -60.483619,
              -47.452539
            ],
            [
              -60.248362,
              -47.434207
            ],
            [
              -60.016741,
              -47.399704
            ],
            [
              -59.790986,
              -47.349363
            ],
            [
              -59.57327,
              -47.28367
            ],
            [
              -59.365692,
              -47.203257
            ],
            [
              -59.170248,
              -47.108898
            ],
            [
              -58.988823,
              -47.001502
            ],
            [
              -58.823163,
              -46.882103
            ],
            [
              -58.674863,
              -46.751851
            ],
            [
              -58.545353,
              -46.612002
            ],
            [
              -58.435878,
              -46.4639
            ],
            [
              -58.347493,
              -46.308973
            ],
            [
              -58.28105,
              -46.148713
            ],
            [
              -58.237189,
              -45.984663
            ],
            [
              -58.216331,
              -45.818403
            ],
            [
              -58.218678,
              -45.651534
            ],
            [
              -58.244207,
              -45.485664
            ],
            [
              -58.292672,
              -45.322389
            ],
            [
              -58.363607,
              -45.163282
            ],
            [
              -58.456328,
              -45.009876
            ],
            [
              -58.569942,
              -44.863647
            ],
            [
              -58.703355,
              -44.726004
            ],
            [
              -58.855283,
              -44.598273
            ],
            [
              -59.024263,
              -44.481684
            ],
            [
              -59.208665,
              -44.377359
            ],
            [
              -59.406716,
              -44.286303
            ],
            [
              -59.616508,
              -44.209394
            ],
            [
              -59.83602,
              -44.147371
            ],
            [
              -60.063138,
              -44.100833
            ],
            [
              -60.295674,
              -44.070226
            ],
            [
              -60.531391,
              -44.055847
            ],
            [
              -60.768016,
              -44.057834
            ],
            [
              -61.003273,
              -44.076167
            ],
            [
              -61.234894,
              -44.11067
            ],
            [
              -61.460649,
              -44.16101
            ],
            [
              -61.678365,
              -44.226703
            ],
            [
              -61.885943,
              -44.307117
            ],
            [
              -62.081387,
              -44.401476
            ],
            [
              -62.262812,
              -44.508872
            ],
            [
              -62.428472,
              -44.62827
            ],
            [
              -62.576772,
              -44.758522
            ],
            [
              -62.706282,
              -44.898372
            ],
            [
              -62.815757,
              -45.046473
            ],
            [
              -62.904142,
              -45.2014
            ],
            [
              -62.970585,
              -45.36166
            ],
            [
              -63.014446,
              -45.52571
            ],
            [
              -63.035304,
              -45.69197
            ],
            [
              -63.032957,
              -45.858839
            ],
            [
              -63.007428,
              -46.02471
            ],
            [
              -62.958963,
              -46.187985
            ],
            [
              -62.888028,
              -46.347091
            ],
            [
              -62.795307,
              -46.500498
            ],
            [
              -62.681693,
              -46.646726
            ],
            [
              -62.54828,
              -46.784369
            ],
            [
              -62.396352,
              -46.9121
            ],
            [
              -62.227372,
              -47.02869
            ],
            [
              -62.04297,
              -47.133014
            ],
            [
              -61.844919,
              -47.22407
            ],
            [
              -61.635127,
              -47.30098
            ],
            [
              -61.415615,
              -47.363002
            ],
            [
              -61.188497,
              -47.409541
            ]
          ]
        ],
        "type": "Polygon"
      },
      "properties": {
        "kind": "reachableSet",
        "observationStatus": "estimated",
        "vessel": "A"
      },
      "type": "Feature"
    },
    {
      "geometry": {
        "coordinates": [
          [
            [
              -61.24439,
              -47.354781
            ],
            [
              -61.017405,
              -47.389704
            ],
            [
              -60.786629,
              -47.408799
            ],
            [
              -60.554283,
              -47.411884
            ],
            [
              -60.322605,
              -47.398929
            ],
            [
              -60.093827,
              -47.370058
            ],
            [
              -59.870152,
              -47.325549
            ],
            [
              -59.653734,
              -47.265832
            ],
            [
              -59.446656,
              -47.191481
            ],
            [
              -59.250915,
              -47.103212
            ],
            [
              -59.068393,
              -47.001876
            ],
            [
              -58.90085,
              -46.888448
            ],
            [
              -58.749899,
              -46.764021
            ],
            [
              -58.616993,
              -46.629792
            ],
            [
              -58.503413,
              -46.487055
            ],
            [
              -58.410253,
              -46.337185
            ],
            [
              -58.338408,
              -46.181624
            ],
            [
              -58.288573,
              -46.021871
            ],
            [
              -58.261225,
              -45.859465
            ],
            [
              -58.256629,
              -45.695968
            ],
            [
              -58.27483,
              -45.532957
            ],
            [
              -58.315651,
              -45.372
            ],
            [
              -58.3787,
              -45.214648
            ],
            [
              -58.463369,
              -45.062417
            ],
            [
              -58.568843,
              -44.916772
            ],
            [
              -58.694106,
              -44.779116
            ],
            [
              -58.837952,
              -44.650774
            ],
            [
              -58.998996,
              -44.532984
            ],
            [
              -59.175687,
              -44.426878
            ],
            [
              -59.366322,
              -44.333479
            ],
            [
              -59.569066,
              -44.253687
            ],
            [
              -59.781967,
              -44.188269
            ],
            [
              -60.002975,
              -44.137857
            ],
            [
              -60.22996,
              -44.102935
            ],
            [
              -60.460736,
              -44.083839
            ],
            [
              -60.693082,
              -44.080754
            ],
            [
              -60.92476,
              -44.09371
            ],
            [
              -61.153538,
              -44.122581
            ],
            [
              -61.377213,
              -44.167089
            ],
            [
              -61.593631,
              -44.226806
            ],
            [
              -61.800709,
              -44.301157
            ],
            [
              -61.99645,
              -44.389426
            ],
            [
              -62.178972,
              -44.490762
            ],
            [
              -62.346515,
              -44.60419
            ],
            [
              -62.497466,
              -44.728618
            ],
            [
              -62.630372,
              -44.862846
            ],
            [
              -62.743952,
              -45.005583
            ],
            [
              -62.837112,
              -45.155453
            ],
            [
              -62.908957,
              -45.311014
            ],
            [
              -62.958792,
              -45.470767
            ],
            [
              -62.98614,
              -45.633174
            ],
            [
              -62.990736,
              -45.79667
            ],
            [
              -62.972535,
              -45.959681
            ],
            [
              -62.931714,
              -46.120638
            ],
            [
              -62.868665,
              -46.27799
            ],
            [
              -62.783996,
              -46.430221
            ],
            [
              -62.678522,
              -46.575866
            ],
            [
              -62.553259,
              -46.713523
            ],
            [
              -62.409413,
              -46.841864
            ],
            [
              -62.248369,
              -46.959655
            ],
            [
              -62.071678,
              -47.06576
            ],
            [
              -61.881043,
              -47.159159
            ],
            [
              -61.678299,
              -47.238951
            ],
            [
              -61.465398,
              -47.304369
            ],
            [
              -61.24439,
              -47.354781
            ]
          ]
        ],
        "type": "Polygon"
      },
      "properties": {
        "kind": "reachableSet",
        "observationStatus": "estimated",
        "vessel": "B"
      },
      "type": "Feature"
    }
  ],
  "properties": {
    "dateline": false
  },
  "type": "FeatureCollection"
}
