{
  "features": [
    {
      "geometry": {
        "coordinates": [
          -60.690967,
          -46.145457
        ],
        "type": "Point"
      },
      "properties": {
        "mmsi": "412329693",
        "observationStatus": "observed",
        "role": "off",
        "time": "2017-02-05T07:25:16Z",
        "vessel": "A"
      },
      "type": "Feature"
    },
    {
      "geometry": {
        "coordinates": [
          -60.61887,
          -46.099018
        ],
        "type": "Point"
      },
      "properties": {
        "mmsi": "412329692",
        "observationStatus": "observed",
        "role": "off",
        "time": "2017-02-05T07:54:19Z",
        "vessel": "B"
      },
      "type": "Feature"
    },
    {
      "geometry": {
        "coordinates": [
          -60.517663,
          -45.364132
        ],
        "type": "Point"
      },
      "properties": {
        "mmsi": "412329693",
        "observationStatus": "observed",
        "role": "on",
        "time": "2017-02-05T23:32:35Z",
        "vessel": "A"
      },
      "type": "Feature"
    },
    {
      "geometry": {
        "coordinates": [
          -60.500382,
          -45.32364
        ],
        "type": "Point"
      },
      "properties": {
        "mmsi": "412329692",
        "observationStatus": "observed",
        "role": "on",
        "time": "2017-02-05T23:48:15Z",
        "vessel": "B"
      },
      "type": "Feature"
    },
    {
      "geometry": {
        "coordinates": [
          [
            -60.690967,
            -46.145457
          ],
          [
            -60.595674,
            -45.929792
          ],
          [
            -60.517663,
            -45.364132
          ]
        ],
        "type": "LineString"
      },
      "properties": {
        "confidence": "low",
        "lineStyle": "dashed",
        "observationStatus": "estimated",
        "source": "reachable-set heuristic",
        "vessel": "A"
      },
      "type": "Feature"
    },
    {
      "geometry": {
        "coordinates": [
          [
            -60.61887,
            -46.099018
          ],
          [
            -60.595674,
            -45.929792
          ],
          [
            -60.500382,
            -45.32364
          ]
        ],
        "type": "LineString"
      },
      "properties": {
        "confidence": "low",
        "lineStyle": "dashed",
        "observationStatus": "estimated",
        "source": "reachable-set heuristic",
        "vessel": "B"
      },
      "type": "Feature"
    },
    {
      "geometry": {
        "coordinates": [
          -60.595674,
          -45.929792
        ],
        "type": "Point"
      },
      "properties": {
        "kind": "meetingPoint",
        "observationStatus": "estimated"
      },
      "type": "Feature"
    },
    {
      "geometry": {
        "coordinates": [
          [
            [
              -60.243495,
              -44.128062
            ],
            [
              -60.465573,
              -44.111779
            ],
            [
              -60.688988,
              -44.111319
            ],
            [
              -60.911587,
              -44.126686
            ],
            [
              -61.131227,
              -44.157732
            ],
            [
              -61.345792,
              -44.20416
            ],
            [
              -61.553217,
              -44.265521
            ],
            [
              -61.751503,
              -44.341224
            ],
            [
              -61.938741,
              -44.430541
            ],
            [
              -62.113128,
              -44.532611
            ],
            [
              -62.272984,
              -44.646451
            ],
            [
              -62.41677,
              -44.770965
            ],
            [
              -62.543101,
              -44.904954
            ],
            [
              -62.650761,
              -45.047128
            ],
            [
              -62.738712,
              -45.196117
            ],
            [
              -62.806107,
              -45.350486
            ],
            [
              -62.852299,
              -45.508749
            ],
            [
              -62.876841,
              -45.669381
            ],
            [
              -62.879497,
              -45.830836
            ],
            [
              -62.860242,
              -45.991559
            ],
            [
              -62.819261,
              -46.150001
            ],
            [
              -62.756949,
              -46.304637
            ],
            [
              -62.673906,
              -46.453978
            ],
            [
              -62.570932,
              -46.596586
            ],
            [
              -62.449018,
              -46.731087
            ],
            [
              -62.309339,
              -46.856185
            ],
            [
              -62.153239,
              -46.970677
            ],
            [
              -61.982222,
              -47.073458
            ],
            [
              -61.797936,
              -47.163541
            ],
            [
              -61.602154,
              -47.240056
            ],
            [
              -61.396762,
              -47.302268
            ],
            [
              -61.183739,
              -47.349576
            ],
            [
              -60.965135,
              -47.381526
            ],
            [
              -60.743057,
              -47.397809
            ],
            [
              -60.519642,
              -47.39827
            ],
            [
              -60.297043,
              -47.382903
            ],
            [
              -60.077403,
              -47.351856
            ],
            [
              -59.862838,
              -47.305429
            ],
            [
              -59.655413,
              -47.244068
            ],
            [
              -59.457127,
              -47.168364
            ],
            [
              -59.269889,
              -47.079048
            ],
            [
              -59.095502,
              -46.976978
            ],
            [
              -58.935646,
              -46.863137
            ],
            [
              -58.79186,
              -46.738623
            ],
            [
              -58.665529,
              -46.604634
            ],
            [
              -58.557869,
              -46.46246
            ],
            [
              -58.469918,
              -46.313472
            ],
            [
              -58.402523,
              -46.159103
            ],
            [
              -58.356331,
              -46.00084
            ],
            [
              -58.331789,
              -45.840207
            ],
            [
              -58.329133,
              -45.678752
            ],
            [
              -58.348388,
              -45.51803
            ],
            [
              -58.389369,
              -45.359587
            ],
            [
              -58.451681,
              -45.204951
            ],
            [
              -58.534724,
              -45.05561
            ],
            [
              -58.637698,
              -44.913002
            ],
            [
              -58.759612,
              -44.778502
            ],
            [
              -58.899291,
              -44.653403
            ],
            [
              -59.055391,
              -44.538912
            ],
            [
              -59.226408,
              -44.43613
            ],
            [
              -59.410694,
              -44.346048
            ],
            [
              -59.606476,
              -44.269532
            ],
            [
              -59.811868,
              -44.207321
            ],
            [
              -60.024891,
              -44.160012
            ],
            [
              -60.243495,
              -44.128062
            ]
          ]
        ],
        "type": "Polygon"
      },
      "properties": {
        "kind": "reachableSet",
        "observationStatus": "estimated",
        "vessel": "A"
      },
      "type": "Feature"
    },
    {
      "geometry": {
        "coordinates": [
          [
            [
              -60.313169,
              -44.098534
            ],
            [
              -60.532626,
              -44.089816
            ],
            [
              -60.752343,
              -44.096713
            ],
            [
              -60.970204,
              -44.11916
            ],
            [
              -61.184111,
              -44.156941
            ],
            [
              -61.392004,
              -44.209691
            ],
            [
              -61.591881,
              -44.276903
            ],
            [
              -61.781816,
              -44.357929
            ],
            [
              -61.959982,
              -44.451989
            ],
            [
              -62.124661,
              -44.558177
            ],
            [
              -62.274267,
              -44.675471
            ],
            [
              -62.407361,
              -44.80274
            ],
            [
              -62.52266,
              -44.93876
            ],
            [
              -62.619054,
              -45.08222
            ],
            [
              -62.695615,
              -45.231739
            ],
            [
              -62.751605,
              -45.385876
            ],
            [
              -62.786485,
              -45.543148
            ],
            [
              -62.799919,
              -45.702039
            ],
            [
              -62.791778,
              -45.86102
            ],
            [
              -62.76214,
              -46.018559
            ],
            [
              -62.71129,
              -46.17314
            ],
            [
              -62.639719,
              -46.323273
            ],
            [
              -62.548116,
              -46.467512
            ],
            [
              -62.437362,
              -46.604469
            ],
            [
              -62.308524,
              -46.732825
            ],
            [
              -62.162844,
              -46.851343
            ],
            [
              -62.001724,
              -46.958883
            ],
            [
              -61.826716,
              -47.054407
            ],
            [
              -61.639504,
              -47.136997
            ],
            [
              -61.441893,
              -47.205857
            ],
            [
              -61.235786,
              -47.260324
            ],
            [
              -61.023166,
              -47.299873
            ],
            [
              -60.806083,
              -47.324124
            ],
            [
              -60.586626,
              -47.332843
            ],
            [
              -60.366909,
              -47.325945
            ],
            [
              -60.149047,
              -47.303498
            ],
            [
              -59.93514,
              -47.265718
            ],
            [
              -59.727247,
              -47.212967
            ],
            [
              -59.527371,
              -47.145756
            ],
            [
              -59.337435,
              -47.06473
            ],
            [
              -59.15927,
              -46.97067
            ],
            [
              -58.994591,
              -46.864481
            ],
            [
              -58.844984,
              -46.747188
            ],
            [
              -58.71189,
              -46.619918
            ],
            [
              -58.596591,
              -46.483898
            ],
            [
              -58.500197,
              -46.340438
            ],
            [
              -58.423637,
              -46.19092
            ],
            [
              -58.367647,
              -46.036782
            ],
            [
              -58.332767,
              -45.879511
            ],
            [
              -58.319333,
              -45.720619
            ],
            [
              -58.327474,
              -45.561638
            ],
            [
              -58.357112,
              -45.404099
            ],
            [
              -58.407961,
              -45.249519
            ],
            [
              -58.479532,
              -45.099386
            ],
            [
              -58.571136,
              -44.955146
            ],
            [
              -58.68189,
              -44.818189
            ],
            [
              -58.810727,
              -44.689833
            ],
            [
              -58.956408,
              -44.571315
            ],
            [
              -59.117528,
              -44.463776
            ],
            [
              -59.292536,
              -44.368251
            ],
            [
              -59.479747,
              -44.285661
            ],
            [
              -59.677358,
              -44.216801
            ],
            [
              -59.883466,
              -44.162334
            ],
            [
              -60.096085,
              -44.122785
            ],
            [
              -60.313169,
              -44.098534
            ]
          ]
        ],
        "type": "Polygon"
      },
      "properties": {
        "kind": "reachableSet",
        "observationStatus": "estimated",
        "vessel": "B"
      },
      "type": "Feature"
    }
  ],
  "properties": {
    "dateline": false
  },
  "type": "FeatureCollection"
}
