{
  "features": [
    {
      "geometry": {
        "coordinates": [
          -57.903623,
          -42.113258
        ],
        "type": "Point"
      },
      "properties": {
        "mmsi": "412421072",
        "observationStatus": "observed",
        "role": "off",
        "time": "2018-04-07T18:00:13Z",
        "vessel": "A"
      },
      "type": "Feature"
    },
    {
      "geometry": {
        "coordinates": [
          -57.824597,
          -42.04659
        ],
        "type": "Point"
      },
      "properties": {
        "mmsi": "412200336",
        "observationStatus": "observed",
        "role": "off",
        "time": "2018-04-07T18:13:02Z",
        "vessel": "B"
      },
      "type": "Feature"
    },
    {
      "geometry": {
        "coordinates": [
          -57.943093,
          -42.055
        ],
        "type": "Point"
      },
      "properties": {
        "mmsi": "412200336",
        "observationStatus": "observed",
        "role": "on",
        "time": "2018-04-08T10:04:08Z",
        "vessel": "B"
      },
      "type": "Feature"
    },
    {
      "geometry": {
        "coordinates": [
          -57.986907,
          -42.056055
        ],
        "type": "Point"
      },
      "properties": {
        "mmsi": "412421072",
        "observationStatus": "observed",
        "role": "on",
        "time": "2018-04-08T10:44:28Z",
        "vessel": "A"
      },
      "type": "Feature"
    },
    {
      "geometry": {
        "coordinates": [
          [
            -57.903623,
            -42.113258
          ],
          [
            -57.942869,
            -42.054971
          ],
          [
            -57.986907,
            -42.056055
          ]
        ],
        "type": "LineString"
      },
      "properties": {
        "confidence": "low",
        "lineStyle": "dashed",
        "observationStatus": "estimated",
        "source": "reachable-set heuristic",
        "vessel": "A"
      },
      "type": "Feature"
    },
    {
      "geometry": {
        "coordinates": [
          [
            -57.824597,
            -42.04659
          ],
          [
            -57.942869,
            -42.054971
          ],
          [
            -57.943093,
            -42.055
          ]
        ],
        "type": "LineString"
      },
      "properties": {
        "confidence": "low",
        "lineStyle": "dashed",
        "observationStatus": "estimated",
        "source": "reachable-set heuristic",
        "vessel": "B"
      },
      "type": "Feature"
    },
    {
      "geometry": {
        "coordinates": [
          -57.942869,
          -42.054971
        ],
        "type": "Point"
      },
      "properties": {
        "kind": "meetingPoint",
        "observationStatus": "estimated"
      },
      "type": "Feature"
    },
    {
      "geometry": {
        "coordinates": [
          [
            [
              -59.503597,
              -41.014313
            ],
            [
              -59.636451,
              -41.133555
            ],
            [
              -59.753019,
              -41.261956
            ],
            [
              -59.852177,
              -41.39828
            ],
            [
              -59.932971,
              -41.541214
            ],
            [
              -59.994622,
              -41.689382
            ],
            [
              -60.036536,
              -41.841356
            ],
            [
              -60.058311,
              -41.995674
            ],
            [
              -60.059735,
              -42.150849
            ],
            [
              -60.040796,
              -42.305386
            ],
            [
              -60.001676,
              -42.457797
            ],
            [
              -59.942752,
              -42.606615
            ],
            [
              -59.864591,
              -42.750406
            ],
            [
              -59.767945,
              -42.887786
            ],
            [
              -59.653746,
              -43.017431
            ],
            [
              -59.523094,
              -43.138093
            ],
            [
              -59.377246,
              -43.24861
            ],
            [
              -59.217607,
              -43.347917
            ],
            [
              -59.045716,
              -43.435058
            ],
            [
              -58.863226,
              -43.509195
            ],
            [
              -58.671895,
              -43.569612
            ],
            [
              -58.473567,
              -43.615728
            ],
            [
              -58.270151,
              -43.647099
            ],
            [
              -58.063606,
              -43.663423
            ],
            [
              -57.855922,
              -43.664543
            ],
            [
              -57.649098,
              -43.650447
            ],
            [
              -57.445126,
              -43.621272
            ],
            [
              -57.24597,
              -43.577299
            ],
            [
              -57.05355,
              -43.51895
            ],
            [
              -56.869717,
              -43.446789
            ],
            [
              -56.696242,
              -43.36151
            ],
            [
              -56.534796,
              -43.263933
            ],
            [
              -56.386933,
              -43.155
            ],
            [
              -56.254079,
              -43.035759
            ],
            [
              -56.137511,
              -42.907358
            ],
            [
              -56.038353,
              -42.771034
            ],
            [
              -55.957559,
              -42.628099
            ],
            [
              -55.895908,
              -42.479932
            ],
            [
              -55.853994,
              -42.327957
            ],
            [
              -55.832219,
              -42.173639
            ],
            [
              -55.830795,
              -42.018465
            ],
            [
              -55.849734,
              -41.863927
            ],
            [
              -55.888854,
              -41.711516
            ],
            [
              -55.947778,
              -41.562698
            ],
            [
              -56.025939,
              -41.418907
            ],
            [
              -56.122585,
              -41.281527
            ],
            [
              -56.236784,
              -41.151882
            ],
            [
              -56.367436,
              -41.03122
            ],
            [
              -56.513284,
              -40.920704
            ],
            [
              -56.672923,
              -40.821396
            ],
            [
              -56.844814,
              -40.734255
            ],
            [
              -57.027304,
              -40.660119
            ],
            [
              -57.218635,
              -40.599702
            ],
            [
              -57.416963,
              -40.553585
            ],
            [
              -57.620379,
              -40.522214
            ],
            [
              -57.826924,
              -40.50589
            ],
            [
              -58.034608,
              -40.504771
            ],
            [
              -58.241432,
              -40.518866
            ],
            [
              -58.445404,
              -40.548041
            ],
            [
              -58.64456,
              -40.592014
            ],
            [
              -58.83698,
              -40.650363
            ],
            [
              -59.020813,
              -40.722524
            ],
            [
              -59.194288,
              -40.807804
            ],
            [
              -59.355734,
              -40.90538
            ],
            [
              -59.503597,
              -41.014313
            ]
          ]
        ],
        "type": "Polygon"
      },
      "properties": {
        "kind": "reachableSet",
        "observationStatus": "estimated",
        "vessel": "A"
      },
      "type": "Feature"
    },
    {
      "geometry": {
        "coordinates": [
          [
            [
              -59.871401,
              -42.191857
            ],
            [
              -59.843344,
              -42.336754
            ],
            [
              -59.796416,
              -42.478897
            ],
            [
              -59.731069,
              -42.616917
            ],
            [
              -59.647931,
              -42.749485
            ],
            [
              -59.547805,
              -42.875325
            ],
            [
              -59.431654,
              -42.993224
            ],
            [
              -59.300597,
              -43.102046
            ],
            [
              -59.155895,
              -43.200745
            ],
            [
              -58.998943,
              -43.288369
            ],
            [
              -58.831253,
              -43.364074
            ],
            [
              -58.654438,
              -43.427132
            ],
            [
              -58.470201,
              -43.476935
            ],
            [
              -58.280318,
              -43.513003
            ],
            [
              -58.086617,
              -43.53499
            ],
            [
              -57.890962,
              -43.542683
            ],
            [
              -57.69524,
              -43.536008
            ],
            [
              -57.501333,
              -43.51503
            ],
            [
              -57.311111,
              -43.47995
            ],
            [
              -57.126404,
              -43.431107
            ],
            [
              -56.948992,
              -43.368971
            ],
            [
              -56.780582,
              -43.29414
            ],
            [
              -56.622798,
              -43.207335
            ],
            [
              -56.477159,
              -43.109392
            ],
            [
              -56.345066,
              -43.001253
            ],
            [
              -56.227793,
              -42.883962
            ],
            [
              -56.126469,
              -42.758647
            ],
            [
              -56.042069,
              -42.626514
            ],
            [
              -55.975406,
              -42.488837
            ],
            [
              -55.927123,
              -42.346942
            ],
            [
              -55.897684,
              -42.202194
            ],
            [
              -55.887373,
              -42.055989
            ],
            [
              -55.896289,
              -41.909733
            ],
            [
              -55.924346,
              -41.764836
            ],
            [
              -55.971274,
              -41.622693
            ],
            [
              -56.036621,
              -41.484673
            ],
            [
              -56.119759,
              -41.352105
            ],
            [
              -56.219885,
              -41.226265
            ],
            [
              -56.336036,
              -41.108366
            ],
            [
              -56.467093,
              -40.999544
            ],
            [
              -56.611795,
              -40.900845
            ],
            [
              -56.768747,
              -40.813221
            ],
            [
              -56.936437,
              -40.737516
            ],
            [
              -57.113252,
              -40.674458
            ],
            [
              -57.297489,
              -40.624655
            ],
            [
              -57.487372,
              -40.588587
            ],
            [
              -57.681073,
              -40.5666
            ],
            [
              -57.876728,
              -40.558907
            ],
            [
              -58.07245,
              -40.565582
            ],
            [
              -58.266357,
              -40.58656
            ],
            [
              -58.456579,
              -40.62164
            ],
            [
              -58.641286,
              -40.670483
            ],
            [
              -58.818698,
              -40.732619
            ],
            [
              -58.987108,
              -40.80745
            ],
            [
              -59.144892,
              -40.894255
            ],
            [
              -59.290531,
              -40.992198
            ],
            [
              -59.422624,
              -41.100337
            ],
            [
              -59.539897,
              -41.217628
            ],
            [
              -59.641221,
              -41.342943
            ],
            [
              -59.725621,
              -41.475076
            ],
            [
              -59.792284,
              -41.612753
            ],
            [
              -59.840567,
              -41.754648
            ],
            [
              -59.870006,
              -41.899396
            ],
            [
              -59.880317,
              -42.045601
            ],
            [
              -59.871401,
              -42.191857
            ]
          ]
        ],
        "type": "Polygon"
      },
      "properties": {
        "kind": "reachableSet",
        "observationStatus": "estimated",
        "vessel": "B"
      },
      "type": "Feature"
    }
  ],
  "properties": {
    "dateline": false
  },
  "type": "FeatureCollection"
}
