{
  "features": [
    {
      "geometry": {
        "coordinates": [
          -60.594958,
          -45.800132
        ],
        "type": "Point"
      },
      "properties": {
        "mmsi": "412329686",
        "observationStatus": "observed",
        "role": "off",
        "time": "2017-01-11T07:04:22Z",
        "vessel": "A"
      },
      "type": "Feature"
    },
    {
      "geometry": {
        "coordinates": [
          -60.615402,
          -45.773417
        ],
        "type": "Point"
      },
      "properties": {
        "mmsi": "412329685",
        "observationStatus": "observed",
        "role": "off",
        "time": "2017-01-11T07:15:47Z",
        "vessel": "B"
      },
      "type": "Feature"
    },
    {
      "geometry": {
        "coordinates": [
          -60.61,
          -45.658333
        ],
        "type": "Point"
      },
      "properties": {
        "mmsi": "412329685",
        "observationStatus": "observed",
        "role": "on",
        "time": "2017-01-11T23:53:44Z",
        "vessel": "B"
      },
      "type": "Feature"
    },
    {
      "geometry": {
        "coordinates": [
          -60.629278,
          -45.668458
        ],
        "type": "Point"
      },
      "properties": {
        "mmsi": "412329686",
        "observationStatus": "observed",
        "role": "on",
        "time": "2017-01-12T00:29:17Z",
        "vessel": "A"
      },
      "type": "Feature"
    },
    {
      "geometry": {
        "coordinates": [
          [
            -60.594958,
            -45.800132
          ],
          [
            -60.612118,
            -45.705785
          ],
          [
            -60.629278,
            -45.668458
          ]
        ],
        "type": "LineString"
      },
      "properties": {
        "confidence": "low",
        "lineStyle": "dashed",
        "observationStatus": "estimated",
        "source": "reachable-set heuristic",
        "vessel": "A"
      },
      "type": "Feature"
    },
    {
      "geometry": {
        "coordinates": [
          [
            -60.615402,
            -45.773417
          ],
          [
            -60.612118,
            -45.705785
          ],
          [
            -60.61,
            -45.658333
          ]
        ],
        "type": "LineString"
      },
      "properties": {
        "confidence": "low",
        "lineStyle": "dashed",
        "observationStatus": "estimated",
        "source": "reachable-set heuristic",
        "vessel": "B"
      },
      "type": "Feature"
    },
    {
      "geometry": {
        "coordinates": [
          -60.612118,
          -45.705785
        ],
        "type": "Point"
      },
      "properties": {
        "kind": "meetingPoint",
        "observationStatus": "estimated"
      },
      "type": "Feature"
    },
    {
      "geometry": {
        "coordinates": [
          [
            [
              -61.070312,
              -43.976372
            ],
            [
              -61.313133,
              -44.016374
            ],
            [
              -61.549203,
              -44.072921
            ],
            [
              -61.776248,
              -44.145468
            ],
            [
              -61.992082,
              -44.233316
            ],
            [
              -62.194625,
              -44.33562
            ],
            [
              -62.381929,
              -44.451394
            ],
            [
              -62.552188,
              -44.579522
            ],
            [
              -62.703764,
              -44.718772
            ],
            [
              -62.835195,
              -44.867802
            ],
            [
              -62.945218,
              -45.025176
            ],
            [
              -63.032771,
              -45.18938
            ],
            [
              -63.097012,
              -45.358831
            ],
            [
              -63.137322,
              -45.531899
            ],
            [
              -63.153313,
              -45.706915
            ],
            [
              -63.144831,
              -45.882196
            ],
            [
              -63.111958,
              -46.056052
            ],
            [
              -63.055009,
              -46.226809
            ],
            [
              -62.974535,
              -46.392823
            ],
            [
              -62.871309,
              -46.552495
            ],
            [
              -62.746325,
              -46.704288
            ],
            [
              -62.600789,
              -46.846739
            ],
            [
              -62.4361,
              -46.978476
            ],
            [
              -62.253845,
              -47.098231
            ],
            [
              -62.05578,
              -47.204851
            ],
            [
              -61.843811,
              -47.297309
            ],
            [
              -61.61998,
              -47.374713
            ],
            [
              -61.386443,
              -47.43632
            ],
            [
              -61.145449,
              -47.481536
            ],
            [
              -60.899319,
              -47.509924
            ],
            [
              -60.650423,
              -47.521212
            ],
            [
              -60.401158,
              -47.515291
            ],
            [
              -60.153924,
              -47.492218
            ],
            [
              -59.911104,
              -47.452216
            ],
            [
              -59.675034,
              -47.395669
            ],
            [
              -59.447989,
              -47.323122
            ],
            [
              -59.232155,
              -47.235274
            ],
            [
              -59.029611,
              -47.13297
            ],
            [
              -58.842308,
              -47.017196
            ],
            [
              -58.672048,
              -46.889068
            ],
            [
              -58.520473,
              -46.749818
            ],
            [
              -58.389041,
              -46.600788
            ],
            [
              -58.279019,
              -46.443414
            ],
            [
              -58.191466,
              -46.27921
            ],
            [
              -58.127225,
              -46.109759
            ],
            [
              -58.086915,
              -45.936691
            ],
            [
              -58.070923,
              -45.761675
            ],
            [
              -58.079406,
              -45.586394
            ],
            [
              -58.112279,
              -45.412538
            ],
            [
              -58.169227,
              -45.241781
            ],
            [
              -58.249702,
              -45.075767
            ],
            [
              -58.352928,
              -44.916095
            ],
            [
              -58.477911,
              -44.764302
            ],
            [
              -58.623448,
              -44.621851
            ],
            [
              -58.788137,
              -44.490114
            ],
            [
              -58.970392,
              -44.370359
            ],
            [
              -59.168457,
              -44.263739
            ],
            [
              -59.380426,
              -44.171281
            ],
            [
              -59.604256,
              -44.093877
            ],
            [
              -59.837793,
              -44.03227
            ],
            [
              -60.078787,
              -43.987054
            ],
            [
              -60.324918,
              -43.958666
            ],
            [
              -60.573814,
              -43.947378
            ],
            [
              -60.823079,
              -43.953299
            ],
            [
              -61.070312,
              -43.976372
            ]
          ]
        ],
        "type": "Polygon"
      },
      "properties": {
        "kind": "reachableSet",
        "observationStatus": "estimated",
        "vessel": "A"
      },
      "type": "Feature"
    },
    {
      "geometry": {
        "coordinates": [
          [
            [
              -60.53286,
              -44.014856
            ],
            [
              -60.770293,
              -44.017549
            ],
            [
              -61.006207,
              -44.036597
            ],
            [
              -61.238332,
              -44.071818
            ],
            [
              -61.464432,
              -44.122873
            ],
            [
              -61.68233,
              -44.189268
            ],
            [
              -61.889926,
              -44.270366
            ],
            [
              -62.085222,
              -44.365385
            ],
            [
              -62.266336,
              -44.47341
            ],
            [
              -62.431525,
              -44.5934
            ],
            [
              -62.579198,
              -44.7242
            ],
            [
              -62.707933,
              -44.864551
            ],
            [
              -62.816489,
              -45.013101
            ],
            [
              -62.903822,
              -45.168418
            ],
            [
              -62.969089,
              -45.329008
            ],
            [
              -63.011664,
              -45.493324
            ],
            [
              -63.031135,
              -45.659783
            ],
            [
              -63.027315,
              -45.826782
            ],
            [
              -63.000242,
              -45.992713
            ],
            [
              -62.950175,
              -46.155978
            ],
            [
              -62.877596,
              -46.315004
            ],
            [
              -62.783206,
              -46.468261
            ],
            [
              -62.667913,
              -46.614272
            ],
            [
              -62.532826,
              -46.75163
            ],
            [
              -62.379248,
              -46.879014
            ],
            [
              -62.208657,
              -46.995196
            ],
            [
              -62.022696,
              -47.099058
            ],
            [
              -61.823156,
              -47.189598
            ],
            [
              -61.611959,
              -47.265946
            ],
            [
              -61.391138,
              -47.327366
            ],
            [
              -61.162821,
              -47.373266
            ],
            [
              -60.929205,
              -47.403205
            ],
            [
              -60.692542,
              -47.416894
            ],
            [
              -60.455109,
              -47.414201
            ],
            [
              -60.219194,
              -47.395153
            ],
            [
              -59.987069,
              -47.359932
            ],
            [
              -59.760969,
              -47.308877
            ],
            [
              -59.543072,
              -47.242482
            ],
            [
              -59.335476,
              -47.161384
            ],
            [
              -59.14018,
              -47.066365
            ],
            [
              -58.959065,
              -46.95834
            ],
            [
              -58.793876,
              -46.83835
            ],
            [
              -58.646203,
              -46.70755
            ],
            [
              -58.517469,
              -46.567199
            ],
            [
              -58.408913,
              -46.418649
            ],
            [
              -58.32158,
              -46.263332
            ],
            [
              -58.256312,
              -46.102742
            ],
            [
              -58.213738,
              -45.938426
            ],
            [
              -58.194267,
              -45.771967
            ],
            [
              -58.198086,
              -45.604968
            ],
            [
              -58.22516,
              -45.439037
            ],
            [
              -58.275227,
              -45.275772
            ],
            [
              -58.347805,
              -45.116746
            ],
            [
              -58.442196,
              -44.963489
            ],
            [
              -58.557489,
              -44.817478
            ],
            [
              -58.692575,
              -44.68012
            ],
            [
              -58.846154,
              -44.552736
            ],
            [
              -59.016745,
              -44.436554
            ],
            [
              -59.202706,
              -44.332692
            ],
            [
              -59.402246,
              -44.242152
            ],
            [
              -59.613443,
              -44.165804
            ],
            [
              -59.834264,
              -44.104384
            ],
            [
              -60.062581,
              -44.058484
            ],
            [
              -60.296197,
              -44.028545
            ],
            [
              -60.53286,
              -44.014856
            ]
          ]
        ],
        "type": "Polygon"
      },
      "properties": {
        "kind": "reachableSet",
        "observationStatus": "estimated",
        "vessel": "B"
      },
      "type": "Feature"
    }
  ],
  "properties": {
    "dateline": false
  },
  "type": "FeatureCollection"
}
