{
  "features": [
    {
      "geometry": {
        "coordinates": [
          -60.839723,
          -47.00438
        ],
        "type": "Point"
      },
      "properties": {
        "mmsi": "441410000",
        "observationStatus": "observed",
        "role": "off",
        "time": "2017-03-09T03:22:03Z",
        "vessel": "A"
      },
      "type": "Feature"
    },
    {
      "geometry": {
        "coordinates": [
          -60.82705,
          -46.919965
        ],
        "type": "Point"
      },
      "properties": {
        "mmsi": "440683000",
        "observationStatus": "observed",
        "role": "off",
        "time": "2017-03-09T03:22:12Z",
        "vessel": "B"
      },
      "type": "Feature"
    },
    {
      "geometry": {
        "coordinates": [
          -60.816307,
          -46.859368
        ],
        "type": "Point"
      },
      "properties": {
        "mmsi": "440683000",
        "observationStatus": "observed",
        "role": "on",
        "time": "2017-03-09T15:59:20Z",
        "vessel": "B"
      },
      "type": "Feature"
    },
    {
      "geometry": {
        "coordinates": [
          -60.83595,
          -46.908365
        ],
        "type": "Point"
      },
      "properties": {
        "mmsi": "441410000",
        "observationStatus": "observed",
        "role": "on",
        "time": "2017-03-09T16:01:00Z",
        "vessel": "A"
      },
      "type": "Feature"
    },
    {
      "geometry": {
        "coordinates": [
          [
            -60.839723,
            -47.00438
          ],
          [
            -60.828015,
            -46.931874
          ],
          [
            -60.83595,
            -46.908365
          ]
        ],
        "type": "LineString"
      },
      "properties": {
        "confidence": "low",
        "lineStyle": "dashed",
        "observationStatus": "estimated",
        "source": "reachable-set heuristic",
        "vessel": "A"
      },
      "type": "Feature"
    },
    {
      "geometry": {
        "coordinates": [
          [
            -60.82705,
            -46.919965
          ],
          [
            -60.828015,
            -46.931874
          ],
          [
            -60.816307,
            -46.859368
          ]
        ],
        "type": "LineString"
      },
      "properties": {
        "confidence": "low",
        "lineStyle": "dashed",
        "observationStatus": "estimated",
        "source": "reachable-set heuristic",
        "vessel": "B"
      },
      "type": "Feature"
    },
    {
      "geometry": {
        "coordinates": [
          -60.828015,
          -46.931874
        ],
        "type": "Point"
      },
      "properties": {
        "kind": "meetingPoint",
        "observationStatus": "estimated"
      },
      "type": "Feature"
    },
    {
      "geometry": {
        "coordinates": [
          [
            [
              -60.791845,
              -45.786088
            ],
            [
              -60.958851,
              -45.788628
            ],
            [
              -61.124691,
              -45.802414
            ],
            [
              -61.287768,
              -45.827313
            ],
            [
              -61.446512,
              -45.863086
            ],
            [
              -61.599395,
              -45.909388
            ],
            [
              -61.744943,
              -45.965773
            ],
            [
              -61.881755,
              -46.031697
            ],
            [
              -62.008514,
              -46.106527
            ],
            [
              -62.123998,
              -46.189542
            ],
            [
              -62.227097,
              -46.279941
            ],
            [
              -62.316815,
              -46.376855
            ],
            [
              -62.392291,
              -46.47935
            ],
            [
              -62.452796,
              -46.586439
            ],
            [
              -62.497748,
              -46.69709
            ],
            [
              -62.526714,
              -46.810239
            ],
            [
              -62.539416,
              -46.924794
            ],
            [
              -62.53573,
              -47.039654
            ],
            [
              -62.515693,
              -47.153712
            ],
            [
              -62.479497,
              -47.26587
            ],
            [
              -62.427491,
              -47.375047
            ],
            [
              -62.360176,
              -47.480191
            ],
            [
              -62.2782,
              -47.580292
            ],
            [
              -62.182352,
              -47.674383
            ],
            [
              -62.073556,
              -47.76156
            ],
            [
              -61.952859,
              -47.840982
            ],
            [
              -61.821424,
              -47.911885
            ],
            [
              -61.680516,
              -47.973586
            ],
            [
              -61.531493,
              -48.02549
            ],
            [
              -61.37579,
              -48.067098
            ],
            [
              -61.214906,
              -48.09801
            ],
            [
              -61.050391,
              -48.117927
            ],
            [
              -60.883828,
              -48.126657
            ],
            [
              -60.716823,
              -48.124117
            ],
            [
              -60.550983,
              -48.110331
            ],
            [
              -60.387905,
              -48.085432
            ],
            [
              -60.229161,
              -48.049659
            ],
            [
              -60.076279,
              -48.003357
            ],
            [
              -59.93073,
              -47.946972
            ],
            [
              -59.793918,
              -47.881048
            ],
            [
              -59.667159,
              -47.806218
            ],
            [
              -59.551675,
              -47.723203
            ],
            [
              -59.448577,
              -47.632804
            ],
            [
              -59.358858,
              -47.53589
            ],
            [
              -59.283383,
              -47.433395
            ],
            [
              -59.222878,
              -47.326306
            ],
            [
              -59.177925,
              -47.215655
            ],
            [
              -59.148959,
              -47.102506
            ],
            [
              -59.136257,
              -46.987951
            ],
            [
              -59.139943,
              -46.873091
            ],
            [
              -59.15998,
              -46.759033
            ],
            [
              -59.196176,
              -46.646875
            ],
            [
              -59.248182,
              -46.537698
            ],
            [
              -59.315498,
              -46.432554
            ],
            [
              -59.397474,
              -46.332453
            ],
            [
              -59.493321,
              -46.238362
            ],
            [
              -59.602118,
              -46.151185
            ],
            [
              -59.722814,
              -46.071763
            ],
            [
              -59.854249,
              -46.00086
            ],
            [
              -59.995157,
              -45.939159
            ],
            [
              -60.14418,
              -45.887255
            ],
            [
              -60.299883,
              -45.845647
            ],
            [
              -60.460767,
              -45.814735
            ],
            [
              -60.625283,
              -45.794818
            ],
            [
              -60.791845,
              -45.786088
            ]
          ]
        ],
        "type": "Polygon"
      },
      "properties": {
        "kind": "reachableSet",
        "observationStatus": "estimated",
        "vessel": "A"
      },
      "type": "Feature"
    },
    {
      "geometry": {
        "coordinates": [
          [
            [
              -60.616183,
              -45.73059
            ],
            [
              -60.782236,
              -45.722318
            ],
            [
              -60.948669,
              -45.725287
            ],
            [
              -61.113879,
              -45.73947
            ],
            [
              -61.276275,
              -45.764731
            ],
            [
              -61.434293,
              -45.800825
            ],
            [
              -61.586411,
              -45.847405
            ],
            [
              -61.731164,
              -45.904023
            ],
            [
              -61.867159,
              -45.970133
            ],
            [
              -61.993085,
              -46.045098
            ],
            [
              -62.107729,
              -46.128197
            ],
            [
              -62.209989,
              -46.21863
            ],
            [
              -62.298878,
              -46.315525
            ],
            [
              -62.373541,
              -46.41795
            ],
            [
              -62.433258,
              -46.524917
            ],
            [
              -62.477455,
              -46.635397
            ],
            [
              -62.505707,
              -46.748326
            ],
            [
              -62.51774,
              -46.862616
            ],
            [
              -62.513439,
              -46.977166
            ],
            [
              -62.492845,
              -47.090874
            ],
            [
              -62.456157,
              -47.202644
            ],
            [
              -62.403729,
              -47.3114
            ],
            [
              -62.336064,
              -47.416094
            ],
            [
              -62.253815,
              -47.515719
            ],
            [
              -62.157773,
              -47.609314
            ],
            [
              -62.048865,
              -47.695979
            ],
            [
              -61.928138,
              -47.774879
            ],
            [
              -61.796755,
              -47.845253
            ],
            [
              -61.655981,
              -47.906425
            ],
            [
              -61.507173,
              -47.957805
            ],
            [
              -61.351763,
              -47.998898
            ],
            [
              -61.191248,
              -48.029308
            ],
            [
              -61.027174,
              -48.048743
            ],
            [
              -60.861121,
              -48.057016
            ],
            [
              -60.694688,
              -48.054046
            ],
            [
              -60.529478,
              -48.039863
            ],
            [
              -60.367082,
              -48.014603
            ],
            [
              -60.209064,
              -47.978509
            ],
            [
              -60.056946,
              -47.931929
            ],
            [
              -59.912192,
              -47.875311
            ],
            [
              -59.776198,
              -47.809201
            ],
            [
              -59.650272,
              -47.734235
            ],
            [
              -59.535627,
              -47.651136
            ],
            [
              -59.433368,
              -47.560703
            ],
            [
              -59.344479,
              -47.463808
            ],
            [
              -59.269816,
              -47.361384
            ],
            [
              -59.210098,
              -47.254417
            ],
            [
              -59.165901,
              -47.143937
            ],
            [
              -59.13765,
              -47.031008
            ],
            [
              -59.125617,
              -46.916718
            ],
            [
              -59.129918,
              -46.802167
            ],
            [
              -59.150512,
              -46.688459
            ],
            [
              -59.187199,
              -46.576689
            ],
            [
              -59.239628,
              -46.467933
            ],
            [
              -59.307293,
              -46.363239
            ],
            [
              -59.389542,
              -46.263614
            ],
            [
              -59.485583,
              -46.170019
            ],
            [
              -59.594492,
              -46.083354
            ],
            [
              -59.715219,
              -46.004455
            ],
            [
              -59.846602,
              -45.93408
            ],
            [
              -59.987375,
              -45.872908
            ],
            [
              -60.136184,
              -45.821529
            ],
            [
              -60.291594,
              -45.780436
            ],
            [
              -60.452109,
              -45.750025
            ],
            [
              -60.616183,
              -45.73059
            ]
          ]
        ],
        "type": "Polygon"
      },
      "properties": {
        "kind": "reachableSet",
        "observationStatus": "estimated",
        "vessel": "B"
      },
      "type": "Feature"
    }
  ],
  "properties": {
    "dateline": false
  },
  "type": "FeatureCollection"
}
