{
  "features": [
    {
      "geometry": {
        "coordinates": [
          39.290217,
          75.560767
        ],
        "type": "Point"
      },
      "properties": {
        "mmsi": "276830000",
        "observationStatus": "observed",
        "role": "off",
        "time": "2017-03-09T02:22:04Z",
        "vessel": "A"
      },
      "type": "Feature"
    },
    {
      "geometry": {
        "coordinates": [
          39.373797,
          75.530613
        ],
        "type": "Point"
      },
      "properties": {
        "mmsi": "276806000",
        "observationStatus": "observed",
        "role": "off",
        "time": "2017-03-09T02:23:18Z",
        "vessel": "B"
      },
      "type": "Feature"
    },
    {
      "geometry": {
        "coordinates": [
          39.407142,
          75.532932
        ],
        "type": "Point"
      },
      "properties": {
        "mmsi": "276806000",
        "observationStatus": "observed",
        "role": "on",
        "time": "2017-03-09T15:11:09Z",
        "vessel": "B"
      },
      "type": "Feature"
    },
    {
      "geometry": {
        "coordinates": [
          39.176833,
          75.5491
        ],
        "type": "Point"
      },
      "properties": {
        "mmsi": "276830000",
        "observationStatus": "observed",
        "role": "on",
        "time": "2017-03-09T15:23:56Z",
        "vessel": "A"
      },
      "type": "Feature"
    },
    {
      "geometry": {
        "coordinates": [
          [
            39.290217,
            75.560767
          ],
          [
            39.364836,
            75.541396
          ],
          [
            39.176833,
            75.5491
          ]
        ],
        "type": "LineString"
      },
      "properties": {
        "confidence": "low",
        "lineStyle": "dashed",
        "observationStatus": "estimated",
        "source": "reachable-set heuristic",
        "vessel": "A"
      },
      "type": "Feature"
    },
    {
      "geometry": {
        "coordinates": [
          [
            39.373797,
            75.530613
          ],
          [
            39.364836,
            75.541396
          ],
          [
            39.407142,
            75.532932
          ]
        ],
        "type": "LineString"
      },
      "properties": {
        "confidence": "low",
        "lineStyle": "dashed",
        "observationStatus": "estimated",
        "source": "reachable-set heuristic",
        "vessel": "B"
      },
      "type": "Feature"
    },
    {
      "geometry": {
        "coordinates": [
          39.364836,
          75.541396
        ],
        "type": "Point"
      },
      "properties": {
        "kind": "meetingPoint",
        "observationStatus": "estimated"
      },
      "type": "Feature"
    },
    {
      "geometry": {
        "coordinates": [
          [
            [
              34.40733,
              75.058338
            ],
            [
              34.624369,
              74.941934
            ],
            [
              34.885796,
              74.831434
            ],
            [
              35.189095,
              74.727901
            ],
            [
              35.531343,
              74.632333
            ],
            [
              35.909246,
              74.54565
            ],
            [
              36.319163,
              74.468687
            ],
            [
              36.757147,
              74.402185
            ],
            [
              37.21898,
              74.346785
            ],
            [
              37.700214,
              74.30302
            ],
            [
              38.196215,
              74.271311
            ],
            [
              38.702205,
              74.251965
            ],
            [
              39.213313,
              74.245167
            ],
            [
              39.724615,
              74.250982
            ],
            [
              40.231188,
              74.269356
            ],
            [
              40.728152,
              74.30011
            ],
            [
              41.210723,
              74.342949
            ],
            [
              41.674252,
              74.397459
            ],
            [
              42.114276,
              74.463117
            ],
            [
              42.526556,
              74.53929
            ],
            [
              42.907123,
              74.625244
            ],
            [
              43.25231,
              74.720151
            ],
            [
              43.558795,
              74.823098
            ],
            [
              43.823625,
              74.933093
            ],
            [
              44.04425,
              75.049076
            ],
            [
              44.218545,
              75.169932
            ],
            [
              44.344832,
              75.294494
            ],
            [
              44.421894,
              75.421565
            ],
            [
              44.448989,
              75.549921
            ],
            [
              44.425856,
              75.678325
            ],
            [
              44.352718,
              75.80554
            ],
            [
              44.23028,
              75.930342
            ],
            [
              44.05972,
              76.051528
            ],
            [
              43.842681,
              76.167932
            ],
            [
              43.581254,
              76.278433
            ],
            [
              43.277955,
              76.381966
            ],
            [
              42.935707,
              76.477534
            ],
            [
              42.557804,
              76.564217
            ],
            [
              42.147887,
              76.64118
            ],
            [
              41.709903,
              76.707682
            ],
            [
              41.24807,
              76.763082
            ],
            [
              40.766836,
              76.806847
            ],
            [
              40.270835,
              76.838555
            ],
            [
              39.764845,
              76.857902
            ],
            [
              39.253737,
              76.8647
            ],
            [
              38.742435,
              76.858884
            ],
            [
              38.235862,
              76.840511
            ],
            [
              37.738898,
              76.809757
            ],
            [
              37.256327,
              76.766918
            ],
            [
              36.792798,
              76.712407
            ],
            [
              36.352774,
              76.646749
            ],
            [
              35.940494,
              76.570577
            ],
            [
              35.559927,
              76.484623
            ],
            [
              35.21474,
              76.389715
            ],
            [
              34.908255,
              76.286768
            ],
            [
              34.643425,
              76.176774
            ],
            [
              34.4228,
              76.06079
            ],
            [
              34.248505,
              75.939935
            ],
            [
              34.122218,
              75.815372
            ],
            [
              34.045156,
              75.688301
            ],
            [
              34.018061,
              75.559946
            ],
            [
              34.041194,
              75.431542
            ],
            [
              34.114332,
              75.304327
            ],
            [
              34.23677,
              75.179525
            ],
            [
              34.40733,
              75.058338
            ]
          ]
        ],
        "type": "Polygon"
      },
      "properties": {
        "kind": "reachableSet",
        "observationStatus": "estimated",
        "vessel": "A"
      },
      "type": "Feature"
    },
    {
      "geometry": {
        "coordinates": [
          [
            [
              44.312193,
              75.873959
            ],
            [
              44.155154,
              75.993655
            ],
            [
              43.952229,
              76.108904
            ],
            [
              43.705371,
              76.218594
            ],
            [
              43.416959,
              76.321671
            ],
            [
              43.089769,
              76.417139
            ],
            [
              42.726953,
              76.504082
            ],
            [
              42.332004,
              76.58166
            ],
            [
              41.908728,
              76.649128
            ],
            [
              41.461199,
              76.705834
            ],
            [
              40.993727,
              76.751234
            ],
            [
              40.510816,
              76.78489
            ],
            [
              40.017114,
              76.806477
            ],
            [
              39.517378,
              76.815789
            ],
            [
              39.01642,
              76.812735
            ],
            [
              38.519064,
              76.797344
            ],
            [
              38.0301,
              76.769765
            ],
            [
              37.554237,
              76.730264
            ],
            [
              37.096059,
              76.67922
            ],
            [
              36.659976,
              76.617126
            ],
            [
              36.25019,
              76.544579
            ],
            [
              35.870646,
              76.462279
            ],
            [
              35.525,
              76.371017
            ],
            [
              35.216581,
              76.271673
            ],
            [
              34.948359,
              76.165203
            ],
            [
              34.722916,
              76.052633
            ],
            [
              34.542425,
              75.935047
            ],
            [
              34.408622,
              75.813577
            ],
            [
              34.322798,
              75.689393
            ],
            [
              34.285779,
              75.563691
            ],
            [
              34.29792,
              75.437682
            ],
            [
              34.359105,
              75.312579
            ],
            [
              34.468745,
              75.189586
            ],
            [
              34.625784,
              75.06989
            ],
            [
              34.828709,
              74.954641
            ],
            [
              35.075567,
              74.844951
            ],
            [
              35.36398,
              74.741874
            ],
            [
              35.691169,
              74.646406
            ],
            [
              36.053986,
              74.559463
            ],
            [
              36.448934,
              74.481885
            ],
            [
              36.872211,
              74.414417
            ],
            [
              37.31974,
              74.357711
            ],
            [
              37.787211,
              74.312311
            ],
            [
              38.270123,
              74.278655
            ],
            [
              38.763824,
              74.257068
            ],
            [
              39.26356,
              74.247756
            ],
            [
              39.764518,
              74.25081
            ],
            [
              40.261874,
              74.266201
            ],
            [
              40.750838,
              74.29378
            ],
            [
              41.226701,
              74.333281
            ],
            [
              41.68488,
              74.384325
            ],
            [
              42.120962,
              74.446419
            ],
            [
              42.530748,
              74.518966
            ],
            [
              42.910292,
              74.601266
            ],
            [
              43.255938,
              74.692528
            ],
            [
              43.564357,
              74.791872
            ],
            [
              43.83258,
              74.898342
            ],
            [
              44.058022,
              75.010912
            ],
            [
              44.238514,
              75.128498
            ],
            [
              44.372316,
              75.249968
            ],
            [
              44.45814,
              75.374152
            ],
            [
              44.49516,
              75.499854
            ],
            [
              44.483019,
              75.625863
            ],
            [
              44.421833,
              75.750966
            ],
            [
              44.312193,
              75.873959
            ]
          ]
        ],
        "type": "Polygon"
      },
      "properties": {
        "kind": "reachableSet",
        "observationStatus": "estimated",
        "vessel": "B"
      },
      "type": "Feature"
    }
  ],
  "properties": {
    "dateline": false
  },
  "type": "FeatureCollection"
}
