{
  "features": [
    {
      "geometry": {
        "coordinates": [
          159.835668,
          42.688435
        ],
        "type": "Point"
      },
      "properties": {
        "mmsi": "577100000",
        "observationStatus": "observed",
        "role": "off",
        "time": "2019-08-28T05:52:43Z",
        "vessel": "A"
      },
      "type": "Feature"
    },
    {
      "geometry": {
        "coordinates": [
          159.836703,
          42.659953
        ],
        "type": "Point"
      },
      "properties": {
        "mmsi": "416004842",
        "observationStatus": "observed",
        "role": "off",
        "time": "2019-08-28T06:41:04Z",
        "vessel": "B"
      },
      "type": "Feature"
    },
    {
      "geometry": {
        "coordinates": [
          159.8848,
          42.427707
        ],
        "type": "Point"
      },
      "properties": {
        "mmsi": "416004842",
        "observationStatus": "observed",
        "role": "on",
        "time": "2019-08-28T18:43:20Z",
        "vessel": "B"
      },
      "type": "Feature"
    },
    {
      "geometry": {
        "coordinates": [
          159.851333,
          42.434853
        ],
        "type": "Point"
      },
      "properties": {
        "mmsi": "577100000",
        "observationStatus": "observed",
        "role": "on",
        "time": "2019-08-28T18:44:16Z",
        "vessel": "A"
      },
      "type": "Feature"
    },
    {
      "geometry": {
        "coordinates": [
          [
            159.835668,
            42.688435
          ],
          [
            159.852962,
            42.581117
          ],
          [
            159.851333,
            42.434853
          ]
        ],
        "type": "LineString"
      },
      "properties": {
        "confidence": "low",
        "lineStyle": "dashed",
        "observationStatus": "estimated",
        "source": "reachable-set heuristic",
        "vessel": "A"
      },
      "type": "Feature"
    },
    {
      "geometry": {
        "coordinates": [
          [
            159.836703,
            42.659953
          ],
          [
            159.852962,
            42.581117
          ],
          [
            159.8848,
            42.427707
          ]
        ],
        "type": "LineString"
      },
      "properties": {
        "confidence": "low",
        "lineStyle": "dashed",
        "observationStatus": "estimated",
        "source": "reachable-set heuristic",
        "vessel": "B"
      },
      "type": "Feature"
    },
    {
      "geometry": {
        "coordinates": [
          159.852962,
          42.581117
        ],
        "type": "Point"
      },
      "properties": {
        "kind": "meetingPoint",
        "observationStatus": "estimated"
      },
      "type": "Feature"
    },
    {
      "geometry": {
        "coordinates": [
          [
            [
              159.917048,
              41.371077
            ],
            [
              160.073167,
              41.382125
            ],
            [
              160.227075,
              41.404533
            ],
            [
              160.377289,
              41.438084
            ],
            [
              160.522362,
              41.482456
            ],
            [
              160.660897,
              41.537221
            ],
            [
              160.79156,
              41.601852
            ],
            [
              160.913093,
              41.675726
            ],
            [
              161.024325,
              41.758131
            ],
            [
              161.124185,
              41.848276
            ],
            [
              161.211711,
              41.94529
            ],
            [
              161.286061,
              42.04824
            ],
            [
              161.346518,
              42.156134
            ],
            [
              161.3925,
              42.267934
            ],
            [
              161.423565,
              42.382563
            ],
            [
              161.439412,
              42.498916
            ],
            [
              161.439891,
              42.615873
            ],
            [
              161.424995,
              42.732308
            ],
            [
              161.394868,
              42.847099
            ],
            [
              161.349801,
              42.959141
            ],
            [
              161.290227,
              43.067355
            ],
            [
              161.216721,
              43.170699
            ],
            [
              161.12999,
              43.268177
            ],
            [
              161.030869,
              43.358851
            ],
            [
              160.920313,
              43.441848
            ],
            [
              160.799387,
              43.516367
            ],
            [
              160.669255,
              43.581692
            ],
            [
              160.531171,
              43.637194
            ],
            [
              160.386464,
              43.682337
            ],
            [
              160.236528,
              43.716688
            ],
            [
              160.082807,
              43.739914
            ],
            [
              159.926781,
              43.751794
            ],
            [
              159.769954,
              43.752211
            ],
            [
              159.613834,
              43.741163
            ],
            [
              159.459927,
              43.718755
            ],
            [
              159.309713,
              43.685204
            ],
            [
              159.16464,
              43.640832
            ],
            [
              159.026105,
              43.586068
            ],
            [
              158.895442,
              43.521437
            ],
            [
              158.773909,
              43.447563
            ],
            [
              158.662677,
              43.365157
            ],
            [
              158.562817,
              43.275013
            ],
            [
              158.475291,
              43.177998
            ],
            [
              158.400941,
              43.075048
            ],
            [
              158.340484,
              42.967154
            ],
            [
              158.294502,
              42.855354
            ],
            [
              158.263437,
              42.740726
            ],
            [
              158.247589,
              42.624373
            ],
            [
              158.247111,
              42.507416
            ],
            [
              158.262007,
              42.390981
            ],
            [
              158.292134,
              42.27619
            ],
            [
              158.337201,
              42.164147
            ],
            [
              158.396774,
              42.055933
            ],
            [
              158.470281,
              41.952589
            ],
            [
              158.557012,
              41.855111
            ],
            [
              158.656133,
              41.764437
            ],
            [
              158.766689,
              41.681441
            ],
            [
              158.887615,
              41.606921
            ],
            [
              159.017747,
              41.541596
            ],
            [
              159.155831,
              41.486095
            ],
            [
              159.300538,
              41.440951
            ],
            [
              159.450474,
              41.406601
            ],
            [
              159.604195,
              41.383374
            ],
            [
              159.76022,
              41.371495
            ],
            [
              159.917048,
              41.371077
            ]
          ]
        ],
        "type": "Polygon"
      },
      "properties": {
        "kind": "reachableSet",
        "observationStatus": "estimated",
        "vessel": "A"
      },
      "type": "Feature"
    },
    {
      "geometry": {
        "coordinates": [
          [
            [
              160.08781,
              41.447422
            ],
            [
              160.230783,
              41.469117
            ],
            [
              160.370192,
              41.501162
            ],
            [
              160.504696,
              41.543249
            ],
            [
              160.632997,
              41.594971
            ],
            [
              160.753862,
              41.655832
            ],
            [
              160.866125,
              41.725244
            ],
            [
              160.968706,
              41.80254
            ],
            [
              161.060617,
              41.886975
            ],
            [
              161.140972,
              41.977736
            ],
            [
              161.208999,
              42.073949
            ],
            [
              161.26404,
              42.174687
            ],
            [
              161.305568,
              42.27898
            ],
            [
              161.333181,
              42.385823
            ],
            [
              161.346614,
              42.494189
            ],
            [
              161.345737,
              42.603032
            ],
            [
              161.330559,
              42.711305
            ],
            [
              161.301226,
              42.817965
            ],
            [
              161.25802,
              42.921986
            ],
            [
              161.201358,
              43.022364
            ],
            [
              161.131785,
              43.118134
            ],
            [
              161.049971,
              43.208373
            ],
            [
              160.956705,
              43.292212
            ],
            [
              160.852884,
              43.368844
            ],
            [
              160.739508,
              43.43753
            ],
            [
              160.617669,
              43.49761
            ],
            [
              160.488541,
              43.548504
            ],
            [
              160.353366,
              43.589722
            ],
            [
              160.213448,
              43.620869
            ],
            [
              160.070133,
              43.641642
            ],
            [
              159.924801,
              43.651843
            ],
            [
              159.778853,
              43.651374
            ],
            [
              159.633693,
              43.640238
            ],
            [
              159.49072,
              43.618543
            ],
            [
              159.351311,
              43.586498
            ],
            [
              159.216808,
              43.544411
            ],
            [
              159.088506,
              43.492689
            ],
            [
              158.967642,
              43.431828
            ],
            [
              158.855378,
              43.362416
            ],
            [
              158.752797,
              43.28512
            ],
            [
              158.660886,
              43.200685
            ],
            [
              158.580531,
              43.109924
            ],
            [
              158.512505,
              43.013711
            ],
            [
              158.457463,
              42.912973
            ],
            [
              158.415935,
              42.80868
            ],
            [
              158.388322,
              42.701837
            ],
            [
              158.37489,
              42.593471
            ],
            [
              158.375766,
              42.484628
            ],
            [
              158.390944,
              42.376355
            ],
            [
              158.420278,
              42.269695
            ],
            [
              158.463483,
              42.165674
            ],
            [
              158.520145,
              42.065296
            ],
            [
              158.589718,
              41.969526
            ],
            [
              158.671532,
              41.879287
            ],
            [
              158.764799,
              41.795448
            ],
            [
              158.86862,
              41.718816
            ],
            [
              158.981996,
              41.65013
            ],
            [
              159.103834,
              41.59005
            ],
            [
              159.232963,
              41.539156
            ],
            [
              159.368137,
              41.497938
            ],
            [
              159.508055,
              41.466791
            ],
            [
              159.651371,
              41.446018
            ],
            [
              159.796702,
              41.435817
            ],
            [
              159.94265,
              41.436286
            ],
            [
              160.08781,
              41.447422
            ]
          ]
        ],
        "type": "Polygon"
      },
      "properties": {
        "kind": "reachableSet",
        "observationStatus": "estimated",
        "vessel": "B"
      },
      "type": "Feature"
    }
  ],
  "properties": {
    "dateline": false
  },
  "type": "FeatureCollection"
}
