{
  "features": [
    {
      "geometry": {
        "coordinates": [
          160.7268,
          41.947147
        ],
        "type": "Point"
      },
      "properties": {
        "mmsi": "416243800",
        "observationStatus": "observed",
        "role": "off",
        "time": "2018-08-19T04:24:16Z",
        "vessel": "A"
      },
      "type": "Feature"
    },
    {
      "geometry": {
        "coordinates": [
          160.81088,
          41.89328
        ],
        "type": "Point"
      },
      "properties": {
        "mmsi": "416004693",
        "observationStatus": "observed",
        "role": "off",
        "time": "2018-08-19T04:25:38Z",
        "vessel": "B"
      },
      "type": "Feature"
    },
    {
      "geometry": {
        "coordinates": [
          160.81095,
          42.24281
        ],
        "type": "Point"
      },
      "properties": {
        "mmsi": "416004693",
        "observationStatus": "observed",
        "role": "on",
        "time": "2018-08-19T18:07:47Z",
        "vessel": "B"
      },
      "type": "Feature"
    },
    {
      "geometry": {
        "coordinates": [
          160.804283,
          42.260417
        ],
        "type": "Point"
      },
      "properties": {
        "mmsi": "416243800",
        "observationStatus": "observed",
        "role": "on",
        "time": "2018-08-19T19:06:05Z",
        "vessel": "A"
      },
      "type": "Feature"
    },
    {
      "geometry": {
        "coordinates": [
          [
            160.7268,
            41.947147
          ],
          [
            160.810406,
            42.058227
          ],
          [
            160.804283,
            42.260417
          ]
        ],
        "type": "LineString"
      },
      "properties": {
        "confidence": "low",
        "lineStyle": "dashed",
        "observationStatus": "estimated",
        "source": "reachable-set heuristic",
        "vessel": "A"
      },
      "type": "Feature"
    },
    {
      "geometry": {
        "coordinates": [
          [
            160.81088,
            41.89328
          ],
          [
            160.810406,
            42.058227
          ],
          [
            160.81095,
            42.24281
          ]
        ],
        "type": "LineString"
      },
      "properties": {
        "confidence": "low",
        "lineStyle": "dashed",
        "observationStatus": "estimated",
        "source": "reachable-set heuristic",
        "vessel": "B"
      },
      "type": "Feature"
    },
    {
      "geometry": {
        "coordinates": [
          160.810406,
          42.058227
        ],
        "type": "Point"
      },
      "properties": {
        "kind": "meetingPoint",
        "observationStatus": "estimated"
      },
      "type": "Feature"
    },
    {
      "geometry": {
        "coordinates": [
          [
            [
              161.100337,
              43.457382
            ],
            [
              160.922298,
              43.475211
            ],
            [
              160.742749,
              43.479833
            ],
            [
              160.56342,
              43.471203
            ],
            [
              160.386037,
              43.449404
            ],
            [
              160.212309,
              43.414645
            ],
            [
              160.043909,
              43.367263
            ],
            [
              159.882459,
              43.307712
            ],
            [
              159.729513,
              43.236567
            ],
            [
              159.586545,
              43.154513
            ],
            [
              159.454931,
              43.062339
            ],
            [
              159.335939,
              42.960934
            ],
            [
              159.230715,
              42.851274
            ],
            [
              159.140272,
              42.734415
            ],
            [
              159.065481,
              42.611483
            ],
            [
              159.007063,
              42.483662
            ],
            [
              158.96558,
              42.352182
            ],
            [
              158.941432,
              42.21831
            ],
            [
              158.93485,
              42.083335
            ],
            [
              158.9459,
              41.948557
            ],
            [
              158.974473,
              41.815273
            ],
            [
              159.020296,
              41.684769
            ],
            [
              159.082926,
              41.558299
            ],
            [
              159.16176,
              41.437083
            ],
            [
              159.25604,
              41.322287
            ],
            [
              159.364858,
              41.215018
            ],
            [
              159.487164,
              41.116308
            ],
            [
              159.621782,
              41.027108
            ],
            [
              159.767415,
              40.948277
            ],
            [
              159.922661,
              40.880574
            ],
            [
              160.086024,
              40.824651
            ],
            [
              160.255931,
              40.781047
            ],
            [
              160.430746,
              40.750182
            ],
            [
              160.608785,
              40.732352
            ],
            [
              160.788334,
              40.72773
            ],
            [
              160.967663,
              40.73636
            ],
            [
              161.145046,
              40.75816
            ],
            [
              161.318774,
              40.792918
            ],
            [
              161.487174,
              40.840301
            ],
            [
              161.648625,
              40.899851
            ],
            [
              161.80157,
              40.970996
            ],
            [
              161.944539,
              41.053051
            ],
            [
              162.076153,
              41.145224
            ],
            [
              162.195145,
              41.246629
            ],
            [
              162.300369,
              41.356289
            ],
            [
              162.390811,
              41.473148
            ],
            [
              162.465602,
              41.59608
            ],
            [
              162.52402,
              41.723901
            ],
            [
              162.565503,
              41.855381
            ],
            [
              162.589652,
              41.989253
            ],
            [
              162.596233,
              42.124229
            ],
            [
              162.585184,
              42.259007
            ],
            [
              162.55661,
              42.39229
            ],
            [
              162.510788,
              42.522795
            ],
            [
              162.448158,
              42.649264
            ],
            [
              162.369323,
              42.77048
            ],
            [
              162.275043,
              42.885276
            ],
            [
              162.166226,
              42.992545
            ],
            [
              162.043919,
              43.091255
            ],
            [
              161.909301,
              43.180455
            ],
            [
              161.763668,
              43.259286
            ],
            [
              161.608422,
              43.326989
            ],
            [
              161.445059,
              43.382912
            ],
            [
              161.275152,
              43.426516
            ],
            [
              161.100337,
              43.457382
            ]
          ]
        ],
        "type": "Polygon"
      },
      "properties": {
        "kind": "reachableSet",
        "observationStatus": "estimated",
        "vessel": "A"
      },
      "type": "Feature"
    },
    {
      "geometry": {
        "coordinates": [
          [
            [
              160.811171,
              43.344613
            ],
            [
              160.645328,
              43.338485
            ],
            [
              160.48108,
              43.320122
            ],
            [
              160.320008,
              43.2897
            ],
            [
              160.163664,
              43.247513
            ],
            [
              160.013554,
              43.193967
            ],
            [
              159.871122,
              43.129578
            ],
            [
              159.737742,
              43.054966
            ],
            [
              159.614696,
              42.970849
            ],
            [
              159.503171,
              42.878038
            ],
            [
              159.40424,
              42.777426
            ],
            [
              159.318856,
              42.669982
            ],
            [
              159.247841,
              42.556741
            ],
            [
              159.19188,
              42.438794
            ],
            [
              159.151511,
              42.317277
            ],
            [
              159.127123,
              42.193359
            ],
            [
              159.11895,
              42.068234
            ],
            [
              159.127073,
              41.943108
            ],
            [
              159.151411,
              41.819184
            ],
            [
              159.191732,
              41.697658
            ],
            [
              159.247646,
              41.579698
            ],
            [
              159.318615,
              41.466442
            ],
            [
              159.403956,
              41.358979
            ],
            [
              159.502846,
              41.258345
            ],
            [
              159.614335,
              41.165509
            ],
            [
              159.737346,
              41.081364
            ],
            [
              159.870697,
              41.006722
            ],
            [
              160.013103,
              40.942301
            ],
            [
              160.163192,
              40.888722
            ],
            [
              160.319519,
              40.8465
            ],
            [
              160.480578,
              40.816042
            ],
            [
              160.644819,
              40.797642
            ],
            [
              160.810659,
              40.791477
            ],
            [
              160.976502,
              40.797605
            ],
            [
              161.14075,
              40.815968
            ],
            [
              161.301822,
              40.84639
            ],
            [
              161.458166,
              40.888577
            ],
            [
              161.608276,
              40.942123
            ],
            [
              161.750708,
              41.006512
            ],
            [
              161.884088,
              41.081124
            ],
            [
              162.007134,
              41.165241
            ],
            [
              162.118659,
              41.258052
            ],
            [
              162.21759,
              41.358664
            ],
            [
              162.302974,
              41.466108
            ],
            [
              162.373989,
              41.579349
            ],
            [
              162.42995,
              41.697296
            ],
            [
              162.470319,
              41.818813
            ],
            [
              162.494707,
              41.942731
            ],
            [
              162.50288,
              42.067856
            ],
            [
              162.494757,
              42.192982
            ],
            [
              162.470419,
              42.316906
            ],
            [
              162.430098,
              42.438432
            ],
            [
              162.374184,
              42.556392
            ],
            [
              162.303215,
              42.669648
            ],
            [
              162.217874,
              42.777111
            ],
            [
              162.118984,
              42.877745
            ],
            [
              162.007495,
              42.970581
            ],
            [
              161.884484,
              43.054726
            ],
            [
              161.751133,
              43.129368
            ],
            [
              161.608727,
              43.193789
            ],
            [
              161.458638,
              43.247368
            ],
            [
              161.302311,
              43.28959
            ],
            [
              161.141252,
              43.320048
            ],
            [
              160.977011,
              43.338448
            ],
            [
              160.811171,
              43.344613
            ]
          ]
        ],
        "type": "Polygon"
      },
      "properties": {
        "kind": "reachableSet",
        "observationStatus": "estimated",
        "vessel": "B"
      },
      "type": "Feature"
    }
  ],
  "properties": {
    "dateline": false
  },
  "type": "FeatureCollection"
}
