{
  "features": [
    {
      "geometry": {
        "coordinates": [
          -60.5152,
          -45.852187
        ],
        "type": "Point"
      },
      "properties": {
        "mmsi": "412329689",
        "observationStatus": "observed",
        "role": "off",
        "time": "2019-02-13T06:27:40Z",
        "vessel": "A"
      },
      "type": "Feature"
    },
    {
      "geometry": {
        "coordinates": [
          -60.518373,
          -45.840782
        ],
        "type": "Point"
      },
      "properties": {
        "mmsi": "412329693",
        "observationStatus": "observed",
        "role": "off",
        "time": "2019-02-13T07:03:26Z",
        "vessel": "B"
      },
      "type": "Feature"
    },
    {
      "geometry": {
        "coordinates": [
          -60.62034,
          -45.84559
        ],
        "type": "Point"
      },
      "properties": {
        "mmsi": "412329693",
        "observationStatus": "observed",
        "role": "on",
        "time": "2019-02-13T22:35:47Z",
        "vessel": "B"
      },
      "type": "Feature"
    },
    {
      "geometry": {
        "coordinates": [
          -60.640728,
          -45.826342
        ],
        "type": "Point"
      },
      "properties": {
        "mmsi": "412329689",
        "observationStatus": "observed",
        "role": "on",
        "time": "2019-02-13T22:36:45Z",
        "vessel": "A"
      },
      "type": "Feature"
    },
    {
      "geometry": {
        "coordinates": [
          [
            -60.5152,
            -45.852187
          ],
          [
            -60.57078,
            -45.83486
          ],
          [
            -60.640728,
            -45.826342
          ]
        ],
        "type": "LineString"
      },
      "properties": {
        "confidence": "low",
        "lineStyle": "dashed",
        "observationStatus": "estimated",
        "source": "reachable-set heuristic",
        "vessel": "A"
      },
      "type": "Feature"
    },
    {
      "geometry": {
        "coordinates": [
          [
            -60.518373,
            -45.840782
          ],
          [
            -60.57078,
            -45.83486
          ],
          [
            -60.62034,
            -45.84559
          ]
        ],
        "type": "LineString"
      },
      "properties": {
        "confidence": "low",
        "lineStyle": "dashed",
        "observationStatus": "estimated",
        "source": "reachable-set heuristic",
        "vessel": "B"
      },
      "type": "Feature"
    },
    {
      "geometry": {
        "coordinates": [
          -60.57078,
          -45.83486
        ],
        "type": "Point"
      },
      "properties": {
        "kind": "meetingPoint",
        "observationStatus": "estimated"
      },
      "type": "Feature"
    },
    {
      "geometry": {
        "coordinates": [
          [
            [
              -62.834571,
              -45.374652
            ],
            [
              -62.888607,
              -45.531969
            ],
            [
              -62.920391,
              -45.692245
            ],
            [
              -62.929615,
              -45.853938
            ],
            [
              -62.916192,
              -46.015489
            ],
            [
              -62.88025,
              -46.175343
            ],
            [
              -62.822136,
              -46.33196
            ],
            [
              -62.74241,
              -46.483832
            ],
            [
              -62.641838,
              -46.629497
            ],
            [
              -62.521391,
              -46.767551
            ],
            [
              -62.382227,
              -46.896666
            ],
            [
              -62.225687,
              -47.015597
            ],
            [
              -62.053279,
              -47.123199
            ],
            [
              -61.866662,
              -47.218437
            ],
            [
              -61.667635,
              -47.300392
            ],
            [
              -61.458114,
              -47.368276
            ],
            [
              -61.240116,
              -47.421434
            ],
            [
              -61.015741,
              -47.459356
            ],
            [
              -60.78715,
              -47.481675
            ],
            [
              -60.556545,
              -47.488177
            ],
            [
              -60.326146,
              -47.478798
            ],
            [
              -60.098172,
              -47.45363
            ],
            [
              -59.874819,
              -47.412915
            ],
            [
              -59.658238,
              -47.357045
            ],
            [
              -59.450514,
              -47.286558
            ],
            [
              -59.253648,
              -47.202133
            ],
            [
              -59.069536,
              -47.104582
            ],
            [
              -58.89995,
              -46.994846
            ],
            [
              -58.746525,
              -46.87398
            ],
            [
              -58.610738,
              -46.74315
            ],
            [
              -58.493896,
              -46.603615
            ],
            [
              -58.397125,
              -46.456719
            ],
            [
              -58.321357,
              -46.303877
            ],
            [
              -58.267321,
              -46.146559
            ],
            [
              -58.235538,
              -45.986283
            ],
            [
              -58.226313,
              -45.824591
            ],
            [
              -58.239736,
              -45.66304
            ],
            [
              -58.275678,
              -45.503186
            ],
            [
              -58.333792,
              -45.346569
            ],
            [
              -58.413519,
              -45.194696
            ],
            [
              -58.51409,
              -45.049031
            ],
            [
              -58.634538,
              -44.910977
            ],
            [
              -58.773701,
              -44.781863
            ],
            [
              -58.930241,
              -44.662931
            ],
            [
              -59.10265,
              -44.555329
            ],
            [
              -59.289266,
              -44.460092
            ],
            [
              -59.488293,
              -44.378136
            ],
            [
              -59.697815,
              -44.310253
            ],
            [
              -59.915813,
              -44.257094
            ],
            [
              -60.140187,
              -44.219173
            ],
            [
              -60.368778,
              -44.196854
            ],
            [
              -60.599383,
              -44.190352
            ],
            [
              -60.829782,
              -44.19973
            ],
            [
              -61.057756,
              -44.224898
            ],
            [
              -61.281109,
              -44.265613
            ],
            [
              -61.497691,
              -44.321483
            ],
            [
              -61.705415,
              -44.39197
            ],
            [
              -61.902281,
              -44.476396
            ],
            [
              -62.086393,
              -44.573946
            ],
            [
              -62.255978,
              -44.683683
            ],
            [
              -62.409403,
              -44.804548
            ],
            [
              -62.54519,
              -44.935378
            ],
            [
              -62.662032,
              -45.074913
            ],
            [
              -62.758803,
              -45.221809
            ],
            [
              -62.834571,
              -45.374652
            ]
          ]
        ],
        "type": "Polygon"
      },
      "properties": {
        "kind": "reachableSet",
        "observationStatus": "estimated",
        "vessel": "A"
      },
      "type": "Feature"
    },
    {
      "geometry": {
        "coordinates": [
          [
            [
              -62.821222,
              -45.949375
            ],
            [
              -62.795542,
              -46.103627
            ],
            [
              -62.748423,
              -46.25537
            ],
            [
              -62.680318,
              -46.403144
            ],
            [
              -62.591883,
              -46.545526
            ],
            [
              -62.483971,
              -46.681143
            ],
            [
              -62.357619,
              -46.808691
            ],
            [
              -62.214046,
              -46.92694
            ],
            [
              -62.054633,
              -47.034752
            ],
            [
              -61.880916,
              -47.131089
            ],
            [
              -61.694569,
              -47.215022
            ],
            [
              -61.497384,
              -47.285744
            ],
            [
              -61.291263,
              -47.342573
            ],
            [
              -61.078189,
              -47.384963
            ],
            [
              -60.860215,
              -47.412504
            ],
            [
              -60.639439,
              -47.424932
            ],
            [
              -60.417989,
              -47.422126
            ],
            [
              -60.197997,
              -47.404115
            ],
            [
              -59.98158,
              -47.371071
            ],
            [
              -59.770825,
              -47.323313
            ],
            [
              -59.56776,
              -47.2613
            ],
            [
              -59.37434,
              -47.18563
            ],
            [
              -59.19243,
              -47.097032
            ],
            [
              -59.02378,
              -46.996358
            ],
            [
              -58.870014,
              -46.884579
            ],
            [
              -58.732615,
              -46.76277
            ],
            [
              -58.612904,
              -46.632105
            ],
            [
              -58.512034,
              -46.493843
            ],
            [
              -58.430978,
              -46.349315
            ],
            [
              -58.370516,
              -46.199912
            ],
            [
              -58.33123,
              -46.047073
            ],
            [
              -58.313498,
              -45.892272
            ],
            [
              -58.317491,
              -45.736997
            ],
            [
              -58.343171,
              -45.582745
            ],
            [
              -58.39029,
              -45.431001
            ],
            [
              -58.458395,
              -45.283227
            ],
            [
              -58.54683,
              -45.140846
            ],
            [
              -58.654743,
              -45.005228
            ],
            [
              -58.781094,
              -44.877681
            ],
            [
              -58.924668,
              -44.759432
            ],
            [
              -59.08408,
              -44.651619
            ],
            [
              -59.257797,
              -44.555283
            ],
            [
              -59.444145,
              -44.471349
            ],
            [
              -59.641329,
              -44.400628
            ],
            [
              -59.84745,
              -44.343798
            ],
            [
              -60.060524,
              -44.301409
            ],
            [
              -60.278499,
              -44.273868
            ],
            [
              -60.499274,
              -44.26144
            ],
            [
              -60.720724,
              -44.264245
            ],
            [
              -60.940717,
              -44.282257
            ],
            [
              -61.157133,
              -44.315301
            ],
            [
              -61.367888,
              -44.363059
            ],
            [
              -61.570954,
              -44.425072
            ],
            [
              -61.764373,
              -44.500742
            ],
            [
              -61.946284,
              -44.58934
            ],
            [
              -62.114934,
              -44.690014
            ],
            [
              -62.268699,
              -44.801793
            ],
            [
              -62.406099,
              -44.923602
            ],
            [
              -62.52581,
              -45.054266
            ],
            [
              -62.626679,
              -45.192529
            ],
            [
              -62.707735,
              -45.337057
            ],
            [
              -62.768197,
              -45.48646
            ],
            [
              -62.807484,
              -45.639298
            ],
            [
              -62.825215,
              -45.7941
            ],
            [
              -62.821222,
              -45.949375
            ]
          ]
        ],
        "type": "Polygon"
      },
      "properties": {
        "kind": "reachableSet",
        "observationStatus": "estimated",
        "vessel": "B"
      },
      "type": "Feature"
    }
  ],
  "properties": {
    "dateline": false
  },
  "type": "FeatureCollection"
}
