{
  "features": [
    {
      "geometry": {
        "coordinates": [
          -62.85608,
          -44.32344
        ],
        "type": "Point"
      },
      "properties": {
        "mmsi": "701000607",
        "observationStatus": "observed",
        "role": "off",
        "time": "2018-09-07T21:35:55Z",
        "vessel": "A"
      },
      "type": "Feature"
    },
    {
      "geometry": {
        "coordinates": [
          -62.827343,
          -44.312128
        ],
        "type": "Point"
      },
      "properties": {
        "mmsi": "701000662",
        "observationStatus": "observed",
        "role": "off",
        "time": "2018-09-07T22:22:46Z",
        "vessel": "B"
      },
      "type": "Feature"
    },
    {
      "geometry": {
        "coordinates": [
          -62.779558,
          -44.268145
        ],
        "type": "Point"
      },
      "properties": {
        "mmsi": "701000607",
        "observationStatus": "observed",
        "role": "on",
        "time": "2018-09-08T10:38:31Z",
        "vessel": "A"
      },
      "type": "Feature"
    },
    {
      "geometry": {
        "coordinates": [
          -62.798027,
          -44.262853
        ],
        "type": "Point"
      },
      "properties": {
        "mmsi": "701000662",
        "observationStatus": "observed",
        "role": "on",
        "time": "2018-09-08T11:25:49Z",
        "vessel": "B"
      },
      "type": "Feature"
    },
    {
      "geometry": {
        "coordinates": [
          [
            -62.85608,
            -44.32344
          ],
          [
            -62.811487,
            -44.297765
          ],
          [
            -62.779558,
            -44.268145
          ]
        ],
        "type": "LineString"
      },
      "properties": {
        "confidence": "low",
        "lineStyle": "dashed",
        "observationStatus": "estimated",
        "source": "reachable-set heuristic",
        "vessel": "A"
      },
      "type": "Feature"
    },
    {
      "geometry": {
        "coordinates": [
          [
            -62.827343,
            -44.312128
          ],
          [
            -62.811487,
            -44.297765
          ],
          [
            -62.798027,
            -44.262853
          ]
        ],
        "type": "LineString"
      },
      "properties": {
        "confidence": "low",
        "lineStyle": "dashed",
        "observationStatus": "estimated",
        "source": "reachable-set heuristic",
        "vessel": "B"
      },
      "type": "Feature"
    },
    {
      "geometry": {
        "coordinates": [
          -62.811487,
          -44.297765
        ],
        "type": "Point"
      },
      "properties": {
        "kind": "meetingPoint",
        "observationStatus": "estimated"
      },
      "type": "Feature"
    },
    {
      "geometry": {
        "coordinates": [
          [
            [
              -61.532975,
              -43.367357
            ],
            [
              -61.665394,
              -43.281118
            ],
            [
              -61.80891,
              -43.204651
            ],
            [
              -61.962144,
              -43.138692
            ],
            [
              -62.123617,
              -43.083877
            ],
            [
              -62.291777,
              -43.040733
            ],
            [
              -62.465002,
              -43.009676
            ],
            [
              -62.641625,
              -42.991005
            ],
            [
              -62.819945,
              -42.9849
            ],
            [
              -62.998245,
              -42.991419
            ],
            [
              -63.174807,
              -43.010501
            ],
            [
              -63.347931,
              -43.04196
            ],
            [
              -63.51595,
              -43.085494
            ],
            [
              -63.677245,
              -43.140685
            ],
            [
              -63.830264,
              -43.206999
            ],
            [
              -63.973532,
              -43.2838
            ],
            [
              -64.10567,
              -43.370346
            ],
            [
              -64.225405,
              -43.465805
            ],
            [
              -64.331585,
              -43.569257
            ],
            [
              -64.423186,
              -43.679706
            ],
            [
              -64.499327,
              -43.796088
            ],
            [
              -64.559273,
              -43.917283
            ],
            [
              -64.602449,
              -44.042123
            ],
            [
              -64.628438,
              -44.169406
            ],
            [
              -64.636989,
              -44.297906
            ],
            [
              -64.628021,
              -44.426386
            ],
            [
              -64.601619,
              -44.553608
            ],
            [
              -64.558039,
              -44.678347
            ],
            [
              -64.497699,
              -44.799402
            ],
            [
              -64.421181,
              -44.915607
            ],
            [
              -64.329222,
              -45.025843
            ],
            [
              -64.222708,
              -45.129048
            ],
            [
              -64.102663,
              -45.224228
            ],
            [
              -63.970245,
              -45.310467
            ],
            [
              -63.826728,
              -45.386934
            ],
            [
              -63.673495,
              -45.452893
            ],
            [
              -63.512021,
              -45.507708
            ],
            [
              -63.343862,
              -45.550852
            ],
            [
              -63.170636,
              -45.581909
            ],
            [
              -62.994013,
              -45.60058
            ],
            [
              -62.815693,
              -45.606685
            ],
            [
              -62.637393,
              -45.600166
            ],
            [
              -62.460831,
              -45.581084
            ],
            [
              -62.287707,
              -45.549625
            ],
            [
              -62.119689,
              -45.506091
            ],
            [
              -61.958393,
              -45.4509
            ],
            [
              -61.805375,
              -45.384586
            ],
            [
              -61.662106,
              -45.307785
            ],
            [
              -61.529968,
              -45.221239
            ],
            [
              -61.410233,
              -45.12578
            ],
            [
              -61.304053,
              -45.022328
            ],
            [
              -61.212452,
              -44.911879
            ],
            [
              -61.136312,
              -44.795497
            ],
            [
              -61.076365,
              -44.674302
            ],
            [
              -61.033189,
              -44.549462
            ],
            [
              -61.007201,
              -44.422179
            ],
            [
              -60.998649,
              -44.293679
            ],
            [
              -61.007617,
              -44.165199
            ],
            [
              -61.034019,
              -44.037977
            ],
            [
              -61.077599,
              -43.913238
            ],
            [
              -61.137939,
              -43.792183
            ],
            [
              -61.214457,
              -43.675978
            ],
            [
              -61.306416,
              -43.565742
            ],
            [
              -61.412931,
              -43.462537
            ],
            [
              -61.532975,
              -43.367357
            ]
          ]
        ],
        "type": "Polygon"
      },
      "properties": {
        "kind": "reachableSet",
        "observationStatus": "estimated",
        "vessel": "A"
      },
      "type": "Feature"
    },
    {
      "geometry": {
        "coordinates": [
          [
            [
              -62.095267,
              -43.081667
            ],
            [
              -62.262683,
              -43.036804
            ],
            [
              -62.435395,
              -43.003987
            ],
            [
              -62.611741,
              -42.98353
            ],
            [
              -62.790022,
              -42.975632
            ],
            [
              -62.968521,
              -42.980367
            ],
            [
              -63.14552,
              -42.997691
            ],
            [
              -63.319313,
              -43.027436
            ],
            [
              -63.488227,
              -43.069316
            ],
            [
              -63.650635,
              -43.122927
            ],
            [
              -63.804973,
              -43.187755
            ],
            [
              -63.949755,
              -43.263173
            ],
            [
              -64.083587,
              -43.348456
            ],
            [
              -64.205179,
              -43.442782
            ],
            [
              -64.31336,
              -43.545243
            ],
            [
              -64.407089,
              -43.654853
            ],
            [
              -64.485463,
              -43.770555
            ],
            [
              -64.547728,
              -43.891236
            ],
            [
              -64.593282,
              -44.015733
            ],
            [
              -64.621689,
              -44.142847
            ],
            [
              -64.632674,
              -44.271354
            ],
            [
              -64.626132,
              -44.400016
            ],
            [
              -64.602125,
              -44.527595
            ],
            [
              -64.560885,
              -44.652861
            ],
            [
              -64.502809,
              -44.774609
            ],
            [
              -64.428456,
              -44.891665
            ],
            [
              -64.338542,
              -45.002903
            ],
            [
              -64.233933,
              -45.107251
            ],
            [
              -64.115637,
              -45.203705
            ],
            [
              -63.984793,
              -45.291334
            ],
            [
              -63.84266,
              -45.369296
            ],
            [
              -63.690609,
              -45.43684
            ],
            [
              -63.530103,
              -45.493315
            ],
            [
              -63.362687,
              -45.538177
            ],
            [
              -63.189975,
              -45.570995
            ],
            [
              -63.013629,
              -45.591451
            ],
            [
              -62.835348,
              -45.59935
            ],
            [
              -62.656849,
              -45.594615
            ],
            [
              -62.47985,
              -45.577291
            ],
            [
              -62.306057,
              -45.547546
            ],
            [
              -62.137143,
              -45.505666
            ],
            [
              -61.974735,
              -45.452054
            ],
            [
              -61.820397,
              -45.387227
            ],
            [
              -61.675615,
              -45.311809
            ],
            [
              -61.541783,
              -45.226526
            ],
            [
              -61.420191,
              -45.1322
            ],
            [
              -61.31201,
              -45.029738
            ],
            [
              -61.218281,
              -44.920129
            ],
            [
              -61.139907,
              -44.804426
            ],
            [
              -61.077642,
              -44.683746
            ],
            [
              -61.032088,
              -44.559249
            ],
            [
              -61.003681,
              -44.432135
            ],
            [
              -60.992696,
              -44.303628
            ],
            [
              -60.999238,
              -44.174966
            ],
            [
              -61.023245,
              -44.047387
            ],
            [
              -61.064485,
              -43.92212
            ],
            [
              -61.122561,
              -43.800373
            ],
            [
              -61.196914,
              -43.683316
            ],
            [
              -61.286828,
              -43.572079
            ],
            [
              -61.391437,
              -43.46773
            ],
            [
              -61.509733,
              -43.371277
            ],
            [
              -61.640577,
              -43.283647
            ],
            [
              -61.78271,
              -43.205685
            ],
            [
              -61.934761,
              -43.138141
            ],
            [
              -62.095267,
              -43.081667
            ]
          ]
        ],
        "type": "Polygon"
      },
      "properties": {
        "kind": "reachableSet",
        "observationStatus": "estimated",
        "vessel": "B"
      },
      "type": "Feature"
    }
  ],
  "properties": {
    "dateline": false
  },
  "type": "FeatureCollection"
}
