{
  "features": [
    {
      "geometry": {
        "coordinates": [
          169.008667,
          47.440773
        ],
        "type": "Point"
      },
      "properties": {
        "mmsi": "577100000",
        "observationStatus": "observed",
        "role": "off",
        "time": "2019-07-28T03:31:47Z",
        "vessel": "A"
      },
      "type": "Feature"
    },
    {
      "geometry": {
        "coordinates": [
          168.989973,
          47.513867
        ],
        "type": "Point"
      },
      "properties": {
        "mmsi": "577101000",
        "observationStatus": "observed",
        "role": "off",
        "time": "2019-07-28T03:34:06Z",
        "vessel": "B"
      },
      "type": "Feature"
    },
    {
      "geometry": {
        "coordinates": [
          166.86517,
          48.126852
        ],
        "type": "Point"
      },
      "properties": {
        "mmsi": "577101000",
        "observationStatus": "observed",
        "role": "on",
        "time": "2019-07-28T15:39:39Z",
        "vessel": "B"
      },
      "type": "Feature"
    },
    {
      "geometry": {
        "coordinates": [
          166.895307,
          48.21216
        ],
        "type": "Point"
      },
      "properties": {
        "mmsi": "577100000",
        "observationStatus": "observed",
        "role": "on",
        "time": "2019-07-28T16:26:36Z",
        "vessel": "A"
      },
      "type": "Feature"
    },
    {
      "geometry": {
        "coordinates": [
          [
            169.008667,
            47.440773
          ],
          [
            168.396153,
            47.636914
          ],
          [
            166.895307,
            48.21216
          ]
        ],
        "type": "LineString"
      },
      "properties": {
        "confidence": "low",
        "lineStyle": "dashed",
        "observationStatus": "estimated",
        "source": "reachable-set heuristic",
        "vessel": "A"
      },
      "type": "Feature"
    },
    {
      "geometry": {
        "coordinates": [
          [
            168.989973,
            47.513867
          ],
          [
            168.396153,
            47.636914
          ],
          [
            166.86517,
            48.126852
          ]
        ],
        "type": "LineString"
      },
      "properties": {
        "confidence": "low",
        "lineStyle": "dashed",
        "observationStatus": "estimated",
        "source": "reachable-set heuristic",
        "vessel": "B"
      },
      "type": "Feature"
    },
    {
      "geometry": {
        "coordinates": [
          168.396153,
          47.636914
        ],
        "type": "Point"
      },
      "properties": {
        "kind": "meetingPoint",
        "observationStatus": "estimated"
      },
      "type": "Feature"
    },
    {
      "geometry": {
        "coordinates": [
          [
            [
              166.393401,
              48.395358
            ],
            [
              166.340265,
              48.316713
            ],
            [
              166.302651,
              48.233347
            ],
            [
              166.28092,
              48.146062
            ],
            [
              166.275283,
              48.055699
            ],
            [
              166.285794,
              47.963129
            ],
            [
              166.312351,
              47.869242
            ],
            [
              166.354698,
              47.774944
            ],
            [
              166.412429,
              47.681141
            ],
            [
              166.484986,
              47.588739
            ],
            [
              166.571671,
              47.498625
            ],
            [
              166.671649,
              47.411669
            ],
            [
              166.783958,
              47.328708
            ],
            [
              166.907515,
              47.250541
            ],
            [
              167.041132,
              47.17792
            ],
            [
              167.18352,
              47.111544
            ],
            [
              167.333309,
              47.052054
            ],
            [
              167.489056,
              47.000022
            ],
            [
              167.649262,
              46.955949
            ],
            [
              167.812383,
              46.92026
            ],
            [
              167.976848,
              46.893298
            ],
            [
              168.141074,
              46.875322
            ],
            [
              168.303479,
              46.866507
            ],
            [
              168.462499,
              46.866937
            ],
            [
              168.616602,
              46.876607
            ],
            [
              168.764305,
              46.895426
            ],
            [
              168.904185,
              46.92321
            ],
            [
              169.034894,
              46.959694
            ],
            [
              169.155175,
              47.004525
            ],
            [
              169.263868,
              47.057271
            ],
            [
              169.359927,
              47.117426
            ],
            [
              169.442427,
              47.184409
            ],
            [
              169.510573,
              47.257575
            ],
            [
              169.563709,
              47.33622
            ],
            [
              169.601323,
              47.419587
            ],
            [
              169.623053,
              47.506872
            ],
            [
              169.62869,
              47.597234
            ],
            [
              169.618179,
              47.689805
            ],
            [
              169.591622,
              47.783691
            ],
            [
              169.549275,
              47.87799
            ],
            [
              169.491545,
              47.971792
            ],
            [
              169.418987,
              48.064195
            ],
            [
              169.332302,
              48.154308
            ],
            [
              169.232324,
              48.241264
            ],
            [
              169.120015,
              48.324225
            ],
            [
              168.996458,
              48.402393
            ],
            [
              168.862842,
              48.475014
            ],
            [
              168.720453,
              48.541389
            ],
            [
              168.570664,
              48.600879
            ],
            [
              168.414917,
              48.652911
            ],
            [
              168.254712,
              48.696984
            ],
            [
              168.091591,
              48.732674
            ],
            [
              167.927125,
              48.759636
            ],
            [
              167.762899,
              48.777611
            ],
            [
              167.600495,
              48.786426
            ],
            [
              167.441475,
              48.785996
            ],
            [
              167.287371,
              48.776326
            ],
            [
              167.139669,
              48.757508
            ],
            [
              166.999789,
              48.729723
            ],
            [
              166.869079,
              48.69324
            ],
            [
              166.748799,
              48.648409
            ],
            [
              166.640106,
              48.595662
            ],
            [
              166.544047,
              48.535507
            ],
            [
              166.461547,
              48.468524
            ],
            [
              166.393401,
              48.395358
            ]
          ]
        ],
        "type": "Polygon"
      },
      "properties": {
        "kind": "reachableSet",
        "observationStatus": "estimated",
        "vessel": "A"
      },
      "type": "Feature"
    },
    {
      "geometry": {
        "coordinates": [
          [
            [
              166.410872,
              48.257912
            ],
            [
              166.372898,
              48.184082
            ],
            [
              166.349896,
              48.106749
            ],
            [
              166.342088,
              48.026657
            ],
            [
              166.349549,
              47.944579
            ],
            [
              166.372207,
              47.861305
            ],
            [
              166.409844,
              47.777636
            ],
            [
              166.462098,
              47.694379
            ],
            [
              166.528465,
              47.612335
            ],
            [
              166.608307,
              47.532294
            ],
            [
              166.700853,
              47.455028
            ],
            [
              166.805214,
              47.38128
            ],
            [
              166.920383,
              47.311761
            ],
            [
              167.045252,
              47.247139
            ],
            [
              167.178619,
              47.188038
            ],
            [
              167.319198,
              47.135027
            ],
            [
              167.465636,
              47.088616
            ],
            [
              167.616523,
              47.049251
            ],
            [
              167.770405,
              47.017313
            ],
            [
              167.925802,
              46.993109
            ],
            [
              168.081215,
              46.976872
            ],
            [
              168.235148,
              46.968758
            ],
            [
              168.386119,
              46.968845
            ],
            [
              168.532675,
              46.977133
            ],
            [
              168.673402,
              46.993542
            ],
            [
              168.806948,
              47.017913
            ],
            [
              168.932024,
              47.050012
            ],
            [
              169.047426,
              47.08953
            ],
            [
              169.152044,
              47.136087
            ],
            [
              169.24487,
              47.189233
            ],
            [
              169.325009,
              47.248458
            ],
            [
              169.39169,
              47.31319
            ],
            [
              169.444271,
              47.382806
            ],
            [
              169.482246,
              47.456636
            ],
            [
              169.505248,
              47.53397
            ],
            [
              169.513056,
              47.614061
            ],
            [
              169.505595,
              47.696139
            ],
            [
              169.482936,
              47.779413
            ],
            [
              169.445299,
              47.863082
            ],
            [
              169.393045,
              47.946339
            ],
            [
              169.326678,
              48.028383
            ],
            [
              169.246837,
              48.108424
            ],
            [
              169.15429,
              48.18569
            ],
            [
              169.04993,
              48.259438
            ],
            [
              168.93476,
              48.328958
            ],
            [
              168.809891,
              48.393579
            ],
            [
              168.676525,
              48.45268
            ],
            [
              168.535945,
              48.505691
            ],
            [
              168.389507,
              48.552103
            ],
            [
              168.23862,
              48.591467
            ],
            [
              168.084738,
              48.623405
            ],
            [
              167.929342,
              48.647609
            ],
            [
              167.773929,
              48.663846
            ],
            [
              167.619995,
              48.67196
            ],
            [
              167.469024,
              48.671873
            ],
            [
              167.322469,
              48.663585
            ],
            [
              167.181741,
              48.647177
            ],
            [
              167.048196,
              48.622805
            ],
            [
              166.92312,
              48.590706
            ],
            [
              166.807717,
              48.551188
            ],
            [
              166.703099,
              48.504632
            ],
            [
              166.610273,
              48.451485
            ],
            [
              166.530134,
              48.392261
            ],
            [
              166.463453,
              48.327529
            ],
            [
              166.410872,
              48.257912
            ]
          ]
        ],
        "type": "Polygon"
      },
      "properties": {
        "kind": "reachableSet",
        "observationStatus": "estimated",
        "vessel": "B"
      },
      "type": "Feature"
    }
  ],
  "properties": {
    "dateline": false
  },
  "type": "FeatureCollection"
}
