{
  "features": [
    {
      "geometry": {
        "coordinates": [
          -55.584912,
          -36.195812
        ],
        "type": "Point"
      },
      "properties": {
        "mmsi": "701000924",
        "observationStatus": "observed",
        "role": "off",
        "time": "2019-12-04T13:32:19Z",
        "vessel": "A"
      },
      "type": "Feature"
    },
    {
      "geometry": {
        "coordinates": [
          -55.588613,
          -36.1968
        ],
        "type": "Point"
      },
      "properties": {
        "mmsi": "701000964",
        "observationStatus": "observed",
        "role": "off",
        "time": "2019-12-04T13:39:24Z",
        "vessel": "B"
      },
      "type": "Feature"
    },
    {
      "geometry": {
        "coordinates": [
          -55.63846,
          -36.19181
        ],
        "type": "Point"
      },
      "properties": {
        "mmsi": "701000964",
        "observationStatus": "observed",
        "role": "on",
        "time": "2019-12-05T22:14:08Z",
        "vessel": "B"
      },
      "type": "Feature"
    },
    {
      "geometry": {
        "coordinates": [
          -55.645688,
          -36.195267
        ],
        "type": "Point"
      },
      "properties": {
        "mmsi": "701000924",
        "observationStatus": "observed",
        "role": "on",
        "time": "2019-12-05T22:19:17Z",
        "vessel": "A"
      },
      "type": "Feature"
    },
    {
      "geometry": {
        "coordinates": [
          [
            -55.584912,
            -36.195812
          ],
          [
            -55.6153,
            -36.194305
          ],
          [
            -55.645688,
            -36.195267
          ]
        ],
        "type": "LineString"
      },
      "properties": {
        "confidence": "low",
        "lineStyle": "dashed",
        "observationStatus": "estimated",
        "source": "reachable-set heuristic",
        "vessel": "A"
      },
      "type": "Feature"
    },
    {
      "geometry": {
        "coordinates": [
          [
            -55.588613,
            -36.1968
          ],
          [
            -55.6153,
            -36.194305
          ],
          [
            -55.63846,
            -36.19181
          ]
        ],
        "type": "LineString"
      },
      "properties": {
        "confidence": "low",
        "lineStyle": "dashed",
        "observationStatus": "estimated",
        "source": "reachable-set heuristic",
        "vessel": "B"
      },
      "type": "Feature"
    },
    {
      "geometry": {
        "coordinates": [
          -55.6153,
          -36.194305
        ],
        "type": "Point"
      },
      "properties": {
        "kind": "meetingPoint",
        "observationStatus": "estimated"
      },
      "type": "Feature"
    },
    {
      "geometry": {
        "coordinates": [
          [
            [
              -59.873927,
              -36.157351
            ],
            [
              -59.858028,
              -36.49667
            ],
            [
              -59.801268,
              -36.83309
            ],
            [
              -59.704196,
              -37.163369
            ],
            [
              -59.567745,
              -37.484328
            ],
            [
              -59.39323,
              -37.792875
            ],
            [
              -59.182331,
              -38.086039
            ],
            [
              -58.93708,
              -38.360996
            ],
            [
              -58.659839,
              -38.615099
            ],
            [
              -58.353277,
              -38.8459
            ],
            [
              -58.020346,
              -39.051176
            ],
            [
              -57.664254,
              -39.228952
            ],
            [
              -57.288429,
              -39.377514
            ],
            [
              -56.896491,
              -39.495431
            ],
            [
              -56.492215,
              -39.581569
            ],
            [
              -56.079493,
              -39.635098
            ],
            [
              -55.662301,
              -39.655502
            ],
            [
              -55.244656,
              -39.642584
            ],
            [
              -54.830581,
              -39.596469
            ],
            [
              -54.424063,
              -39.517602
            ],
            [
              -54.029017,
              -39.406742
            ],
            [
              -53.649248,
              -39.264955
            ],
            [
              -53.288413,
              -39.093609
            ],
            [
              -52.949988,
              -38.894353
            ],
            [
              -52.63723,
              -38.669105
            ],
            [
              -52.353154,
              -38.420036
            ],
            [
              -52.100493,
              -38.149544
            ],
            [
              -51.881682,
              -37.860233
            ],
            [
              -51.698828,
              -37.554891
            ],
            [
              -51.553691,
              -37.236457
            ],
            [
              -51.447671,
              -36.907999
            ],
            [
              -51.381786,
              -36.572679
            ],
            [
              -51.356673,
              -36.233727
            ],
            [
              -51.372572,
              -35.894408
            ],
            [
              -51.429332,
              -35.557988
            ],
            [
              -51.526404,
              -35.227709
            ],
            [
              -51.662855,
              -34.90675
            ],
            [
              -51.83737,
              -34.598203
            ],
            [
              -52.048269,
              -34.305039
            ],
            [
              -52.29352,
              -34.030082
            ],
            [
              -52.570761,
              -33.775979
            ],
            [
              -52.877323,
              -33.545178
            ],
            [
              -53.210254,
              -33.339902
            ],
            [
              -53.566346,
              -33.162127
            ],
            [
              -53.942171,
              -33.013565
            ],
            [
              -54.334109,
              -32.895647
            ],
            [
              -54.738385,
              -32.809509
            ],
            [
              -55.151107,
              -32.755981
            ],
            [
              -55.568299,
              -32.735577
            ],
            [
              -55.985944,
              -32.748494
            ],
            [
              -56.400019,
              -32.794609
            ],
            [
              -56.806537,
              -32.873476
            ],
            [
              -57.201583,
              -32.984337
            ],
            [
              -57.581352,
              -33.126123
            ],
            [
              -57.942187,
              -33.297469
            ],
            [
              -58.280612,
              -33.496726
            ],
            [
              -58.59337,
              -33.721973
            ],
            [
              -58.877446,
              -33.971042
            ],
            [
              -59.130107,
              -34.241535
            ],
            [
              -59.348918,
              -34.530845
            ],
            [
              -59.531772,
              -34.836188
            ],
            [
              -59.676909,
              -35.154621
            ],
            [
              -59.782929,
              -35.48308
            ],
            [
              -59.848814,
              -35.818399
            ],
            [
              -59.873927,
              -36.157351
            ]
          ]
        ],
        "type": "Polygon"
      },
      "properties": {
        "kind": "reachableSet",
        "observationStatus": "estimated",
        "vessel": "A"
      },
      "type": "Feature"
    },
    {
      "geometry": {
        "coordinates": [
          [
            [
              -59.813278,
              -35.773881
            ],
            [
              -59.843773,
              -36.11036
            ],
            [
              -59.833529,
              -36.447647
            ],
            [
              -59.782644,
              -36.782494
            ],
            [
              -59.691607,
              -37.111677
            ],
            [
              -59.561297,
              -37.432025
            ],
            [
              -59.392968,
              -37.740453
            ],
            [
              -59.188241,
              -38.03399
            ],
            [
              -58.949087,
              -38.309811
            ],
            [
              -58.677811,
              -38.565258
            ],
            [
              -58.377023,
              -38.797871
            ],
            [
              -58.049622,
              -39.005411
            ],
            [
              -57.69876,
              -39.185878
            ],
            [
              -57.327816,
              -39.337535
            ],
            [
              -56.940363,
              -39.458921
            ],
            [
              -56.540131,
              -39.548866
            ],
            [
              -56.130976,
              -39.606506
            ],
            [
              -55.716838,
              -39.631284
            ],
            [
              -55.301705,
              -39.622962
            ],
            [
              -54.889575,
              -39.58162
            ],
            [
              -54.484417,
              -39.507656
            ],
            [
              -54.090133,
              -39.401784
            ],
            [
              -53.710521,
              -39.265021
            ],
            [
              -53.349235,
              -39.098686
            ],
            [
              -53.009756,
              -38.90438
            ],
            [
              -52.695353,
              -38.683974
            ],
            [
              -52.409053,
              -38.439592
            ],
            [
              -52.153615,
              -38.173586
            ],
            [
              -51.931497,
              -37.888518
            ],
            [
              -51.744839,
              -37.587135
            ],
            [
              -51.595439,
              -37.272338
            ],
            [
              -51.484736,
              -36.947158
            ],
            [
              -51.413795,
              -36.614729
            ],
            [
              -51.3833,
              -36.27825
            ],
            [
              -51.393545,
              -35.940963
            ],
            [
              -51.44443,
              -35.606116
            ],
            [
              -51.535466,
              -35.276933
            ],
            [
              -51.665776,
              -34.956585
            ],
            [
              -51.834105,
              -34.648157
            ],
            [
              -52.038832,
              -34.35462
            ],
            [
              -52.277986,
              -34.078799
            ],
            [
              -52.549263,
              -33.823352
            ],
            [
              -52.85005,
              -33.590739
            ],
            [
              -53.177451,
              -33.383199
            ],
            [
              -53.528313,
              -33.202732
            ],
            [
              -53.899257,
              -33.051075
            ],
            [
              -54.286711,
              -32.929689
            ],
            [
              -54.686942,
              -32.839744
            ],
            [
              -55.096097,
              -32.782104
            ],
            [
              -55.510235,
              -32.757326
            ],
            [
              -55.925368,
              -32.765648
            ],
            [
              -56.337498,
              -32.80699
            ],
            [
              -56.742656,
              -32.880954
            ],
            [
              -57.13694,
              -32.986826
            ],
            [
              -57.516553,
              -33.123589
            ],
            [
              -57.877838,
              -33.289924
            ],
            [
              -58.217317,
              -33.48423
            ],
            [
              -58.531721,
              -33.704636
            ],
            [
              -58.81802,
              -33.949018
            ],
            [
              -59.073459,
              -34.215024
            ],
            [
              -59.295576,
              -34.500092
            ],
            [
              -59.482234,
              -34.801475
            ],
            [
              -59.631634,
              -35.116272
            ],
            [
              -59.742337,
              -35.441452
            ],
            [
              -59.813278,
              -35.773881
            ]
          ]
        ],
        "type": "Polygon"
      },
      "properties": {
        "kind": "reachableSet",
        "observationStatus": "estimated",
        "vessel": "B"
      },
      "type": "Feature"
    }
  ],
  "properties": {
    "dateline": false
  },
  "type": "FeatureCollection"
}
