{
  "features": [
    {
      "geometry": {
        "coordinates": [
          157.01776,
          43.295707
        ],
        "type": "Point"
      },
      "properties": {
        "mmsi": "416253700",
        "observationStatus": "observed",
        "role": "off",
        "time": "2019-10-03T02:59:26Z",
        "vessel": "A"
      },
      "type": "Feature"
    },
    {
      "geometry": {
        "coordinates": [
          156.94784,
          43.321957
        ],
        "type": "Point"
      },
      "properties": {
        "mmsi": "416234600",
        "observationStatus": "observed",
        "role": "off",
        "time": "2019-10-03T03:24:43Z",
        "vessel": "B"
      },
      "type": "Feature"
    },
    {
      "geometry": {
        "coordinates": [
          157.213427,
          43.411273
        ],
        "type": "Point"
      },
      "properties": {
        "mmsi": "416253700",
        "observationStatus": "observed",
        "role": "on",
        "time": "2019-10-03T19:07:36Z",
        "vessel": "A"
      },
      "type": "Feature"
    },
    {
      "geometry": {
        "coordinates": [
          157.1796,
          43.406633
        ],
        "type": "Point"
      },
      "properties": {
        "mmsi": "416234600",
        "observationStatus": "observed",
        "role": "on",
        "time": "2019-10-03T19:46:28Z",
        "vessel": "B"
      },
      "type": "Feature"
    },
    {
      "geometry": {
        "coordinates": [
          [
            157.01776,
            43.295707
          ],
          [
            157.180822,
            43.400391
          ],
          [
            157.213427,
            43.411273
          ]
        ],
        "type": "LineString"
      },
      "properties": {
        "confidence": "low",
        "lineStyle": "dashed",
        "observationStatus": "estimated",
        "source": "reachable-set heuristic",
        "vessel": "A"
      },
      "type": "Feature"
    },
    {
      "geometry": {
        "coordinates": [
          [
            156.94784,
            43.321957
          ],
          [
            157.180822,
            43.400391
          ],
          [
            157.1796,
            43.406633
          ]
        ],
        "type": "LineString"
      },
      "properties": {
        "confidence": "low",
        "lineStyle": "dashed",
        "observationStatus": "estimated",
        "source": "reachable-set heuristic",
        "vessel": "B"
      },
      "type": "Feature"
    },
    {
      "geometry": {
        "coordinates": [
          157.180822,
          43.400391
        ],
        "type": "Point"
      },
      "properties": {
        "kind": "meetingPoint",
        "observationStatus": "estimated"
      },
      "type": "Feature"
    },
    {
      "geometry": {
        "coordinates": [
          [
            [
              158.732764,
              44.30864
            ],
            [
              158.597325,
              44.419868
            ],
            [
              158.447616,
              44.520826
            ],
            [
              158.285078,
              44.610542
            ],
            [
              158.111278,
              44.688152
            ],
            [
              157.927889,
              44.752909
            ],
            [
              157.736677,
              44.804188
            ],
            [
              157.539484,
              44.841497
            ],
            [
              157.338208,
              44.864475
            ],
            [
              157.134789,
              44.872901
            ],
            [
              156.931185,
              44.866695
            ],
            [
              156.729356,
              44.845915
            ],
            [
              156.531247,
              44.810763
            ],
            [
              156.338766,
              44.761576
            ],
            [
              156.153766,
              44.698829
            ],
            [
              155.978029,
              44.623126
            ],
            [
              155.813248,
              44.535195
            ],
            [
              155.661009,
              44.435883
            ],
            [
              155.522778,
              44.326148
            ],
            [
              155.399886,
              44.207045
            ],
            [
              155.293518,
              44.079723
            ],
            [
              155.204698,
              43.945406
            ],
            [
              155.134281,
              43.805389
            ],
            [
              155.082944,
              43.661019
            ],
            [
              155.051184,
              43.513688
            ],
            [
              155.039304,
              43.364815
            ],
            [
              155.047421,
              43.215832
            ],
            [
              155.075455,
              43.068175
            ],
            [
              155.123136,
              42.923265
            ],
            [
              155.190006,
              42.782499
            ],
            [
              155.275421,
              42.647232
            ],
            [
              155.378557,
              42.518766
            ],
            [
              155.498422,
              42.39834
            ],
            [
              155.633862,
              42.287112
            ],
            [
              155.783571,
              42.186154
            ],
            [
              155.946108,
              42.096438
            ],
            [
              156.119908,
              42.018828
            ],
            [
              156.303297,
              41.954071
            ],
            [
              156.494509,
              41.902792
            ],
            [
              156.691703,
              41.865483
            ],
            [
              156.892978,
              41.842505
            ],
            [
              157.096398,
              41.834079
            ],
            [
              157.300002,
              41.840285
            ],
            [
              157.50183,
              41.861065
            ],
            [
              157.699939,
              41.896217
            ],
            [
              157.89242,
              41.945404
            ],
            [
              158.07742,
              42.008151
            ],
            [
              158.253157,
              42.083854
            ],
            [
              158.417939,
              42.171785
            ],
            [
              158.570178,
              42.271097
            ],
            [
              158.708409,
              42.380832
            ],
            [
              158.8313,
              42.499935
            ],
            [
              158.937668,
              42.627257
            ],
            [
              159.026489,
              42.761574
            ],
            [
              159.096906,
              42.901591
            ],
            [
              159.148242,
              43.045961
            ],
            [
              159.180003,
              43.193292
            ],
            [
              159.191883,
              43.342165
            ],
            [
              159.183766,
              43.491148
            ],
            [
              159.155732,
              43.638805
            ],
            [
              159.10805,
              43.783715
            ],
            [
              159.04118,
              43.924481
            ],
            [
              158.955766,
              44.059748
            ],
            [
              158.852629,
              44.188214
            ],
            [
              158.732764,
              44.30864
            ]
          ]
        ],
        "type": "Polygon"
      },
      "properties": {
        "kind": "reachableSet",
        "observationStatus": "estimated",
        "vessel": "A"
      },
      "type": "Feature"
    },
    {
      "geometry": {
        "coordinates": [
          [
            [
              158.950986,
              44.053833
            ],
            [
              158.849733,
              44.185654
            ],
            [
              158.731279,
              44.309564
            ],
            [
              158.596766,
              44.424371
            ],
            [
              158.447489,
              44.528969
            ],
            [
              158.284886,
              44.62235
            ],
            [
              158.110522,
              44.703616
            ],
            [
              157.926076,
              44.771983
            ],
            [
              157.733326,
              44.826794
            ],
            [
              157.534127,
              44.86752
            ],
            [
              157.330398,
              44.893769
            ],
            [
              157.124101,
              44.905288
            ],
            [
              156.917222,
              44.901966
            ],
            [
              156.711754,
              44.883836
            ],
            [
              156.509675,
              44.851072
            ],
            [
              156.312933,
              44.80399
            ],
            [
              156.123421,
              44.743043
            ],
            [
              155.942964,
              44.668817
            ],
            [
              155.773301,
              44.582028
            ],
            [
              155.616065,
              44.483512
            ],
            [
              155.472771,
              44.374217
            ],
            [
              155.344799,
              44.255196
            ],
            [
              155.233381,
              44.127595
            ],
            [
              155.13959,
              43.992643
            ],
            [
              155.06433,
              43.85164
            ],
            [
              155.008324,
              43.705943
            ],
            [
              154.972114,
              43.556956
            ],
            [
              154.956046,
              43.406114
            ],
            [
              154.960277,
              43.254869
            ],
            [
              154.984765,
              43.104677
            ],
            [
              155.029274,
              42.956986
            ],
            [
              155.093377,
              42.813218
            ],
            [
              155.176454,
              42.674757
            ],
            [
              155.277707,
              42.542936
            ],
            [
              155.396161,
              42.419026
            ],
            [
              155.530674,
              42.304219
            ],
            [
              155.679951,
              42.199621
            ],
            [
              155.842554,
              42.10624
            ],
            [
              156.016918,
              42.024974
            ],
            [
              156.201364,
              41.956607
            ],
            [
              156.394114,
              41.901796
            ],
            [
              156.593313,
              41.86107
            ],
            [
              156.797042,
              41.834821
            ],
            [
              157.003339,
              41.823302
            ],
            [
              157.210218,
              41.826624
            ],
            [
              157.415686,
              41.844754
            ],
            [
              157.617765,
              41.877518
            ],
            [
              157.814507,
              41.9246
            ],
            [
              158.004019,
              41.985547
            ],
            [
              158.184476,
              42.059773
            ],
            [
              158.354139,
              42.146562
            ],
            [
              158.511375,
              42.245078
            ],
            [
              158.654669,
              42.354373
            ],
            [
              158.782641,
              42.473394
            ],
            [
              158.894059,
              42.600995
            ],
            [
              158.98785,
              42.735947
            ],
            [
              159.06311,
              42.87695
            ],
            [
              159.119116,
              43.022647
            ],
            [
              159.155326,
              43.171634
            ],
            [
              159.171394,
              43.322476
            ],
            [
              159.167163,
              43.473721
            ],
            [
              159.142675,
              43.623913
            ],
            [
              159.098166,
              43.771604
            ],
            [
              159.034063,
              43.915372
            ],
            [
              158.950986,
              44.053833
            ]
          ]
        ],
        "type": "Polygon"
      },
      "properties": {
        "kind": "reachableSet",
        "observationStatus": "estimated",
        "vessel": "B"
      },
      "type": "Feature"
    }
  ],
  "properties": {
    "dateline": false
  },
  "type": "FeatureCollection"
}
