{
  "features": [
    {
      "geometry": {
        "coordinates": [
          -60.730453,
          -47.179573
        ],
        "type": "Point"
      },
      "properties": {
        "mmsi": "412420418",
        "observationStatus": "observed",
        "role": "off",
        "time": "2019-02-16T18:15:37Z",
        "vessel": "A"
      },
      "type": "Feature"
    },
    {
      "geometry": {
        "coordinates": [
          -60.715307,
          -47.19024
        ],
        "type": "Point"
      },
      "properties": {
        "mmsi": "412328763",
        "observationStatus": "observed",
        "role": "off",
        "time": "2019-02-16T18:37:08Z",
        "vessel": "B"
      },
      "type": "Feature"
    },
    {
      "geometry": {
        "coordinates": [
          -60.719947,
          -47.320068
        ],
        "type": "Point"
      },
      "properties": {
        "mmsi": "412328763",
        "observationStatus": "observed",
        "role": "on",
        "time": "2019-02-17T10:28:52Z",
        "vessel": "B"
      },
      "type": "Feature"
    },
    {
      "geometry": {
        "coordinates": [
          -60.721622,
          -47.351218
        ],
        "type": "Point"
      },
      "properties": {
        "mmsi": "412420418",
        "observationStatus": "observed",
        "role": "on",
        "time": "2019-02-17T10:36:52Z",
        "vessel": "A"
      },
      "type": "Feature"
    },
    {
      "geometry": {
        "coordinates": [
          [
            -60.730453,
            -47.179573
          ],
          [
            -60.716041,
            -47.265396
          ],
          [
            -60.721622,
            -47.351218
          ]
        ],
        "type": "LineString"
      },
      "properties": {
        "confidence": "low",
        "lineStyle": "dashed",
        "observationStatus": "estimated",
        "source": "reachable-set heuristic",
        "vessel": "A"
      },
      "type": "Feature"
    },
    {
      "geometry": {
        "coordinates": [
          [
            -60.715307,
            -47.19024
          ],
          [
            -60.716041,
            -47.265396
          ],
          [
            -60.719947,
            -47.320068
          ]
        ],
        "type": "LineString"
      },
      "properties": {
        "confidence": "low",
        "lineStyle": "dashed",
        "observationStatus": "estimated",
        "source": "reachable-set heuristic",
        "vessel": "B"
      },
      "type": "Feature"
    },
    {
      "geometry": {
        "coordinates": [
          -60.716041,
          -47.265396
        ],
        "type": "Point"
      },
      "properties": {
        "kind": "meetingPoint",
        "observationStatus": "estimated"
      },
      "type": "Feature"
    },
    {
      "geometry": {
        "coordinates": [
          [
            [
              -60.646692,
              -48.807497
            ],
            [
              -60.426177,
              -48.794767
            ],
            [
              -60.20855,
              -48.767307
            ],
            [
              -59.995907,
              -48.725383
            ],
            [
              -59.790295,
              -48.669399
            ],
            [
              -59.593695,
              -48.599893
            ],
            [
              -59.408,
              -48.517536
            ],
            [
              -59.234999,
              -48.42312
            ],
            [
              -59.076357,
              -48.317554
            ],
            [
              -58.933602,
              -48.201855
            ],
            [
              -58.808109,
              -48.077138
            ],
            [
              -58.701088,
              -47.944603
            ],
            [
              -58.613567,
              -47.805527
            ],
            [
              -58.546391,
              -47.661249
            ],
            [
              -58.500206,
              -47.513159
            ],
            [
              -58.475457,
              -47.362683
            ],
            [
              -58.472382,
              -47.21127
            ],
            [
              -58.491011,
              -47.060378
            ],
            [
              -58.531165,
              -46.911461
            ],
            [
              -58.592457,
              -46.765952
            ],
            [
              -58.674296,
              -46.625254
            ],
            [
              -58.775894,
              -46.49072
            ],
            [
              -58.896274,
              -46.363646
            ],
            [
              -59.034275,
              -46.245257
            ],
            [
              -59.188569,
              -46.136693
            ],
            [
              -59.357669,
              -46.038998
            ],
            [
              -59.539947,
              -45.953115
            ],
            [
              -59.733649,
              -45.879869
            ],
            [
              -59.936907,
              -45.819967
            ],
            [
              -60.147765,
              -45.773985
            ],
            [
              -60.364192,
              -45.742366
            ],
            [
              -60.584104,
              -45.725415
            ],
            [
              -60.805383,
              -45.723294
            ],
            [
              -61.025898,
              -45.736025
            ],
            [
              -61.243525,
              -45.763485
            ],
            [
              -61.456168,
              -45.805408
            ],
            [
              -61.66178,
              -45.861393
            ],
            [
              -61.85838,
              -45.930898
            ],
            [
              -62.044075,
              -46.013256
            ],
            [
              -62.217076,
              -46.107672
            ],
            [
              -62.375718,
              -46.213238
            ],
            [
              -62.518473,
              -46.328937
            ],
            [
              -62.643966,
              -46.453654
            ],
            [
              -62.750987,
              -46.586189
            ],
            [
              -62.838508,
              -46.725265
            ],
            [
              -62.905684,
              -46.869542
            ],
            [
              -62.951869,
              -47.017632
            ],
            [
              -62.976618,
              -47.168108
            ],
            [
              -62.979693,
              -47.319521
            ],
            [
              -62.961064,
              -47.470413
            ],
            [
              -62.92091,
              -47.619331
            ],
            [
              -62.859618,
              -47.764839
            ],
            [
              -62.777779,
              -47.905538
            ],
            [
              -62.676181,
              -48.040072
            ],
            [
              -62.555801,
              -48.167145
            ],
            [
              -62.4178,
              -48.285534
            ],
            [
              -62.263506,
              -48.394099
            ],
            [
              -62.094406,
              -48.491793
            ],
            [
              -61.912128,
              -48.577677
            ],
            [
              -61.718426,
              -48.650923
            ],
            [
              -61.515168,
              -48.710825
            ],
            [
              -61.30431,
              -48.756807
            ],
            [
              -61.087883,
              -48.788426
            ],
            [
              -60.867971,
              -48.805377
            ],
            [
              -60.646692,
              -48.807497
            ]
          ]
        ],
        "type": "Polygon"
      },
      "properties": {
        "kind": "reachableSet",
        "observationStatus": "estimated",
        "vessel": "A"
      },
      "type": "Feature"
    },
    {
      "geometry": {
        "coordinates": [
          [
            [
              -60.770992,
              -48.748324
            ],
            [
              -60.556759,
              -48.744705
            ],
            [
              -60.344076,
              -48.726741
            ],
            [
              -60.13499,
              -48.694604
            ],
            [
              -59.931515,
              -48.648605
            ],
            [
              -59.735611,
              -48.589186
            ],
            [
              -59.549164,
              -48.51692
            ],
            [
              -59.37397,
              -48.432502
            ],
            [
              -59.211716,
              -48.336746
            ],
            [
              -59.063965,
              -48.230573
            ],
            [
              -58.93214,
              -48.115007
            ],
            [
              -58.81751,
              -47.99116
            ],
            [
              -58.721179,
              -47.860224
            ],
            [
              -58.644075,
              -47.723462
            ],
            [
              -58.58694,
              -47.582189
            ],
            [
              -58.550325,
              -47.437767
            ],
            [
              -58.534583,
              -47.291586
            ],
            [
              -58.539864,
              -47.145054
            ],
            [
              -58.566118,
              -46.999583
            ],
            [
              -58.613093,
              -46.856573
            ],
            [
              -58.680335,
              -46.717402
            ],
            [
              -58.767198,
              -46.583409
            ],
            [
              -58.872844,
              -46.455886
            ],
            [
              -58.996256,
              -46.33606
            ],
            [
              -59.136247,
              -46.225085
            ],
            [
              -59.291466,
              -46.124031
            ],
            [
              -59.460421,
              -46.033869
            ],
            [
              -59.641483,
              -45.95547
            ],
            [
              -59.832909,
              -45.889587
            ],
            [
              -60.032855,
              -45.836855
            ],
            [
              -60.239396,
              -45.797783
            ],
            [
              -60.450543,
              -45.772745
            ],
            [
              -60.664262,
              -45.761984
            ],
            [
              -60.878494,
              -45.765603
            ],
            [
              -61.091178,
              -45.783568
            ],
            [
              -61.300264,
              -45.815704
            ],
            [
              -61.503738,
              -45.861703
            ],
            [
              -61.699643,
              -45.921122
            ],
            [
              -61.886089,
              -45.993388
            ],
            [
              -62.061283,
              -46.077806
            ],
            [
              -62.223537,
              -46.173562
            ],
            [
              -62.371288,
              -46.279735
            ],
            [
              -62.503113,
              -46.395301
            ],
            [
              -62.617743,
              -46.519149
            ],
            [
              -62.714074,
              -46.650084
            ],
            [
              -62.791178,
              -46.786847
            ],
            [
              -62.848313,
              -46.928119
            ],
            [
              -62.884928,
              -47.072541
            ],
            [
              -62.900671,
              -47.218722
            ],
            [
              -62.895389,
              -47.365254
            ],
            [
              -62.869135,
              -47.510725
            ],
            [
              -62.822161,
              -47.653735
            ],
            [
              -62.754918,
              -47.792907
            ],
            [
              -62.668056,
              -47.926899
            ],
            [
              -62.562409,
              -48.054423
            ],
            [
              -62.438997,
              -48.174249
            ],
            [
              -62.299007,
              -48.285223
            ],
            [
              -62.143787,
              -48.386278
            ],
            [
              -61.974832,
              -48.476439
            ],
            [
              -61.79377,
              -48.554838
            ],
            [
              -61.602344,
              -48.620721
            ],
            [
              -61.402398,
              -48.673453
            ],
            [
              -61.195857,
              -48.712526
            ],
            [
              -60.984711,
              -48.737563
            ],
            [
              -60.770992,
              -48.748324
            ]
          ]
        ],
        "type": "Polygon"
      },
      "properties": {
        "kind": "reachableSet",
        "observationStatus": "estimated",
        "vessel": "B"
      },
      "type": "Feature"
    }
  ],
  "properties": {
    "dateline": false
  },
  "type": "FeatureCollection"
}
