{
  "features": [
    {
      "geometry": {
        "coordinates": [
          -57.742827,
          -42.143005
        ],
        "type": "Point"
      },
      "properties": {
        "mmsi": "412329693",
        "observationStatus": "observed",
        "role": "off",
        "time": "2019-06-29T03:51:59Z",
        "vessel": "A"
      },
      "type": "Feature"
    },
    {
      "geometry": {
        "coordinates": [
          -57.817675,
          -42.142208
        ],
        "type": "Point"
      },
      "properties": {
        "mmsi": "412329684",
        "observationStatus": "observed",
        "role": "off",
        "time": "2019-06-29T04:33:11Z",
        "vessel": "B"
      },
      "type": "Feature"
    },
    {
      "geometry": {
        "coordinates": [
          -57.847067,
          -41.995813
        ],
        "type": "Point"
      },
      "properties": {
        "mmsi": "412329693",
        "observationStatus": "observed",
        "role": "on",
        "time": "2019-06-29T23:14:36Z",
        "vessel": "A"
      },
      "type": "Feature"
    },
    {
      "geometry": {
        "coordinates": [
          -57.8096,
          -42.006395
        ],
        "type": "Point"
      },
      "properties": {
        "mmsi": "412329684",
        "observationStatus": "observed",
        "role": "on",
        "time": "2019-06-30T00:02:18Z",
        "vessel": "B"
      },
      "type": "Feature"
    },
    {
      "geometry": {
        "coordinates": [
          [
            -57.742827,
            -42.143005
          ],
          [
            -57.836995,
            -42.045632
          ],
          [
            -57.847067,
            -41.995813
          ]
        ],
        "type": "LineString"
      },
      "properties": {
        "confidence": "low",
        "lineStyle": "dashed",
        "observationStatus": "estimated",
        "source": "reachable-set heuristic",
        "vessel": "A"
      },
      "type": "Feature"
    },
    {
      "geometry": {
        "coordinates": [
          [
            -57.817675,
            -42.142208
          ],
          [
            -57.836995,
            -42.045632
          ],
          [
            -57.8096,
            -42.006395
          ]
        ],
        "type": "LineString"
      },
      "properties": {
        "confidence": "low",
        "lineStyle": "dashed",
        "observationStatus": "estimated",
        "source": "reachable-set heuristic",
        "vessel": "B"
      },
      "type": "Feature"
    },
    {
      "geometry": {
        "coordinates": [
          -57.836995,
          -42.045632
        ],
        "type": "Point"
      },
      "properties": {
        "kind": "meetingPoint",
        "observationStatus": "estimated"
      },
      "type": "Feature"
    },
    {
      "geometry": {
        "coordinates": [
          [
            [
              -59.04726,
              -40.301085
            ],
            [
              -59.272944,
              -40.401259
            ],
            [
              -59.484394,
              -40.517498
            ],
            [
              -59.679574,
              -40.648682
            ],
            [
              -59.856603,
              -40.793549
            ],
            [
              -60.013778,
              -40.950703
            ],
            [
              -60.149584,
              -41.118631
            ],
            [
              -60.262714,
              -41.295716
            ],
            [
              -60.352078,
              -41.480251
            ],
            [
              -60.416815,
              -41.670461
            ],
            [
              -60.456302,
              -41.864512
            ],
            [
              -60.470159,
              -42.060537
            ],
            [
              -60.458252,
              -42.256648
            ],
            [
              -60.420696,
              -42.450955
            ],
            [
              -60.357853,
              -42.641587
            ],
            [
              -60.270327,
              -42.826709
            ],
            [
              -60.158962,
              -43.004538
            ],
            [
              -60.024831,
              -43.173362
            ],
            [
              -59.869224,
              -43.331553
            ],
            [
              -59.693641,
              -43.47759
            ],
            [
              -59.499773,
              -43.610064
            ],
            [
              -59.289486,
              -43.727702
            ],
            [
              -59.064806,
              -43.829369
            ],
            [
              -58.827896,
              -43.914087
            ],
            [
              -58.581039,
              -43.981039
            ],
            [
              -58.326611,
              -44.029582
            ],
            [
              -58.067063,
              -44.059247
            ],
            [
              -57.804894,
              -44.069749
            ],
            [
              -57.54263,
              -44.060986
            ],
            [
              -57.282795,
              -44.033044
            ],
            [
              -57.027893,
              -43.98619
            ],
            [
              -56.780377,
              -43.920877
            ],
            [
              -56.542633,
              -43.837733
            ],
            [
              -56.316949,
              -43.73756
            ],
            [
              -56.105499,
              -43.621321
            ],
            [
              -55.91032,
              -43.490136
            ],
            [
              -55.73329,
              -43.345269
            ],
            [
              -55.576115,
              -43.188115
            ],
            [
              -55.440309,
              -43.020187
            ],
            [
              -55.327179,
              -42.843102
            ],
            [
              -55.237816,
              -42.658567
            ],
            [
              -55.173078,
              -42.468357
            ],
            [
              -55.133591,
              -42.274306
            ],
            [
              -55.119734,
              -42.078281
            ],
            [
              -55.131641,
              -41.882171
            ],
            [
              -55.169197,
              -41.687864
            ],
            [
              -55.232041,
              -41.497231
            ],
            [
              -55.319566,
              -41.312109
            ],
            [
              -55.430931,
              -41.13428
            ],
            [
              -55.565062,
              -40.965457
            ],
            [
              -55.720669,
              -40.807265
            ],
            [
              -55.896252,
              -40.661229
            ],
            [
              -56.09012,
              -40.528754
            ],
            [
              -56.300407,
              -40.411116
            ],
            [
              -56.525087,
              -40.309449
            ],
            [
              -56.761997,
              -40.224731
            ],
            [
              -57.008854,
              -40.157779
            ],
            [
              -57.263282,
              -40.109236
            ],
            [
              -57.52283,
              -40.079571
            ],
            [
              -57.784999,
              -40.06907
            ],
            [
              -58.047264,
              -40.077832
            ],
            [
              -58.307098,
              -40.105775
            ],
            [
              -58.562001,
              -40.152628
            ],
            [
              -58.809516,
              -40.217941
            ],
            [
              -59.04726,
              -40.301085
            ]
          ]
        ],
        "type": "Polygon"
      },
      "properties": {
        "kind": "reachableSet",
        "observationStatus": "estimated",
        "vessel": "A"
      },
      "type": "Feature"
    },
    {
      "geometry": {
        "coordinates": [
          [
            [
              -57.694097,
              -40.063752
            ],
            [
              -57.958225,
              -40.064682
            ],
            [
              -58.220961,
              -40.084966
            ],
            [
              -58.479774,
              -40.124408
            ],
            [
              -58.732172,
              -40.182629
            ],
            [
              -58.975724,
              -40.259068
            ],
            [
              -59.208084,
              -40.352988
            ],
            [
              -59.427015,
              -40.463486
            ],
            [
              -59.630408,
              -40.589496
            ],
            [
              -59.816305,
              -40.729806
            ],
            [
              -59.982915,
              -40.883064
            ],
            [
              -60.128634,
              -41.047795
            ],
            [
              -60.252058,
              -41.222411
            ],
            [
              -60.351998,
              -41.405232
            ],
            [
              -60.427493,
              -41.594496
            ],
            [
              -60.477815,
              -41.78838
            ],
            [
              -60.50248,
              -41.985019
            ],
            [
              -60.501249,
              -42.182517
            ],
            [
              -60.474135,
              -42.378973
            ],
            [
              -60.4214,
              -42.572495
            ],
            [
              -60.34355,
              -42.761219
            ],
            [
              -60.241335,
              -42.943328
            ],
            [
              -60.115741,
              -43.117067
            ],
            [
              -59.967976,
              -43.280764
            ],
            [
              -59.799464,
              -43.432842
            ],
            [
              -59.611827,
              -43.571837
            ],
            [
              -59.406872,
              -43.696409
            ],
            [
              -59.186574,
              -43.80536
            ],
            [
              -58.953054,
              -43.89764
            ],
            [
              -58.70856,
              -43.97236
            ],
            [
              -58.455448,
              -44.028801
            ],
            [
              -58.196155,
              -44.066418
            ],
            [
              -57.933178,
              -44.084851
            ],
            [
              -57.66905,
              -44.083921
            ],
            [
              -57.406314,
              -44.063637
            ],
            [
              -57.147501,
              -44.024195
            ],
            [
              -56.895103,
              -43.965974
            ],
            [
              -56.651551,
              -43.889536
            ],
            [
              -56.419191,
              -43.795615
            ],
            [
              -56.20026,
              -43.685118
            ],
            [
              -55.996867,
              -43.559107
            ],
            [
              -55.81097,
              -43.418797
            ],
            [
              -55.64436,
              -43.265539
            ],
            [
              -55.498641,
              -43.100809
            ],
            [
              -55.375217,
              -42.926192
            ],
            [
              -55.275277,
              -42.743372
            ],
            [
              -55.199782,
              -42.554108
            ],
            [
              -55.14946,
              -42.360223
            ],
            [
              -55.124795,
              -42.163585
            ],
            [
              -55.126026,
              -41.966086
            ],
            [
              -55.15314,
              -41.76963
            ],
            [
              -55.205875,
              -41.576108
            ],
            [
              -55.283725,
              -41.387384
            ],
            [
              -55.38594,
              -41.205276
            ],
            [
              -55.511534,
              -41.031536
            ],
            [
              -55.659299,
              -40.867839
            ],
            [
              -55.827811,
              -40.715761
            ],
            [
              -56.015448,
              -40.576767
            ],
            [
              -56.220403,
              -40.452194
            ],
            [
              -56.440701,
              -40.343243
            ],
            [
              -56.674221,
              -40.250963
            ],
            [
              -56.918715,
              -40.176243
            ],
            [
              -57.171827,
              -40.119803
            ],
            [
              -57.43112,
              -40.082185
            ],
            [
              -57.694097,
              -40.063752
            ]
          ]
        ],
        "type": "Polygon"
      },
      "properties": {
        "kind": "reachableSet",
        "observationStatus": "estimated",
        "vessel": "B"
      },
      "type": "Feature"
    }
  ],
  "properties": {
    "dateline": false
  },
  "type": "FeatureCollection"
}
