{
  "features": [
    {
      "geometry": {
        "coordinates": [
          166.245387,
          45.06296
        ],
        "type": "Point"
      },
      "properties": {
        "mmsi": "416242600",
        "observationStatus": "observed",
        "role": "off",
        "time": "2019-07-16T03:50:36Z",
        "vessel": "A"
      },
      "type": "Feature"
    },
    {
      "geometry": {
        "coordinates": [
          166.1676,
          45.046053
        ],
        "type": "Point"
      },
      "properties": {
        "mmsi": "416248500",
        "observationStatus": "observed",
        "role": "off",
        "time": "2019-07-16T03:58:49Z",
        "vessel": "B"
      },
      "type": "Feature"
    },
    {
      "geometry": {
        "coordinates": [
          166.95488,
          44.581067
        ],
        "type": "Point"
      },
      "properties": {
        "mmsi": "416242600",
        "observationStatus": "observed",
        "role": "on",
        "time": "2019-07-16T16:31:18Z",
        "vessel": "A"
      },
      "type": "Feature"
    },
    {
      "geometry": {
        "coordinates": [
          166.85976,
          44.5964
        ],
        "type": "Point"
      },
      "properties": {
        "mmsi": "416248500",
        "observationStatus": "observed",
        "role": "on",
        "time": "2019-07-16T17:25:04Z",
        "vessel": "B"
      },
      "type": "Feature"
    },
    {
      "geometry": {
        "coordinates": [
          [
            166.245387,
            45.06296
          ],
          [
            166.664557,
            44.75315
          ],
          [
            166.95488,
            44.581067
          ]
        ],
        "type": "LineString"
      },
      "properties": {
        "confidence": "low",
        "lineStyle": "dashed",
        "observationStatus": "estimated",
        "source": "reachable-set heuristic",
        "vessel": "A"
      },
      "type": "Feature"
    },
    {
      "geometry": {
        "coordinates": [
          [
            166.1676,
            45.046053
          ],
          [
            166.664557,
            44.75315
          ],
          [
            166.85976,
            44.5964
          ]
        ],
        "type": "LineString"
      },
      "properties": {
        "confidence": "low",
        "lineStyle": "dashed",
        "observationStatus": "estimated",
        "source": "reachable-set heuristic",
        "vessel": "B"
      },
      "type": "Feature"
    },
    {
      "geometry": {
        "coordinates": [
          166.664557,
          44.75315
        ],
        "type": "Point"
      },
      "properties": {
        "kind": "meetingPoint",
        "observationStatus": "estimated"
      },
      "type": "Feature"
    },
    {
      "geometry": {
        "coordinates": [
          [
            [
              167.791002,
              44.013166
            ],
            [
              167.891248,
              44.096631
            ],
            [
              167.97906,
              44.187083
            ],
            [
              168.053592,
              44.283649
            ],
            [
              168.114126,
              44.3854
            ],
            [
              168.16008,
              44.491356
            ],
            [
              168.19101,
              44.600496
            ],
            [
              168.20662,
              44.711769
            ],
            [
              168.206758,
              44.824104
            ],
            [
              168.191423,
              44.936419
            ],
            [
              168.160764,
              45.047633
            ],
            [
              168.115075,
              45.156673
            ],
            [
              168.054796,
              45.262491
            ],
            [
              167.980508,
              45.364066
            ],
            [
              167.892926,
              45.460421
            ],
            [
              167.792893,
              45.550628
            ],
            [
              167.681374,
              45.633818
            ],
            [
              167.559442,
              45.70919
            ],
            [
              167.428272,
              45.776018
            ],
            [
              167.289125,
              45.833658
            ],
            [
              167.143344,
              45.881556
            ],
            [
              166.992331,
              45.919249
            ],
            [
              166.837541,
              45.946376
            ],
            [
              166.680465,
              45.962674
            ],
            [
              166.522615,
              45.967987
            ],
            [
              166.365511,
              45.962264
            ],
            [
              166.210667,
              45.94556
            ],
            [
              166.059574,
              45.918035
            ],
            [
              165.913687,
              45.879955
            ],
            [
              165.77441,
              45.831687
            ],
            [
              165.643086,
              45.773694
            ],
            [
              165.520979,
              45.706537
            ],
            [
              165.409264,
              45.630861
            ],
            [
              165.309018,
              45.547395
            ],
            [
              165.221207,
              45.456944
            ],
            [
              165.146675,
              45.360378
            ],
            [
              165.086141,
              45.258627
            ],
            [
              165.040187,
              45.152671
            ],
            [
              165.009257,
              45.043531
            ],
            [
              164.993647,
              44.932257
            ],
            [
              164.993509,
              44.819922
            ],
            [
              165.008843,
              44.707607
            ],
            [
              165.039503,
              44.596394
            ],
            [
              165.085192,
              44.487354
            ],
            [
              165.145471,
              44.381536
            ],
            [
              165.219759,
              44.279961
            ],
            [
              165.307341,
              44.183606
            ],
            [
              165.407373,
              44.093399
            ],
            [
              165.518892,
              44.010209
            ],
            [
              165.640824,
              43.934837
            ],
            [
              165.771995,
              43.868009
            ],
            [
              165.911141,
              43.810369
            ],
            [
              166.056923,
              43.762471
            ],
            [
              166.207936,
              43.724777
            ],
            [
              166.362726,
              43.697651
            ],
            [
              166.519802,
              43.681352
            ],
            [
              166.677652,
              43.676039
            ],
            [
              166.834756,
              43.681762
            ],
            [
              166.9896,
              43.698467
            ],
            [
              167.140693,
              43.725991
            ],
            [
              167.28658,
              43.764071
            ],
            [
              167.425856,
              43.81234
            ],
            [
              167.557181,
              43.870332
            ],
            [
              167.679288,
              43.93749
            ],
            [
              167.791002,
              44.013166
            ]
          ]
        ],
        "type": "Polygon"
      },
      "properties": {
        "kind": "reachableSet",
        "observationStatus": "estimated",
        "vessel": "A"
      },
      "type": "Feature"
    },
    {
      "geometry": {
        "coordinates": [
          [
            [
              167.808414,
              43.980119
            ],
            [
              167.913426,
              44.071497
            ],
            [
              168.004957,
              44.170097
            ],
            [
              168.082127,
              44.274967
            ],
            [
              168.144191,
              44.385097
            ],
            [
              168.190553,
              44.499428
            ],
            [
              168.220766,
              44.616858
            ],
            [
              168.234538,
              44.736257
            ],
            [
              168.231738,
              44.856473
            ],
            [
              168.212392,
              44.97635
            ],
            [
              168.176686,
              45.094733
            ],
            [
              168.124965,
              45.210482
            ],
            [
              168.057726,
              45.322483
            ],
            [
              167.975617,
              45.429656
            ],
            [
              167.879429,
              45.530969
            ],
            [
              167.770088,
              45.625448
            ],
            [
              167.648647,
              45.712181
            ],
            [
              167.516275,
              45.790334
            ],
            [
              167.374249,
              45.859153
            ],
            [
              167.223934,
              45.917977
            ],
            [
              167.066779,
              45.966239
            ],
            [
              166.904298,
              46.003474
            ],
            [
              166.738055,
              46.029323
            ],
            [
              166.569651,
              46.043537
            ],
            [
              166.400708,
              46.04598
            ],
            [
              166.232852,
              46.036627
            ],
            [
              166.067702,
              46.01557
            ],
            [
              165.906846,
              45.983011
            ],
            [
              165.751835,
              45.939263
            ],
            [
              165.60416,
              45.884747
            ],
            [
              165.465245,
              45.81999
            ],
            [
              165.336427,
              45.745613
            ],
            [
              165.218946,
              45.662335
            ],
            [
              165.113934,
              45.570956
            ],
            [
              165.022403,
              45.472357
            ],
            [
              164.945233,
              45.367487
            ],
            [
              164.883169,
              45.257356
            ],
            [
              164.836807,
              45.143025
            ],
            [
              164.806594,
              45.025595
            ],
            [
              164.792822,
              44.906197
            ],
            [
              164.795622,
              44.78598
            ],
            [
              164.814968,
              44.666103
            ],
            [
              164.850674,
              44.54772
            ],
            [
              164.902395,
              44.431971
            ],
            [
              164.969634,
              44.319971
            ],
            [
              165.051743,
              44.212798
            ],
            [
              165.147931,
              44.111484
            ],
            [
              165.257272,
              44.017006
            ],
            [
              165.378713,
              43.930273
            ],
            [
              165.511085,
              43.85212
            ],
            [
              165.653111,
              43.7833
            ],
            [
              165.803426,
              43.724476
            ],
            [
              165.960581,
              43.676214
            ],
            [
              166.123062,
              43.63898
            ],
            [
              166.289305,
              43.613131
            ],
            [
              166.457709,
              43.598916
            ],
            [
              166.626652,
              43.596474
            ],
            [
              166.794508,
              43.605826
            ],
            [
              166.959658,
              43.626883
            ],
            [
              167.120514,
              43.659443
            ],
            [
              167.275525,
              43.703191
            ],
            [
              167.4232,
              43.757706
            ],
            [
              167.562115,
              43.822464
            ],
            [
              167.690933,
              43.89684
            ],
            [
              167.808414,
              43.980119
            ]
          ]
        ],
        "type": "Polygon"
      },
      "properties": {
        "kind": "reachableSet",
        "observationStatus": "estimated",
        "vessel": "B"
      },
      "type": "Feature"
    }
  ],
  "properties": {
    "dateline": false
  },
  "type": "FeatureCollection"
}
