{
  "features": [
    {
      "geometry": {
        "coordinates": [
          164.624455,
          46.208583
        ],
        "type": "Point"
      },
      "properties": {
        "mmsi": "416252900",
        "observationStatus": "observed",
        "role": "off",
        "time": "2018-07-23T03:59:39Z",
        "vessel": "A"
      },
      "type": "Feature"
    },
    {
      "geometry": {
        "coordinates": [
          164.628705,
          46.13458
        ],
        "type": "Point"
      },
      "properties": {
        "mmsi": "416241700",
        "observationStatus": "observed",
        "role": "off",
        "time": "2018-07-23T04:02:10Z",
        "vessel": "B"
      },
      "type": "Feature"
    },
    {
      "geometry": {
        "coordinates": [
          164.670115,
          46.522897
        ],
        "type": "Point"
      },
      "properties": {
        "mmsi": "416241700",
        "observationStatus": "observed",
        "role": "on",
        "time": "2018-07-23T16:34:40Z",
        "vessel": "B"
      },
      "type": "Feature"
    },
    {
      "geometry": {
        "coordinates": [
          164.659967,
          46.552272
        ],
        "type": "Point"
      },
      "properties": {
        "mmsi": "416252900",
        "observationStatus": "observed",
        "role": "on",
        "time": "2018-07-23T17:10:57Z",
        "vessel": "A"
      },
      "type": "Feature"
    },
    {
      "geometry": {
        "coordinates": [
          [
            164.624455,
            46.208583
          ],
          [
            164.65613,
            46.393849
          ],
          [
            164.659967,
            46.552272
          ]
        ],
        "type": "LineString"
      },
      "properties": {
        "confidence": "low",
        "lineStyle": "dashed",
        "observationStatus": "estimated",
        "source": "reachable-set heuristic",
        "vessel": "A"
      },
      "type": "Feature"
    },
    {
      "geometry": {
        "coordinates": [
          [
            164.628705,
            46.13458
          ],
          [
            164.65613,
            46.393849
          ],
          [
            164.670115,
            46.522897
          ]
        ],
        "type": "LineString"
      },
      "properties": {
        "confidence": "low",
        "lineStyle": "dashed",
        "observationStatus": "estimated",
        "source": "reachable-set heuristic",
        "vessel": "B"
      },
      "type": "Feature"
    },
    {
      "geometry": {
        "coordinates": [
          164.65613,
          46.393849
        ],
        "type": "Point"
      },
      "properties": {
        "kind": "meetingPoint",
        "observationStatus": "estimated"
      },
      "type": "Feature"
    },
    {
      "geometry": {
        "coordinates": [
          [
            [
              164.768449,
              47.602182
            ],
            [
              164.597136,
              47.604807
            ],
            [
              164.426258,
              47.595641
            ],
            [
              164.257459,
              47.574772
            ],
            [
              164.092365,
              47.5424
            ],
            [
              163.932567,
              47.498839
            ],
            [
              163.779603,
              47.444506
            ],
            [
              163.634947,
              47.379926
            ],
            [
              163.499991,
              47.30572
            ],
            [
              163.376035,
              47.222602
            ],
            [
              163.264273,
              47.131375
            ],
            [
              163.165782,
              47.032915
            ],
            [
              163.081509,
              46.928171
            ],
            [
              163.012267,
              46.818153
            ],
            [
              162.958722,
              46.703918
            ],
            [
              162.92139,
              46.586569
            ],
            [
              162.90063,
              46.467234
            ],
            [
              162.896643,
              46.347063
            ],
            [
              162.909466,
              46.227214
            ],
            [
              162.938977,
              46.10884
            ],
            [
              162.984891,
              45.993081
            ],
            [
              163.046766,
              45.881053
            ],
            [
              163.124005,
              45.773834
            ],
            [
              163.215866,
              45.672457
            ],
            [
              163.321464,
              45.577898
            ],
            [
              163.43978,
              45.491068
            ],
            [
              163.569677,
              45.412803
            ],
            [
              163.709903,
              45.343857
            ],
            [
              163.859108,
              45.284893
            ],
            [
              164.015854,
              45.23648
            ],
            [
              164.178633,
              45.199084
            ],
            [
              164.345876,
              45.173065
            ],
            [
              164.515973,
              45.158673
            ],
            [
              164.687285,
              45.156048
            ],
            [
              164.858164,
              45.165214
            ],
            [
              165.026963,
              45.186083
            ],
            [
              165.192056,
              45.218455
            ],
            [
              165.351854,
              45.262016
            ],
            [
              165.504818,
              45.316349
            ],
            [
              165.649475,
              45.380929
            ],
            [
              165.784431,
              45.455135
            ],
            [
              165.908386,
              45.538253
            ],
            [
              166.020148,
              45.62948
            ],
            [
              166.11864,
              45.72794
            ],
            [
              166.202912,
              45.832684
            ],
            [
              166.272155,
              45.942702
            ],
            [
              166.3257,
              46.056937
            ],
            [
              166.363032,
              46.174286
            ],
            [
              166.383792,
              46.293621
            ],
            [
              166.387779,
              46.413792
            ],
            [
              166.374955,
              46.533641
            ],
            [
              166.345445,
              46.652015
            ],
            [
              166.299531,
              46.767774
            ],
            [
              166.237656,
              46.879802
            ],
            [
              166.160416,
              46.987021
            ],
            [
              166.068555,
              47.088398
            ],
            [
              165.962958,
              47.182957
            ],
            [
              165.844641,
              47.269787
            ],
            [
              165.714744,
              47.348052
            ],
            [
              165.574518,
              47.416998
            ],
            [
              165.425314,
              47.475962
            ],
            [
              165.268567,
              47.524375
            ],
            [
              165.105789,
              47.561771
            ],
            [
              164.938546,
              47.58779
            ],
            [
              164.768449,
              47.602182
            ]
          ]
        ],
        "type": "Polygon"
      },
      "properties": {
        "kind": "reachableSet",
        "observationStatus": "estimated",
        "vessel": "A"
      },
      "type": "Feature"
    },
    {
      "geometry": {
        "coordinates": [
          [
            [
              164.772764,
              47.485472
            ],
            [
              164.611395,
              47.488188
            ],
            [
              164.450393,
              47.479738
            ],
            [
              164.291307,
              47.460204
            ],
            [
              164.13567,
              47.429772
            ],
            [
              163.98498,
              47.388738
            ],
            [
              163.840689,
              47.337494
            ],
            [
              163.704187,
              47.276536
            ],
            [
              163.576788,
              47.206451
            ],
            [
              163.459718,
              47.127912
            ],
            [
              163.354106,
              47.041677
            ],
            [
              163.260969,
              46.948576
            ],
            [
              163.181203,
              46.849505
            ],
            [
              163.115576,
              46.745419
            ],
            [
              163.064722,
              46.637321
            ],
            [
              163.029128,
              46.52625
            ],
            [
              163.009139,
              46.413278
            ],
            [
              163.004947,
              46.299491
            ],
            [
              163.016591,
              46.185986
            ],
            [
              163.043961,
              46.073855
            ],
            [
              163.086792,
              45.96418
            ],
            [
              163.144672,
              45.858015
            ],
            [
              163.217043,
              45.756384
            ],
            [
              163.303209,
              45.660264
            ],
            [
              163.402339,
              45.570583
            ],
            [
              163.513479,
              45.488203
            ],
            [
              163.635559,
              45.413917
            ],
            [
              163.767403,
              45.348442
            ],
            [
              163.907741,
              45.292408
            ],
            [
              164.055222,
              45.246354
            ],
            [
              164.208425,
              45.210724
            ],
            [
              164.365876,
              45.185861
            ],
            [
              164.526056,
              45.172005
            ],
            [
              164.687425,
              45.169289
            ],
            [
              164.848427,
              45.177739
            ],
            [
              165.007513,
              45.197273
            ],
            [
              165.16315,
              45.227704
            ],
            [
              165.31384,
              45.268739
            ],
            [
              165.458131,
              45.319982
            ],
            [
              165.594633,
              45.38094
            ],
            [
              165.722032,
              45.451026
            ],
            [
              165.839102,
              45.529565
            ],
            [
              165.944714,
              45.6158
            ],
            [
              166.037851,
              45.708901
            ],
            [
              166.117617,
              45.807972
            ],
            [
              166.183244,
              45.912057
            ],
            [
              166.234098,
              46.020156
            ],
            [
              166.269692,
              46.131226
            ],
            [
              166.289681,
              46.244199
            ],
            [
              166.293873,
              46.357986
            ],
            [
              166.282229,
              46.471491
            ],
            [
              166.254859,
              46.583621
            ],
            [
              166.212028,
              46.693297
            ],
            [
              166.154148,
              46.799462
            ],
            [
              166.081777,
              46.901093
            ],
            [
              165.995611,
              46.997212
            ],
            [
              165.896481,
              47.086894
            ],
            [
              165.785341,
              47.169274
            ],
            [
              165.663261,
              47.243559
            ],
            [
              165.531417,
              47.309034
            ],
            [
              165.391079,
              47.365069
            ],
            [
              165.243598,
              47.411123
            ],
            [
              165.090395,
              47.446753
            ],
            [
              164.932944,
              47.471615
            ],
            [
              164.772764,
              47.485472
            ]
          ]
        ],
        "type": "Polygon"
      },
      "properties": {
        "kind": "reachableSet",
        "observationStatus": "estimated",
        "vessel": "B"
      },
      "type": "Feature"
    }
  ],
  "properties": {
    "dateline": false
  },
  "type": "FeatureCollection"
}
