{
  "features": [
    {
      "geometry": {
        "coordinates": [
          -57.82179,
          -42.084555
        ],
        "type": "Point"
      },
      "properties": {
        "mmsi": "412329684",
        "observationStatus": "observed",
        "role": "off",
        "time": "2019-05-05T04:44:11Z",
        "vessel": "A"
      },
      "type": "Feature"
    },
    {
      "geometry": {
        "coordinates": [
          -57.832717,
          -42.063647
        ],
        "type": "Point"
      },
      "properties": {
        "mmsi": "412329693",
        "observationStatus": "observed",
        "role": "off",
        "time": "2019-05-05T05:06:36Z",
        "vessel": "B"
      },
      "type": "Feature"
    },
    {
      "geometry": {
        "coordinates": [
          -57.934765,
          -42.02479
        ],
        "type": "Point"
      },
      "properties": {
        "mmsi": "412329693",
        "observationStatus": "observed",
        "role": "on",
        "time": "2019-05-05T22:45:23Z",
        "vessel": "B"
      },
      "type": "Feature"
    },
    {
      "geometry": {
        "coordinates": [
          -57.883417,
          -42.00316
        ],
        "type": "Point"
      },
      "properties": {
        "mmsi": "412329684",
        "observationStatus": "observed",
        "role": "on",
        "time": "2019-05-05T23:29:20Z",
        "vessel": "A"
      },
      "type": "Feature"
    },
    {
      "geometry": {
        "coordinates": [
          [
            -57.82179,
            -42.084555
          ],
          [
            -57.871611,
            -42.04881
          ],
          [
            -57.883417,
            -42.00316
          ]
        ],
        "type": "LineString"
      },
      "properties": {
        "confidence": "low",
        "lineStyle": "dashed",
        "observationStatus": "estimated",
        "source": "reachable-set heuristic",
        "vessel": "A"
      },
      "type": "Feature"
    },
    {
      "geometry": {
        "coordinates": [
          [
            -57.832717,
            -42.063647
          ],
          [
            -57.871611,
            -42.04881
          ],
          [
            -57.934765,
            -42.02479
          ]
        ],
        "type": "LineString"
      },
      "properties": {
        "confidence": "low",
        "lineStyle": "dashed",
        "observationStatus": "estimated",
        "source": "reachable-set heuristic",
        "vessel": "B"
      },
      "type": "Feature"
    },
    {
      "geometry": {
        "coordinates": [
          -57.871611,
          -42.04881
        ],
        "type": "Point"
      },
      "properties": {
        "kind": "meetingPoint",
        "observationStatus": "estimated"
      },
      "type": "Feature"
    },
    {
      "geometry": {
        "coordinates": [
          [
            [
              -59.126066,
              -40.361898
            ],
            [
              -59.340369,
              -40.463295
            ],
            [
              -59.540344,
              -40.579914
            ],
            [
              -59.724065,
              -40.710631
            ],
            [
              -59.889763,
              -40.854188
            ],
            [
              -60.035842,
              -41.009202
            ],
            [
              -60.160895,
              -41.17418
            ],
            [
              -60.263718,
              -41.347533
            ],
            [
              -60.343321,
              -41.527593
            ],
            [
              -60.398936,
              -41.712625
            ],
            [
              -60.430029,
              -41.900846
            ],
            [
              -60.4363,
              -42.090445
            ],
            [
              -60.417689,
              -42.279595
            ],
            [
              -60.374375,
              -42.466475
            ],
            [
              -60.306774,
              -42.649285
            ],
            [
              -60.215538,
              -42.826264
            ],
            [
              -60.101546,
              -42.995709
            ],
            [
              -59.965896,
              -43.155986
            ],
            [
              -59.809893,
              -43.305553
            ],
            [
              -59.635041,
              -43.442969
            ],
            [
              -59.443023,
              -43.566911
            ],
            [
              -59.235688,
              -43.676185
            ],
            [
              -59.015033,
              -43.769739
            ],
            [
              -58.783183,
              -43.846672
            ],
            [
              -58.542372,
              -43.906243
            ],
            [
              -58.294917,
              -43.947877
            ],
            [
              -58.043203,
              -43.971175
            ],
            [
              -57.789654,
              -43.975912
            ],
            [
              -57.53671,
              -43.962043
            ],
            [
              -57.286809,
              -43.9297
            ],
            [
              -57.042356,
              -43.879195
            ],
            [
              -56.805707,
              -43.811015
            ],
            [
              -56.57914,
              -43.725817
            ],
            [
              -56.364837,
              -43.62442
            ],
            [
              -56.164862,
              -43.507801
            ],
            [
              -55.981141,
              -43.377084
            ],
            [
              -55.815444,
              -43.233527
            ],
            [
              -55.669365,
              -43.078513
            ],
            [
              -55.544312,
              -42.913535
            ],
            [
              -55.441489,
              -42.740182
            ],
            [
              -55.361886,
              -42.560122
            ],
            [
              -55.30627,
              -42.37509
            ],
            [
              -55.275177,
              -42.186869
            ],
            [
              -55.268906,
              -41.99727
            ],
            [
              -55.287518,
              -41.80812
            ],
            [
              -55.330832,
              -41.62124
            ],
            [
              -55.398433,
              -41.43843
            ],
            [
              -55.489668,
              -41.261451
            ],
            [
              -55.60366,
              -41.092006
            ],
            [
              -55.739311,
              -40.931729
            ],
            [
              -55.895313,
              -40.782162
            ],
            [
              -56.070166,
              -40.644746
            ],
            [
              -56.262184,
              -40.520804
            ],
            [
              -56.469519,
              -40.41153
            ],
            [
              -56.690174,
              -40.317976
            ],
            [
              -56.922023,
              -40.241043
            ],
            [
              -57.162835,
              -40.181472
            ],
            [
              -57.410289,
              -40.139838
            ],
            [
              -57.662003,
              -40.11654
            ],
            [
              -57.915553,
              -40.111803
            ],
            [
              -58.168497,
              -40.125672
            ],
            [
              -58.418398,
              -40.158015
            ],
            [
              -58.66285,
              -40.20852
            ],
            [
              -58.899499,
              -40.2767
            ],
            [
              -59.126066,
              -40.361898
            ]
          ]
        ],
        "type": "Polygon"
      },
      "properties": {
        "kind": "reachableSet",
        "observationStatus": "estimated",
        "vessel": "A"
      },
      "type": "Feature"
    },
    {
      "geometry": {
        "coordinates": [
          [
            [
              -60.043745,
              -41.221759
            ],
            [
              -60.141136,
              -41.383969
            ],
            [
              -60.216788,
              -41.552538
            ],
            [
              -60.269971,
              -41.725842
            ],
            [
              -60.300173,
              -41.902212
            ],
            [
              -60.307103,
              -42.079949
            ],
            [
              -60.290696,
              -42.257342
            ],
            [
              -60.251108,
              -42.432683
            ],
            [
              -60.18872,
              -42.604283
            ],
            [
              -60.104135,
              -42.770489
            ],
            [
              -59.998166,
              -42.929701
            ],
            [
              -59.871834,
              -43.080385
            ],
            [
              -59.726356,
              -43.22109
            ],
            [
              -59.563132,
              -43.350461
            ],
            [
              -59.383735,
              -43.467252
            ],
            [
              -59.189892,
              -43.570339
            ],
            [
              -58.98347,
              -43.658728
            ],
            [
              -58.766457,
              -43.731569
            ],
            [
              -58.540943,
              -43.78816
            ],
            [
              -58.3091,
              -43.827955
            ],
            [
              -58.07316,
              -43.850573
            ],
            [
              -57.835396,
              -43.855794
            ],
            [
              -57.598098,
              -43.843568
            ],
            [
              -57.363551,
              -43.814014
            ],
            [
              -57.134013,
              -43.767416
            ],
            [
              -56.911696,
              -43.704222
            ],
            [
              -56.69874,
              -43.625042
            ],
            [
              -56.497196,
              -43.530637
            ],
            [
              -56.309005,
              -43.421918
            ],
            [
              -56.13598,
              -43.29993
            ],
            [
              -55.979787,
              -43.165849
            ],
            [
              -55.84193,
              -43.020967
            ],
            [
              -55.723736,
              -42.866677
            ],
            [
              -55.626345,
              -42.704467
            ],
            [
              -55.550694,
              -42.535899
            ],
            [
              -55.497511,
              -42.362595
            ],
            [
              -55.467309,
              -42.186225
            ],
            [
              -55.460378,
              -42.008488
            ],
            [
              -55.476786,
              -41.831094
            ],
            [
              -55.516374,
              -41.655753
            ],
            [
              -55.578761,
              -41.484154
            ],
            [
              -55.663346,
              -41.317948
            ],
            [
              -55.769315,
              -41.158736
            ],
            [
              -55.895647,
              -41.008052
            ],
            [
              -56.041126,
              -40.867347
            ],
            [
              -56.20435,
              -40.737976
            ],
            [
              -56.383747,
              -40.621184
            ],
            [
              -56.57759,
              -40.518098
            ],
            [
              -56.784012,
              -40.429708
            ],
            [
              -57.001025,
              -40.356868
            ],
            [
              -57.226539,
              -40.300277
            ],
            [
              -57.458382,
              -40.260481
            ],
            [
              -57.694321,
              -40.237864
            ],
            [
              -57.932085,
              -40.232643
            ],
            [
              -58.169384,
              -40.244869
            ],
            [
              -58.403931,
              -40.274423
            ],
            [
              -58.633469,
              -40.321021
            ],
            [
              -58.855786,
              -40.384215
            ],
            [
              -59.068742,
              -40.463395
            ],
            [
              -59.270286,
              -40.557799
            ],
            [
              -59.458477,
              -40.666519
            ],
            [
              -59.631502,
              -40.788507
            ],
            [
              -59.787695,
              -40.922587
            ],
            [
              -59.925552,
              -41.06747
            ],
            [
              -60.043745,
              -41.221759
            ]
          ]
        ],
        "type": "Polygon"
      },
      "properties": {
        "kind": "reachableSet",
        "observationStatus": "estimated",
        "vessel": "B"
      },
      "type": "Feature"
    }
  ],
  "properties": {
    "dateline": false
  },
  "type": "FeatureCollection"
}
