{
  "features": [
    {
      "geometry": {
        "coordinates": [
          -60.558442,
          -46.094385
        ],
        "type": "Point"
      },
      "properties": {
        "mmsi": "412329686",
        "observationStatus": "observed",
        "role": "off",
        "time": "2017-12-18T07:34:44Z",
        "vessel": "A"
      },
      "type": "Feature"
    },
    {
      "geometry": {
        "coordinates": [
          -60.545263,
          -46.135163
        ],
        "type": "Point"
      },
      "properties": {
        "mmsi": "412329693",
        "observationStatus": "observed",
        "role": "off",
        "time": "2017-12-18T07:35:04Z",
        "vessel": "B"
      },
      "type": "Feature"
    },
    {
      "geometry": {
        "coordinates": [
          -60.669745,
          -46.164985
        ],
        "type": "Point"
      },
      "properties": {
        "mmsi": "412329686",
        "observationStatus": "observed",
        "role": "on",
        "time": "2017-12-18T22:09:41Z",
        "vessel": "A"
      },
      "type": "Feature"
    },
    {
      "geometry": {
        "coordinates": [
          -60.660493,
          -46.159872
        ],
        "type": "Point"
      },
      "properties": {
        "mmsi": "412329693",
        "observationStatus": "observed",
        "role": "on",
        "time": "2017-12-18T22:10:38Z",
        "vessel": "B"
      },
      "type": "Feature"
    },
    {
      "geometry": {
        "coordinates": [
          [
            -60.558442,
            -46.094385
          ],
          [
            -60.621898,
            -46.13454
          ],
          [
            -60.669745,
            -46.164985
          ]
        ],
        "type": "LineString"
      },
      "properties": {
        "confidence": "low",
        "lineStyle": "dashed",
        "observationStatus": "estimated",
        "source": "reachable-set heuristic",
        "vessel": "A"
      },
      "type": "Feature"
    },
    {
      "geometry": {
        "coordinates": [
          [
            -60.545263,
            -46.135163
          ],
          [
            -60.621898,
            -46.13454
          ],
          [
            -60.660493,
            -46.159872
          ]
        ],
        "type": "LineString"
      },
      "properties": {
        "confidence": "low",
        "lineStyle": "dashed",
        "observationStatus": "estimated",
        "source": "reachable-set heuristic",
        "vessel": "B"
      },
      "type": "Feature"
    },
    {
      "geometry": {
        "coordinates": [
          -60.621898,
          -46.13454
        ],
        "type": "Point"
      },
      "properties": {
        "kind": "meetingPoint",
        "observationStatus": "estimated"
      },
      "type": "Feature"
    },
    {
      "geometry": {
        "coordinates": [
          [
            [
              -62.182307,
              -47.124407
            ],
            [
              -62.035105,
              -47.226799
            ],
            [
              -61.874218,
              -47.318625
            ],
            [
              -61.701195,
              -47.399001
            ],
            [
              -61.517703,
              -47.467153
            ],
            [
              -61.325508,
              -47.522424
            ],
            [
              -61.126462,
              -47.564282
            ],
            [
              -60.922482,
              -47.592325
            ],
            [
              -60.715532,
              -47.606281
            ],
            [
              -60.507604,
              -47.606017
            ],
            [
              -60.300703,
              -47.591535
            ],
            [
              -60.096819,
              -47.562974
            ],
            [
              -59.897918,
              -47.520611
            ],
            [
              -59.705913,
              -47.464852
            ],
            [
              -59.522654,
              -47.396234
            ],
            [
              -59.349907,
              -47.315419
            ],
            [
              -59.189335,
              -47.223185
            ],
            [
              -59.042483,
              -47.120419
            ],
            [
              -58.910768,
              -47.008113
            ],
            [
              -58.795456,
              -46.887346
            ],
            [
              -58.697658,
              -46.759283
            ],
            [
              -58.618317,
              -46.625157
            ],
            [
              -58.558197,
              -46.486259
            ],
            [
              -58.517876,
              -46.343926
            ],
            [
              -58.497742,
              -46.199531
            ],
            [
              -58.49799,
              -46.054463
            ],
            [
              -58.518618,
              -45.910119
            ],
            [
              -58.559426,
              -45.76789
            ],
            [
              -58.620021,
              -45.629146
            ],
            [
              -58.699821,
              -45.495221
            ],
            [
              -58.798056,
              -45.367407
            ],
            [
              -58.91378,
              -45.246934
            ],
            [
              -59.045879,
              -45.134963
            ],
            [
              -59.193081,
              -45.032571
            ],
            [
              -59.353969,
              -44.940745
            ],
            [
              -59.526992,
              -44.860369
            ],
            [
              -59.710484,
              -44.792217
            ],
            [
              -59.902679,
              -44.736946
            ],
            [
              -60.101725,
              -44.695088
            ],
            [
              -60.305705,
              -44.667045
            ],
            [
              -60.512655,
              -44.653089
            ],
            [
              -60.720582,
              -44.653353
            ],
            [
              -60.927484,
              -44.667835
            ],
            [
              -61.131367,
              -44.696396
            ],
            [
              -61.330269,
              -44.738759
            ],
            [
              -61.522274,
              -44.794518
            ],
            [
              -61.705532,
              -44.863136
            ],
            [
              -61.878279,
              -44.943951
            ],
            [
              -62.038852,
              -45.036185
            ],
            [
              -62.185703,
              -45.138951
            ],
            [
              -62.317419,
              -45.251257
            ],
            [
              -62.432731,
              -45.372024
            ],
            [
              -62.530528,
              -45.500087
            ],
            [
              -62.609869,
              -45.634213
            ],
            [
              -62.66999,
              -45.773111
            ],
            [
              -62.710311,
              -45.915444
            ],
            [
              -62.730445,
              -46.059839
            ],
            [
              -62.730196,
              -46.204907
            ],
            [
              -62.709569,
              -46.349251
            ],
            [
              -62.668761,
              -46.49148
            ],
            [
              -62.608166,
              -46.630224
            ],
            [
              -62.528366,
              -46.764149
            ],
            [
              -62.430131,
              -46.891963
            ],
            [
              -62.314407,
              -47.012436
            ],
            [
              -62.182307,
              -47.124407
            ]
          ]
        ],
        "type": "Polygon"
      },
      "properties": {
        "kind": "reachableSet",
        "observationStatus": "estimated",
        "vessel": "A"
      },
      "type": "Feature"
    },
    {
      "geometry": {
        "coordinates": [
          [
            [
              -62.630887,
              -46.582376
            ],
            [
              -62.560037,
              -46.718875
            ],
            [
              -62.470339,
              -46.849872
            ],
            [
              -62.362656,
              -46.974105
            ],
            [
              -62.238026,
              -47.090378
            ],
            [
              -62.097648,
              -47.19757
            ],
            [
              -61.942875,
              -47.294649
            ],
            [
              -61.775197,
              -47.380681
            ],
            [
              -61.596229,
              -47.454838
            ],
            [
              -61.407695,
              -47.516403
            ],
            [
              -61.211409,
              -47.564786
            ],
            [
              -61.009263,
              -47.59952
            ],
            [
              -60.803204,
              -47.62027
            ],
            [
              -60.595215,
              -47.626837
            ],
            [
              -60.3873,
              -47.619157
            ],
            [
              -60.181461,
              -47.597304
            ],
            [
              -59.97968,
              -47.561489
            ],
            [
              -59.783902,
              -47.512057
            ],
            [
              -59.59601,
              -47.449483
            ],
            [
              -59.417815,
              -47.374371
            ],
            [
              -59.251033,
              -47.287444
            ],
            [
              -59.09727,
              -47.189538
            ],
            [
              -58.958007,
              -47.081598
            ],
            [
              -58.834585,
              -46.964661
            ],
            [
              -58.728192,
              -46.839855
            ],
            [
              -58.639854,
              -46.708382
            ],
            [
              -58.570421,
              -46.571507
            ],
            [
              -58.520561,
              -46.430548
            ],
            [
              -58.490755,
              -46.286864
            ],
            [
              -58.481291,
              -46.141838
            ],
            [
              -58.492258,
              -45.996867
            ],
            [
              -58.523551,
              -45.853347
            ],
            [
              -58.57487,
              -45.712659
            ],
            [
              -58.64572,
              -45.57616
            ],
            [
              -58.735418,
              -45.445163
            ],
            [
              -58.8431,
              -45.32093
            ],
            [
              -58.967731,
              -45.204657
            ],
            [
              -59.108108,
              -45.097465
            ],
            [
              -59.262881,
              -45.000386
            ],
            [
              -59.430559,
              -44.914354
            ],
            [
              -59.609527,
              -44.840197
            ],
            [
              -59.798062,
              -44.778632
            ],
            [
              -59.994347,
              -44.730249
            ],
            [
              -60.196493,
              -44.695515
            ],
            [
              -60.402553,
              -44.674765
            ],
            [
              -60.610542,
              -44.668198
            ],
            [
              -60.818457,
              -44.675878
            ],
            [
              -61.024296,
              -44.697731
            ],
            [
              -61.226076,
              -44.733546
            ],
            [
              -61.421855,
              -44.782978
            ],
            [
              -61.609746,
              -44.845552
            ],
            [
              -61.787941,
              -44.920664
            ],
            [
              -61.954723,
              -45.007591
            ],
            [
              -62.108486,
              -45.105497
            ],
            [
              -62.24775,
              -45.213437
            ],
            [
              -62.371172,
              -45.330374
            ],
            [
              -62.477564,
              -45.45518
            ],
            [
              -62.565903,
              -45.586653
            ],
            [
              -62.635336,
              -45.723528
            ],
            [
              -62.685195,
              -45.864487
            ],
            [
              -62.715001,
              -46.008171
            ],
            [
              -62.724466,
              -46.153197
            ],
            [
              -62.713499,
              -46.298168
            ],
            [
              -62.682205,
              -46.441688
            ],
            [
              -62.630887,
              -46.582376
            ]
          ]
        ],
        "type": "Polygon"
      },
      "properties": {
        "kind": "reachableSet",
        "observationStatus": "estimated",
        "vessel": "B"
      },
      "type": "Feature"
    }
  ],
  "properties": {
    "dateline": false
  },
  "type": "FeatureCollection"
}
