{
  "features": [
    {
      "geometry": {
        "coordinates": [
          162.396293,
          48.671557
        ],
        "type": "Point"
      },
      "properties": {
        "mmsi": "416236800",
        "observationStatus": "observed",
        "role": "off",
        "time": "2018-08-02T01:29:21Z",
        "vessel": "A"
      },
      "type": "Feature"
    },
    {
      "geometry": {
        "coordinates": [
          162.293648,
          48.632462
        ],
        "type": "Point"
      },
      "properties": {
        "mmsi": "416236900",
        "observationStatus": "observed",
        "role": "off",
        "time": "2018-08-02T02:05:07Z",
        "vessel": "B"
      },
      "type": "Feature"
    },
    {
      "geometry": {
        "coordinates": [
          161.28897,
          48.234772
        ],
        "type": "Point"
      },
      "properties": {
        "mmsi": "416236800",
        "observationStatus": "observed",
        "role": "on",
        "time": "2018-08-02T18:42:39Z",
        "vessel": "A"
      },
      "type": "Feature"
    },
    {
      "geometry": {
        "coordinates": [
          161.236835,
          48.159578
        ],
        "type": "Point"
      },
      "properties": {
        "mmsi": "416236900",
        "observationStatus": "observed",
        "role": "on",
        "time": "2018-08-02T18:43:20Z",
        "vessel": "B"
      },
      "type": "Feature"
    },
    {
      "geometry": {
        "coordinates": [
          [
            162.396293,
            48.671557
          ],
          [
            161.723476,
            48.376964
          ],
          [
            161.28897,
            48.234772
          ]
        ],
        "type": "LineString"
      },
      "properties": {
        "confidence": "low",
        "lineStyle": "dashed",
        "observationStatus": "estimated",
        "source": "reachable-set heuristic",
        "vessel": "A"
      },
      "type": "Feature"
    },
    {
      "geometry": {
        "coordinates": [
          [
            162.293648,
            48.632462
          ],
          [
            161.723476,
            48.376964
          ],
          [
            161.236835,
            48.159578
          ]
        ],
        "type": "LineString"
      },
      "properties": {
        "confidence": "low",
        "lineStyle": "dashed",
        "observationStatus": "estimated",
        "source": "reachable-set heuristic",
        "vessel": "B"
      },
      "type": "Feature"
    },
    {
      "geometry": {
        "coordinates": [
          161.723476,
          48.376964
        ],
        "type": "Point"
      },
      "properties": {
        "kind": "meetingPoint",
        "observationStatus": "estimated"
      },
      "type": "Feature"
    },
    {
      "geometry": {
        "coordinates": [
          [
            [
              159.740556,
              47.623998
            ],
            [
              159.868094,
              47.495269
            ],
            [
              160.014649,
              47.375766
            ],
            [
              160.178808,
              47.266639
            ],
            [
              160.358991,
              47.168938
            ],
            [
              160.553462,
              47.083606
            ],
            [
              160.760348,
              47.011463
            ],
            [
              160.977658,
              46.953204
            ],
            [
              161.203297,
              46.909391
            ],
            [
              161.435094,
              46.880445
            ],
            [
              161.670815,
              46.866645
            ],
            [
              161.908192,
              46.868124
            ],
            [
              162.144936,
              46.884869
            ],
            [
              162.37877,
              46.916716
            ],
            [
              162.60744,
              46.963361
            ],
            [
              162.828745,
              47.024353
            ],
            [
              163.040552,
              47.099105
            ],
            [
              163.240823,
              47.186898
            ],
            [
              163.427629,
              47.286885
            ],
            [
              163.599171,
              47.398105
            ],
            [
              163.753796,
              47.519485
            ],
            [
              163.890015,
              47.649857
            ],
            [
              164.006517,
              47.787965
            ],
            [
              164.10218,
              47.93248
            ],
            [
              164.176082,
              48.082009
            ],
            [
              164.227511,
              48.235113
            ],
            [
              164.255973,
              48.390316
            ],
            [
              164.261193,
              48.546125
            ],
            [
              164.243121,
              48.701038
            ],
            [
              164.201931,
              48.853564
            ],
            [
              164.13802,
              49.002235
            ],
            [
              164.052002,
              49.145617
            ],
            [
              163.944708,
              49.282331
            ],
            [
              163.817169,
              49.411059
            ],
            [
              163.670614,
              49.530562
            ],
            [
              163.506455,
              49.639689
            ],
            [
              163.326272,
              49.73739
            ],
            [
              163.131801,
              49.822723
            ],
            [
              162.924915,
              49.894866
            ],
            [
              162.707606,
              49.953124
            ],
            [
              162.481966,
              49.996938
            ],
            [
              162.250169,
              50.025883
            ],
            [
              162.014448,
              50.039683
            ],
            [
              161.777072,
              50.038204
            ],
            [
              161.540327,
              50.02146
            ],
            [
              161.306494,
              49.989612
            ],
            [
              161.077823,
              49.942968
            ],
            [
              160.856519,
              49.881975
            ],
            [
              160.644711,
              49.807223
            ],
            [
              160.44444,
              49.71943
            ],
            [
              160.257634,
              49.619443
            ],
            [
              160.086093,
              49.508224
            ],
            [
              159.931468,
              49.386843
            ],
            [
              159.795248,
              49.256471
            ],
            [
              159.678746,
              49.118363
            ],
            [
              159.583084,
              48.973848
            ],
            [
              159.509182,
              48.824319
            ],
            [
              159.457752,
              48.671216
            ],
            [
              159.42929,
              48.516012
            ],
            [
              159.42407,
              48.360204
            ],
            [
              159.442142,
              48.20529
            ],
            [
              159.483332,
              48.052764
            ],
            [
              159.547244,
              47.904094
            ],
            [
              159.633261,
              47.760711
            ],
            [
              159.740556,
              47.623998
            ]
          ]
        ],
        "type": "Polygon"
      },
      "properties": {
        "kind": "reachableSet",
        "observationStatus": "estimated",
        "vessel": "A"
      },
      "type": "Feature"
    },
    {
      "geometry": {
        "coordinates": [
          [
            [
              159.811692,
              47.521882
            ],
            [
              159.944493,
              47.40286
            ],
            [
              160.094829,
              47.293404
            ],
            [
              160.261251,
              47.194566
            ],
            [
              160.442158,
              47.107299
            ],
            [
              160.635807,
              47.032443
            ],
            [
              160.840334,
              46.970719
            ],
            [
              161.053767,
              46.922721
            ],
            [
              161.274052,
              46.888912
            ],
            [
              161.499068,
              46.869618
            ],
            [
              161.726647,
              46.865023
            ],
            [
              161.954598,
              46.875173
            ],
            [
              162.180726,
              46.899969
            ],
            [
              162.402851,
              46.939173
            ],
            [
              162.618837,
              46.992408
            ],
            [
              162.826602,
              47.05916
            ],
            [
              163.024145,
              47.138786
            ],
            [
              163.209564,
              47.230521
            ],
            [
              163.381074,
              47.33348
            ],
            [
              163.537023,
              47.446671
            ],
            [
              163.675908,
              47.569006
            ],
            [
              163.796392,
              47.699305
            ],
            [
              163.897316,
              47.836314
            ],
            [
              163.977706,
              47.978713
            ],
            [
              164.036789,
              48.125131
            ],
            [
              164.073996,
              48.274158
            ],
            [
              164.088968,
              48.424358
            ],
            [
              164.081562,
              48.574285
            ],
            [
              164.051848,
              48.722496
            ],
            [
              164.000113,
              48.867563
            ],
            [
              163.926854,
              49.008088
            ],
            [
              163.832779,
              49.142719
            ],
            [
              163.718791,
              49.270158
            ],
            [
              163.585991,
              49.38918
            ],
            [
              163.435655,
              49.498636
            ],
            [
              163.269232,
              49.597474
            ],
            [
              163.088325,
              49.684741
            ],
            [
              162.894676,
              49.759597
            ],
            [
              162.69015,
              49.821321
            ],
            [
              162.476716,
              49.869319
            ],
            [
              162.256431,
              49.903128
            ],
            [
              162.031415,
              49.922422
            ],
            [
              161.803836,
              49.927017
            ],
            [
              161.575885,
              49.916867
            ],
            [
              161.349758,
              49.892071
            ],
            [
              161.127632,
              49.852867
            ],
            [
              160.911647,
              49.799632
            ],
            [
              160.703882,
              49.73288
            ],
            [
              160.506338,
              49.653254
            ],
            [
              160.320919,
              49.561519
            ],
            [
              160.149409,
              49.45856
            ],
            [
              159.993461,
              49.345369
            ],
            [
              159.854576,
              49.223034
            ],
            [
              159.734091,
              49.092735
            ],
            [
              159.633168,
              48.955726
            ],
            [
              159.552777,
              48.813327
            ],
            [
              159.493694,
              48.666909
            ],
            [
              159.456487,
              48.517882
            ],
            [
              159.441515,
              48.367682
            ],
            [
              159.448922,
              48.217755
            ],
            [
              159.478636,
              48.069544
            ],
            [
              159.530371,
              47.924477
            ],
            [
              159.603629,
              47.783952
            ],
            [
              159.697705,
              47.649321
            ],
            [
              159.811692,
              47.521882
            ]
          ]
        ],
        "type": "Polygon"
      },
      "properties": {
        "kind": "reachableSet",
        "observationStatus": "estimated",
        "vessel": "B"
      },
      "type": "Feature"
    }
  ],
  "properties": {
    "dateline": false
  },
  "type": "FeatureCollection"
}
