{
  "features": [
    {
      "geometry": {
        "coordinates": [
          -60.841117,
          -46.941633
        ],
        "type": "Point"
      },
      "properties": {
        "mmsi": "441330000",
        "observationStatus": "observed",
        "role": "off",
        "time": "2017-03-09T03:21:21Z",
        "vessel": "A"
      },
      "type": "Feature"
    },
    {
      "geometry": {
        "coordinates": [
          -60.779283,
          -46.888133
        ],
        "type": "Point"
      },
      "properties": {
        "mmsi": "441298000",
        "observationStatus": "observed",
        "role": "off",
        "time": "2017-03-09T03:22:04Z",
        "vessel": "B"
      },
      "type": "Feature"
    },
    {
      "geometry": {
        "coordinates": [
          -60.83965,
          -46.976033
        ],
        "type": "Point"
      },
      "properties": {
        "mmsi": "441298000",
        "observationStatus": "observed",
        "role": "on",
        "time": "2017-03-09T16:01:04Z",
        "vessel": "B"
      },
      "type": "Feature"
    },
    {
      "geometry": {
        "coordinates": [
          -60.838683,
          -46.92395
        ],
        "type": "Point"
      },
      "properties": {
        "mmsi": "441330000",
        "observationStatus": "observed",
        "role": "on",
        "time": "2017-03-09T16:01:58Z",
        "vessel": "A"
      },
      "type": "Feature"
    },
    {
      "geometry": {
        "coordinates": [
          [
            -60.841117,
            -46.941633
          ],
          [
            -60.816853,
            -46.942157
          ],
          [
            -60.838683,
            -46.92395
          ]
        ],
        "type": "LineString"
      },
      "properties": {
        "confidence": "low",
        "lineStyle": "dashed",
        "observationStatus": "estimated",
        "source": "reachable-set heuristic",
        "vessel": "A"
      },
      "type": "Feature"
    },
    {
      "geometry": {
        "coordinates": [
          [
            -60.779283,
            -46.888133
          ],
          [
            -60.816853,
            -46.942157
          ],
          [
            -60.83965,
            -46.976033
          ]
        ],
        "type": "LineString"
      },
      "properties": {
        "confidence": "low",
        "lineStyle": "dashed",
        "observationStatus": "estimated",
        "source": "reachable-set heuristic",
        "vessel": "B"
      },
      "type": "Feature"
    },
    {
      "geometry": {
        "coordinates": [
          -60.816853,
          -46.942157
        ],
        "type": "Point"
      },
      "properties": {
        "kind": "meetingPoint",
        "observationStatus": "estimated"
      },
      "type": "Feature"
    },
    {
      "geometry": {
        "coordinates": [
          [
            [
              -60.679137,
              -45.764505
            ],
            [
              -60.846472,
              -45.759298
            ],
            [
              -61.013744,
              -45.765392
            ],
            [
              -61.179342,
              -45.782729
            ],
            [
              -61.341671,
              -45.811142
            ],
            [
              -61.499168,
              -45.850356
            ],
            [
              -61.650315,
              -45.899995
            ],
            [
              -61.793658,
              -45.959581
            ],
            [
              -61.927815,
              -46.028539
            ],
            [
              -62.051496,
              -46.106206
            ],
            [
              -62.163508,
              -46.191833
            ],
            [
              -62.262773,
              -46.284596
            ],
            [
              -62.348334,
              -46.383601
            ],
            [
              -62.419369,
              -46.487895
            ],
            [
              -62.475193,
              -46.596474
            ],
            [
              -62.515268,
              -46.708292
            ],
            [
              -62.539208,
              -46.822272
            ],
            [
              -62.546783,
              -46.937316
            ],
            [
              -62.53792,
              -47.052317
            ],
            [
              -62.512703,
              -47.166167
            ],
            [
              -62.471377,
              -47.277769
            ],
            [
              -62.414339,
              -47.386049
            ],
            [
              -62.342138,
              -47.489963
            ],
            [
              -62.25547,
              -47.588512
            ],
            [
              -62.155169,
              -47.680746
            ],
            [
              -62.042201,
              -47.765777
            ],
            [
              -61.917655,
              -47.842785
            ],
            [
              -61.782729,
              -47.91103
            ],
            [
              -61.638723,
              -47.969854
            ],
            [
              -61.487024,
              -48.01869
            ],
            [
              -61.329093,
              -48.057069
            ],
            [
              -61.16645,
              -48.08462
            ],
            [
              -61.000663,
              -48.101078
            ],
            [
              -60.833328,
              -48.106285
            ],
            [
              -60.666056,
              -48.100191
            ],
            [
              -60.500458,
              -48.082854
            ],
            [
              -60.338129,
              -48.054442
            ],
            [
              -60.180632,
              -48.015227
            ],
            [
              -60.029485,
              -47.965588
            ],
            [
              -59.886142,
              -47.906002
            ],
            [
              -59.751985,
              -47.837044
            ],
            [
              -59.628304,
              -47.759378
            ],
            [
              -59.516292,
              -47.673751
            ],
            [
              -59.417027,
              -47.580988
            ],
            [
              -59.331466,
              -47.481982
            ],
            [
              -59.260431,
              -47.377688
            ],
            [
              -59.204607,
              -47.269109
            ],
            [
              -59.164532,
              -47.157291
            ],
            [
              -59.140592,
              -47.043311
            ],
            [
              -59.133017,
              -46.928267
            ],
            [
              -59.14188,
              -46.813266
            ],
            [
              -59.167097,
              -46.699417
            ],
            [
              -59.208423,
              -46.587815
            ],
            [
              -59.265461,
              -46.479535
            ],
            [
              -59.337662,
              -46.37562
            ],
            [
              -59.42433,
              -46.277071
            ],
            [
              -59.524631,
              -46.184837
            ],
            [
              -59.637599,
              -46.099807
            ],
            [
              -59.762145,
              -46.022798
            ],
            [
              -59.897071,
              -45.954553
            ],
            [
              -60.041077,
              -45.89573
            ],
            [
              -60.192776,
              -45.846893
            ],
            [
              -60.350707,
              -45.808515
            ],
            [
              -60.51335,
              -45.780963
            ],
            [
              -60.679137,
              -45.764505
            ]
          ]
        ],
        "type": "Polygon"
      },
      "properties": {
        "kind": "reachableSet",
        "observationStatus": "estimated",
        "vessel": "A"
      },
      "type": "Feature"
    },
    {
      "geometry": {
        "coordinates": [
          [
            [
              -61.536559,
              -47.990803
            ],
            [
              -61.382245,
              -48.034659
            ],
            [
              -61.222415,
              -48.067896
            ],
            [
              -61.058608,
              -48.090195
            ],
            [
              -60.892402,
              -48.101341
            ],
            [
              -60.725397,
              -48.101226
            ],
            [
              -60.559201,
              -48.089852
            ],
            [
              -60.395416,
              -48.067328
            ],
            [
              -60.235618,
              -48.03387
            ],
            [
              -60.081347,
              -47.989802
            ],
            [
              -59.934088,
              -47.935548
            ],
            [
              -59.79526,
              -47.871629
            ],
            [
              -59.666198,
              -47.798662
            ],
            [
              -59.548148,
              -47.71735
            ],
            [
              -59.442244,
              -47.628475
            ],
            [
              -59.349507,
              -47.532893
            ],
            [
              -59.270831,
              -47.431526
            ],
            [
              -59.206972,
              -47.325348
            ],
            [
              -59.158547,
              -47.215383
            ],
            [
              -59.12602,
              -47.10269
            ],
            [
              -59.109706,
              -46.988353
            ],
            [
              -59.109762,
              -46.873475
            ],
            [
              -59.126187,
              -46.759161
            ],
            [
              -59.158823,
              -46.646513
            ],
            [
              -59.207355,
              -46.536615
            ],
            [
              -59.271317,
              -46.430525
            ],
            [
              -59.350091,
              -46.329265
            ],
            [
              -59.442921,
              -46.233811
            ],
            [
              -59.548911,
              -46.145082
            ],
            [
              -59.667041,
              -46.063932
            ],
            [
              -59.796173,
              -45.991143
            ],
            [
              -59.935063,
              -45.927416
            ],
            [
              -60.082375,
              -45.873364
            ],
            [
              -60.236689,
              -45.829508
            ],
            [
              -60.396519,
              -45.79627
            ],
            [
              -60.560325,
              -45.773971
            ],
            [
              -60.726532,
              -45.762825
            ],
            [
              -60.893537,
              -45.76294
            ],
            [
              -61.059732,
              -45.774315
            ],
            [
              -61.223517,
              -45.796839
            ],
            [
              -61.383315,
              -45.830296
            ],
            [
              -61.537586,
              -45.874364
            ],
            [
              -61.684845,
              -45.928619
            ],
            [
              -61.823674,
              -45.992537
            ],
            [
              -61.952735,
              -46.065504
            ],
            [
              -62.070786,
              -46.146817
            ],
            [
              -62.17669,
              -46.235692
            ],
            [
              -62.269426,
              -46.331273
            ],
            [
              -62.348103,
              -46.432641
            ],
            [
              -62.411961,
              -46.538819
            ],
            [
              -62.460387,
              -46.648784
            ],
            [
              -62.492913,
              -46.761477
            ],
            [
              -62.509227,
              -46.875813
            ],
            [
              -62.509171,
              -46.990691
            ],
            [
              -62.492746,
              -47.105005
            ],
            [
              -62.460111,
              -47.217654
            ],
            [
              -62.411578,
              -47.327552
            ],
            [
              -62.347617,
              -47.433642
            ],
            [
              -62.268842,
              -47.534901
            ],
            [
              -62.176012,
              -47.630355
            ],
            [
              -62.070023,
              -47.719085
            ],
            [
              -61.951893,
              -47.800234
            ],
            [
              -61.822761,
              -47.873024
            ],
            [
              -61.68387,
              -47.936751
            ],
            [
              -61.536559,
              -47.990803
            ]
          ]
        ],
        "type": "Polygon"
      },
      "properties": {
        "kind": "reachableSet",
        "observationStatus": "estimated",
        "vessel": "B"
      },
      "type": "Feature"
    }
  ],
  "properties": {
    "dateline": false
  },
  "type": "FeatureCollection"
}
