{
  "features": [
    {
      "geometry": {
        "coordinates": [
          -57.69048,
          -41.994322
        ],
        "type": "Point"
      },
      "properties": {
        "mmsi": "412329689",
        "observationStatus": "observed",
        "role": "off",
        "time": "2019-09-09T07:03:53Z",
        "vessel": "A"
      },
      "type": "Feature"
    },
    {
      "geometry": {
        "coordinates": [
          -57.738933,
          -41.99392
        ],
        "type": "Point"
      },
      "properties": {
        "mmsi": "412329694",
        "observationStatus": "observed",
        "role": "off",
        "time": "2019-09-09T08:02:34Z",
        "vessel": "B"
      },
      "type": "Feature"
    },
    {
      "geometry": {
        "coordinates": [
          -57.845,
          -42.046667
        ],
        "type": "Point"
      },
      "properties": {
        "mmsi": "412329689",
        "observationStatus": "observed",
        "role": "on",
        "time": "2019-09-10T02:41:17Z",
        "vessel": "A"
      },
      "type": "Feature"
    },
    {
      "geometry": {
        "coordinates": [
          -57.868362,
          -42.06715
        ],
        "type": "Point"
      },
      "properties": {
        "mmsi": "412329694",
        "observationStatus": "observed",
        "role": "on",
        "time": "2019-09-10T03:03:01Z",
        "vessel": "B"
      },
      "type": "Feature"
    },
    {
      "geometry": {
        "coordinates": [
          [
            -57.69048,
            -41.994322
          ],
          [
            -57.802396,
            -42.025418
          ],
          [
            -57.845,
            -42.046667
          ]
        ],
        "type": "LineString"
      },
      "properties": {
        "confidence": "low",
        "lineStyle": "dashed",
        "observationStatus": "estimated",
        "source": "reachable-set heuristic",
        "vessel": "A"
      },
      "type": "Feature"
    },
    {
      "geometry": {
        "coordinates": [
          [
            -57.738933,
            -41.99392
          ],
          [
            -57.802396,
            -42.025418
          ],
          [
            -57.868362,
            -42.06715
          ]
        ],
        "type": "LineString"
      },
      "properties": {
        "confidence": "low",
        "lineStyle": "dashed",
        "observationStatus": "estimated",
        "source": "reachable-set heuristic",
        "vessel": "B"
      },
      "type": "Feature"
    },
    {
      "geometry": {
        "coordinates": [
          -57.802396,
          -42.025418
        ],
        "type": "Point"
      },
      "properties": {
        "kind": "meetingPoint",
        "observationStatus": "estimated"
      },
      "type": "Feature"
    },
    {
      "geometry": {
        "coordinates": [
          [
            [
              -60.237115,
              -42.857016
            ],
            [
              -60.115652,
              -43.033933
            ],
            [
              -59.971579,
              -43.20109
            ],
            [
              -59.806281,
              -43.356876
            ],
            [
              -59.62135,
              -43.499793
            ],
            [
              -59.418569,
              -43.628463
            ],
            [
              -59.199889,
              -43.741648
            ],
            [
              -58.967416,
              -43.838257
            ],
            [
              -58.723391,
              -43.91736
            ],
            [
              -58.470161,
              -43.978195
            ],
            [
              -58.210167,
              -44.020176
            ],
            [
              -57.945913,
              -44.0429
            ],
            [
              -57.679942,
              -44.046146
            ],
            [
              -57.414817,
              -44.029885
            ],
            [
              -57.15309,
              -43.994271
            ],
            [
              -56.897283,
              -43.93965
            ],
            [
              -56.64986,
              -43.866545
            ],
            [
              -56.413201,
              -43.775663
            ],
            [
              -56.189588,
              -43.667877
            ],
            [
              -55.981173,
              -43.544225
            ],
            [
              -55.789964,
              -43.4059
            ],
            [
              -55.617802,
              -43.254232
            ],
            [
              -55.466345,
              -43.090683
            ],
            [
              -55.337052,
              -42.916827
            ],
            [
              -55.231168,
              -42.734339
            ],
            [
              -55.149712,
              -42.544976
            ],
            [
              -55.093469,
              -42.350562
            ],
            [
              -55.062981,
              -42.15297
            ],
            [
              -55.058541,
              -41.954102
            ],
            [
              -55.080192,
              -41.755873
            ],
            [
              -55.127726,
              -41.560192
            ],
            [
              -55.200685,
              -41.368945
            ],
            [
              -55.298365,
              -41.183972
            ],
            [
              -55.419828,
              -41.007055
            ],
            [
              -55.563901,
              -40.839899
            ],
            [
              -55.729199,
              -40.684112
            ],
            [
              -55.91413,
              -40.541195
            ],
            [
              -56.116911,
              -40.412525
            ],
            [
              -56.335591,
              -40.29934
            ],
            [
              -56.568064,
              -40.202731
            ],
            [
              -56.812089,
              -40.123628
            ],
            [
              -57.065319,
              -40.062793
            ],
            [
              -57.325313,
              -40.020812
            ],
            [
              -57.589567,
              -39.998089
            ],
            [
              -57.855538,
              -39.994842
            ],
            [
              -58.120663,
              -40.011104
            ],
            [
              -58.38239,
              -40.046717
            ],
            [
              -58.638197,
              -40.101339
            ],
            [
              -58.88562,
              -40.174443
            ],
            [
              -59.122279,
              -40.265326
            ],
            [
              -59.345892,
              -40.373112
            ],
            [
              -59.554307,
              -40.496763
            ],
            [
              -59.745516,
              -40.635089
            ],
            [
              -59.917678,
              -40.786756
            ],
            [
              -60.069135,
              -40.950306
            ],
            [
              -60.198428,
              -41.124161
            ],
            [
              -60.304312,
              -41.306649
            ],
            [
              -60.385768,
              -41.496012
            ],
            [
              -60.442011,
              -41.690426
            ],
            [
              -60.472499,
              -41.888018
            ],
            [
              -60.476939,
              -42.086887
            ],
            [
              -60.455288,
              -42.285116
            ],
            [
              -60.407754,
              -42.480796
            ],
            [
              -60.334795,
              -42.672044
            ],
            [
              -60.237115,
              -42.857016
            ]
          ]
        ],
        "type": "Polygon"
      },
      "properties": {
        "kind": "reachableSet",
        "observationStatus": "estimated",
        "vessel": "A"
      },
      "type": "Feature"
    },
    {
      "geometry": {
        "coordinates": [
          [
            [
              -59.894314,
              -43.213425
            ],
            [
              -59.729281,
              -43.360901
            ],
            [
              -59.545702,
              -43.495565
            ],
            [
              -59.345347,
              -43.61612
            ],
            [
              -59.130144,
              -43.721405
            ],
            [
              -58.902167,
              -43.810406
            ],
            [
              -58.66361,
              -43.882266
            ],
            [
              -58.416771,
              -43.936292
            ],
            [
              -58.164027,
              -43.971965
            ],
            [
              -57.907813,
              -43.988941
            ],
            [
              -57.650595,
              -43.987057
            ],
            [
              -57.394852,
              -43.96633
            ],
            [
              -57.143045,
              -43.92696
            ],
            [
              -56.897601,
              -43.869327
            ],
            [
              -56.660882,
              -43.793985
            ],
            [
              -56.435168,
              -43.70166
            ],
            [
              -56.222634,
              -43.593242
            ],
            [
              -56.025326,
              -43.469773
            ],
            [
              -55.845144,
              -43.332444
            ],
            [
              -55.683824,
              -43.182577
            ],
            [
              -55.542918,
              -43.021615
            ],
            [
              -55.423785,
              -42.851109
            ],
            [
              -55.327571,
              -42.6727
            ],
            [
              -55.255203,
              -42.488106
            ],
            [
              -55.207378,
              -42.299106
            ],
            [
              -55.184556,
              -42.107519
            ],
            [
              -55.186958,
              -41.915191
            ],
            [
              -55.21456,
              -41.723974
            ],
            [
              -55.267096,
              -41.535709
            ],
            [
              -55.34406,
              -41.352209
            ],
            [
              -55.444712,
              -41.175243
            ],
            [
              -55.568081,
              -41.006513
            ],
            [
              -55.712981,
              -40.847645
            ],
            [
              -55.878014,
              -40.700169
            ],
            [
              -56.061593,
              -40.565505
            ],
            [
              -56.261948,
              -40.44495
            ],
            [
              -56.477151,
              -40.339665
            ],
            [
              -56.705128,
              -40.250664
            ],
            [
              -56.943685,
              -40.178804
            ],
            [
              -57.190524,
              -40.124778
            ],
            [
              -57.443268,
              -40.089105
            ],
            [
              -57.699482,
              -40.072129
            ],
            [
              -57.9567,
              -40.074013
            ],
            [
              -58.212443,
              -40.09474
            ],
            [
              -58.46425,
              -40.13411
            ],
            [
              -58.709694,
              -40.191743
            ],
            [
              -58.946413,
              -40.267085
            ],
            [
              -59.172127,
              -40.35941
            ],
            [
              -59.384661,
              -40.467828
            ],
            [
              -59.581969,
              -40.591297
            ],
            [
              -59.762151,
              -40.728626
            ],
            [
              -59.923471,
              -40.878493
            ],
            [
              -60.064377,
              -41.039455
            ],
            [
              -60.18351,
              -41.209961
            ],
            [
              -60.279724,
              -41.38837
            ],
            [
              -60.352092,
              -41.572964
            ],
            [
              -60.399917,
              -41.761964
            ],
            [
              -60.422739,
              -41.953551
            ],
            [
              -60.420337,
              -42.145879
            ],
            [
              -60.392735,
              -42.337096
            ],
            [
              -60.340199,
              -42.525361
            ],
            [
              -60.263235,
              -42.708861
            ],
            [
              -60.162583,
              -42.885827
            ],
            [
              -60.039214,
              -43.054557
            ],
            [
              -59.894314,
              -43.213425
            ]
          ]
        ],
        "type": "Polygon"
      },
      "properties": {
        "kind": "reachableSet",
        "observationStatus": "estimated",
        "vessel": "B"
      },
      "type": "Feature"
    }
  ],
  "properties": {
    "dateline": false
  },
  "type": "FeatureCollection"
}
