{
  "features": [
    {
      "geometry": {
        "coordinates": [
          -60.648663,
          -46.063213
        ],
        "type": "Point"
      },
      "properties": {
        "mmsi": "412329686",
        "observationStatus": "observed",
        "role": "off",
        "time": "2017-02-04T07:37:13Z",
        "vessel": "A"
      },
      "type": "Feature"
    },
    {
      "geometry": {
        "coordinates": [
          -60.618275,
          -46.04722
        ],
        "type": "Point"
      },
      "properties": {
        "mmsi": "412329685",
        "observationStatus": "observed",
        "role": "off",
        "time": "2017-02-04T07:37:26Z",
        "vessel": "B"
      },
      "type": "Feature"
    },
    {
      "geometry": {
        "coordinates": [
          -60.80741,
          -46.363692
        ],
        "type": "Point"
      },
      "properties": {
        "mmsi": "412329685",
        "observationStatus": "observed",
        "role": "on",
        "time": "2017-02-04T23:05:23Z",
        "vessel": "B"
      },
      "type": "Feature"
    },
    {
      "geometry": {
        "coordinates": [
          -60.828212,
          -46.37947
        ],
        "type": "Point"
      },
      "properties": {
        "mmsi": "412329686",
        "observationStatus": "observed",
        "role": "on",
        "time": "2017-02-04T23:05:45Z",
        "vessel": "A"
      },
      "type": "Feature"
    },
    {
      "geometry": {
        "coordinates": [
          [
            -60.648663,
            -46.063213
          ],
          [
            -60.723243,
            -46.213345
          ],
          [
            -60.828212,
            -46.37947
          ]
        ],
        "type": "LineString"
      },
      "properties": {
        "confidence": "low",
        "lineStyle": "dashed",
        "observationStatus": "estimated",
        "source": "reachable-set heuristic",
        "vessel": "A"
      },
      "type": "Feature"
    },
    {
      "geometry": {
        "coordinates": [
          [
            -60.618275,
            -46.04722
          ],
          [
            -60.723243,
            -46.213345
          ],
          [
            -60.80741,
            -46.363692
          ]
        ],
        "type": "LineString"
      },
      "properties": {
        "confidence": "low",
        "lineStyle": "dashed",
        "observationStatus": "estimated",
        "source": "reachable-set heuristic",
        "vessel": "B"
      },
      "type": "Feature"
    },
    {
      "geometry": {
        "coordinates": [
          -60.723243,
          -46.213345
        ],
        "type": "Point"
      },
      "properties": {
        "kind": "meetingPoint",
        "observationStatus": "estimated"
      },
      "type": "Feature"
    },
    {
      "geometry": {
        "coordinates": [
          [
            [
              -61.570473,
              -47.68689
            ],
            [
              -61.361446,
              -47.736309
            ],
            [
              -61.14642,
              -47.771138
            ],
            [
              -60.927464,
              -47.791041
            ],
            [
              -60.706689,
              -47.795828
            ],
            [
              -60.486218,
              -47.785451
            ],
            [
              -60.268177,
              -47.760012
            ],
            [
              -60.054665,
              -47.719754
            ],
            [
              -59.847738,
              -47.665065
            ],
            [
              -59.649389,
              -47.596473
            ],
            [
              -59.461527,
              -47.514637
            ],
            [
              -59.285964,
              -47.420346
            ],
            [
              -59.124388,
              -47.314508
            ],
            [
              -58.978357,
              -47.198143
            ],
            [
              -58.849276,
              -47.07237
            ],
            [
              -58.738388,
              -46.938401
            ],
            [
              -58.646763,
              -46.797527
            ],
            [
              -58.575281,
              -46.651103
            ],
            [
              -58.524632,
              -46.500541
            ],
            [
              -58.495302,
              -46.34729
            ],
            [
              -58.487576,
              -46.192826
            ],
            [
              -58.501526,
              -46.038637
            ],
            [
              -58.537019,
              -45.886207
            ],
            [
              -58.593713,
              -45.737005
            ],
            [
              -58.671062,
              -45.592467
            ],
            [
              -58.768321,
              -45.453986
            ],
            [
              -58.884553,
              -45.322894
            ],
            [
              -59.018639,
              -45.200455
            ],
            [
              -59.169288,
              -45.087848
            ],
            [
              -59.335048,
              -44.986157
            ],
            [
              -59.514324,
              -44.896362
            ],
            [
              -59.705389,
              -44.819327
            ],
            [
              -59.906402,
              -44.755794
            ],
            [
              -60.115429,
              -44.706375
            ],
            [
              -60.330455,
              -44.671546
            ],
            [
              -60.549411,
              -44.651642
            ],
            [
              -60.770186,
              -44.646855
            ],
            [
              -60.990657,
              -44.657232
            ],
            [
              -61.208698,
              -44.682672
            ],
            [
              -61.42221,
              -44.72293
            ],
            [
              -61.629137,
              -44.777618
            ],
            [
              -61.827486,
              -44.846211
            ],
            [
              -62.015348,
              -44.928046
            ],
            [
              -62.190911,
              -45.022337
            ],
            [
              -62.352487,
              -45.128175
            ],
            [
              -62.498518,
              -45.244541
            ],
            [
              -62.627599,
              -45.370314
            ],
            [
              -62.738487,
              -45.504282
            ],
            [
              -62.830112,
              -45.645157
            ],
            [
              -62.901594,
              -45.79158
            ],
            [
              -62.952243,
              -45.942142
            ],
            [
              -62.981573,
              -46.095393
            ],
            [
              -62.989299,
              -46.249857
            ],
            [
              -62.975349,
              -46.404046
            ],
            [
              -62.939856,
              -46.556476
            ],
            [
              -62.883162,
              -46.705678
            ],
            [
              -62.805813,
              -46.850216
            ],
            [
              -62.708554,
              -46.988698
            ],
            [
              -62.592322,
              -47.119789
            ],
            [
              -62.458236,
              -47.242228
            ],
            [
              -62.307587,
              -47.354835
            ],
            [
              -62.141827,
              -47.456526
            ],
            [
              -61.962551,
              -47.546322
            ],
            [
              -61.771486,
              -47.623357
            ],
            [
              -61.570473,
              -47.68689
            ]
          ]
        ],
        "type": "Polygon"
      },
      "properties": {
        "kind": "reachableSet",
        "observationStatus": "estimated",
        "vessel": "A"
      },
      "type": "Feature"
    },
    {
      "geometry": {
        "coordinates": [
          [
            [
              -61.581752,
              -47.659365
            ],
            [
              -61.374255,
              -47.711354
            ],
            [
              -61.16039,
              -47.74884
            ],
            [
              -60.942214,
              -47.771463
            ],
            [
              -60.721829,
              -47.779004
            ],
            [
              -60.501357,
              -47.771391
            ],
            [
              -60.282922,
              -47.748697
            ],
            [
              -60.068628,
              -47.711141
            ],
            [
              -59.860538,
              -47.659085
            ],
            [
              -59.660656,
              -47.593029
            ],
            [
              -59.470907,
              -47.51361
            ],
            [
              -59.293118,
              -47.421593
            ],
            [
              -59.129002,
              -47.317863
            ],
            [
              -58.98014,
              -47.203421
            ],
            [
              -58.847964,
              -47.079368
            ],
            [
              -58.733749,
              -46.946898
            ],
            [
              -58.638592,
              -46.807288
            ],
            [
              -58.563413,
              -46.661882
            ],
            [
              -58.508933,
              -46.512081
            ],
            [
              -58.475678,
              -46.359326
            ],
            [
              -58.463968,
              -46.20509
            ],
            [
              -58.473916,
              -46.050857
            ],
            [
              -58.505427,
              -45.898113
            ],
            [
              -58.558195,
              -45.748328
            ],
            [
              -58.631715,
              -45.602947
            ],
            [
              -58.725276,
              -45.463367
            ],
            [
              -58.837979,
              -45.330935
            ],
            [
              -58.968738,
              -45.206924
            ],
            [
              -59.116294,
              -45.09253
            ],
            [
              -59.279225,
              -44.988854
            ],
            [
              -59.455963,
              -44.896895
            ],
            [
              -59.644805,
              -44.817538
            ],
            [
              -59.843933,
              -44.751547
            ],
            [
              -60.05143,
              -44.699558
            ],
            [
              -60.265295,
              -44.662071
            ],
            [
              -60.483471,
              -44.639449
            ],
            [
              -60.703856,
              -44.631908
            ],
            [
              -60.924328,
              -44.639521
            ],
            [
              -61.142763,
              -44.662214
            ],
            [
              -61.357057,
              -44.69977
            ],
            [
              -61.565147,
              -44.751827
            ],
            [
              -61.765029,
              -44.817883
            ],
            [
              -61.954778,
              -44.897302
            ],
            [
              -62.132567,
              -44.989319
            ],
            [
              -62.296683,
              -45.093048
            ],
            [
              -62.445545,
              -45.207491
            ],
            [
              -62.577721,
              -45.331544
            ],
            [
              -62.691936,
              -45.464013
            ],
            [
              -62.787093,
              -45.603623
            ],
            [
              -62.862272,
              -45.749029
            ],
            [
              -62.916752,
              -45.898831
            ],
            [
              -62.950007,
              -46.051586
            ],
            [
              -62.961717,
              -46.205822
            ],
            [
              -62.951769,
              -46.360055
            ],
            [
              -62.920258,
              -46.512799
            ],
            [
              -62.86749,
              -46.662583
            ],
            [
              -62.79397,
              -46.807965
            ],
            [
              -62.700409,
              -46.947544
            ],
            [
              -62.587706,
              -47.079977
            ],
            [
              -62.456947,
              -47.203987
            ],
            [
              -62.309391,
              -47.318381
            ],
            [
              -62.14646,
              -47.422057
            ],
            [
              -61.969722,
              -47.514017
            ],
            [
              -61.78088,
              -47.593374
            ],
            [
              -61.581752,
              -47.659365
            ]
          ]
        ],
        "type": "Polygon"
      },
      "properties": {
        "kind": "reachableSet",
        "observationStatus": "estimated",
        "vessel": "B"
      },
      "type": "Feature"
    }
  ],
  "properties": {
    "dateline": false
  },
  "type": "FeatureCollection"
}
