{
  "features": [
    {
      "geometry": {
        "coordinates": [
          163.092693,
          46.091413
        ],
        "type": "Point"
      },
      "properties": {
        "mmsi": "416664000",
        "observationStatus": "observed",
        "role": "off",
        "time": "2018-07-16T02:27:02Z",
        "vessel": "A"
      },
      "type": "Feature"
    },
    {
      "geometry": {
        "coordinates": [
          163.179282,
          46.096412
        ],
        "type": "Point"
      },
      "properties": {
        "mmsi": "416242500",
        "observationStatus": "observed",
        "role": "off",
        "time": "2018-07-16T03:10:53Z",
        "vessel": "B"
      },
      "type": "Feature"
    },
    {
      "geometry": {
        "coordinates": [
          161.847127,
          45.952112
        ],
        "type": "Point"
      },
      "properties": {
        "mmsi": "416664000",
        "observationStatus": "observed",
        "role": "on",
        "time": "2018-07-16T16:50:24Z",
        "vessel": "A"
      },
      "type": "Feature"
    },
    {
      "geometry": {
        "coordinates": [
          161.790213,
          45.984827
        ],
        "type": "Point"
      },
      "properties": {
        "mmsi": "416242500",
        "observationStatus": "observed",
        "role": "on",
        "time": "2018-07-16T17:01:36Z",
        "vessel": "B"
      },
      "type": "Feature"
    },
    {
      "geometry": {
        "coordinates": [
          [
            163.092693,
            46.091413
          ],
          [
            162.325493,
            46.004026
          ],
          [
            161.847127,
            45.952112
          ]
        ],
        "type": "LineString"
      },
      "properties": {
        "confidence": "low",
        "lineStyle": "dashed",
        "observationStatus": "estimated",
        "source": "reachable-set heuristic",
        "vessel": "A"
      },
      "type": "Feature"
    },
    {
      "geometry": {
        "coordinates": [
          [
            163.179282,
            46.096412
          ],
          [
            162.325493,
            46.004026
          ],
          [
            161.790213,
            45.984827
          ]
        ],
        "type": "LineString"
      },
      "properties": {
        "confidence": "low",
        "lineStyle": "dashed",
        "observationStatus": "estimated",
        "source": "reachable-set heuristic",
        "vessel": "B"
      },
      "type": "Feature"
    },
    {
      "geometry": {
        "coordinates": [
          162.325493,
          46.004026
        ],
        "type": "Point"
      },
      "properties": {
        "kind": "meetingPoint",
        "observationStatus": "estimated"
      },
      "type": "Feature"
    },
    {
      "geometry": {
        "coordinates": [
          [
            [
              160.569296,
              45.809202
            ],
            [
              160.606605,
              45.687179
            ],
            [
              160.661859,
              45.568379
            ],
            [
              160.734525,
              45.453945
            ],
            [
              160.823903,
              45.344979
            ],
            [
              160.929134,
              45.242532
            ],
            [
              161.049203,
              45.147588
            ],
            [
              161.182955,
              45.061064
            ],
            [
              161.3291,
              44.983791
            ],
            [
              161.486232,
              44.916515
            ],
            [
              161.652838,
              44.859883
            ],
            [
              161.827312,
              44.81444
            ],
            [
              162.007975,
              44.780625
            ],
            [
              162.193086,
              44.758762
            ],
            [
              162.380864,
              44.749063
            ],
            [
              162.569499,
              44.75162
            ],
            [
              162.757175,
              44.76641
            ],
            [
              162.942084,
              44.793289
            ],
            [
              163.122446,
              44.832
            ],
            [
              163.296524,
              44.882168
            ],
            [
              163.462641,
              44.943312
            ],
            [
              163.619198,
              45.014841
            ],
            [
              163.764686,
              45.096068
            ],
            [
              163.897705,
              45.186209
            ],
            [
              164.016974,
              45.284397
            ],
            [
              164.121343,
              45.389687
            ],
            [
              164.209808,
              45.501064
            ],
            [
              164.281517,
              45.617455
            ],
            [
              164.33578,
              45.73774
            ],
            [
              164.372073,
              45.860761
            ],
            [
              164.390047,
              45.985332
            ],
            [
              164.389529,
              46.110254
            ],
            [
              164.370524,
              46.234323
            ],
            [
              164.333215,
              46.356346
            ],
            [
              164.277961,
              46.475146
            ],
            [
              164.205295,
              46.58958
            ],
            [
              164.115917,
              46.698546
            ],
            [
              164.010686,
              46.800993
            ],
            [
              163.890617,
              46.895937
            ],
            [
              163.756865,
              46.982461
            ],
            [
              163.61072,
              47.059734
            ],
            [
              163.453588,
              47.12701
            ],
            [
              163.286982,
              47.183642
            ],
            [
              163.112508,
              47.229085
            ],
            [
              162.931845,
              47.2629
            ],
            [
              162.746734,
              47.284763
            ],
            [
              162.558956,
              47.294462
            ],
            [
              162.370321,
              47.291905
            ],
            [
              162.182645,
              47.277115
            ],
            [
              161.997736,
              47.250236
            ],
            [
              161.817374,
              47.211525
            ],
            [
              161.643296,
              47.161357
            ],
            [
              161.477179,
              47.100213
            ],
            [
              161.320622,
              47.028684
            ],
            [
              161.175134,
              46.947457
            ],
            [
              161.042115,
              46.857316
            ],
            [
              160.922846,
              46.759128
            ],
            [
              160.818477,
              46.653838
            ],
            [
              160.730012,
              46.542461
            ],
            [
              160.658303,
              46.42607
            ],
            [
              160.60404,
              46.305785
            ],
            [
              160.567747,
              46.182764
            ],
            [
              160.549773,
              46.058193
            ],
            [
              160.550291,
              45.933271
            ],
            [
              160.569296,
              45.809202
            ]
          ]
        ],
        "type": "Polygon"
      },
      "properties": {
        "kind": "reachableSet",
        "observationStatus": "estimated",
        "vessel": "A"
      },
      "type": "Feature"
    },
    {
      "geometry": {
        "coordinates": [
          [
            [
              160.649646,
              45.893204
            ],
            [
              160.67762,
              45.77756
            ],
            [
              160.722998,
              45.66445
            ],
            [
              160.785342,
              45.554962
            ],
            [
              160.864053,
              45.450152
            ],
            [
              160.958371,
              45.351028
            ],
            [
              161.06739,
              45.258545
            ],
            [
              161.190058,
              45.173594
            ],
            [
              161.325195,
              45.096993
            ],
            [
              161.471499,
              45.02948
            ],
            [
              161.627561,
              44.971704
            ],
            [
              161.791879,
              44.924223
            ],
            [
              161.962869,
              44.887493
            ],
            [
              162.138885,
              44.861869
            ],
            [
              162.318232,
              44.847596
            ],
            [
              162.499183,
              44.844813
            ],
            [
              162.679994,
              44.853546
            ],
            [
              162.858925,
              44.873711
            ],
            [
              163.034253,
              44.905115
            ],
            [
              163.204289,
              44.947453
            ],
            [
              163.367395,
              45.00032
            ],
            [
              163.522,
              45.063205
            ],
            [
              163.666617,
              45.135503
            ],
            [
              163.799851,
              45.216518
            ],
            [
              163.92042,
              45.30547
            ],
            [
              164.027163,
              45.401501
            ],
            [
              164.119052,
              45.503688
            ],
            [
              164.195201,
              45.611045
            ],
            [
              164.254878,
              45.72254
            ],
            [
              164.297507,
              45.837098
            ],
            [
              164.322678,
              45.953615
            ],
            [
              164.33015,
              46.070971
            ],
            [
              164.319849,
              46.188034
            ],
            [
              164.291875,
              46.303678
            ],
            [
              164.246497,
              46.416788
            ],
            [
              164.184153,
              46.526276
            ],
            [
              164.105442,
              46.631086
            ],
            [
              164.011124,
              46.73021
            ],
            [
              163.902105,
              46.822693
            ],
            [
              163.779437,
              46.907644
            ],
            [
              163.6443,
              46.984245
            ],
            [
              163.497996,
              47.051758
            ],
            [
              163.341934,
              47.109534
            ],
            [
              163.177616,
              47.157015
            ],
            [
              163.006626,
              47.193745
            ],
            [
              162.83061,
              47.21937
            ],
            [
              162.651263,
              47.233642
            ],
            [
              162.470312,
              47.236425
            ],
            [
              162.289501,
              47.227692
            ],
            [
              162.11057,
              47.207527
            ],
            [
              161.935242,
              47.176124
            ],
            [
              161.765206,
              47.133785
            ],
            [
              161.6021,
              47.080918
            ],
            [
              161.447495,
              47.018033
            ],
            [
              161.302878,
              46.945735
            ],
            [
              161.169644,
              46.86472
            ],
            [
              161.049075,
              46.775768
            ],
            [
              160.942332,
              46.679737
            ],
            [
              160.850443,
              46.57755
            ],
            [
              160.774294,
              46.470193
            ],
            [
              160.714617,
              46.358699
            ],
            [
              160.671988,
              46.244141
            ],
            [
              160.646817,
              46.127623
            ],
            [
              160.639345,
              46.010267
            ],
            [
              160.649646,
              45.893204
            ]
          ]
        ],
        "type": "Polygon"
      },
      "properties": {
        "kind": "reachableSet",
        "observationStatus": "estimated",
        "vessel": "B"
      },
      "type": "Feature"
    }
  ],
  "properties": {
    "dateline": false
  },
  "type": "FeatureCollection"
}
