{
  "features": [
    {
      "geometry": {
        "coordinates": [
          158.358933,
          42.24856
        ],
        "type": "Point"
      },
      "properties": {
        "mmsi": "416189700",
        "observationStatus": "observed",
        "role": "off",
        "time": "2018-09-01T05:15:12Z",
        "vessel": "A"
      },
      "type": "Feature"
    },
    {
      "geometry": {
        "coordinates": [
          158.456242,
          42.20332
        ],
        "type": "Point"
      },
      "properties": {
        "mmsi": "416004545",
        "observationStatus": "observed",
        "role": "off",
        "time": "2018-09-01T05:54:27Z",
        "vessel": "B"
      },
      "type": "Feature"
    },
    {
      "geometry": {
        "coordinates": [
          155.889813,
          42.506187
        ],
        "type": "Point"
      },
      "properties": {
        "mmsi": "416189700",
        "observationStatus": "observed",
        "role": "on",
        "time": "2018-09-02T18:29:27Z",
        "vessel": "A"
      },
      "type": "Feature"
    },
    {
      "geometry": {
        "coordinates": [
          155.826133,
          42.461547
        ],
        "type": "Point"
      },
      "properties": {
        "mmsi": "416004545",
        "observationStatus": "observed",
        "role": "on",
        "time": "2018-09-02T19:26:27Z",
        "vessel": "B"
      },
      "type": "Feature"
    },
    {
      "geometry": {
        "coordinates": [
          [
            158.358933,
            42.24856
          ],
          [
            156.462912,
            42.438581
          ],
          [
            155.889813,
            42.506187
          ]
        ],
        "type": "LineString"
      },
      "properties": {
        "confidence": "low",
        "lineStyle": "dashed",
        "observationStatus": "estimated",
        "source": "reachable-set heuristic",
        "vessel": "A"
      },
      "type": "Feature"
    },
    {
      "geometry": {
        "coordinates": [
          [
            158.456242,
            42.20332
          ],
          [
            156.462912,
            42.438581
          ],
          [
            155.826133,
            42.461547
          ]
        ],
        "type": "LineString"
      },
      "properties": {
        "confidence": "low",
        "lineStyle": "dashed",
        "observationStatus": "estimated",
        "source": "reachable-set heuristic",
        "vessel": "B"
      },
      "type": "Feature"
    },
    {
      "geometry": {
        "coordinates": [
          156.462912,
          42.438581
        ],
        "type": "Point"
      },
      "properties": {
        "kind": "meetingPoint",
        "observationStatus": "estimated"
      },
      "type": "Feature"
    },
    {
      "geometry": {
        "coordinates": [
          [
            [
              152.27524,
              42.883329
            ],
            [
              152.234106,
              42.539047
            ],
            [
              152.240069,
              42.193207
            ],
            [
              152.29307,
              41.849141
            ],
            [
              152.3926,
              41.510162
            ],
            [
              152.537699,
              41.179535
            ],
            [
              152.72697,
              40.860444
            ],
            [
              152.95859,
              40.555961
            ],
            [
              153.230329,
              40.26902
            ],
            [
              153.53957,
              40.002383
            ],
            [
              153.883335,
              39.758619
            ],
            [
              154.258313,
              39.540075
            ],
            [
              154.660892,
              39.348856
            ],
            [
              155.087196,
              39.186803
            ],
            [
              155.533119,
              39.055476
            ],
            [
              155.994367,
              38.956142
            ],
            [
              156.466497,
              38.889756
            ],
            [
              156.944963,
              38.856957
            ],
            [
              157.425157,
              38.858062
            ],
            [
              157.902454,
              38.89306
            ],
            [
              158.372258,
              38.961614
            ],
            [
              158.830044,
              39.063063
            ],
            [
              159.271404,
              39.196431
            ],
            [
              159.692086,
              39.360433
            ],
            [
              160.08804,
              39.55349
            ],
            [
              160.455452,
              39.773743
            ],
            [
              160.790784,
              40.01907
            ],
            [
              161.090807,
              40.287108
            ],
            [
              161.35263,
              40.575277
            ],
            [
              161.573734,
              40.880802
            ],
            [
              161.751987,
              41.200739
            ],
            [
              161.885674,
              41.532007
            ],
            [
              161.973507,
              41.871417
            ],
            [
              162.01464,
              42.2157
            ],
            [
              162.008678,
              42.56154
            ],
            [
              161.955676,
              42.905606
            ],
            [
              161.856147,
              43.244584
            ],
            [
              161.711048,
              43.575212
            ],
            [
              161.521777,
              43.894303
            ],
            [
              161.290157,
              44.198785
            ],
            [
              161.018417,
              44.485727
            ],
            [
              160.709176,
              44.752363
            ],
            [
              160.365412,
              44.996127
            ],
            [
              159.990434,
              45.214672
            ],
            [
              159.587855,
              45.405891
            ],
            [
              159.161551,
              45.567944
            ],
            [
              158.715628,
              45.69927
            ],
            [
              158.25438,
              45.798605
            ],
            [
              157.78225,
              45.864991
            ],
            [
              157.303783,
              45.89779
            ],
            [
              156.82359,
              45.896685
            ],
            [
              156.346292,
              45.861687
            ],
            [
              155.876489,
              45.793133
            ],
            [
              155.418703,
              45.691684
            ],
            [
              154.977343,
              45.558316
            ],
            [
              154.556661,
              45.394313
            ],
            [
              154.160707,
              45.201256
            ],
            [
              153.793295,
              44.981004
            ],
            [
              153.457962,
              44.735677
            ],
            [
              153.15794,
              44.467638
            ],
            [
              152.896116,
              44.179469
            ],
            [
              152.675013,
              43.873945
            ],
            [
              152.49676,
              43.554008
            ],
            [
              152.363073,
              43.222739
            ],
            [
              152.27524,
              42.883329
            ]
          ]
        ],
        "type": "Polygon"
      },
      "properties": {
        "kind": "reachableSet",
        "observationStatus": "estimated",
        "vessel": "A"
      },
      "type": "Feature"
    },
    {
      "geometry": {
        "coordinates": [
          [
            [
              152.250491,
              42.812607
            ],
            [
              152.213133,
              42.466655
            ],
            [
              152.223235,
              42.11941
            ],
            [
              152.280699,
              41.774217
            ],
            [
              152.384972,
              41.4344
            ],
            [
              152.53505,
              41.103232
            ],
            [
              152.729488,
              40.783901
            ],
            [
              152.966413,
              40.479483
            ],
            [
              153.243544,
              40.192911
            ],
            [
              153.55821,
              39.926943
            ],
            [
              153.907383,
              39.684142
            ],
            [
              154.287699,
              39.466844
            ],
            [
              154.695496,
              39.277145
            ],
            [
              155.126846,
              39.116869
            ],
            [
              155.577596,
              38.987561
            ],
            [
              156.043403,
              38.890465
            ],
            [
              156.519783,
              38.826518
            ],
            [
              157.002147,
              38.796335
            ],
            [
              157.485851,
              38.800206
            ],
            [
              157.966235,
              38.838095
            ],
            [
              158.438673,
              38.909636
            ],
            [
              158.898616,
              39.01414
            ],
            [
              159.341634,
              39.150601
            ],
            [
              159.76346,
              39.317705
            ],
            [
              160.160033,
              39.513843
            ],
            [
              160.527532,
              39.737125
            ],
            [
              160.862419,
              39.985402
            ],
            [
              161.161468,
              40.256281
            ],
            [
              161.4218,
              40.547155
            ],
            [
              161.640908,
              40.855223
            ],
            [
              161.81668,
              41.177516
            ],
            [
              161.947425,
              41.510932
            ],
            [
              162.031884,
              41.85226
            ],
            [
              162.069242,
              42.198212
            ],
            [
              162.05914,
              42.545456
            ],
            [
              162.001676,
              42.890649
            ],
            [
              161.897403,
              43.230467
            ],
            [
              161.747325,
              43.561635
            ],
            [
              161.552887,
              43.880966
            ],
            [
              161.315962,
              44.185383
            ],
            [
              161.038831,
              44.471956
            ],
            [
              160.724165,
              44.737924
            ],
            [
              160.374992,
              44.980725
            ],
            [
              159.994676,
              45.198022
            ],
            [
              159.586879,
              45.387722
            ],
            [
              159.155529,
              45.547998
            ],
            [
              158.704779,
              45.677306
            ],
            [
              158.238972,
              45.774401
            ],
            [
              157.762592,
              45.838348
            ],
            [
              157.280228,
              45.868532
            ],
            [
              156.796524,
              45.86466
            ],
            [
              156.31614,
              45.826772
            ],
            [
              155.843702,
              45.755231
            ],
            [
              155.383759,
              45.650727
            ],
            [
              154.940741,
              45.514265
            ],
            [
              154.518915,
              45.347161
            ],
            [
              154.122342,
              45.151024
            ],
            [
              153.754843,
              44.927741
            ],
            [
              153.419956,
              44.679465
            ],
            [
              153.120907,
              44.408585
            ],
            [
              152.860575,
              44.117711
            ],
            [
              152.641467,
              43.809644
            ],
            [
              152.465695,
              43.487351
            ],
            [
              152.33495,
              43.153934
            ],
            [
              152.250491,
              42.812607
            ]
          ]
        ],
        "type": "Polygon"
      },
      "properties": {
        "kind": "reachableSet",
        "observationStatus": "estimated",
        "vessel": "B"
      },
      "type": "Feature"
    }
  ],
  "properties": {
    "dateline": false
  },
  "type": "FeatureCollection"
}
