{
  "features": [
    {
      "geometry": {
        "coordinates": [
          -60.82705,
          -46.919965
        ],
        "type": "Point"
      },
      "properties": {
        "mmsi": "440683000",
        "observationStatus": "observed",
        "role": "off",
        "time": "2017-03-09T03:22:12Z",
        "vessel": "A"
      },
      "type": "Feature"
    },
    {
      "geometry": {
        "coordinates": [
          -60.846313,
          -46.948472
        ],
        "type": "Point"
      },
      "properties": {
        "mmsi": "440684000",
        "observationStatus": "observed",
        "role": "off",
        "time": "2017-03-09T03:22:14Z",
        "vessel": "B"
      },
      "type": "Feature"
    },
    {
      "geometry": {
        "coordinates": [
          -60.816307,
          -46.859368
        ],
        "type": "Point"
      },
      "properties": {
        "mmsi": "440683000",
        "observationStatus": "observed",
        "role": "on",
        "time": "2017-03-09T15:59:20Z",
        "vessel": "A"
      },
      "type": "Feature"
    },
    {
      "geometry": {
        "coordinates": [
          -60.864785,
          -46.870627
        ],
        "type": "Point"
      },
      "properties": {
        "mmsi": "440684000",
        "observationStatus": "observed",
        "role": "on",
        "time": "2017-03-09T16:01:01Z",
        "vessel": "B"
      },
      "type": "Feature"
    },
    {
      "geometry": {
        "coordinates": [
          [
            -60.82705,
            -46.919965
          ],
          [
            -60.827502,
            -46.893809
          ],
          [
            -60.816307,
            -46.859368
          ]
        ],
        "type": "LineString"
      },
      "properties": {
        "confidence": "low",
        "lineStyle": "dashed",
        "observationStatus": "estimated",
        "source": "reachable-set heuristic",
        "vessel": "A"
      },
      "type": "Feature"
    },
    {
      "geometry": {
        "coordinates": [
          [
            -60.846313,
            -46.948472
          ],
          [
            -60.827502,
            -46.893809
          ],
          [
            -60.864785,
            -46.870627
          ]
        ],
        "type": "LineString"
      },
      "properties": {
        "confidence": "low",
        "lineStyle": "dashed",
        "observationStatus": "estimated",
        "source": "reachable-set heuristic",
        "vessel": "B"
      },
      "type": "Feature"
    },
    {
      "geometry": {
        "coordinates": [
          -60.827502,
          -46.893809
        ],
        "type": "Point"
      },
      "properties": {
        "kind": "meetingPoint",
        "observationStatus": "estimated"
      },
      "type": "Feature"
    },
    {
      "geometry": {
        "coordinates": [
          [
            [
              -60.616183,
              -45.73059
            ],
            [
              -60.782236,
              -45.722318
            ],
            [
              -60.948669,
              -45.725287
            ],
            [
              -61.113879,
              -45.73947
            ],
            [
              -61.276275,
              -45.764731
            ],
            [
              -61.434293,
              -45.800825
            ],
            [
              -61.586411,
              -45.847405
            ],
            [
              -61.731164,
              -45.904023
            ],
            [
              -61.867159,
              -45.970133
            ],
            [
              -61.993085,
              -46.045098
            ],
            [
              -62.107729,
              -46.128197
            ],
            [
              -62.209989,
              -46.21863
            ],
            [
              -62.298878,
              -46.315525
            ],
            [
              -62.373541,
              -46.41795
            ],
            [
              -62.433258,
              -46.524917
            ],
            [
              -62.477455,
              -46.635397
            ],
            [
              -62.505707,
              -46.748326
            ],
            [
              -62.51774,
              -46.862616
            ],
            [
              -62.513439,
              -46.977166
            ],
            [
              -62.492845,
              -47.090874
            ],
            [
              -62.456157,
              -47.202644
            ],
            [
              -62.403729,
              -47.3114
            ],
            [
              -62.336064,
              -47.416094
            ],
            [
              -62.253815,
              -47.515719
            ],
            [
              -62.157773,
              -47.609314
            ],
            [
              -62.048865,
              -47.695979
            ],
            [
              -61.928138,
              -47.774879
            ],
            [
              -61.796755,
              -47.845253
            ],
            [
              -61.655981,
              -47.906425
            ],
            [
              -61.507173,
              -47.957805
            ],
            [
              -61.351763,
              -47.998898
            ],
            [
              -61.191248,
              -48.029308
            ],
            [
              -61.027174,
              -48.048743
            ],
            [
              -60.861121,
              -48.057016
            ],
            [
              -60.694688,
              -48.054046
            ],
            [
              -60.529478,
              -48.039863
            ],
            [
              -60.367082,
              -48.014603
            ],
            [
              -60.209064,
              -47.978509
            ],
            [
              -60.056946,
              -47.931929
            ],
            [
              -59.912192,
              -47.875311
            ],
            [
              -59.776198,
              -47.809201
            ],
            [
              -59.650272,
              -47.734235
            ],
            [
              -59.535627,
              -47.651136
            ],
            [
              -59.433368,
              -47.560703
            ],
            [
              -59.344479,
              -47.463808
            ],
            [
              -59.269816,
              -47.361384
            ],
            [
              -59.210098,
              -47.254417
            ],
            [
              -59.165901,
              -47.143937
            ],
            [
              -59.13765,
              -47.031008
            ],
            [
              -59.125617,
              -46.916718
            ],
            [
              -59.129918,
              -46.802167
            ],
            [
              -59.150512,
              -46.688459
            ],
            [
              -59.187199,
              -46.576689
            ],
            [
              -59.239628,
              -46.467933
            ],
            [
              -59.307293,
              -46.363239
            ],
            [
              -59.389542,
              -46.263614
            ],
            [
              -59.485583,
              -46.170019
            ],
            [
              -59.594492,
              -46.083354
            ],
            [
              -59.715219,
              -46.004455
            ],
            [
              -59.846602,
              -45.93408
            ],
            [
              -59.987375,
              -45.872908
            ],
            [
              -60.136184,
              -45.821529
            ],
            [
              -60.291594,
              -45.780436
            ],
            [
              -60.452109,
              -45.750025
            ],
            [
              -60.616183,
              -45.73059
            ]
          ]
        ],
        "type": "Polygon"
      },
      "properties": {
        "kind": "reachableSet",
        "observationStatus": "estimated",
        "vessel": "A"
      },
      "type": "Feature"
    },
    {
      "geometry": {
        "coordinates": [
          [
            [
              -61.129652,
              -45.7544
            ],
            [
              -61.29286,
              -45.77843
            ],
            [
              -61.451857,
              -45.813354
            ],
            [
              -61.605111,
              -45.858835
            ],
            [
              -61.751146,
              -45.914434
            ],
            [
              -61.888556,
              -45.979618
            ],
            [
              -62.016018,
              -46.053757
            ],
            [
              -62.132304,
              -46.136137
            ],
            [
              -62.236294,
              -46.225966
            ],
            [
              -62.326986,
              -46.322379
            ],
            [
              -62.403508,
              -46.424446
            ],
            [
              -62.465123,
              -46.531185
            ],
            [
              -62.511236,
              -46.641567
            ],
            [
              -62.541404,
              -46.754531
            ],
            [
              -62.555336,
              -46.868987
            ],
            [
              -62.552898,
              -46.983834
            ],
            [
              -62.534114,
              -47.097966
            ],
            [
              -62.499165,
              -47.210283
            ],
            [
              -62.448386,
              -47.319704
            ],
            [
              -62.382268,
              -47.425175
            ],
            [
              -62.301446,
              -47.52568
            ],
            [
              -62.2067,
              -47.620252
            ],
            [
              -62.098942,
              -47.707979
            ],
            [
              -61.979208,
              -47.788016
            ],
            [
              -61.848654,
              -47.859594
            ],
            [
              -61.708535,
              -47.922022
            ],
            [
              -61.560202,
              -47.9747
            ],
            [
              -61.405082,
              -48.017119
            ],
            [
              -61.24467,
              -48.048872
            ],
            [
              -61.080511,
              -48.069653
            ],
            [
              -60.914185,
              -48.079261
            ],
            [
              -60.747294,
              -48.077604
            ],
            [
              -60.581446,
              -48.064698
            ],
            [
              -60.418238,
              -48.040668
            ],
            [
              -60.259241,
              -48.005744
            ],
            [
              -60.105987,
              -47.960264
            ],
            [
              -59.959952,
              -47.904664
            ],
            [
              -59.822542,
              -47.839481
            ],
            [
              -59.69508,
              -47.765342
            ],
            [
              -59.578794,
              -47.682961
            ],
            [
              -59.474805,
              -47.593132
            ],
            [
              -59.384112,
              -47.49672
            ],
            [
              -59.30759,
              -47.394653
            ],
            [
              -59.245976,
              -47.287914
            ],
            [
              -59.199863,
              -47.177531
            ],
            [
              -59.169695,
              -47.064567
            ],
            [
              -59.155763,
              -46.950111
            ],
            [
              -59.1582,
              -46.835264
            ],
            [
              -59.176984,
              -46.721132
            ],
            [
              -59.211934,
              -46.608815
            ],
            [
              -59.262712,
              -46.499394
            ],
            [
              -59.32883,
              -46.393923
            ],
            [
              -59.409652,
              -46.293418
            ],
            [
              -59.504398,
              -46.198847
            ],
            [
              -59.612157,
              -46.11112
            ],
            [
              -59.73189,
              -46.031082
            ],
            [
              -59.862444,
              -45.959504
            ],
            [
              -60.002563,
              -45.897076
            ],
            [
              -60.150897,
              -45.844399
            ],
            [
              -60.306016,
              -45.801979
            ],
            [
              -60.466428,
              -45.770226
            ],
            [
              -60.630587,
              -45.749446
            ],
            [
              -60.796913,
              -45.739837
            ],
            [
              -60.963804,
              -45.741494
            ],
            [
              -61.129652,
              -45.7544
            ]
          ]
        ],
        "type": "Polygon"
      },
      "properties": {
        "kind": "reachableSet",
        "observationStatus": "estimated",
        "vessel": "B"
      },
      "type": "Feature"
    }
  ],
  "properties": {
    "dateline": false
  },
  "type": "FeatureCollection"
}
