{
  "features": [
    {
      "geometry": {
        "coordinates": [
          -57.818345,
          -42.050833
        ],
        "type": "Point"
      },
      "properties": {
        "mmsi": "412329686",
        "observationStatus": "observed",
        "role": "off",
        "time": "2019-05-19T05:13:35Z",
        "vessel": "A"
      },
      "type": "Feature"
    },
    {
      "geometry": {
        "coordinates": [
          -57.850545,
          -42.034492
        ],
        "type": "Point"
      },
      "properties": {
        "mmsi": "412329693",
        "observationStatus": "observed",
        "role": "off",
        "time": "2019-05-19T05:29:27Z",
        "vessel": "B"
      },
      "type": "Feature"
    },
    {
      "geometry": {
        "coordinates": [
          -57.975945,
          -42.124388
        ],
        "type": "Point"
      },
      "properties": {
        "mmsi": "412329686",
        "observationStatus": "observed",
        "role": "on",
        "time": "2019-05-19T23:14:21Z",
        "vessel": "A"
      },
      "type": "Feature"
    },
    {
      "geometry": {
        "coordinates": [
          -57.955403,
          -42.09014
        ],
        "type": "Point"
      },
      "properties": {
        "mmsi": "412329693",
        "observationStatus": "observed",
        "role": "on",
        "time": "2019-05-19T23:41:03Z",
        "vessel": "B"
      },
      "type": "Feature"
    },
    {
      "geometry": {
        "coordinates": [
          [
            -57.818345,
            -42.050833
          ],
          [
            -57.948609,
            -42.105488
          ],
          [
            -57.975945,
            -42.124388
          ]
        ],
        "type": "LineString"
      },
      "properties": {
        "confidence": "low",
        "lineStyle": "dashed",
        "observationStatus": "estimated",
        "source": "reachable-set heuristic",
        "vessel": "A"
      },
      "type": "Feature"
    },
    {
      "geometry": {
        "coordinates": [
          [
            -57.850545,
            -42.034492
          ],
          [
            -57.948609,
            -42.105488
          ],
          [
            -57.955403,
            -42.09014
          ]
        ],
        "type": "LineString"
      },
      "properties": {
        "confidence": "low",
        "lineStyle": "dashed",
        "observationStatus": "estimated",
        "source": "reachable-set heuristic",
        "vessel": "B"
      },
      "type": "Feature"
    },
    {
      "geometry": {
        "coordinates": [
          -57.948609,
          -42.105488
        ],
        "type": "Point"
      },
      "properties": {
        "kind": "meetingPoint",
        "observationStatus": "estimated"
      },
      "type": "Feature"
    },
    {
      "geometry": {
        "coordinates": [
          [
            [
              -59.999677,
              -43.068904
            ],
            [
              -59.86091,
              -43.218047
            ],
            [
              -59.703231,
              -43.356304
            ],
            [
              -59.528158,
              -43.482342
            ],
            [
              -59.337378,
              -43.594948
            ],
            [
              -59.132728,
              -43.693038
            ],
            [
              -58.916178,
              -43.775667
            ],
            [
              -58.689815,
              -43.842039
            ],
            [
              -58.455817,
              -43.891515
            ],
            [
              -58.216439,
              -43.923618
            ],
            [
              -57.973987,
              -43.93804
            ],
            [
              -57.730794,
              -43.93464
            ],
            [
              -57.489203,
              -43.913453
            ],
            [
              -57.251541,
              -43.874682
            ],
            [
              -57.020097,
              -43.818701
            ],
            [
              -56.797099,
              -43.746048
            ],
            [
              -56.584695,
              -43.657424
            ],
            [
              -56.38493,
              -43.553681
            ],
            [
              -56.199729,
              -43.435819
            ],
            [
              -56.030876,
              -43.304974
            ],
            [
              -55.879995,
              -43.162404
            ],
            [
              -55.74854,
              -43.009484
            ],
            [
              -55.637778,
              -42.847685
            ],
            [
              -55.548775,
              -42.678567
            ],
            [
              -55.482388,
              -42.503757
            ],
            [
              -55.439256,
              -42.32494
            ],
            [
              -55.419795,
              -42.143837
            ],
            [
              -55.424193,
              -41.962193
            ],
            [
              -55.452406,
              -41.781756
            ],
            [
              -55.504163,
              -41.604265
            ],
            [
              -55.578966,
              -41.431429
            ],
            [
              -55.676095,
              -41.264912
            ],
            [
              -55.794613,
              -41.106318
            ],
            [
              -55.93338,
              -40.957175
            ],
            [
              -56.091059,
              -40.818918
            ],
            [
              -56.266132,
              -40.69288
            ],
            [
              -56.456912,
              -40.580273
            ],
            [
              -56.661562,
              -40.482183
            ],
            [
              -56.878112,
              -40.399554
            ],
            [
              -57.104475,
              -40.333183
            ],
            [
              -57.338473,
              -40.283707
            ],
            [
              -57.577851,
              -40.251604
            ],
            [
              -57.820303,
              -40.237182
            ],
            [
              -58.063496,
              -40.240581
            ],
            [
              -58.305087,
              -40.261768
            ],
            [
              -58.542749,
              -40.300539
            ],
            [
              -58.774193,
              -40.356521
            ],
            [
              -58.997191,
              -40.429174
            ],
            [
              -59.209595,
              -40.517798
            ],
            [
              -59.40936,
              -40.621541
            ],
            [
              -59.594561,
              -40.739402
            ],
            [
              -59.763414,
              -40.870248
            ],
            [
              -59.914295,
              -41.012817
            ],
            [
              -60.04575,
              -41.165738
            ],
            [
              -60.156512,
              -41.327536
            ],
            [
              -60.245515,
              -41.496655
            ],
            [
              -60.311902,
              -41.671464
            ],
            [
              -60.355034,
              -41.850282
            ],
            [
              -60.374495,
              -42.031385
            ],
            [
              -60.370097,
              -42.213029
            ],
            [
              -60.341884,
              -42.393466
            ],
            [
              -60.290127,
              -42.570957
            ],
            [
              -60.215324,
              -42.743793
            ],
            [
              -60.118195,
              -42.91031
            ],
            [
              -59.999677,
              -43.068904
            ]
          ]
        ],
        "type": "Polygon"
      },
      "properties": {
        "kind": "reachableSet",
        "observationStatus": "estimated",
        "vessel": "A"
      },
      "type": "Feature"
    },
    {
      "geometry": {
        "coordinates": [
          [
            [
              -59.94496,
              -43.145998
            ],
            [
              -59.793066,
              -43.290333
            ],
            [
              -59.622968,
              -43.422841
            ],
            [
              -59.436307,
              -43.542247
            ],
            [
              -59.234878,
              -43.6474
            ],
            [
              -59.020623,
              -43.737288
            ],
            [
              -58.795604,
              -43.811045
            ],
            [
              -58.561989,
              -43.867961
            ],
            [
              -58.322027,
              -43.907487
            ],
            [
              -58.078029,
              -43.929244
            ],
            [
              -57.832345,
              -43.933021
            ],
            [
              -57.587341,
              -43.918782
            ],
            [
              -57.345378,
              -43.886664
            ],
            [
              -57.108784,
              -43.836977
            ],
            [
              -56.879838,
              -43.770198
            ],
            [
              -56.660747,
              -43.686972
            ],
            [
              -56.453618,
              -43.5881
            ],
            [
              -56.260447,
              -43.474534
            ],
            [
              -56.083095,
              -43.347367
            ],
            [
              -55.923269,
              -43.207824
            ],
            [
              -55.782509,
              -43.057249
            ],
            [
              -55.662171,
              -42.897093
            ],
            [
              -55.563412,
              -42.728897
            ],
            [
              -55.487184,
              -42.554282
            ],
            [
              -55.434222,
              -42.374929
            ],
            [
              -55.405036,
              -42.192565
            ],
            [
              -55.399906,
              -42.008947
            ],
            [
              -55.418882,
              -41.825843
            ],
            [
              -55.461781,
              -41.645016
            ],
            [
              -55.52819,
              -41.468208
            ],
            [
              -55.617469,
              -41.297122
            ],
            [
              -55.728759,
              -41.133405
            ],
            [
              -55.860988,
              -40.978634
            ],
            [
              -56.012883,
              -40.834299
            ],
            [
              -56.18298,
              -40.701791
            ],
            [
              -56.369641,
              -40.582385
            ],
            [
              -56.57107,
              -40.477232
            ],
            [
              -56.785325,
              -40.387344
            ],
            [
              -57.010344,
              -40.313587
            ],
            [
              -57.24396,
              -40.256671
            ],
            [
              -57.483922,
              -40.217144
            ],
            [
              -57.72792,
              -40.195388
            ],
            [
              -57.973603,
              -40.191611
            ],
            [
              -58.218607,
              -40.20585
            ],
            [
              -58.460571,
              -40.237968
            ],
            [
              -58.697164,
              -40.287655
            ],
            [
              -58.92611,
              -40.354433
            ],
            [
              -59.145202,
              -40.437659
            ],
            [
              -59.35233,
              -40.536532
            ],
            [
              -59.545501,
              -40.650098
            ],
            [
              -59.722853,
              -40.777265
            ],
            [
              -59.882679,
              -40.916808
            ],
            [
              -60.023439,
              -41.067382
            ],
            [
              -60.143778,
              -41.227539
            ],
            [
              -60.242536,
              -41.395734
            ],
            [
              -60.318764,
              -41.570349
            ],
            [
              -60.371726,
              -41.749703
            ],
            [
              -60.400913,
              -41.932066
            ],
            [
              -60.406043,
              -42.115684
            ],
            [
              -60.387067,
              -42.298789
            ],
            [
              -60.344168,
              -42.479615
            ],
            [
              -60.277759,
              -42.656423
            ],
            [
              -60.188479,
              -42.82751
            ],
            [
              -60.077189,
              -42.991227
            ],
            [
              -59.94496,
              -43.145998
            ]
          ]
        ],
        "type": "Polygon"
      },
      "properties": {
        "kind": "reachableSet",
        "observationStatus": "estimated",
        "vessel": "B"
      },
      "type": "Feature"
    }
  ],
  "properties": {
    "dateline": false
  },
  "type": "FeatureCollection"
}
