{
  "features": [
    {
      "geometry": {
        "coordinates": [
          -57.808453,
          -42.05216
        ],
        "type": "Point"
      },
      "properties": {
        "mmsi": "412328762",
        "observationStatus": "observed",
        "role": "off",
        "time": "2019-05-05T20:20:25Z",
        "vessel": "A"
      },
      "type": "Feature"
    },
    {
      "geometry": {
        "coordinates": [
          -57.84624,
          -42.0296
        ],
        "type": "Point"
      },
      "properties": {
        "mmsi": "412328763",
        "observationStatus": "observed",
        "role": "off",
        "time": "2019-05-05T21:01:20Z",
        "vessel": "B"
      },
      "type": "Feature"
    },
    {
      "geometry": {
        "coordinates": [
          -57.925965,
          -42.053092
        ],
        "type": "Point"
      },
      "properties": {
        "mmsi": "412328762",
        "observationStatus": "observed",
        "role": "on",
        "time": "2019-05-06T09:41:04Z",
        "vessel": "A"
      },
      "type": "Feature"
    },
    {
      "geometry": {
        "coordinates": [
          -57.938617,
          -42.026087
        ],
        "type": "Point"
      },
      "properties": {
        "mmsi": "412328763",
        "observationStatus": "observed",
        "role": "on",
        "time": "2019-05-06T09:53:16Z",
        "vessel": "B"
      },
      "type": "Feature"
    },
    {
      "geometry": {
        "coordinates": [
          [
            -57.808453,
            -42.05216
          ],
          [
            -57.880464,
            -42.039589
          ],
          [
            -57.925965,
            -42.053092
          ]
        ],
        "type": "LineString"
      },
      "properties": {
        "confidence": "low",
        "lineStyle": "dashed",
        "observationStatus": "estimated",
        "source": "reachable-set heuristic",
        "vessel": "A"
      },
      "type": "Feature"
    },
    {
      "geometry": {
        "coordinates": [
          [
            -57.84624,
            -42.0296
          ],
          [
            -57.880464,
            -42.039589
          ],
          [
            -57.938617,
            -42.026087
          ]
        ],
        "type": "LineString"
      },
      "properties": {
        "confidence": "low",
        "lineStyle": "dashed",
        "observationStatus": "estimated",
        "source": "reachable-set heuristic",
        "vessel": "B"
      },
      "type": "Feature"
    },
    {
      "geometry": {
        "coordinates": [
          -57.880464,
          -42.039589
        ],
        "type": "Point"
      },
      "properties": {
        "kind": "meetingPoint",
        "observationStatus": "estimated"
      },
      "type": "Feature"
    },
    {
      "geometry": {
        "coordinates": [
          [
            [
              -59.526576,
              -42.065782
            ],
            [
              -59.516862,
              -42.187231
            ],
            [
              -59.491261,
              -42.307384
            ],
            [
              -59.450019,
              -42.425084
            ],
            [
              -59.393534,
              -42.539197
            ],
            [
              -59.32235,
              -42.648623
            ],
            [
              -59.237151,
              -42.75231
            ],
            [
              -59.13876,
              -42.849259
            ],
            [
              -59.028123,
              -42.938535
            ],
            [
              -58.906305,
              -43.01928
            ],
            [
              -58.774481,
              -43.090715
            ],
            [
              -58.633919,
              -43.152153
            ],
            [
              -58.485973,
              -43.203002
            ],
            [
              -58.332068,
              -43.242773
            ],
            [
              -58.173686,
              -43.271081
            ],
            [
              -58.012353,
              -43.287655
            ],
            [
              -57.849622,
              -43.292335
            ],
            [
              -57.68706,
              -43.285076
            ],
            [
              -57.526233,
              -43.265948
            ],
            [
              -57.36869,
              -43.235135
            ],
            [
              -57.215948,
              -43.192933
            ],
            [
              -57.069478,
              -43.13975
            ],
            [
              -56.930691,
              -43.076097
            ],
            [
              -56.800923,
              -43.002588
            ],
            [
              -56.681423,
              -42.91993
            ],
            [
              -56.573344,
              -42.828919
            ],
            [
              -56.477725,
              -42.730433
            ],
            [
              -56.395488,
              -42.625418
            ],
            [
              -56.327424,
              -42.514888
            ],
            [
              -56.274189,
              -42.399905
            ],
            [
              -56.236295,
              -42.281578
            ],
            [
              -56.214109,
              -42.161046
            ],
            [
              -56.207842,
              -42.03947
            ],
            [
              -56.217556,
              -41.91802
            ],
            [
              -56.243158,
              -41.797867
            ],
            [
              -56.284399,
              -41.680168
            ],
            [
              -56.340884,
              -41.566055
            ],
            [
              -56.412069,
              -41.456628
            ],
            [
              -56.497267,
              -41.352941
            ],
            [
              -56.595658,
              -41.255993
            ],
            [
              -56.706296,
              -41.166716
            ],
            [
              -56.828113,
              -41.085972
            ],
            [
              -56.959938,
              -41.014536
            ],
            [
              -57.1005,
              -40.953098
            ],
            [
              -57.248446,
              -40.902249
            ],
            [
              -57.40235,
              -40.862479
            ],
            [
              -57.560732,
              -40.834171
            ],
            [
              -57.722065,
              -40.817597
            ],
            [
              -57.884796,
              -40.812917
            ],
            [
              -58.047358,
              -40.820176
            ],
            [
              -58.208185,
              -40.839304
            ],
            [
              -58.365728,
              -40.870117
            ],
            [
              -58.51847,
              -40.912318
            ],
            [
              -58.66494,
              -40.965502
            ],
            [
              -58.803727,
              -41.029154
            ],
            [
              -58.933496,
              -41.102664
            ],
            [
              -59.052995,
              -41.185322
            ],
            [
              -59.161074,
              -41.276332
            ],
            [
              -59.256693,
              -41.374819
            ],
            [
              -59.338931,
              -41.479833
            ],
            [
              -59.406995,
              -41.590364
            ],
            [
              -59.46023,
              -41.705347
            ],
            [
              -59.498123,
              -41.823674
            ],
            [
              -59.52031,
              -41.944206
            ],
            [
              -59.526576,
              -42.065782
            ]
          ]
        ],
        "type": "Polygon"
      },
      "properties": {
        "kind": "reachableSet",
        "observationStatus": "estimated",
        "vessel": "A"
      },
      "type": "Feature"
    },
    {
      "geometry": {
        "coordinates": [
          [
            [
              -59.484868,
              -41.967279
            ],
            [
              -59.485134,
              -42.084252
            ],
            [
              -59.470062,
              -42.200681
            ],
            [
              -59.439796,
              -42.315446
            ],
            [
              -59.394629,
              -42.427442
            ],
            [
              -59.334994,
              -42.535589
            ],
            [
              -59.261467,
              -42.638846
            ],
            [
              -59.174755,
              -42.736219
            ],
            [
              -59.075693,
              -42.82677
            ],
            [
              -58.965237,
              -42.909627
            ],
            [
              -58.844448,
              -42.983991
            ],
            [
              -58.714491,
              -43.049148
            ],
            [
              -58.576617,
              -43.104469
            ],
            [
              -58.432154,
              -43.149421
            ],
            [
              -58.282493,
              -43.183572
            ],
            [
              -58.129075,
              -43.206592
            ],
            [
              -57.973379,
              -43.218261
            ],
            [
              -57.816902,
              -43.218465
            ],
            [
              -57.661154,
              -43.207203
            ],
            [
              -57.507632,
              -43.184583
            ],
            [
              -57.357816,
              -43.150823
            ],
            [
              -57.213149,
              -43.106248
            ],
            [
              -57.075024,
              -43.051287
            ],
            [
              -56.944771,
              -42.986471
            ],
            [
              -56.823644,
              -42.912421
            ],
            [
              -56.71281,
              -42.829853
            ],
            [
              -56.613337,
              -42.739562
            ],
            [
              -56.526182,
              -42.642416
            ],
            [
              -56.452185,
              -42.539351
            ],
            [
              -56.392058,
              -42.43136
            ],
            [
              -56.34638,
              -42.319483
            ],
            [
              -56.315592,
              -42.204798
            ],
            [
              -56.299989,
              -42.088408
            ],
            [
              -56.299723,
              -41.971435
            ],
            [
              -56.314795,
              -41.855005
            ],
            [
              -56.34506,
              -41.74024
            ],
            [
              -56.390228,
              -41.628245
            ],
            [
              -56.449863,
              -41.520098
            ],
            [
              -56.52339,
              -41.41684
            ],
            [
              -56.610102,
              -41.319468
            ],
            [
              -56.709163,
              -41.228917
            ],
            [
              -56.81962,
              -41.14606
            ],
            [
              -56.940409,
              -41.071695
            ],
            [
              -57.070366,
              -41.006539
            ],
            [
              -57.20824,
              -40.951218
            ],
            [
              -57.352703,
              -40.906266
            ],
            [
              -57.502364,
              -40.872115
            ],
            [
              -57.655782,
              -40.849094
            ],
            [
              -57.811478,
              -40.837426
            ],
            [
              -57.967954,
              -40.837221
            ],
            [
              -58.123703,
              -40.848484
            ],
            [
              -58.277225,
              -40.871104
            ],
            [
              -58.42704,
              -40.904864
            ],
            [
              -58.571707,
              -40.949439
            ],
            [
              -58.709833,
              -41.004399
            ],
            [
              -58.840086,
              -41.069216
            ],
            [
              -58.961213,
              -41.143265
            ],
            [
              -59.072046,
              -41.225833
            ],
            [
              -59.17152,
              -41.316125
            ],
            [
              -59.258675,
              -41.413271
            ],
            [
              -59.332672,
              -41.516336
            ],
            [
              -59.392799,
              -41.624326
            ],
            [
              -59.438477,
              -41.736203
            ],
            [
              -59.469265,
              -41.850889
            ],
            [
              -59.484868,
              -41.967279
            ]
          ]
        ],
        "type": "Polygon"
      },
      "properties": {
        "kind": "reachableSet",
        "observationStatus": "estimated",
        "vessel": "B"
      },
      "type": "Feature"
    }
  ],
  "properties": {
    "dateline": false
  },
  "type": "FeatureCollection"
}
