{
  "features": [
    {
      "geometry": {
        "coordinates": [
          -60.687767,
          -45.981225
        ],
        "type": "Point"
      },
      "properties": {
        "mmsi": "412329691",
        "observationStatus": "observed",
        "role": "off",
        "time": "2017-01-19T07:25:31Z",
        "vessel": "A"
      },
      "type": "Feature"
    },
    {
      "geometry": {
        "coordinates": [
          -60.698587,
          -45.981962
        ],
        "type": "Point"
      },
      "properties": {
        "mmsi": "412329694",
        "observationStatus": "observed",
        "role": "off",
        "time": "2017-01-19T07:33:49Z",
        "vessel": "B"
      },
      "type": "Feature"
    },
    {
      "geometry": {
        "coordinates": [
          -60.566372,
          -45.500033
        ],
        "type": "Point"
      },
      "properties": {
        "mmsi": "412329691",
        "observationStatus": "observed",
        "role": "on",
        "time": "2017-01-19T23:53:39Z",
        "vessel": "A"
      },
      "type": "Feature"
    },
    {
      "geometry": {
        "coordinates": [
          -60.59945,
          -45.483972
        ],
        "type": "Point"
      },
      "properties": {
        "mmsi": "412329694",
        "observationStatus": "observed",
        "role": "on",
        "time": "2017-01-19T23:56:35Z",
        "vessel": "B"
      },
      "type": "Feature"
    },
    {
      "geometry": {
        "coordinates": [
          [
            -60.687767,
            -45.981225
          ],
          [
            -60.642697,
            -45.699025
          ],
          [
            -60.566372,
            -45.500033
          ]
        ],
        "type": "LineString"
      },
      "properties": {
        "confidence": "low",
        "lineStyle": "dashed",
        "observationStatus": "estimated",
        "source": "reachable-set heuristic",
        "vessel": "A"
      },
      "type": "Feature"
    },
    {
      "geometry": {
        "coordinates": [
          [
            -60.698587,
            -45.981962
          ],
          [
            -60.642697,
            -45.699025
          ],
          [
            -60.59945,
            -45.483972
          ]
        ],
        "type": "LineString"
      },
      "properties": {
        "confidence": "low",
        "lineStyle": "dashed",
        "observationStatus": "estimated",
        "source": "reachable-set heuristic",
        "vessel": "B"
      },
      "type": "Feature"
    },
    {
      "geometry": {
        "coordinates": [
          -60.642697,
          -45.699025
        ],
        "type": "Point"
      },
      "properties": {
        "kind": "meetingPoint",
        "observationStatus": "estimated"
      },
      "type": "Feature"
    },
    {
      "geometry": {
        "coordinates": [
          [
            [
              -60.208718,
              -44.082349
            ],
            [
              -60.439612,
              -44.061827
            ],
            [
              -60.672311,
              -44.057472
            ],
            [
              -60.904574,
              -44.069327
            ],
            [
              -61.134165,
              -44.097278
            ],
            [
              -61.358872,
              -44.141055
            ],
            [
              -61.576532,
              -44.200237
            ],
            [
              -61.785047,
              -44.274254
            ],
            [
              -61.982411,
              -44.362393
            ],
            [
              -62.166722,
              -44.463805
            ],
            [
              -62.336205,
              -44.577513
            ],
            [
              -62.489229,
              -44.702423
            ],
            [
              -62.624319,
              -44.837331
            ],
            [
              -62.740174,
              -44.980939
            ],
            [
              -62.835679,
              -45.131863
            ],
            [
              -62.909913,
              -45.288649
            ],
            [
              -62.962163,
              -45.449789
            ],
            [
              -62.991924,
              -45.613729
            ],
            [
              -62.998911,
              -45.778892
            ],
            [
              -62.983055,
              -45.943686
            ],
            [
              -62.94451,
              -46.106524
            ],
            [
              -62.883647,
              -46.265839
            ],
            [
              -62.801052,
              -46.420095
            ],
            [
              -62.69752,
              -46.567808
            ],
            [
              -62.574049,
              -46.707555
            ],
            [
              -62.431827,
              -46.83799
            ],
            [
              -62.272224,
              -46.957857
            ],
            [
              -62.096777,
              -47.066001
            ],
            [
              -61.907177,
              -47.161381
            ],
            [
              -61.705248,
              -47.243078
            ],
            [
              -61.492936,
              -47.310306
            ],
            [
              -61.272285,
              -47.362417
            ],
            [
              -61.04542,
              -47.39891
            ],
            [
              -60.814526,
              -47.419432
            ],
            [
              -60.581827,
              -47.423786
            ],
            [
              -60.349564,
              -47.411931
            ],
            [
              -60.119973,
              -47.38398
            ],
            [
              -59.895266,
              -47.340203
            ],
            [
              -59.677607,
              -47.281021
            ],
            [
              -59.469091,
              -47.207004
            ],
            [
              -59.271727,
              -47.118866
            ],
            [
              -59.087416,
              -47.017454
            ],
            [
              -58.917933,
              -46.903745
            ],
            [
              -58.76491,
              -46.778835
            ],
            [
              -58.62982,
              -46.643927
            ],
            [
              -58.513965,
              -46.500319
            ],
            [
              -58.41846,
              -46.349396
            ],
            [
              -58.344225,
              -46.192609
            ],
            [
              -58.291975,
              -46.03147
            ],
            [
              -58.262214,
              -45.867529
            ],
            [
              -58.255227,
              -45.702367
            ],
            [
              -58.271083,
              -45.537573
            ],
            [
              -58.309628,
              -45.374734
            ],
            [
              -58.370491,
              -45.215419
            ],
            [
              -58.453086,
              -45.061163
            ],
            [
              -58.556618,
              -44.91345
            ],
            [
              -58.68009,
              -44.773703
            ],
            [
              -58.822312,
              -44.643268
            ],
            [
              -58.981915,
              -44.523402
            ],
            [
              -59.157361,
              -44.415258
            ],
            [
              -59.346962,
              -44.319878
            ],
            [
              -59.54889,
              -44.23818
            ],
            [
              -59.761203,
              -44.170952
            ],
            [
              -59.981854,
              -44.118841
            ],
            [
              -60.208718,
              -44.082349
            ]
          ]
        ],
        "type": "Polygon"
      },
      "properties": {
        "kind": "reachableSet",
        "observationStatus": "estimated",
        "vessel": "A"
      },
      "type": "Feature"
    },
    {
      "geometry": {
        "coordinates": [
          [
            [
              -60.318905,
              -44.074721
            ],
            [
              -60.549163,
              -44.060225
            ],
            [
              -60.780382,
              -44.061839
            ],
            [
              -61.010337,
              -44.079547
            ],
            [
              -61.236811,
              -44.113178
            ],
            [
              -61.457625,
              -44.162408
            ],
            [
              -61.670651,
              -44.226764
            ],
            [
              -61.873839,
              -44.305625
            ],
            [
              -62.065231,
              -44.398233
            ],
            [
              -62.242984,
              -44.503695
            ],
            [
              -62.405386,
              -44.620995
            ],
            [
              -62.550873,
              -44.749004
            ],
            [
              -62.678045,
              -44.886489
            ],
            [
              -62.785676,
              -45.032126
            ],
            [
              -62.872729,
              -45.184513
            ],
            [
              -62.938368,
              -45.342182
            ],
            [
              -62.981958,
              -45.503614
            ],
            [
              -63.003081,
              -45.667255
            ],
            [
              -63.001533,
              -45.831529
            ],
            [
              -62.977329,
              -45.994853
            ],
            [
              -62.930702,
              -46.155656
            ],
            [
              -62.862102,
              -46.312387
            ],
            [
              -62.772188,
              -46.463539
            ],
            [
              -62.661827,
              -46.607655
            ],
            [
              -62.532081,
              -46.743347
            ],
            [
              -62.3842,
              -46.869308
            ],
            [
              -62.219609,
              -46.984326
            ],
            [
              -62.039892,
              -47.087293
            ],
            [
              -61.84678,
              -47.177217
            ],
            [
              -61.642133,
              -47.253231
            ],
            [
              -61.427922,
              -47.314605
            ],
            [
              -61.20621,
              -47.360747
            ],
            [
              -60.979131,
              -47.391213
            ],
            [
              -60.748874,
              -47.405708
            ],
            [
              -60.517654,
              -47.404094
            ],
            [
              -60.2877,
              -47.386387
            ],
            [
              -60.061226,
              -47.352756
            ],
            [
              -59.840412,
              -47.303525
            ],
            [
              -59.627385,
              -47.239169
            ],
            [
              -59.424198,
              -47.160308
            ],
            [
              -59.232806,
              -47.0677
            ],
            [
              -59.055053,
              -46.962239
            ],
            [
              -58.892651,
              -46.844939
            ],
            [
              -58.747163,
              -46.716929
            ],
            [
              -58.619992,
              -46.579444
            ],
            [
              -58.512361,
              -46.433807
            ],
            [
              -58.425307,
              -46.28142
            ],
            [
              -58.359669,
              -46.123752
            ],
            [
              -58.316079,
              -45.962319
            ],
            [
              -58.294956,
              -45.798679
            ],
            [
              -58.296504,
              -45.634405
            ],
            [
              -58.320707,
              -45.47108
            ],
            [
              -58.367334,
              -45.310278
            ],
            [
              -58.435935,
              -45.153546
            ],
            [
              -58.525849,
              -45.002394
            ],
            [
              -58.63621,
              -44.858279
            ],
            [
              -58.765956,
              -44.722587
            ],
            [
              -58.913836,
              -44.596625
            ],
            [
              -59.078428,
              -44.481607
            ],
            [
              -59.258144,
              -44.378641
            ],
            [
              -59.451256,
              -44.288717
            ],
            [
              -59.655903,
              -44.212702
            ],
            [
              -59.870114,
              -44.151328
            ],
            [
              -60.091827,
              -44.105186
            ],
            [
              -60.318905,
              -44.074721
            ]
          ]
        ],
        "type": "Polygon"
      },
      "properties": {
        "kind": "reachableSet",
        "observationStatus": "estimated",
        "vessel": "B"
      },
      "type": "Feature"
    }
  ],
  "properties": {
    "dateline": false
  },
  "type": "FeatureCollection"
}
