{
  "features": [
    {
      "geometry": {
        "coordinates": [
          164.231973,
          47.510027
        ],
        "type": "Point"
      },
      "properties": {
        "mmsi": "416505000",
        "observationStatus": "observed",
        "role": "off",
        "time": "2018-07-29T02:01:44Z",
        "vessel": "A"
      },
      "type": "Feature"
    },
    {
      "geometry": {
        "coordinates": [
          164.31808,
          47.554907
        ],
        "type": "Point"
      },
      "properties": {
        "mmsi": "577101000",
        "observationStatus": "observed",
        "role": "off",
        "time": "2018-07-29T02:01:45Z",
        "vessel": "B"
      },
      "type": "Feature"
    },
    {
      "geometry": {
        "coordinates": [
          163.831533,
          47.683917
        ],
        "type": "Point"
      },
      "properties": {
        "mmsi": "416505000",
        "observationStatus": "observed",
        "role": "on",
        "time": "2018-07-29T17:06:29Z",
        "vessel": "A"
      },
      "type": "Feature"
    },
    {
      "geometry": {
        "coordinates": [
          163.798973,
          47.669318
        ],
        "type": "Point"
      },
      "properties": {
        "mmsi": "577101000",
        "observationStatus": "observed",
        "role": "on",
        "time": "2018-07-29T17:10:17Z",
        "vessel": "B"
      },
      "type": "Feature"
    },
    {
      "geometry": {
        "coordinates": [
          [
            164.231973,
            47.510027
          ],
          [
            164.192362,
            47.582444
          ],
          [
            163.831533,
            47.683917
          ]
        ],
        "type": "LineString"
      },
      "properties": {
        "confidence": "low",
        "lineStyle": "dashed",
        "observationStatus": "estimated",
        "source": "reachable-set heuristic",
        "vessel": "A"
      },
      "type": "Feature"
    },
    {
      "geometry": {
        "coordinates": [
          [
            164.31808,
            47.554907
          ],
          [
            164.192362,
            47.582444
          ],
          [
            163.798973,
            47.669318
          ]
        ],
        "type": "LineString"
      },
      "properties": {
        "confidence": "low",
        "lineStyle": "dashed",
        "observationStatus": "estimated",
        "source": "reachable-set heuristic",
        "vessel": "B"
      },
      "type": "Feature"
    },
    {
      "geometry": {
        "coordinates": [
          164.192362,
          47.582444
        ],
        "type": "Point"
      },
      "properties": {
        "kind": "meetingPoint",
        "observationStatus": "estimated"
      },
      "type": "Feature"
    },
    {
      "geometry": {
        "coordinates": [
          [
            [
              162.276082,
              48.359367
            ],
            [
              162.175184,
              48.239627
            ],
            [
              162.092167,
              48.113697
            ],
            [
              162.027829,
              47.982791
            ],
            [
              161.982789,
              47.848169
            ],
            [
              161.957483,
              47.711128
            ],
            [
              161.952152,
              47.572987
            ],
            [
              161.966849,
              47.435078
            ],
            [
              162.001433,
              47.298728
            ],
            [
              162.05557,
              47.16525
            ],
            [
              162.128738,
              47.035929
            ],
            [
              162.220233,
              46.912012
            ],
            [
              162.329175,
              46.794692
            ],
            [
              162.454513,
              46.685097
            ],
            [
              162.59504,
              46.584285
            ],
            [
              162.749405,
              46.493225
            ],
            [
              162.916118,
              46.412795
            ],
            [
              163.093576,
              46.34377
            ],
            [
              163.28007,
              46.286813
            ],
            [
              163.473802,
              46.242474
            ],
            [
              163.672908,
              46.211179
            ],
            [
              163.875469,
              46.193231
            ],
            [
              164.079536,
              46.188801
            ],
            [
              164.283142,
              46.197932
            ],
            [
              164.484328,
              46.220537
            ],
            [
              164.681155,
              46.256398
            ],
            [
              164.871727,
              46.30517
            ],
            [
              165.054211,
              46.366382
            ],
            [
              165.226847,
              46.439445
            ],
            [
              165.387975,
              46.523656
            ],
            [
              165.536041,
              46.618204
            ],
            [
              165.66962,
              46.722178
            ],
            [
              165.787425,
              46.834576
            ],
            [
              165.888322,
              46.954317
            ],
            [
              165.97134,
              47.080247
            ],
            [
              166.035678,
              47.211153
            ],
            [
              166.080717,
              47.345775
            ],
            [
              166.106024,
              47.482816
            ],
            [
              166.111355,
              47.620956
            ],
            [
              166.096657,
              47.758865
            ],
            [
              166.062074,
              47.895216
            ],
            [
              166.007937,
              48.028694
            ],
            [
              165.934769,
              48.158014
            ],
            [
              165.843273,
              48.281931
            ],
            [
              165.734332,
              48.399252
            ],
            [
              165.608994,
              48.508846
            ],
            [
              165.468466,
              48.609658
            ],
            [
              165.314102,
              48.700718
            ],
            [
              165.147388,
              48.781148
            ],
            [
              164.96993,
              48.850174
            ],
            [
              164.783437,
              48.90713
            ],
            [
              164.589705,
              48.95147
            ],
            [
              164.390599,
              48.982764
            ],
            [
              164.188038,
              49.000713
            ],
            [
              163.983971,
              49.005143
            ],
            [
              163.780364,
              48.996011
            ],
            [
              163.579179,
              48.973406
            ],
            [
              163.382352,
              48.937545
            ],
            [
              163.191779,
              48.888774
            ],
            [
              163.009296,
              48.827562
            ],
            [
              162.836659,
              48.754498
            ],
            [
              162.675532,
              48.670287
            ],
            [
              162.527466,
              48.57574
            ],
            [
              162.393887,
              48.471766
            ],
            [
              162.276082,
              48.359367
            ]
          ]
        ],
        "type": "Polygon"
      },
      "properties": {
        "kind": "reachableSet",
        "observationStatus": "estimated",
        "vessel": "A"
      },
      "type": "Feature"
    },
    {
      "geometry": {
        "coordinates": [
          [
            [
              162.066877,
              48.051074
            ],
            [
              162.013615,
              47.917594
            ],
            [
              161.980047,
              47.781171
            ],
            [
              161.966496,
              47.643121
            ],
            [
              161.973092,
              47.504772
            ],
            [
              161.999772,
              47.367456
            ],
            [
              162.046279,
              47.232497
            ],
            [
              162.112166,
              47.101194
            ],
            [
              162.196796,
              46.974811
            ],
            [
              162.299356,
              46.854565
            ],
            [
              162.418858,
              46.741616
            ],
            [
              162.554151,
              46.637049
            ],
            [
              162.703932,
              46.541873
            ],
            [
              162.866758,
              46.457004
            ],
            [
              163.041061,
              46.38326
            ],
            [
              163.225164,
              46.321349
            ],
            [
              163.417292,
              46.27187
            ],
            [
              163.615595,
              46.235298
            ],
            [
              163.818165,
              46.211985
            ],
            [
              164.023049,
              46.202156
            ],
            [
              164.228274,
              46.205906
            ],
            [
              164.431865,
              46.223199
            ],
            [
              164.631861,
              46.253867
            ],
            [
              164.826335,
              46.297617
            ],
            [
              165.013414,
              46.354025
            ],
            [
              165.191298,
              46.42255
            ],
            [
              165.358272,
              46.50253
            ],
            [
              165.512729,
              46.593197
            ],
            [
              165.653181,
              46.693676
            ],
            [
              165.778276,
              46.803
            ],
            [
              165.886809,
              46.920117
            ],
            [
              165.977734,
              47.043898
            ],
            [
              166.050176,
              47.173151
            ],
            [
              166.103438,
              47.306631
            ],
            [
              166.137006,
              47.443054
            ],
            [
              166.150557,
              47.581104
            ],
            [
              166.143961,
              47.719453
            ],
            [
              166.117281,
              47.856769
            ],
            [
              166.070774,
              47.991728
            ],
            [
              166.004888,
              48.123031
            ],
            [
              165.920257,
              48.249414
            ],
            [
              165.817697,
              48.36966
            ],
            [
              165.698195,
              48.482609
            ],
            [
              165.562902,
              48.587176
            ],
            [
              165.413122,
              48.682352
            ],
            [
              165.250295,
              48.767221
            ],
            [
              165.075992,
              48.840965
            ],
            [
              164.89189,
              48.902876
            ],
            [
              164.699761,
              48.952355
            ],
            [
              164.501458,
              48.988927
            ],
            [
              164.298889,
              49.01224
            ],
            [
              164.094005,
              49.022069
            ],
            [
              163.888779,
              49.018319
            ],
            [
              163.685188,
              49.001026
            ],
            [
              163.485193,
              48.970358
            ],
            [
              163.290719,
              48.926608
            ],
            [
              163.103639,
              48.8702
            ],
            [
              162.925756,
              48.801675
            ],
            [
              162.758781,
              48.721695
            ],
            [
              162.604324,
              48.631028
            ],
            [
              162.463872,
              48.530549
            ],
            [
              162.338777,
              48.421225
            ],
            [
              162.230245,
              48.304108
            ],
            [
              162.139319,
              48.180327
            ],
            [
              162.066877,
              48.051074
            ]
          ]
        ],
        "type": "Polygon"
      },
      "properties": {
        "kind": "reachableSet",
        "observationStatus": "estimated",
        "vessel": "B"
      },
      "type": "Feature"
    }
  ],
  "properties": {
    "dateline": false
  },
  "type": "FeatureCollection"
}
