{
  "features": [
    {
      "geometry": {
        "coordinates": [
          -61.013138,
          -47.224698
        ],
        "type": "Point"
      },
      "properties": {
        "mmsi": "701006085",
        "observationStatus": "observed",
        "role": "off",
        "time": "2017-03-09T03:21:05Z",
        "vessel": "A"
      },
      "type": "Feature"
    },
    {
      "geometry": {
        "coordinates": [
          -61.083765,
          -47.151183
        ],
        "type": "Point"
      },
      "properties": {
        "mmsi": "701006145",
        "observationStatus": "observed",
        "role": "off",
        "time": "2017-03-09T03:22:11Z",
        "vessel": "B"
      },
      "type": "Feature"
    },
    {
      "geometry": {
        "coordinates": [
          -60.976827,
          -47.147183
        ],
        "type": "Point"
      },
      "properties": {
        "mmsi": "701006085",
        "observationStatus": "observed",
        "role": "on",
        "time": "2017-03-09T16:01:00Z",
        "vessel": "A"
      },
      "type": "Feature"
    },
    {
      "geometry": {
        "coordinates": [
          -61.05594,
          -47.124537
        ],
        "type": "Point"
      },
      "properties": {
        "mmsi": "701006145",
        "observationStatus": "observed",
        "role": "on",
        "time": "2017-03-09T16:01:07Z",
        "vessel": "B"
      },
      "type": "Feature"
    },
    {
      "geometry": {
        "coordinates": [
          [
            -61.013138,
            -47.224698
          ],
          [
            -61.037526,
            -47.174617
          ],
          [
            -60.976827,
            -47.147183
          ]
        ],
        "type": "LineString"
      },
      "properties": {
        "confidence": "low",
        "lineStyle": "dashed",
        "observationStatus": "estimated",
        "source": "reachable-set heuristic",
        "vessel": "A"
      },
      "type": "Feature"
    },
    {
      "geometry": {
        "coordinates": [
          [
            -61.083765,
            -47.151183
          ],
          [
            -61.037526,
            -47.174617
          ],
          [
            -61.05594,
            -47.124537
          ]
        ],
        "type": "LineString"
      },
      "properties": {
        "confidence": "low",
        "lineStyle": "dashed",
        "observationStatus": "estimated",
        "source": "reachable-set heuristic",
        "vessel": "B"
      },
      "type": "Feature"
    },
    {
      "geometry": {
        "coordinates": [
          -61.037526,
          -47.174617
        ],
        "type": "Point"
      },
      "properties": {
        "kind": "meetingPoint",
        "observationStatus": "estimated"
      },
      "type": "Feature"
    },
    {
      "geometry": {
        "coordinates": [
          [
            [
              -60.472015,
              -46.069556
            ],
            [
              -60.634361,
              -46.039879
            ],
            [
              -60.80018,
              -46.02124
            ],
            [
              -60.967874,
              -46.013817
            ],
            [
              -61.13583,
              -46.017682
            ],
            [
              -61.302429,
              -46.032799
            ],
            [
              -61.466068,
              -46.05902
            ],
            [
              -61.625169,
              -46.096095
            ],
            [
              -61.778202,
              -46.143665
            ],
            [
              -61.923692,
              -46.201274
            ],
            [
              -62.060238,
              -46.268365
            ],
            [
              -62.186524,
              -46.344292
            ],
            [
              -62.301336,
              -46.428326
            ],
            [
              -62.403567,
              -46.519655
            ],
            [
              -62.492232,
              -46.617402
            ],
            [
              -62.566478,
              -46.720623
            ],
            [
              -62.625589,
              -46.828326
            ],
            [
              -62.668997,
              -46.939473
            ],
            [
              -62.696284,
              -47.052993
            ],
            [
              -62.707185,
              -47.167794
            ],
            [
              -62.701598,
              -47.28277
            ],
            [
              -62.679574,
              -47.396813
            ],
            [
              -62.641328,
              -47.508825
            ],
            [
              -62.587226,
              -47.617728
            ],
            [
              -62.517789,
              -47.722472
            ],
            [
              -62.433688,
              -47.82205
            ],
            [
              -62.335731,
              -47.915501
            ],
            [
              -62.224861,
              -48.001926
            ],
            [
              -62.102147,
              -48.080493
            ],
            [
              -61.968771,
              -48.150445
            ],
            [
              -61.826017,
              -48.211108
            ],
            [
              -61.675259,
              -48.261898
            ],
            [
              -61.51795,
              -48.302326
            ],
            [
              -61.355604,
              -48.332003
            ],
            [
              -61.189785,
              -48.350642
            ],
            [
              -61.022091,
              -48.358065
            ],
            [
              -60.854135,
              -48.354199
            ],
            [
              -60.687536,
              -48.339083
            ],
            [
              -60.523897,
              -48.312861
            ],
            [
              -60.364796,
              -48.275787
            ],
            [
              -60.211763,
              -48.228216
            ],
            [
              -60.066273,
              -48.170608
            ],
            [
              -59.929727,
              -48.103517
            ],
            [
              -59.803441,
              -48.027589
            ],
            [
              -59.688629,
              -47.943556
            ],
            [
              -59.586398,
              -47.852226
            ],
            [
              -59.497733,
              -47.75448
            ],
            [
              -59.423487,
              -47.651258
            ],
            [
              -59.364376,
              -47.543556
            ],
            [
              -59.320968,
              -47.432409
            ],
            [
              -59.293681,
              -47.318888
            ],
            [
              -59.28278,
              -47.204087
            ],
            [
              -59.288367,
              -47.089112
            ],
            [
              -59.310391,
              -46.975069
            ],
            [
              -59.348637,
              -46.863056
            ],
            [
              -59.402739,
              -46.754154
            ],
            [
              -59.472176,
              -46.649409
            ],
            [
              -59.556277,
              -46.549832
            ],
            [
              -59.654234,
              -46.456381
            ],
            [
              -59.765104,
              -46.369955
            ],
            [
              -59.887818,
              -46.291389
            ],
            [
              -60.021194,
              -46.221437
            ],
            [
              -60.163948,
              -46.160774
            ],
            [
              -60.314706,
              -46.109984
            ],
            [
              -60.472015,
              -46.069556
            ]
          ]
        ],
        "type": "Polygon"
      },
      "properties": {
        "kind": "reachableSet",
        "observationStatus": "estimated",
        "vessel": "A"
      },
      "type": "Feature"
    },
    {
      "geometry": {
        "coordinates": [
          [
            [
              -60.075502,
              -46.185619
            ],
            [
              -60.216564,
              -46.123463
            ],
            [
              -60.365843,
              -46.071076
            ],
            [
              -60.521902,
              -46.028963
            ],
            [
              -60.683238,
              -45.997529
            ],
            [
              -60.848297,
              -45.977077
            ],
            [
              -61.01549,
              -45.967804
            ],
            [
              -61.183207,
              -45.9698
            ],
            [
              -61.349832,
              -45.983044
            ],
            [
              -61.51376,
              -46.00741
            ],
            [
              -61.673414,
              -46.042663
            ],
            [
              -61.827254,
              -46.088463
            ],
            [
              -61.973801,
              -46.14437
            ],
            [
              -62.111642,
              -46.209844
            ],
            [
              -62.23945,
              -46.284256
            ],
            [
              -62.355995,
              -46.366888
            ],
            [
              -62.460153,
              -46.456945
            ],
            [
              -62.550921,
              -46.55356
            ],
            [
              -62.627427,
              -46.655802
            ],
            [
              -62.688932,
              -46.762686
            ],
            [
              -62.734844,
              -46.873184
            ],
            [
              -62.764721,
              -46.98623
            ],
            [
              -62.778276,
              -47.100737
            ],
            [
              -62.775378,
              -47.215601
            ],
            [
              -62.756055,
              -47.329717
            ],
            [
              -62.720493,
              -47.441985
            ],
            [
              -62.669034,
              -47.551324
            ],
            [
              -62.602174,
              -47.656681
            ],
            [
              -62.520557,
              -47.757042
            ],
            [
              -62.424969,
              -47.851439
            ],
            [
              -62.316331,
              -47.938964
            ],
            [
              -62.195688,
              -48.018775
            ],
            [
              -62.064203,
              -48.090101
            ],
            [
              -61.923141,
              -48.152257
            ],
            [
              -61.773862,
              -48.204644
            ],
            [
              -61.617803,
              -48.246757
            ],
            [
              -61.456467,
              -48.278191
            ],
            [
              -61.291408,
              -48.298643
            ],
            [
              -61.124215,
              -48.307916
            ],
            [
              -60.956498,
              -48.30592
            ],
            [
              -60.789873,
              -48.292676
            ],
            [
              -60.625945,
              -48.26831
            ],
            [
              -60.466291,
              -48.233057
            ],
            [
              -60.312451,
              -48.187257
            ],
            [
              -60.165904,
              -48.13135
            ],
            [
              -60.028063,
              -48.065876
            ],
            [
              -59.900255,
              -47.991464
            ],
            [
              -59.78371,
              -47.908832
            ],
            [
              -59.679552,
              -47.818775
            ],
            [
              -59.588784,
              -47.72216
            ],
            [
              -59.512278,
              -47.619918
            ],
            [
              -59.450773,
              -47.513034
            ],
            [
              -59.404861,
              -47.402536
            ],
            [
              -59.374984,
              -47.28949
            ],
            [
              -59.361429,
              -47.174983
            ],
            [
              -59.364327,
              -47.060119
            ],
            [
              -59.38365,
              -46.946003
            ],
            [
              -59.419212,
              -46.833735
            ],
            [
              -59.470671,
              -46.724396
            ],
            [
              -59.537531,
              -46.619039
            ],
            [
              -59.619148,
              -46.518678
            ],
            [
              -59.714736,
              -46.424281
            ],
            [
              -59.823374,
              -46.336756
            ],
            [
              -59.944017,
              -46.256945
            ],
            [
              -60.075502,
              -46.185619
            ]
          ]
        ],
        "type": "Polygon"
      },
      "properties": {
        "kind": "reachableSet",
        "observationStatus": "estimated",
        "vessel": "B"
      },
      "type": "Feature"
    }
  ],
  "properties": {
    "dateline": false
  },
  "type": "FeatureCollection"
}
