{
  "features": [
    {
      "geometry": {
        "coordinates": [
          -60.316038,
          -45.249473
        ],
        "type": "Point"
      },
      "properties": {
        "mmsi": "412329686",
        "observationStatus": "observed",
        "role": "off",
        "time": "2017-12-26T07:06:50Z",
        "vessel": "A"
      },
      "type": "Feature"
    },
    {
      "geometry": {
        "coordinates": [
          -60.325787,
          -45.316298
        ],
        "type": "Point"
      },
      "properties": {
        "mmsi": "412329685",
        "observationStatus": "observed",
        "role": "off",
        "time": "2017-12-26T07:25:39Z",
        "vessel": "B"
      },
      "type": "Feature"
    },
    {
      "geometry": {
        "coordinates": [
          -60.36426,
          -45.245303
        ],
        "type": "Point"
      },
      "properties": {
        "mmsi": "412329686",
        "observationStatus": "observed",
        "role": "on",
        "time": "2017-12-26T23:29:48Z",
        "vessel": "A"
      },
      "type": "Feature"
    },
    {
      "geometry": {
        "coordinates": [
          -60.318347,
          -45.207493
        ],
        "type": "Point"
      },
      "properties": {
        "mmsi": "412329685",
        "observationStatus": "observed",
        "role": "on",
        "time": "2017-12-26T23:32:41Z",
        "vessel": "B"
      },
      "type": "Feature"
    },
    {
      "geometry": {
        "coordinates": [
          [
            -60.316038,
            -45.249473
          ],
          [
            -60.320698,
            -45.251182
          ],
          [
            -60.36426,
            -45.245303
          ]
        ],
        "type": "LineString"
      },
      "properties": {
        "confidence": "low",
        "lineStyle": "dashed",
        "observationStatus": "estimated",
        "source": "reachable-set heuristic",
        "vessel": "A"
      },
      "type": "Feature"
    },
    {
      "geometry": {
        "coordinates": [
          [
            -60.325787,
            -45.316298
          ],
          [
            -60.320698,
            -45.251182
          ],
          [
            -60.318347,
            -45.207493
          ]
        ],
        "type": "LineString"
      },
      "properties": {
        "confidence": "low",
        "lineStyle": "dashed",
        "observationStatus": "estimated",
        "source": "reachable-set heuristic",
        "vessel": "B"
      },
      "type": "Feature"
    },
    {
      "geometry": {
        "coordinates": [
          -60.320698,
          -45.251182
        ],
        "type": "Point"
      },
      "properties": {
        "kind": "meetingPoint",
        "observationStatus": "estimated"
      },
      "type": "Feature"
    },
    {
      "geometry": {
        "coordinates": [
          [
            [
              -62.68549,
              -45.044573
            ],
            [
              -62.702241,
              -45.208488
            ],
            [
              -62.696243,
              -45.372778
            ],
            [
              -62.667555,
              -45.535859
            ],
            [
              -62.616453,
              -45.696163
            ],
            [
              -62.543429,
              -45.852145
            ],
            [
              -62.449186,
              -46.002302
            ],
            [
              -62.334631,
              -46.14519
            ],
            [
              -62.200869,
              -46.279431
            ],
            [
              -62.049187,
              -46.403733
            ],
            [
              -61.881046,
              -46.516898
            ],
            [
              -61.698066,
              -46.617838
            ],
            [
              -61.502007,
              -46.705579
            ],
            [
              -61.29476,
              -46.779278
            ],
            [
              -61.078319,
              -46.838223
            ],
            [
              -60.854769,
              -46.881848
            ],
            [
              -60.626263,
              -46.909732
            ],
            [
              -60.395002,
              -46.921606
            ],
            [
              -60.163212,
              -46.917357
            ],
            [
              -59.933127,
              -46.897026
            ],
            [
              -59.706961,
              -46.860807
            ],
            [
              -59.486893,
              -46.80905
            ],
            [
              -59.275043,
              -46.742254
            ],
            [
              -59.07345,
              -46.661061
            ],
            [
              -58.884056,
              -46.566254
            ],
            [
              -58.708685,
              -46.458746
            ],
            [
              -58.549026,
              -46.339571
            ],
            [
              -58.406616,
              -46.209878
            ],
            [
              -58.282828,
              -46.070916
            ],
            [
              -58.178852,
              -45.924023
            ],
            [
              -58.095691,
              -45.770613
            ],
            [
              -58.034145,
              -45.612165
            ],
            [
              -57.994808,
              -45.450203
            ],
            [
              -57.978057,
              -45.286289
            ],
            [
              -57.984055,
              -45.121999
            ],
            [
              -58.012743,
              -44.958917
            ],
            [
              -58.063845,
              -44.798614
            ],
            [
              -58.13687,
              -44.642632
            ],
            [
              -58.231113,
              -44.492474
            ],
            [
              -58.345667,
              -44.349587
            ],
            [
              -58.479429,
              -44.215346
            ],
            [
              -58.631111,
              -44.091044
            ],
            [
              -58.799252,
              -43.977878
            ],
            [
              -58.982233,
              -43.876939
            ],
            [
              -59.178291,
              -43.789197
            ],
            [
              -59.385538,
              -43.715499
            ],
            [
              -59.601979,
              -43.656554
            ],
            [
              -59.825529,
              -43.612929
            ],
            [
              -60.054035,
              -43.585045
            ],
            [
              -60.285296,
              -43.57317
            ],
            [
              -60.517086,
              -43.577419
            ],
            [
              -60.747172,
              -43.597751
            ],
            [
              -60.973337,
              -43.63397
            ],
            [
              -61.193405,
              -43.685726
            ],
            [
              -61.405256,
              -43.752523
            ],
            [
              -61.606849,
              -43.833715
            ],
            [
              -61.796243,
              -43.928522
            ],
            [
              -61.971614,
              -44.036031
            ],
            [
              -62.131273,
              -44.155205
            ],
            [
              -62.273682,
              -44.284898
            ],
            [
              -62.397471,
              -44.423861
            ],
            [
              -62.501446,
              -44.570754
            ],
            [
              -62.584607,
              -44.724163
            ],
            [
              -62.646153,
              -44.882612
            ],
            [
              -62.68549,
              -45.044573
            ]
          ]
        ],
        "type": "Polygon"
      },
      "properties": {
        "kind": "reachableSet",
        "observationStatus": "estimated",
        "vessel": "A"
      },
      "type": "Feature"
    },
    {
      "geometry": {
        "coordinates": [
          [
            [
              -60.209657,
              -43.617979
            ],
            [
              -60.437455,
              -43.618092
            ],
            [
              -60.664142,
              -43.634035
            ],
            [
              -60.887535,
              -43.665655
            ],
            [
              -61.105482,
              -43.712648
            ],
            [
              -61.315884,
              -43.774561
            ],
            [
              -61.516715,
              -43.850798
            ],
            [
              -61.706041,
              -43.940624
            ],
            [
              -61.882039,
              -44.043175
            ],
            [
              -62.043013,
              -44.157463
            ],
            [
              -62.187413,
              -44.282388
            ],
            [
              -62.31385,
              -44.416745
            ],
            [
              -62.421104,
              -44.559242
            ],
            [
              -62.508143,
              -44.708506
            ],
            [
              -62.57413,
              -44.863099
            ],
            [
              -62.618427,
              -45.021533
            ],
            [
              -62.64061,
              -45.182281
            ],
            [
              -62.640463,
              -45.343797
            ],
            [
              -62.61799,
              -45.504523
            ],
            [
              -62.573405,
              -45.662913
            ],
            [
              -62.507138,
              -45.817441
            ],
            [
              -62.419829,
              -45.966619
            ],
            [
              -62.312316,
              -46.10901
            ],
            [
              -62.185637,
              -46.243243
            ],
            [
              -62.04101,
              -46.368024
            ],
            [
              -61.879829,
              -46.482154
            ],
            [
              -61.703645,
              -46.584531
            ],
            [
              -61.514157,
              -46.674171
            ],
            [
              -61.313188,
              -46.750209
            ],
            [
              -61.102674,
              -46.811915
            ],
            [
              -60.884642,
              -46.858693
            ],
            [
              -60.661192,
              -46.890093
            ],
            [
              -60.434476,
              -46.905812
            ],
            [
              -60.206678,
              -46.9057
            ],
            [
              -59.979991,
              -46.889757
            ],
            [
              -59.756599,
              -46.858137
            ],
            [
              -59.538652,
              -46.811144
            ],
            [
              -59.32825,
              -46.749231
            ],
            [
              -59.127418,
              -46.672994
            ],
            [
              -58.938092,
              -46.583167
            ],
            [
              -58.762095,
              -46.480616
            ],
            [
              -58.601121,
              -46.366328
            ],
            [
              -58.45672,
              -46.241404
            ],
            [
              -58.330284,
              -46.107046
            ],
            [
              -58.22303,
              -45.96455
            ],
            [
              -58.13599,
              -45.815286
            ],
            [
              -58.070004,
              -45.660693
            ],
            [
              -58.025706,
              -45.502259
            ],
            [
              -58.003524,
              -45.34151
            ],
            [
              -58.00367,
              -45.179995
            ],
            [
              -58.026144,
              -45.019268
            ],
            [
              -58.070728,
              -44.860878
            ],
            [
              -58.136995,
              -44.70635
            ],
            [
              -58.224305,
              -44.557173
            ],
            [
              -58.331817,
              -44.414782
            ],
            [
              -58.458497,
              -44.280549
            ],
            [
              -58.603123,
              -44.155767
            ],
            [
              -58.764305,
              -44.041638
            ],
            [
              -58.940488,
              -43.939261
            ],
            [
              -59.129977,
              -43.849621
            ],
            [
              -59.330946,
              -43.773582
            ],
            [
              -59.54146,
              -43.711877
            ],
            [
              -59.759492,
              -43.665099
            ],
            [
              -59.982941,
              -43.633699
            ],
            [
              -60.209657,
              -43.617979
            ]
          ]
        ],
        "type": "Polygon"
      },
      "properties": {
        "kind": "reachableSet",
        "observationStatus": "estimated",
        "vessel": "B"
      },
      "type": "Feature"
    }
  ],
  "properties": {
    "dateline": false
  },
  "type": "FeatureCollection"
}
