{
  "features": [
    {
      "geometry": {
        "coordinates": [
          153.413253,
          42.96672
        ],
        "type": "Point"
      },
      "properties": {
        "mmsi": "416242500",
        "observationStatus": "observed",
        "role": "off",
        "time": "2019-10-28T03:52:58Z",
        "vessel": "A"
      },
      "type": "Feature"
    },
    {
      "geometry": {
        "coordinates": [
          153.349493,
          42.94192
        ],
        "type": "Point"
      },
      "properties": {
        "mmsi": "416253700",
        "observationStatus": "observed",
        "role": "off",
        "time": "2019-10-28T03:54:01Z",
        "vessel": "B"
      },
      "type": "Feature"
    },
    {
      "geometry": {
        "coordinates": [
          153.67,
          42.986667
        ],
        "type": "Point"
      },
      "properties": {
        "mmsi": "416242500",
        "observationStatus": "observed",
        "role": "on",
        "time": "2019-10-28T19:59:03Z",
        "vessel": "A"
      },
      "type": "Feature"
    },
    {
      "geometry": {
        "coordinates": [
          153.712373,
          43.0233
        ],
        "type": "Point"
      },
      "properties": {
        "mmsi": "416253700",
        "observationStatus": "observed",
        "role": "on",
        "time": "2019-10-28T20:02:38Z",
        "vessel": "B"
      },
      "type": "Feature"
    },
    {
      "geometry": {
        "coordinates": [
          [
            153.413253,
            42.96672
          ],
          [
            153.530933,
            42.98261
          ],
          [
            153.67,
            42.986667
          ]
        ],
        "type": "LineString"
      },
      "properties": {
        "confidence": "low",
        "lineStyle": "dashed",
        "observationStatus": "estimated",
        "source": "reachable-set heuristic",
        "vessel": "A"
      },
      "type": "Feature"
    },
    {
      "geometry": {
        "coordinates": [
          [
            153.349493,
            42.94192
          ],
          [
            153.530933,
            42.98261
          ],
          [
            153.712373,
            43.0233
          ]
        ],
        "type": "LineString"
      },
      "properties": {
        "confidence": "low",
        "lineStyle": "dashed",
        "observationStatus": "estimated",
        "source": "reachable-set heuristic",
        "vessel": "B"
      },
      "type": "Feature"
    },
    {
      "geometry": {
        "coordinates": [
          153.530933,
          42.98261
        ],
        "type": "Point"
      },
      "properties": {
        "kind": "meetingPoint",
        "observationStatus": "estimated"
      },
      "type": "Feature"
    },
    {
      "geometry": {
        "coordinates": [
          [
            [
              155.590625,
              43.13588
            ],
            [
              155.559617,
              43.282758
            ],
            [
              155.509175,
              43.426689
            ],
            [
              155.439785,
              43.566285
            ],
            [
              155.352114,
              43.700204
            ],
            [
              155.247007,
              43.827155
            ],
            [
              155.125477,
              43.945915
            ],
            [
              154.988693,
              44.055342
            ],
            [
              154.837973,
              44.15438
            ],
            [
              154.674768,
              44.242077
            ],
            [
              154.500651,
              44.317587
            ],
            [
              154.317298,
              44.380184
            ],
            [
              154.126475,
              44.429264
            ],
            [
              153.930019,
              44.464355
            ],
            [
              153.729823,
              44.48512
            ],
            [
              153.527815,
              44.491357
            ],
            [
              153.325939,
              44.483007
            ],
            [
              153.126141,
              44.460151
            ],
            [
              152.930344,
              44.423008
            ],
            [
              152.740434,
              44.371936
            ],
            [
              152.55824,
              44.307428
            ],
            [
              152.385516,
              44.230103
            ],
            [
              152.223927,
              44.140708
            ],
            [
              152.075028,
              44.040103
            ],
            [
              151.940252,
              43.929256
            ],
            [
              151.820899,
              43.809236
            ],
            [
              151.718118,
              43.681198
            ],
            [
              151.632898,
              43.546375
            ],
            [
              151.566059,
              43.406065
            ],
            [
              151.518247,
              43.261621
            ],
            [
              151.489921,
              43.114433
            ],
            [
              151.481354,
              42.965918
            ],
            [
              151.492629,
              42.817507
            ],
            [
              151.523636,
              42.670628
            ],
            [
              151.574078,
              42.526698
            ],
            [
              151.643469,
              42.387101
            ],
            [
              151.73114,
              42.253183
            ],
            [
              151.836246,
              42.126232
            ],
            [
              151.957777,
              42.007471
            ],
            [
              152.094561,
              41.898045
            ],
            [
              152.24528,
              41.799006
            ],
            [
              152.408485,
              41.71131
            ],
            [
              152.582602,
              41.6358
            ],
            [
              152.765955,
              41.573203
            ],
            [
              152.956778,
              41.524123
            ],
            [
              153.153234,
              41.489031
            ],
            [
              153.35343,
              41.468267
            ],
            [
              153.555439,
              41.46203
            ],
            [
              153.757314,
              41.470379
            ],
            [
              153.957112,
              41.493236
            ],
            [
              154.152909,
              41.530379
            ],
            [
              154.342819,
              41.58145
            ],
            [
              154.525013,
              41.645959
            ],
            [
              154.697737,
              41.723283
            ],
            [
              154.859326,
              41.812679
            ],
            [
              155.008226,
              41.913284
            ],
            [
              155.143001,
              42.024131
            ],
            [
              155.262354,
              42.144151
            ],
            [
              155.365136,
              42.272189
            ],
            [
              155.450356,
              42.407012
            ],
            [
              155.517194,
              42.547321
            ],
            [
              155.565006,
              42.691766
            ],
            [
              155.593332,
              42.838954
            ],
            [
              155.601899,
              42.987469
            ],
            [
              155.590625,
              43.13588
            ]
          ]
        ],
        "type": "Polygon"
      },
      "properties": {
        "kind": "reachableSet",
        "observationStatus": "estimated",
        "vessel": "A"
      },
      "type": "Feature"
    },
    {
      "geometry": {
        "coordinates": [
          [
            [
              155.507654,
              43.425912
            ],
            [
              155.439389,
              43.565878
            ],
            [
              155.352745,
              43.700227
            ],
            [
              155.248556,
              43.827665
            ],
            [
              155.127826,
              43.946965
            ],
            [
              154.991716,
              44.056977
            ],
            [
              154.841538,
              44.156642
            ],
            [
              154.678739,
              44.245001
            ],
            [
              154.504885,
              44.321203
            ],
            [
              154.321652,
              44.384513
            ],
            [
              154.130804,
              44.434322
            ],
            [
              153.934178,
              44.47015
            ],
            [
              153.733669,
              44.491652
            ],
            [
              153.531208,
              44.498622
            ],
            [
              153.328744,
              44.490991
            ],
            [
              153.128227,
              44.468834
            ],
            [
              152.931589,
              44.432364
            ],
            [
              152.740722,
              44.381932
            ],
            [
              152.557466,
              44.318023
            ],
            [
              152.383585,
              44.241254
            ],
            [
              152.220753,
              44.152363
            ],
            [
              152.070539,
              44.052207
            ],
            [
              151.93439,
              43.941751
            ],
            [
              151.813616,
              43.822057
            ],
            [
              151.70938,
              43.694279
            ],
            [
              151.622688,
              43.559647
            ],
            [
              151.554373,
              43.419458
            ],
            [
              151.505093,
              43.275062
            ],
            [
              151.475323,
              43.127849
            ],
            [
              151.465349,
              42.979238
            ],
            [
              151.475269,
              42.830659
            ],
            [
              151.504985,
              42.683543
            ],
            [
              151.554213,
              42.539308
            ],
            [
              151.622477,
              42.399342
            ],
            [
              151.709121,
              42.264993
            ],
            [
              151.81331,
              42.137555
            ],
            [
              151.934041,
              42.018255
            ],
            [
              152.070151,
              41.908243
            ],
            [
              152.220328,
              41.808578
            ],
            [
              152.383128,
              41.720219
            ],
            [
              152.556981,
              41.644017
            ],
            [
              152.740215,
              41.580707
            ],
            [
              152.931063,
              41.530898
            ],
            [
              153.127688,
              41.49507
            ],
            [
              153.328197,
              41.473568
            ],
            [
              153.530658,
              41.466598
            ],
            [
              153.733122,
              41.474229
            ],
            [
              153.933639,
              41.496386
            ],
            [
              154.130278,
              41.532856
            ],
            [
              154.321144,
              41.583288
            ],
            [
              154.5044,
              41.647197
            ],
            [
              154.678282,
              41.723966
            ],
            [
              154.841113,
              41.812857
            ],
            [
              154.991327,
              41.913013
            ],
            [
              155.127477,
              42.023469
            ],
            [
              155.248251,
              42.143163
            ],
            [
              155.352486,
              42.270941
            ],
            [
              155.439179,
              42.405573
            ],
            [
              155.507494,
              42.545762
            ],
            [
              155.556774,
              42.690158
            ],
            [
              155.586544,
              42.837371
            ],
            [
              155.596517,
              42.985982
            ],
            [
              155.586598,
              43.134561
            ],
            [
              155.556881,
              43.281677
            ],
            [
              155.507654,
              43.425912
            ]
          ]
        ],
        "type": "Polygon"
      },
      "properties": {
        "kind": "reachableSet",
        "observationStatus": "estimated",
        "vessel": "B"
      },
      "type": "Feature"
    }
  ],
  "properties": {
    "dateline": false
  },
  "type": "FeatureCollection"
}
