{
  "features": [
    {
      "geometry": {
        "coordinates": [
          -60.349542,
          -45.574275
        ],
        "type": "Point"
      },
      "properties": {
        "mmsi": "412329685",
        "observationStatus": "observed",
        "role": "off",
        "time": "2018-02-02T05:39:07Z",
        "vessel": "A"
      },
      "type": "Feature"
    },
    {
      "geometry": {
        "coordinates": [
          -60.40925,
          -45.617522
        ],
        "type": "Point"
      },
      "properties": {
        "mmsi": "412329684",
        "observationStatus": "observed",
        "role": "off",
        "time": "2018-02-02T06:14:07Z",
        "vessel": "B"
      },
      "type": "Feature"
    },
    {
      "geometry": {
        "coordinates": [
          -60.571223,
          -45.684357
        ],
        "type": "Point"
      },
      "properties": {
        "mmsi": "412329685",
        "observationStatus": "observed",
        "role": "on",
        "time": "2018-02-02T23:30:54Z",
        "vessel": "A"
      },
      "type": "Feature"
    },
    {
      "geometry": {
        "coordinates": [
          -60.523442,
          -45.7289
        ],
        "type": "Point"
      },
      "properties": {
        "mmsi": "412329684",
        "observationStatus": "observed",
        "role": "on",
        "time": "2018-02-03T00:01:38Z",
        "vessel": "B"
      },
      "type": "Feature"
    },
    {
      "geometry": {
        "coordinates": [
          [
            -60.349542,
            -45.574275
          ],
          [
            -60.520851,
            -45.663718
          ],
          [
            -60.571223,
            -45.684357
          ]
        ],
        "type": "LineString"
      },
      "properties": {
        "confidence": "low",
        "lineStyle": "dashed",
        "observationStatus": "estimated",
        "source": "reachable-set heuristic",
        "vessel": "A"
      },
      "type": "Feature"
    },
    {
      "geometry": {
        "coordinates": [
          [
            -60.40925,
            -45.617522
          ],
          [
            -60.520851,
            -45.663718
          ],
          [
            -60.523442,
            -45.7289
          ]
        ],
        "type": "LineString"
      },
      "properties": {
        "confidence": "low",
        "lineStyle": "dashed",
        "observationStatus": "estimated",
        "source": "reachable-set heuristic",
        "vessel": "B"
      },
      "type": "Feature"
    },
    {
      "geometry": {
        "coordinates": [
          -60.520851,
          -45.663718
        ],
        "type": "Point"
      },
      "properties": {
        "kind": "meetingPoint",
        "observationStatus": "estimated"
      },
      "type": "Feature"
    },
    {
      "geometry": {
        "coordinates": [
          [
            [
              -62.591341,
              -46.687497
            ],
            [
              -62.433958,
              -46.829256
            ],
            [
              -62.257569,
              -46.959459
            ],
            [
              -62.063872,
              -47.076852
            ],
            [
              -61.854733,
              -47.180304
            ],
            [
              -61.632165,
              -47.26882
            ],
            [
              -61.398312,
              -47.341546
            ],
            [
              -61.155426,
              -47.397782
            ],
            [
              -60.905847,
              -47.436987
            ],
            [
              -60.651978,
              -47.458783
            ],
            [
              -60.396263,
              -47.462961
            ],
            [
              -60.141166,
              -47.449479
            ],
            [
              -59.889143,
              -47.418468
            ],
            [
              -59.642622,
              -47.370227
            ],
            [
              -59.403976,
              -47.30522
            ],
            [
              -59.175504,
              -47.224073
            ],
            [
              -58.959406,
              -47.127567
            ],
            [
              -58.757763,
              -47.016633
            ],
            [
              -58.572517,
              -46.892338
            ],
            [
              -58.405453,
              -46.755879
            ],
            [
              -58.258178,
              -46.608571
            ],
            [
              -58.132112,
              -46.451832
            ],
            [
              -58.028469,
              -46.287172
            ],
            [
              -57.948246,
              -46.116176
            ],
            [
              -57.892216,
              -45.940492
            ],
            [
              -57.86092,
              -45.761811
            ],
            [
              -57.854657,
              -45.581854
            ],
            [
              -57.873489,
              -45.402354
            ],
            [
              -57.917235,
              -45.225039
            ],
            [
              -57.985472,
              -45.051619
            ],
            [
              -58.077544,
              -44.883761
            ],
            [
              -58.192564,
              -44.723084
            ],
            [
              -58.329424,
              -44.571134
            ],
            [
              -58.486807,
              -44.429375
            ],
            [
              -58.663196,
              -44.299173
            ],
            [
              -58.856893,
              -44.18178
            ],
            [
              -59.066032,
              -44.078328
            ],
            [
              -59.2886,
              -43.989812
            ],
            [
              -59.522453,
              -43.917086
            ],
            [
              -59.765339,
              -43.86085
            ],
            [
              -60.014918,
              -43.821645
            ],
            [
              -60.268787,
              -43.799849
            ],
            [
              -60.524502,
              -43.795671
            ],
            [
              -60.779599,
              -43.809153
            ],
            [
              -61.031622,
              -43.840163
            ],
            [
              -61.278143,
              -43.888405
            ],
            [
              -61.516789,
              -43.953412
            ],
            [
              -61.745261,
              -44.034559
            ],
            [
              -61.961359,
              -44.131064
            ],
            [
              -62.163002,
              -44.241999
            ],
            [
              -62.348248,
              -44.366294
            ],
            [
              -62.515312,
              -44.502753
            ],
            [
              -62.662587,
              -44.650061
            ],
            [
              -62.788653,
              -44.806799
            ],
            [
              -62.892296,
              -44.97146
            ],
            [
              -62.972519,
              -45.142455
            ],
            [
              -63.028549,
              -45.31814
            ],
            [
              -63.059845,
              -45.496821
            ],
            [
              -63.066108,
              -45.676778
            ],
            [
              -63.047276,
              -45.856278
            ],
            [
              -63.00353,
              -46.033592
            ],
            [
              -62.935293,
              -46.207013
            ],
            [
              -62.843221,
              -46.37487
            ],
            [
              -62.728201,
              -46.535548
            ],
            [
              -62.591341,
              -46.687497
            ]
          ]
        ],
        "type": "Polygon"
      },
      "properties": {
        "kind": "reachableSet",
        "observationStatus": "estimated",
        "vessel": "A"
      },
      "type": "Feature"
    },
    {
      "geometry": {
        "coordinates": [
          [
            [
              -61.986541,
              -47.155953
            ],
            [
              -61.772776,
              -47.253563
            ],
            [
              -61.54643,
              -47.335953
            ],
            [
              -61.309681,
              -47.40233
            ],
            [
              -61.064812,
              -47.452054
            ],
            [
              -60.814178,
              -47.484648
            ],
            [
              -60.560195,
              -47.499796
            ],
            [
              -60.305308,
              -47.497353
            ],
            [
              -60.051971,
              -47.477343
            ],
            [
              -59.802626,
              -47.439958
            ],
            [
              -59.559672,
              -47.385558
            ],
            [
              -59.32545,
              -47.314668
            ],
            [
              -59.102216,
              -47.227969
            ],
            [
              -58.892119,
              -47.126297
            ],
            [
              -58.697183,
              -47.010631
            ],
            [
              -58.519284,
              -46.882085
            ],
            [
              -58.360137,
              -46.741897
            ],
            [
              -58.221274,
              -46.591417
            ],
            [
              -58.104032,
              -46.432094
            ],
            [
              -58.00954,
              -46.265463
            ],
            [
              -57.938709,
              -46.093128
            ],
            [
              -57.892221,
              -45.916749
            ],
            [
              -57.870522,
              -45.738024
            ],
            [
              -57.873823,
              -45.558675
            ],
            [
              -57.902091,
              -45.380429
            ],
            [
              -57.955055,
              -45.205003
            ],
            [
              -58.032203,
              -45.034086
            ],
            [
              -58.132794,
              -44.869325
            ],
            [
              -58.255858,
              -44.712305
            ],
            [
              -58.40021,
              -44.564539
            ],
            [
              -58.56446,
              -44.42745
            ],
            [
              -58.747027,
              -44.302358
            ],
            [
              -58.946151,
              -44.190469
            ],
            [
              -59.159916,
              -44.092859
            ],
            [
              -59.386262,
              -44.010469
            ],
            [
              -59.62301,
              -43.944092
            ],
            [
              -59.86788,
              -43.894367
            ],
            [
              -60.118514,
              -43.861774
            ],
            [
              -60.372497,
              -43.846626
            ],
            [
              -60.627384,
              -43.849068
            ],
            [
              -60.88072,
              -43.869079
            ],
            [
              -61.130066,
              -43.906463
            ],
            [
              -61.373019,
              -43.960863
            ],
            [
              -61.607241,
              -44.031754
            ],
            [
              -61.830476,
              -44.118452
            ],
            [
              -62.040573,
              -44.220124
            ],
            [
              -62.235509,
              -44.33579
            ],
            [
              -62.413407,
              -44.464336
            ],
            [
              -62.572555,
              -44.604524
            ],
            [
              -62.711418,
              -44.755004
            ],
            [
              -62.82866,
              -44.914327
            ],
            [
              -62.923151,
              -45.080959
            ],
            [
              -62.993982,
              -45.253294
            ],
            [
              -63.040471,
              -45.429673
            ],
            [
              -63.062169,
              -45.608398
            ],
            [
              -63.058869,
              -45.787746
            ],
            [
              -63.0306,
              -45.965992
            ],
            [
              -62.977637,
              -46.141418
            ],
            [
              -62.900489,
              -46.312335
            ],
            [
              -62.799898,
              -46.477097
            ],
            [
              -62.676834,
              -46.634117
            ],
            [
              -62.532482,
              -46.781883
            ],
            [
              -62.368232,
              -46.918972
            ],
            [
              -62.185665,
              -47.044063
            ],
            [
              -61.986541,
              -47.155953
            ]
          ]
        ],
        "type": "Polygon"
      },
      "properties": {
        "kind": "reachableSet",
        "observationStatus": "estimated",
        "vessel": "B"
      },
      "type": "Feature"
    }
  ],
  "properties": {
    "dateline": false
  },
  "type": "FeatureCollection"
}
