{
  "features": [
    {
      "geometry": {
        "coordinates": [
          -60.824485,
          -46.93366
        ],
        "type": "Point"
      },
      "properties": {
        "mmsi": "440502000",
        "observationStatus": "observed",
        "role": "off",
        "time": "2017-03-09T03:22:09Z",
        "vessel": "A"
      },
      "type": "Feature"
    },
    {
      "geometry": {
        "coordinates": [
          -60.857063,
          -46.991305
        ],
        "type": "Point"
      },
      "properties": {
        "mmsi": "441767000",
        "observationStatus": "observed",
        "role": "off",
        "time": "2017-03-09T03:22:58Z",
        "vessel": "B"
      },
      "type": "Feature"
    },
    {
      "geometry": {
        "coordinates": [
          -60.827677,
          -46.91814
        ],
        "type": "Point"
      },
      "properties": {
        "mmsi": "441767000",
        "observationStatus": "observed",
        "role": "on",
        "time": "2017-03-09T16:01:04Z",
        "vessel": "B"
      },
      "type": "Feature"
    },
    {
      "geometry": {
        "coordinates": [
          -60.851702,
          -46.878808
        ],
        "type": "Point"
      },
      "properties": {
        "mmsi": "440502000",
        "observationStatus": "observed",
        "role": "on",
        "time": "2017-03-09T16:01:28Z",
        "vessel": "A"
      },
      "type": "Feature"
    },
    {
      "geometry": {
        "coordinates": [
          [
            -60.824485,
            -46.93366
          ],
          [
            -60.853847,
            -46.92423
          ],
          [
            -60.851702,
            -46.878808
          ]
        ],
        "type": "LineString"
      },
      "properties": {
        "confidence": "low",
        "lineStyle": "dashed",
        "observationStatus": "estimated",
        "source": "reachable-set heuristic",
        "vessel": "A"
      },
      "type": "Feature"
    },
    {
      "geometry": {
        "coordinates": [
          [
            -60.857063,
            -46.991305
          ],
          [
            -60.853847,
            -46.92423
          ],
          [
            -60.827677,
            -46.91814
          ]
        ],
        "type": "LineString"
      },
      "properties": {
        "confidence": "low",
        "lineStyle": "dashed",
        "observationStatus": "estimated",
        "source": "reachable-set heuristic",
        "vessel": "B"
      },
      "type": "Feature"
    },
    {
      "geometry": {
        "coordinates": [
          -60.853847,
          -46.92423
        ],
        "type": "Point"
      },
      "properties": {
        "kind": "meetingPoint",
        "observationStatus": "estimated"
      },
      "type": "Feature"
    },
    {
      "geometry": {
        "coordinates": [
          [
            [
              -61.388137,
              -45.797692
            ],
            [
              -61.54341,
              -45.840102
            ],
            [
              -61.69189,
              -45.89278
            ],
            [
              -61.832148,
              -45.955217
            ],
            [
              -61.962832,
              -46.026813
            ],
            [
              -62.082685,
              -46.106879
            ],
            [
              -62.190551,
              -46.194643
            ],
            [
              -62.285393,
              -46.28926
            ],
            [
              -62.366296,
              -46.389819
            ],
            [
              -62.432482,
              -46.495351
            ],
            [
              -62.483313,
              -46.60484
            ],
            [
              -62.5183,
              -46.717231
            ],
            [
              -62.537105,
              -46.831443
            ],
            [
              -62.539548,
              -46.946375
            ],
            [
              -62.525605,
              -47.060921
            ],
            [
              -62.49541,
              -47.173977
            ],
            [
              -62.449255,
              -47.284454
            ],
            [
              -62.387583,
              -47.391289
            ],
            [
              -62.310988,
              -47.493453
            ],
            [
              -62.220209,
              -47.589961
            ],
            [
              -62.11612,
              -47.679884
            ],
            [
              -61.999722,
              -47.762357
            ],
            [
              -61.872137,
              -47.836585
            ],
            [
              -61.734594,
              -47.901854
            ],
            [
              -61.588417,
              -47.957534
            ],
            [
              -61.435014,
              -48.003089
            ],
            [
              -61.275862,
              -48.038081
            ],
            [
              -61.112494,
              -48.062173
            ],
            [
              -60.946484,
              -48.075132
            ],
            [
              -60.77943,
              -48.076834
            ],
            [
              -60.612941,
              -48.067263
            ],
            [
              -60.44862,
              -48.04651
            ],
            [
              -60.28805,
              -48.014776
            ],
            [
              -60.132777,
              -47.972366
            ],
            [
              -59.984297,
              -47.919689
            ],
            [
              -59.844039,
              -47.857251
            ],
            [
              -59.713354,
              -47.785655
            ],
            [
              -59.593502,
              -47.705589
            ],
            [
              -59.485635,
              -47.617825
            ],
            [
              -59.390794,
              -47.523208
            ],
            [
              -59.309891,
              -47.42265
            ],
            [
              -59.243705,
              -47.317118
            ],
            [
              -59.192874,
              -47.207629
            ],
            [
              -59.157887,
              -47.095237
            ],
            [
              -59.139082,
              -46.981025
            ],
            [
              -59.136639,
              -46.866093
            ],
            [
              -59.150582,
              -46.751547
            ],
            [
              -59.180776,
              -46.638492
            ],
            [
              -59.226932,
              -46.528014
            ],
            [
              -59.288604,
              -46.421179
            ],
            [
              -59.365198,
              -46.319016
            ],
            [
              -59.455977,
              -46.222508
            ],
            [
              -59.560067,
              -46.132584
            ],
            [
              -59.676465,
              -46.050111
            ],
            [
              -59.80405,
              -45.975883
            ],
            [
              -59.941593,
              -45.910615
            ],
            [
              -60.08777,
              -45.854935
            ],
            [
              -60.241173,
              -45.809379
            ],
            [
              -60.400325,
              -45.774388
            ],
            [
              -60.563692,
              -45.750296
            ],
            [
              -60.729703,
              -45.737336
            ],
            [
              -60.896757,
              -45.735634
            ],
            [
              -61.063246,
              -45.745206
            ],
            [
              -61.227567,
              -45.765958
            ],
            [
              -61.388137,
              -45.797692
            ]
          ]
        ],
        "type": "Polygon"
      },
      "properties": {
        "kind": "reachableSet",
        "observationStatus": "estimated",
        "vessel": "A"
      },
      "type": "Feature"
    },
    {
      "geometry": {
        "coordinates": [
          [
            [
              -60.389655,
              -45.827582
            ],
            [
              -60.552516,
              -45.802532
            ],
            [
              -60.718168,
              -45.788578
            ],
            [
              -60.885016,
              -45.785854
            ],
            [
              -61.051454,
              -45.794388
            ],
            [
              -61.215878,
              -45.814095
            ],
            [
              -61.376705,
              -45.844788
            ],
            [
              -61.532386,
              -45.88617
            ],
            [
              -61.681422,
              -45.937843
            ],
            [
              -61.822377,
              -45.999309
            ],
            [
              -61.953895,
              -46.069976
            ],
            [
              -62.074707,
              -46.149164
            ],
            [
              -62.183652,
              -46.236109
            ],
            [
              -62.279679,
              -46.329976
            ],
            [
              -62.361864,
              -46.429859
            ],
            [
              -62.429416,
              -46.534796
            ],
            [
              -62.481684,
              -46.643778
            ],
            [
              -62.518164,
              -46.755754
            ],
            [
              -62.538505,
              -46.869647
            ],
            [
              -62.542512,
              -46.984359
            ],
            [
              -62.530145,
              -47.098785
            ],
            [
              -62.501524,
              -47.211824
            ],
            [
              -62.456925,
              -47.322387
            ],
            [
              -62.396776,
              -47.429409
            ],
            [
              -62.321658,
              -47.53186
            ],
            [
              -62.232293,
              -47.628752
            ],
            [
              -62.129543,
              -47.719154
            ],
            [
              -62.014396,
              -47.802193
            ],
            [
              -61.887962,
              -47.877071
            ],
            [
              -61.751459,
              -47.943066
            ],
            [
              -61.6062,
              -47.999543
            ],
            [
              -61.453586,
              -48.045957
            ],
            [
              -61.295085,
              -48.081863
            ],
            [
              -61.132224,
              -48.106913
            ],
            [
              -60.966572,
              -48.120867
            ],
            [
              -60.799724,
              -48.123591
            ],
            [
              -60.633286,
              -48.115057
            ],
            [
              -60.468862,
              -48.09535
            ],
            [
              -60.308035,
              -48.064657
            ],
            [
              -60.152354,
              -48.023275
            ],
            [
              -60.003318,
              -47.971602
            ],
            [
              -59.862363,
              -47.910136
            ],
            [
              -59.730845,
              -47.839469
            ],
            [
              -59.610033,
              -47.760281
            ],
            [
              -59.501088,
              -47.673336
            ],
            [
              -59.405061,
              -47.579469
            ],
            [
              -59.322876,
              -47.479586
            ],
            [
              -59.255324,
              -47.374649
            ],
            [
              -59.203056,
              -47.265667
            ],
            [
              -59.166576,
              -47.153691
            ],
            [
              -59.146235,
              -47.039798
            ],
            [
              -59.142228,
              -46.925086
            ],
            [
              -59.154595,
              -46.81066
            ],
            [
              -59.183216,
              -46.697621
            ],
            [
              -59.227815,
              -46.587058
            ],
            [
              -59.287964,
              -46.480036
            ],
            [
              -59.363082,
              -46.377585
            ],
            [
              -59.452447,
              -46.280693
            ],
            [
              -59.555197,
              -46.190291
            ],
            [
              -59.670344,
              -46.107252
            ],
            [
              -59.796778,
              -46.032374
            ],
            [
              -59.933281,
              -45.966379
            ],
            [
              -60.07854,
              -45.909902
            ],
            [
              -60.231154,
              -45.863488
            ],
            [
              -60.389655,
              -45.827582
            ]
          ]
        ],
        "type": "Polygon"
      },
      "properties": {
        "kind": "reachableSet",
        "observationStatus": "estimated",
        "vessel": "B"
      },
      "type": "Feature"
    }
  ],
  "properties": {
    "dateline": false
  },
  "type": "FeatureCollection"
}
