{
  "features": [
    {
      "geometry": {
        "coordinates": [
          -57.882578,
          -42.139448
        ],
        "type": "Point"
      },
      "properties": {
        "mmsi": "412328763",
        "observationStatus": "observed",
        "role": "off",
        "time": "2018-12-15T19:33:29Z",
        "vessel": "A"
      },
      "type": "Feature"
    },
    {
      "geometry": {
        "coordinates": [
          -57.908707,
          -42.054987
        ],
        "type": "Point"
      },
      "properties": {
        "mmsi": "412328762",
        "observationStatus": "observed",
        "role": "off",
        "time": "2018-12-15T20:19:28Z",
        "vessel": "B"
      },
      "type": "Feature"
    },
    {
      "geometry": {
        "coordinates": [
          -57.90786,
          -41.996535
        ],
        "type": "Point"
      },
      "properties": {
        "mmsi": "412328762",
        "observationStatus": "observed",
        "role": "on",
        "time": "2018-12-16T09:03:36Z",
        "vessel": "B"
      },
      "type": "Feature"
    },
    {
      "geometry": {
        "coordinates": [
          -57.950622,
          -42.040857
        ],
        "type": "Point"
      },
      "properties": {
        "mmsi": "412328763",
        "observationStatus": "observed",
        "role": "on",
        "time": "2018-12-16T10:00:59Z",
        "vessel": "A"
      },
      "type": "Feature"
    },
    {
      "geometry": {
        "coordinates": [
          [
            -57.882578,
            -42.139448
          ],
          [
            -57.909992,
            -42.032718
          ],
          [
            -57.950622,
            -42.040857
          ]
        ],
        "type": "LineString"
      },
      "properties": {
        "confidence": "low",
        "lineStyle": "dashed",
        "observationStatus": "estimated",
        "source": "reachable-set heuristic",
        "vessel": "A"
      },
      "type": "Feature"
    },
    {
      "geometry": {
        "coordinates": [
          [
            -57.908707,
            -42.054987
          ],
          [
            -57.909992,
            -42.032718
          ],
          [
            -57.90786,
            -41.996535
          ]
        ],
        "type": "LineString"
      },
      "properties": {
        "confidence": "low",
        "lineStyle": "dashed",
        "observationStatus": "estimated",
        "source": "reachable-set heuristic",
        "vessel": "B"
      },
      "type": "Feature"
    },
    {
      "geometry": {
        "coordinates": [
          -57.909992,
          -42.032718
        ],
        "type": "Point"
      },
      "properties": {
        "kind": "meetingPoint",
        "observationStatus": "estimated"
      },
      "type": "Feature"
    },
    {
      "geometry": {
        "coordinates": [
          [
            [
              -58.746253,
              -40.888024
            ],
            [
              -58.899835,
              -40.954518
            ],
            [
              -59.043948,
              -41.031948
            ],
            [
              -59.177205,
              -41.11957
            ],
            [
              -59.298321,
              -41.216539
            ],
            [
              -59.406131,
              -41.321921
            ],
            [
              -59.499595,
              -41.434702
            ],
            [
              -59.577814,
              -41.553795
            ],
            [
              -59.640035,
              -41.678054
            ],
            [
              -59.685659,
              -41.806281
            ],
            [
              -59.714245,
              -41.937242
            ],
            [
              -59.725519,
              -42.069676
            ],
            [
              -59.719372,
              -42.202306
            ],
            [
              -59.695863,
              -42.333857
            ],
            [
              -59.65522,
              -42.463061
            ],
            [
              -59.597832,
              -42.588674
            ],
            [
              -59.524253,
              -42.709485
            ],
            [
              -59.435192,
              -42.824332
            ],
            [
              -59.331505,
              -42.932108
            ],
            [
              -59.214193,
              -43.031776
            ],
            [
              -59.084383,
              -43.122376
            ],
            [
              -58.943328,
              -43.203034
            ],
            [
              -58.792384,
              -43.272975
            ],
            [
              -58.633007,
              -43.331525
            ],
            [
              -58.466729,
              -43.37812
            ],
            [
              -58.295154,
              -43.412311
            ],
            [
              -58.119933,
              -43.433768
            ],
            [
              -57.942754,
              -43.442286
            ],
            [
              -57.765323,
              -43.437783
            ],
            [
              -57.589349,
              -43.4203
            ],
            [
              -57.416527,
              -43.390008
            ],
            [
              -57.24852,
              -43.347198
            ],
            [
              -57.086947,
              -43.292281
            ],
            [
              -56.933365,
              -43.225787
            ],
            [
              -56.789252,
              -43.148357
            ],
            [
              -56.655995,
              -43.060735
            ],
            [
              -56.534879,
              -42.963766
            ],
            [
              -56.427069,
              -42.858384
            ],
            [
              -56.333605,
              -42.745603
            ],
            [
              -56.255386,
              -42.62651
            ],
            [
              -56.193165,
              -42.502251
            ],
            [
              -56.147541,
              -42.374024
            ],
            [
              -56.118955,
              -42.243063
            ],
            [
              -56.107681,
              -42.110629
            ],
            [
              -56.113828,
              -41.977999
            ],
            [
              -56.137337,
              -41.846448
            ],
            [
              -56.17798,
              -41.717244
            ],
            [
              -56.235368,
              -41.591631
            ],
            [
              -56.308947,
              -41.47082
            ],
            [
              -56.398008,
              -41.355973
            ],
            [
              -56.501695,
              -41.248197
            ],
            [
              -56.619007,
              -41.148529
            ],
            [
              -56.748817,
              -41.057929
            ],
            [
              -56.889872,
              -40.977271
            ],
            [
              -57.040816,
              -40.90733
            ],
            [
              -57.200193,
              -40.84878
            ],
            [
              -57.366471,
              -40.802185
            ],
            [
              -57.538046,
              -40.767994
            ],
            [
              -57.713267,
              -40.746537
            ],
            [
              -57.890446,
              -40.738019
            ],
            [
              -58.067877,
              -40.742522
            ],
            [
              -58.243851,
              -40.760005
            ],
            [
              -58.416673,
              -40.790297
            ],
            [
              -58.58468,
              -40.833107
            ],
            [
              -58.746253,
              -40.888024
            ]
          ]
        ],
        "type": "Polygon"
      },
      "properties": {
        "kind": "reachableSet",
        "observationStatus": "estimated",
        "vessel": "A"
      },
      "type": "Feature"
    },
    {
      "geometry": {
        "coordinates": [
          [
            [
              -57.891201,
              -40.846437
            ],
            [
              -58.045797,
              -40.850864
            ],
            [
              -58.199069,
              -40.866606
            ],
            [
              -58.349541,
              -40.893511
            ],
            [
              -58.495763,
              -40.93132
            ],
            [
              -58.636328,
              -40.979669
            ],
            [
              -58.76988,
              -41.038093
            ],
            [
              -58.895136,
              -41.106029
            ],
            [
              -59.010887,
              -41.182822
            ],
            [
              -59.11602,
              -41.267733
            ],
            [
              -59.209521,
              -41.359944
            ],
            [
              -59.290491,
              -41.458568
            ],
            [
              -59.358149,
              -41.562654
            ],
            [
              -59.411845,
              -41.671199
            ],
            [
              -59.45106,
              -41.78316
            ],
            [
              -59.475418,
              -41.897457
            ],
            [
              -59.484683,
              -42.012989
            ],
            [
              -59.478766,
              -42.128645
            ],
            [
              -59.457725,
              -42.243309
            ],
            [
              -59.421762,
              -42.355879
            ],
            [
              -59.371224,
              -42.465269
            ],
            [
              -59.306596,
              -42.570427
            ],
            [
              -59.228502,
              -42.670339
            ],
            [
              -59.137693,
              -42.764043
            ],
            [
              -59.035045,
              -42.850638
            ],
            [
              -58.921545,
              -42.929288
            ],
            [
              -58.798287,
              -42.999237
            ],
            [
              -58.666458,
              -43.059811
            ],
            [
              -58.527327,
              -43.110427
            ],
            [
              -58.382235,
              -43.150596
            ],
            [
              -58.232578,
              -43.179933
            ],
            [
              -58.079798,
              -43.198154
            ],
            [
              -57.925366,
              -43.205085
            ],
            [
              -57.770769,
              -43.200658
            ],
            [
              -57.617497,
              -43.184916
            ],
            [
              -57.467026,
              -43.158011
            ],
            [
              -57.320803,
              -43.120202
            ],
            [
              -57.180239,
              -43.071852
            ],
            [
              -57.046686,
              -43.013428
            ],
            [
              -56.921431,
              -42.945493
            ],
            [
              -56.80568,
              -42.8687
            ],
            [
              -56.700547,
              -42.783789
            ],
            [
              -56.607046,
              -42.691577
            ],
            [
              -56.526076,
              -42.592954
            ],
            [
              -56.458417,
              -42.488868
            ],
            [
              -56.404722,
              -42.380322
            ],
            [
              -56.365507,
              -42.268362
            ],
            [
              -56.341149,
              -42.154065
            ],
            [
              -56.331884,
              -42.038533
            ],
            [
              -56.3378,
              -41.922877
            ],
            [
              -56.358841,
              -41.808212
            ],
            [
              -56.394804,
              -41.695643
            ],
            [
              -56.445343,
              -41.586253
            ],
            [
              -56.509971,
              -41.481095
            ],
            [
              -56.588065,
              -41.381183
            ],
            [
              -56.678873,
              -41.287478
            ],
            [
              -56.781522,
              -41.200884
            ],
            [
              -56.895021,
              -41.122233
            ],
            [
              -57.018279,
              -41.052284
            ],
            [
              -57.150109,
              -40.991711
            ],
            [
              -57.289239,
              -40.941095
            ],
            [
              -57.434332,
              -40.900926
            ],
            [
              -57.583989,
              -40.871589
            ],
            [
              -57.736769,
              -40.853368
            ],
            [
              -57.891201,
              -40.846437
            ]
          ]
        ],
        "type": "Polygon"
      },
      "properties": {
        "kind": "reachableSet",
        "observationStatus": "estimated",
        "vessel": "B"
      },
      "type": "Feature"
    }
  ],
  "properties": {
    "dateline": false
  },
  "type": "FeatureCollection"
}
