{
  "features": [
    {
      "geometry": {
        "coordinates": [
          -60.673947,
          -47.368155
        ],
        "type": "Point"
      },
      "properties": {
        "mmsi": "412421184",
        "observationStatus": "observed",
        "role": "off",
        "time": "2019-03-17T18:15:10Z",
        "vessel": "A"
      },
      "type": "Feature"
    },
    {
      "geometry": {
        "coordinates": [
          -60.707838,
          -47.298603
        ],
        "type": "Point"
      },
      "properties": {
        "mmsi": "412420801",
        "observationStatus": "observed",
        "role": "off",
        "time": "2019-03-17T19:00:42Z",
        "vessel": "B"
      },
      "type": "Feature"
    },
    {
      "geometry": {
        "coordinates": [
          -60.752258,
          -47.290873
        ],
        "type": "Point"
      },
      "properties": {
        "mmsi": "412421184",
        "observationStatus": "observed",
        "role": "on",
        "time": "2019-03-18T09:32:24Z",
        "vessel": "A"
      },
      "type": "Feature"
    },
    {
      "geometry": {
        "coordinates": [
          -60.744888,
          -47.245575
        ],
        "type": "Point"
      },
      "properties": {
        "mmsi": "412420801",
        "observationStatus": "observed",
        "role": "on",
        "time": "2019-03-18T09:35:00Z",
        "vessel": "B"
      },
      "type": "Feature"
    },
    {
      "geometry": {
        "coordinates": [
          [
            -60.673947,
            -47.368155
          ],
          [
            -60.713103,
            -47.290162
          ],
          [
            -60.752258,
            -47.290873
          ]
        ],
        "type": "LineString"
      },
      "properties": {
        "confidence": "low",
        "lineStyle": "dashed",
        "observationStatus": "estimated",
        "source": "reachable-set heuristic",
        "vessel": "A"
      },
      "type": "Feature"
    },
    {
      "geometry": {
        "coordinates": [
          [
            -60.707838,
            -47.298603
          ],
          [
            -60.713103,
            -47.290162
          ],
          [
            -60.744888,
            -47.245575
          ]
        ],
        "type": "LineString"
      },
      "properties": {
        "confidence": "low",
        "lineStyle": "dashed",
        "observationStatus": "estimated",
        "source": "reachable-set heuristic",
        "vessel": "B"
      },
      "type": "Feature"
    },
    {
      "geometry": {
        "coordinates": [
          -60.713103,
          -47.290162
        ],
        "type": "Point"
      },
      "properties": {
        "kind": "meetingPoint",
        "observationStatus": "estimated"
      },
      "type": "Feature"
    },
    {
      "geometry": {
        "coordinates": [
          [
            [
              -61.909831,
              -46.148526
            ],
            [
              -62.073615,
              -46.234213
            ],
            [
              -62.224297,
              -46.330448
            ],
            [
              -62.360425,
              -46.436304
            ],
            [
              -62.480689,
              -46.550763
            ],
            [
              -62.58393,
              -46.672722
            ],
            [
              -62.669153,
              -46.801006
            ],
            [
              -62.735539,
              -46.93438
            ],
            [
              -62.782448,
              -47.071559
            ],
            [
              -62.809428,
              -47.211222
            ],
            [
              -62.816219,
              -47.352025
            ],
            [
              -62.802755,
              -47.492611
            ],
            [
              -62.769168,
              -47.631626
            ],
            [
              -62.715779,
              -47.767731
            ],
            [
              -62.643103,
              -47.899617
            ],
            [
              -62.551841,
              -48.026011
            ],
            [
              -62.44287,
              -48.145699
            ],
            [
              -62.317241,
              -48.257526
            ],
            [
              -62.176163,
              -48.360415
            ],
            [
              -62.020995,
              -48.453377
            ],
            [
              -61.853231,
              -48.535515
            ],
            [
              -61.674488,
              -48.606039
            ],
            [
              -61.486485,
              -48.664269
            ],
            [
              -61.291034,
              -48.709645
            ],
            [
              -61.090018,
              -48.741729
            ],
            [
              -60.885372,
              -48.760213
            ],
            [
              -60.679067,
              -48.764918
            ],
            [
              -60.473089,
              -48.7558
            ],
            [
              -60.269423,
              -48.732946
            ],
            [
              -60.07003,
              -48.696576
            ],
            [
              -59.87683,
              -48.64704
            ],
            [
              -59.691683,
              -48.584816
            ],
            [
              -59.516374,
              -48.510503
            ],
            [
              -59.35259,
              -48.424816
            ],
            [
              -59.201908,
              -48.328581
            ],
            [
              -59.06578,
              -48.222724
            ],
            [
              -58.945516,
              -48.108265
            ],
            [
              -58.842275,
              -47.986306
            ],
            [
              -58.757052,
              -47.858022
            ],
            [
              -58.690666,
              -47.724649
            ],
            [
              -58.643757,
              -47.58747
            ],
            [
              -58.616777,
              -47.447806
            ],
            [
              -58.609986,
              -47.307004
            ],
            [
              -58.62345,
              -47.166418
            ],
            [
              -58.657037,
              -47.027403
            ],
            [
              -58.710426,
              -46.891297
            ],
            [
              -58.783102,
              -46.759412
            ],
            [
              -58.874364,
              -46.633017
            ],
            [
              -58.983335,
              -46.51333
            ],
            [
              -59.108964,
              -46.401503
            ],
            [
              -59.250042,
              -46.298613
            ],
            [
              -59.40521,
              -46.205651
            ],
            [
              -59.572974,
              -46.123513
            ],
            [
              -59.751717,
              -46.05299
            ],
            [
              -59.93972,
              -45.994759
            ],
            [
              -60.135171,
              -45.949384
            ],
            [
              -60.336187,
              -45.9173
            ],
            [
              -60.540833,
              -45.898816
            ],
            [
              -60.747138,
              -45.89411
            ],
            [
              -60.953116,
              -45.903229
            ],
            [
              -61.156782,
              -45.926083
            ],
            [
              -61.356175,
              -45.962453
            ],
            [
              -61.549375,
              -46.011988
            ],
            [
              -61.734522,
              -46.074212
            ],
            [
              -61.909831,
              -46.148526
            ]
          ]
        ],
        "type": "Polygon"
      },
      "properties": {
        "kind": "reachableSet",
        "observationStatus": "estimated",
        "vessel": "A"
      },
      "type": "Feature"
    },
    {
      "geometry": {
        "coordinates": [
          [
            [
              -61.586375,
              -46.041185
            ],
            [
              -61.758809,
              -46.104683
            ],
            [
              -61.921299,
              -46.179424
            ],
            [
              -62.072282,
              -46.264688
            ],
            [
              -62.210303,
              -46.359653
            ],
            [
              -62.334032,
              -46.463406
            ],
            [
              -62.442279,
              -46.574947
            ],
            [
              -62.534,
              -46.693201
            ],
            [
              -62.608314,
              -46.817031
            ],
            [
              -62.664502,
              -46.945243
            ],
            [
              -62.702026,
              -47.076603
            ],
            [
              -62.720523,
              -47.209846
            ],
            [
              -62.719815,
              -47.343688
            ],
            [
              -62.699909,
              -47.47684
            ],
            [
              -62.660996,
              -47.608021
            ],
            [
              -62.603452,
              -47.735966
            ],
            [
              -62.527831,
              -47.859444
            ],
            [
              -62.43486,
              -47.977266
            ],
            [
              -62.325436,
              -48.088296
            ],
            [
              -62.200612,
              -48.191465
            ],
            [
              -62.06159,
              -48.285781
            ],
            [
              -61.909709,
              -48.370334
            ],
            [
              -61.746432,
              -48.444311
            ],
            [
              -61.573331,
              -48.506998
            ],
            [
              -61.392073,
              -48.557793
            ],
            [
              -61.204404,
              -48.596205
            ],
            [
              -61.012131,
              -48.621865
            ],
            [
              -60.817106,
              -48.634527
            ],
            [
              -60.621208,
              -48.634067
            ],
            [
              -60.426322,
              -48.620491
            ],
            [
              -60.234325,
              -48.593929
            ],
            [
              -60.047067,
              -48.554637
            ],
            [
              -59.866351,
              -48.502993
            ],
            [
              -59.693918,
              -48.439495
            ],
            [
              -59.531427,
              -48.364755
            ],
            [
              -59.380445,
              -48.279491
            ],
            [
              -59.242424,
              -48.184525
            ],
            [
              -59.118695,
              -48.080772
            ],
            [
              -59.010448,
              -47.969232
            ],
            [
              -58.918726,
              -47.850977
            ],
            [
              -58.844413,
              -47.727147
            ],
            [
              -58.788224,
              -47.598935
            ],
            [
              -58.750701,
              -47.467575
            ],
            [
              -58.732204,
              -47.334332
            ],
            [
              -58.732912,
              -47.200491
            ],
            [
              -58.752818,
              -47.067338
            ],
            [
              -58.79173,
              -46.936157
            ],
            [
              -58.849274,
              -46.808212
            ],
            [
              -58.924896,
              -46.684734
            ],
            [
              -59.017866,
              -46.566913
            ],
            [
              -59.12729,
              -46.455883
            ],
            [
              -59.252115,
              -46.352713
            ],
            [
              -59.391137,
              -46.258397
            ],
            [
              -59.543018,
              -46.173844
            ],
            [
              -59.706295,
              -46.099868
            ],
            [
              -59.879396,
              -46.03718
            ],
            [
              -60.060654,
              -45.986386
            ],
            [
              -60.248323,
              -45.947973
            ],
            [
              -60.440595,
              -45.922313
            ],
            [
              -60.63562,
              -45.909651
            ],
            [
              -60.831519,
              -45.910111
            ],
            [
              -61.026405,
              -45.923687
            ],
            [
              -61.218401,
              -45.950249
            ],
            [
              -61.405659,
              -45.989541
            ],
            [
              -61.586375,
              -46.041185
            ]
          ]
        ],
        "type": "Polygon"
      },
      "properties": {
        "kind": "reachableSet",
        "observationStatus": "estimated",
        "vessel": "B"
      },
      "type": "Feature"
    }
  ],
  "properties": {
    "dateline": false
  },
  "type": "FeatureCollection"
}
