{
  "features": [
    {
      "geometry": {
        "coordinates": [
          -60.69424,
          -46.354307
        ],
        "type": "Point"
      },
      "properties": {
        "mmsi": "412421144",
        "observationStatus": "observed",
        "role": "off",
        "time": "2019-02-15T19:34:24Z",
        "vessel": "A"
      },
      "type": "Feature"
    },
    {
      "geometry": {
        "coordinates": [
          -60.818382,
          -46.336775
        ],
        "type": "Point"
      },
      "properties": {
        "mmsi": "412420801",
        "observationStatus": "observed",
        "role": "off",
        "time": "2019-02-15T20:05:23Z",
        "vessel": "B"
      },
      "type": "Feature"
    },
    {
      "geometry": {
        "coordinates": [
          -60.831993,
          -46.399708
        ],
        "type": "Point"
      },
      "properties": {
        "mmsi": "412420801",
        "observationStatus": "observed",
        "role": "on",
        "time": "2019-02-16T09:40:29Z",
        "vessel": "B"
      },
      "type": "Feature"
    },
    {
      "geometry": {
        "coordinates": [
          -60.816667,
          -46.383973
        ],
        "type": "Point"
      },
      "properties": {
        "mmsi": "412421144",
        "observationStatus": "observed",
        "role": "on",
        "time": "2019-02-16T09:46:17Z",
        "vessel": "A"
      },
      "type": "Feature"
    },
    {
      "geometry": {
        "coordinates": [
          [
            -60.69424,
            -46.354307
          ],
          [
            -60.822495,
            -46.353776
          ],
          [
            -60.816667,
            -46.383973
          ]
        ],
        "type": "LineString"
      },
      "properties": {
        "confidence": "low",
        "lineStyle": "dashed",
        "observationStatus": "estimated",
        "source": "reachable-set heuristic",
        "vessel": "A"
      },
      "type": "Feature"
    },
    {
      "geometry": {
        "coordinates": [
          [
            -60.818382,
            -46.336775
          ],
          [
            -60.822495,
            -46.353776
          ],
          [
            -60.831993,
            -46.399708
          ]
        ],
        "type": "LineString"
      },
      "properties": {
        "confidence": "low",
        "lineStyle": "dashed",
        "observationStatus": "estimated",
        "source": "reachable-set heuristic",
        "vessel": "B"
      },
      "type": "Feature"
    },
    {
      "geometry": {
        "coordinates": [
          -60.822495,
          -46.353776
        ],
        "type": "Point"
      },
      "properties": {
        "kind": "meetingPoint",
        "observationStatus": "estimated"
      },
      "type": "Feature"
    },
    {
      "geometry": {
        "coordinates": [
          [
            [
              -62.558223,
              -46.805991
            ],
            [
              -62.487941,
              -46.92657
            ],
            [
              -62.400973,
              -47.04178
            ],
            [
              -62.298158,
              -47.150513
            ],
            [
              -62.180487,
              -47.251721
            ],
            [
              -62.049091,
              -47.344429
            ],
            [
              -61.905237,
              -47.427744
            ],
            [
              -61.75031,
              -47.500865
            ],
            [
              -61.585802,
              -47.563086
            ],
            [
              -61.413297,
              -47.613809
            ],
            [
              -61.234456,
              -47.652545
            ],
            [
              -61.051003,
              -47.678921
            ],
            [
              -60.864704,
              -47.692684
            ],
            [
              -60.677352,
              -47.693699
            ],
            [
              -60.490752,
              -47.681959
            ],
            [
              -60.306702,
              -47.657576
            ],
            [
              -60.126973,
              -47.620784
            ],
            [
              -59.953297,
              -47.571938
            ],
            [
              -59.787346,
              -47.511508
            ],
            [
              -59.630719,
              -47.440077
            ],
            [
              -59.484923,
              -47.358333
            ],
            [
              -59.351364,
              -47.267061
            ],
            [
              -59.231326,
              -47.167143
            ],
            [
              -59.125967,
              -47.059539
            ],
            [
              -59.0363,
              -46.945286
            ],
            [
              -58.96319,
              -46.825484
            ],
            [
              -58.90734,
              -46.701288
            ],
            [
              -58.869289,
              -46.573893
            ],
            [
              -58.849402,
              -46.444526
            ],
            [
              -58.847872,
              -46.314433
            ],
            [
              -58.864713,
              -46.184867
            ],
            [
              -58.899762,
              -46.057075
            ],
            [
              -58.952683,
              -45.932289
            ],
            [
              -59.022966,
              -45.81171
            ],
            [
              -59.109934,
              -45.6965
            ],
            [
              -59.212748,
              -45.587767
            ],
            [
              -59.33042,
              -45.486559
            ],
            [
              -59.461816,
              -45.393851
            ],
            [
              -59.60567,
              -45.310536
            ],
            [
              -59.760597,
              -45.237415
            ],
            [
              -59.925105,
              -45.175194
            ],
            [
              -60.09761,
              -45.124471
            ],
            [
              -60.27645,
              -45.085735
            ],
            [
              -60.459904,
              -45.059359
            ],
            [
              -60.646203,
              -45.045596
            ],
            [
              -60.833555,
              -45.044581
            ],
            [
              -61.020154,
              -45.056321
            ],
            [
              -61.204205,
              -45.080704
            ],
            [
              -61.383933,
              -45.117496
            ],
            [
              -61.55761,
              -45.166342
            ],
            [
              -61.72356,
              -45.226772
            ],
            [
              -61.880188,
              -45.298203
            ],
            [
              -62.025983,
              -45.379947
            ],
            [
              -62.159543,
              -45.471219
            ],
            [
              -62.279581,
              -45.571137
            ],
            [
              -62.38494,
              -45.678741
            ],
            [
              -62.474607,
              -45.792994
            ],
            [
              -62.547717,
              -45.912796
            ],
            [
              -62.603567,
              -46.036992
            ],
            [
              -62.641618,
              -46.164387
            ],
            [
              -62.661504,
              -46.293754
            ],
            [
              -62.663035,
              -46.423847
            ],
            [
              -62.646194,
              -46.553413
            ],
            [
              -62.611144,
              -46.681205
            ],
            [
              -62.558223,
              -46.805991
            ]
          ]
        ],
        "type": "Polygon"
      },
      "properties": {
        "kind": "reachableSet",
        "observationStatus": "estimated",
        "vessel": "A"
      },
      "type": "Feature"
    },
    {
      "geometry": {
        "coordinates": [
          [
            [
              -61.095702,
              -47.618962
            ],
            [
              -60.917988,
              -47.631354
            ],
            [
              -60.73938,
              -47.631581
            ],
            [
              -60.561599,
              -47.619641
            ],
            [
              -60.386356,
              -47.59565
            ],
            [
              -60.21534,
              -47.559839
            ],
            [
              -60.050196,
              -47.512551
            ],
            [
              -59.892516,
              -47.454243
            ],
            [
              -59.743818,
              -47.385477
            ],
            [
              -59.605535,
              -47.306914
            ],
            [
              -59.478997,
              -47.219311
            ],
            [
              -59.365424,
              -47.123511
            ],
            [
              -59.265909,
              -47.020438
            ],
            [
              -59.181411,
              -46.911085
            ],
            [
              -59.112743,
              -46.796503
            ],
            [
              -59.060567,
              -46.677796
            ],
            [
              -59.025386,
              -46.556109
            ],
            [
              -59.007537,
              -46.432612
            ],
            [
              -59.007194,
              -46.308496
            ],
            [
              -59.024358,
              -46.184955
            ],
            [
              -59.058866,
              -46.063179
            ],
            [
              -59.110384,
              -45.94434
            ],
            [
              -59.178417,
              -45.829585
            ],
            [
              -59.262309,
              -45.720017
            ],
            [
              -59.361253,
              -45.616691
            ],
            [
              -59.474295,
              -45.520604
            ],
            [
              -59.600347,
              -45.432679
            ],
            [
              -59.738194,
              -45.353765
            ],
            [
              -59.88651,
              -45.28462
            ],
            [
              -60.043866,
              -45.225912
            ],
            [
              -60.208747,
              -45.178205
            ],
            [
              -60.379564,
              -45.141958
            ],
            [
              -60.554673,
              -45.117521
            ],
            [
              -60.732387,
              -45.10513
            ],
            [
              -60.910995,
              -45.104902
            ],
            [
              -61.088776,
              -45.116842
            ],
            [
              -61.264019,
              -45.140833
            ],
            [
              -61.435035,
              -45.176645
            ],
            [
              -61.600179,
              -45.223932
            ],
            [
              -61.757859,
              -45.28224
            ],
            [
              -61.906557,
              -45.351006
            ],
            [
              -62.04484,
              -45.42957
            ],
            [
              -62.171378,
              -45.517173
            ],
            [
              -62.284951,
              -45.612972
            ],
            [
              -62.384466,
              -45.716045
            ],
            [
              -62.468964,
              -45.825399
            ],
            [
              -62.537632,
              -45.939981
            ],
            [
              -62.589808,
              -46.058687
            ],
            [
              -62.624989,
              -46.180374
            ],
            [
              -62.642838,
              -46.303871
            ],
            [
              -62.643181,
              -46.427988
            ],
            [
              -62.626017,
              -46.551529
            ],
            [
              -62.591509,
              -46.673305
            ],
            [
              -62.539991,
              -46.792143
            ],
            [
              -62.471958,
              -46.906899
            ],
            [
              -62.388066,
              -47.016467
            ],
            [
              -62.289122,
              -47.119792
            ],
            [
              -62.17608,
              -47.21588
            ],
            [
              -62.050028,
              -47.303804
            ],
            [
              -61.912181,
              -47.382719
            ],
            [
              -61.763865,
              -47.451863
            ],
            [
              -61.606509,
              -47.510571
            ],
            [
              -61.441628,
              -47.558279
            ],
            [
              -61.270811,
              -47.594525
            ],
            [
              -61.095702,
              -47.618962
            ]
          ]
        ],
        "type": "Polygon"
      },
      "properties": {
        "kind": "reachableSet",
        "observationStatus": "estimated",
        "vessel": "B"
      },
      "type": "Feature"
    }
  ],
  "properties": {
    "dateline": false
  },
  "type": "FeatureCollection"
}
