{
  "features": [
    {
      "geometry": {
        "coordinates": [
          -57.682145,
          -42.054848
        ],
        "type": "Point"
      },
      "properties": {
        "mmsi": "412329686",
        "observationStatus": "observed",
        "role": "off",
        "time": "2019-05-17T04:26:37Z",
        "vessel": "A"
      },
      "type": "Feature"
    },
    {
      "geometry": {
        "coordinates": [
          -57.67659,
          -42.024637
        ],
        "type": "Point"
      },
      "properties": {
        "mmsi": "412329689",
        "observationStatus": "observed",
        "role": "off",
        "time": "2019-05-17T05:04:25Z",
        "vessel": "B"
      },
      "type": "Feature"
    },
    {
      "geometry": {
        "coordinates": [
          -57.884667,
          -42.02272
        ],
        "type": "Point"
      },
      "properties": {
        "mmsi": "412329686",
        "observationStatus": "observed",
        "role": "on",
        "time": "2019-05-17T22:06:05Z",
        "vessel": "A"
      },
      "type": "Feature"
    },
    {
      "geometry": {
        "coordinates": [
          -57.92096,
          -42.018747
        ],
        "type": "Point"
      },
      "properties": {
        "mmsi": "412329689",
        "observationStatus": "observed",
        "role": "on",
        "time": "2019-05-17T22:14:56Z",
        "vessel": "B"
      },
      "type": "Feature"
    },
    {
      "geometry": {
        "coordinates": [
          [
            -57.682145,
            -42.054848
          ],
          [
            -57.833481,
            -42.021821
          ],
          [
            -57.884667,
            -42.02272
          ]
        ],
        "type": "LineString"
      },
      "properties": {
        "confidence": "low",
        "lineStyle": "dashed",
        "observationStatus": "estimated",
        "source": "reachable-set heuristic",
        "vessel": "A"
      },
      "type": "Feature"
    },
    {
      "geometry": {
        "coordinates": [
          [
            -57.67659,
            -42.024637
          ],
          [
            -57.833481,
            -42.021821
          ],
          [
            -57.92096,
            -42.018747
          ]
        ],
        "type": "LineString"
      },
      "properties": {
        "confidence": "low",
        "lineStyle": "dashed",
        "observationStatus": "estimated",
        "source": "reachable-set heuristic",
        "vessel": "B"
      },
      "type": "Feature"
    },
    {
      "geometry": {
        "coordinates": [
          -57.833481,
          -42.021821
        ],
        "type": "Point"
      },
      "properties": {
        "kind": "meetingPoint",
        "observationStatus": "estimated"
      },
      "type": "Feature"
    },
    {
      "geometry": {
        "coordinates": [
          [
            [
              -60.156028,
              -41.662388
            ],
            [
              -60.193899,
              -41.837932
            ],
            [
              -60.208555,
              -42.015411
            ],
            [
              -60.199856,
              -42.193114
            ],
            [
              -60.167885,
              -42.369332
            ],
            [
              -60.11295,
              -42.542366
            ],
            [
              -60.035581,
              -42.71055
            ],
            [
              -59.936521,
              -42.872265
            ],
            [
              -59.816726,
              -43.025953
            ],
            [
              -59.677349,
              -43.170133
            ],
            [
              -59.519733,
              -43.303419
            ],
            [
              -59.345394,
              -43.424525
            ],
            [
              -59.156013,
              -43.532286
            ],
            [
              -58.953413,
              -43.625664
            ],
            [
              -58.739545,
              -43.703759
            ],
            [
              -58.516469,
              -43.765819
            ],
            [
              -58.286333,
              -43.811247
            ],
            [
              -58.051353,
              -43.839606
            ],
            [
              -57.813794,
              -43.850621
            ],
            [
              -57.575941,
              -43.844188
            ],
            [
              -57.340087,
              -43.820367
            ],
            [
              -57.108501,
              -43.779389
            ],
            [
              -56.883416,
              -43.721648
            ],
            [
              -56.666998,
              -43.6477
            ],
            [
              -56.461332,
              -43.558257
            ],
            [
              -56.268397,
              -43.454181
            ],
            [
              -56.090054,
              -43.336474
            ],
            [
              -55.928018,
              -43.206269
            ],
            [
              -55.78385,
              -43.064821
            ],
            [
              -55.65894,
              -42.913492
            ],
            [
              -55.554489,
              -42.753739
            ],
            [
              -55.471504,
              -42.5871
            ],
            [
              -55.410783,
              -42.41518
            ],
            [
              -55.372913,
              -42.239636
            ],
            [
              -55.358256,
              -42.062158
            ],
            [
              -55.366956,
              -41.884454
            ],
            [
              -55.398927,
              -41.708237
            ],
            [
              -55.453861,
              -41.535203
            ],
            [
              -55.531231,
              -41.367018
            ],
            [
              -55.63029,
              -41.205304
            ],
            [
              -55.750085,
              -41.051616
            ],
            [
              -55.889462,
              -40.907435
            ],
            [
              -56.047079,
              -40.774149
            ],
            [
              -56.221417,
              -40.653043
            ],
            [
              -56.410799,
              -40.545282
            ],
            [
              -56.613399,
              -40.451905
            ],
            [
              -56.827267,
              -40.37381
            ],
            [
              -57.050343,
              -40.311749
            ],
            [
              -57.280479,
              -40.266321
            ],
            [
              -57.515458,
              -40.237963
            ],
            [
              -57.753018,
              -40.226947
            ],
            [
              -57.990871,
              -40.233381
            ],
            [
              -58.226725,
              -40.257201
            ],
            [
              -58.45831,
              -40.298179
            ],
            [
              -58.683396,
              -40.35592
            ],
            [
              -58.899814,
              -40.429868
            ],
            [
              -59.10548,
              -40.519311
            ],
            [
              -59.298414,
              -40.623387
            ],
            [
              -59.476758,
              -40.741094
            ],
            [
              -59.638794,
              -40.871299
            ],
            [
              -59.782961,
              -41.012747
            ],
            [
              -59.907872,
              -41.164076
            ],
            [
              -60.012323,
              -41.32383
            ],
            [
              -60.095308,
              -41.490469
            ],
            [
              -60.156028,
              -41.662388
            ]
          ]
        ],
        "type": "Polygon"
      },
      "properties": {
        "kind": "reachableSet",
        "observationStatus": "estimated",
        "vessel": "A"
      },
      "type": "Feature"
    },
    {
      "geometry": {
        "coordinates": [
          [
            [
              -60.152101,
              -41.96497
            ],
            [
              -60.148193,
              -42.137533
            ],
            [
              -60.121658,
              -42.30898
            ],
            [
              -60.072753,
              -42.47766
            ],
            [
              -60.001948,
              -42.64195
            ],
            [
              -59.909925,
              -42.800265
            ],
            [
              -59.797571,
              -42.951083
            ],
            [
              -59.665967,
              -43.09295
            ],
            [
              -59.516381,
              -43.224501
            ],
            [
              -59.350254,
              -43.344467
            ],
            [
              -59.169185,
              -43.451695
            ],
            [
              -58.974918,
              -43.545151
            ],
            [
              -58.769325,
              -43.623935
            ],
            [
              -58.554384,
              -43.687289
            ],
            [
              -58.332167,
              -43.734602
            ],
            [
              -58.104813,
              -43.765418
            ],
            [
              -57.874511,
              -43.779442
            ],
            [
              -57.64348,
              -43.776538
            ],
            [
              -57.413945,
              -43.756733
            ],
            [
              -57.188115,
              -43.720219
            ],
            [
              -56.968167,
              -43.667348
            ],
            [
              -56.756218,
              -43.598628
            ],
            [
              -56.554309,
              -43.514721
            ],
            [
              -56.364385,
              -43.416435
            ],
            [
              -56.188275,
              -43.304717
            ],
            [
              -56.027676,
              -43.180643
            ],
            [
              -55.884132,
              -43.045408
            ],
            [
              -55.759028,
              -42.900314
            ],
            [
              -55.653568,
              -42.746758
            ],
            [
              -55.568767,
              -42.586219
            ],
            [
              -55.505443,
              -42.420244
            ],
            [
              -55.464204,
              -42.25043
            ],
            [
              -55.445449,
              -42.078413
            ],
            [
              -55.449357,
              -41.905851
            ],
            [
              -55.475892,
              -41.734403
            ],
            [
              -55.524797,
              -41.565723
            ],
            [
              -55.595602,
              -41.401434
            ],
            [
              -55.687625,
              -41.243118
            ],
            [
              -55.799979,
              -41.0923
            ],
            [
              -55.931583,
              -40.950433
            ],
            [
              -56.081169,
              -40.818883
            ],
            [
              -56.247296,
              -40.698916
            ],
            [
              -56.428365,
              -40.591688
            ],
            [
              -56.622632,
              -40.498233
            ],
            [
              -56.828225,
              -40.419448
            ],
            [
              -57.043166,
              -40.356095
            ],
            [
              -57.265383,
              -40.308782
            ],
            [
              -57.492737,
              -40.277965
            ],
            [
              -57.723039,
              -40.263941
            ],
            [
              -57.95407,
              -40.266846
            ],
            [
              -58.183605,
              -40.28665
            ],
            [
              -58.409435,
              -40.323164
            ],
            [
              -58.629383,
              -40.376035
            ],
            [
              -58.841332,
              -40.444756
            ],
            [
              -59.043241,
              -40.528663
            ],
            [
              -59.233165,
              -40.626948
            ],
            [
              -59.409275,
              -40.738666
            ],
            [
              -59.569874,
              -40.86274
            ],
            [
              -59.713418,
              -40.997975
            ],
            [
              -59.838522,
              -41.14307
            ],
            [
              -59.943982,
              -41.296626
            ],
            [
              -60.028783,
              -41.457164
            ],
            [
              -60.092107,
              -41.62314
            ],
            [
              -60.133346,
              -41.792953
            ],
            [
              -60.152101,
              -41.96497
            ]
          ]
        ],
        "type": "Polygon"
      },
      "properties": {
        "kind": "reachableSet",
        "observationStatus": "estimated",
        "vessel": "B"
      },
      "type": "Feature"
    }
  ],
  "properties": {
    "dateline": false
  },
  "type": "FeatureCollection"
}
