{
  "features": [
    {
      "geometry": {
        "coordinates": [
          160.518787,
          47.903087
        ],
        "type": "Point"
      },
      "properties": {
        "mmsi": "416004981",
        "observationStatus": "observed",
        "role": "off",
        "time": "2018-08-04T03:03:00Z",
        "vessel": "A"
      },
      "type": "Feature"
    },
    {
      "geometry": {
        "coordinates": [
          160.507427,
          47.852647
        ],
        "type": "Point"
      },
      "properties": {
        "mmsi": "416251900",
        "observationStatus": "observed",
        "role": "off",
        "time": "2018-08-04T03:03:41Z",
        "vessel": "B"
      },
      "type": "Feature"
    },
    {
      "geometry": {
        "coordinates": [
          160.329107,
          47.402387
        ],
        "type": "Point"
      },
      "properties": {
        "mmsi": "416251900",
        "observationStatus": "observed",
        "role": "on",
        "time": "2018-08-04T17:57:38Z",
        "vessel": "B"
      },
      "type": "Feature"
    },
    {
      "geometry": {
        "coordinates": [
          160.318667,
          47.34681
        ],
        "type": "Point"
      },
      "properties": {
        "mmsi": "416004981",
        "observationStatus": "observed",
        "role": "on",
        "time": "2018-08-04T17:58:39Z",
        "vessel": "A"
      },
      "type": "Feature"
    },
    {
      "geometry": {
        "coordinates": [
          [
            160.518787,
            47.903087
          ],
          [
            160.418727,
            47.624948
          ],
          [
            160.318667,
            47.34681
          ]
        ],
        "type": "LineString"
      },
      "properties": {
        "confidence": "low",
        "lineStyle": "dashed",
        "observationStatus": "estimated",
        "source": "reachable-set heuristic",
        "vessel": "A"
      },
      "type": "Feature"
    },
    {
      "geometry": {
        "coordinates": [
          [
            160.507427,
            47.852647
          ],
          [
            160.418727,
            47.624948
          ],
          [
            160.329107,
            47.402387
          ]
        ],
        "type": "LineString"
      },
      "properties": {
        "confidence": "low",
        "lineStyle": "dashed",
        "observationStatus": "estimated",
        "source": "reachable-set heuristic",
        "vessel": "B"
      },
      "type": "Feature"
    },
    {
      "geometry": {
        "coordinates": [
          160.418727,
          47.624948
        ],
        "type": "Point"
      },
      "properties": {
        "kind": "meetingPoint",
        "observationStatus": "estimated"
      },
      "type": "Feature"
    },
    {
      "geometry": {
        "coordinates": [
          [
            [
              159.929558,
              46.265197
            ],
            [
              160.124177,
              46.239898
            ],
            [
              160.321632,
              46.227938
            ],
            [
              160.520023,
              46.229432
            ],
            [
              160.717438,
              46.244365
            ],
            [
              160.911976,
              46.272594
            ],
            [
              161.101765,
              46.313847
            ],
            [
              161.284975,
              46.367727
            ],
            [
              161.459842,
              46.433714
            ],
            [
              161.624684,
              46.511174
            ],
            [
              161.777911,
              46.59936
            ],
            [
              161.918048,
              46.697422
            ],
            [
              162.043746,
              46.804418
            ],
            [
              162.153795,
              46.919315
            ],
            [
              162.247133,
              47.041009
            ],
            [
              162.322863,
              47.168325
            ],
            [
              162.380256,
              47.30004
            ],
            [
              162.418757,
              47.434883
            ],
            [
              162.437998,
              47.571557
            ],
            [
              162.437791,
              47.708745
            ],
            [
              162.41814,
              47.845126
            ],
            [
              162.379234,
              47.979387
            ],
            [
              162.321446,
              48.110234
            ],
            [
              162.245335,
              48.236407
            ],
            [
              162.151632,
              48.356692
            ],
            [
              162.04124,
              48.46993
            ],
            [
              161.915223,
              48.57503
            ],
            [
              161.774794,
              48.670981
            ],
            [
              161.621305,
              48.756857
            ],
            [
              161.456234,
              48.831833
            ],
            [
              161.281172,
              48.895186
            ],
            [
              161.097804,
              48.946305
            ],
            [
              160.907896,
              48.984699
            ],
            [
              160.713277,
              49.009998
            ],
            [
              160.515821,
              49.021959
            ],
            [
              160.31743,
              49.020465
            ],
            [
              160.120015,
              49.005532
            ],
            [
              159.925477,
              48.977302
            ],
            [
              159.735689,
              48.936049
            ],
            [
              159.552479,
              48.88217
            ],
            [
              159.377611,
              48.816183
            ],
            [
              159.21277,
              48.738723
            ],
            [
              159.059543,
              48.650537
            ],
            [
              158.919405,
              48.552474
            ],
            [
              158.793707,
              48.445479
            ],
            [
              158.683659,
              48.330581
            ],
            [
              158.59032,
              48.208888
            ],
            [
              158.51459,
              48.081571
            ],
            [
              158.457198,
              47.949857
            ],
            [
              158.418696,
              47.815013
            ],
            [
              158.399456,
              47.67834
            ],
            [
              158.399662,
              47.541152
            ],
            [
              158.419313,
              47.404771
            ],
            [
              158.45822,
              47.27051
            ],
            [
              158.516007,
              47.139663
            ],
            [
              158.592119,
              47.013489
            ],
            [
              158.685821,
              46.893204
            ],
            [
              158.796213,
              46.779966
            ],
            [
              158.92223,
              46.674866
            ],
            [
              159.06266,
              46.578916
            ],
            [
              159.216149,
              46.493039
            ],
            [
              159.381219,
              46.418064
            ],
            [
              159.556281,
              46.354711
            ],
            [
              159.73965,
              46.303592
            ],
            [
              159.929558,
              46.265197
            ]
          ]
        ],
        "type": "Polygon"
      },
      "properties": {
        "kind": "reachableSet",
        "observationStatus": "estimated",
        "vessel": "A"
      },
      "type": "Feature"
    },
    {
      "geometry": {
        "coordinates": [
          [
            [
              159.884022,
              46.278542
            ],
            [
              160.078731,
              46.250005
            ],
            [
              160.27671,
              46.234735
            ],
            [
              160.476052,
              46.232877
            ],
            [
              160.674838,
              46.244451
            ],
            [
              160.871152,
              46.269345
            ],
            [
              161.063106,
              46.307318
            ],
            [
              161.248849,
              46.358006
            ],
            [
              161.426593,
              46.420919
            ],
            [
              161.594626,
              46.495453
            ],
            [
              161.751331,
              46.58089
            ],
            [
              161.895197,
              46.676406
            ],
            [
              162.02484,
              46.781081
            ],
            [
              162.13901,
              46.893908
            ],
            [
              162.236609,
              47.013801
            ],
            [
              162.316696,
              47.139603
            ],
            [
              162.3785,
              47.270105
            ],
            [
              162.421426,
              47.404049
            ],
            [
              162.445061,
              47.540144
            ],
            [
              162.449176,
              47.677082
            ],
            [
              162.433733,
              47.813542
            ],
            [
              162.39888,
              47.94821
            ],
            [
              162.344952,
              48.07979
            ],
            [
              162.272469,
              48.207014
            ],
            [
              162.182129,
              48.328658
            ],
            [
              162.074803,
              48.443549
            ],
            [
              161.951523,
              48.550581
            ],
            [
              161.813476,
              48.648723
            ],
            [
              161.661994,
              48.737031
            ],
            [
              161.498533,
              48.814654
            ],
            [
              161.324669,
              48.880843
            ],
            [
              161.142076,
              48.934963
            ],
            [
              160.952512,
              48.976491
            ],
            [
              160.757803,
              49.005028
            ],
            [
              160.559824,
              49.020299
            ],
            [
              160.360481,
              49.022156
            ],
            [
              160.161696,
              49.010582
            ],
            [
              159.965381,
              48.985689
            ],
            [
              159.773428,
              48.947715
            ],
            [
              159.587685,
              48.897028
            ],
            [
              159.40994,
              48.834114
            ],
            [
              159.241907,
              48.75958
            ],
            [
              159.085203,
              48.674144
            ],
            [
              158.941336,
              48.578628
            ],
            [
              158.811694,
              48.473952
            ],
            [
              158.697523,
              48.361125
            ],
            [
              158.599924,
              48.241233
            ],
            [
              158.519837,
              48.11543
            ],
            [
              158.458033,
              47.984928
            ],
            [
              158.415107,
              47.850985
            ],
            [
              158.391472,
              47.714889
            ],
            [
              158.387357,
              47.577952
            ],
            [
              158.4028,
              47.441492
            ],
            [
              158.437654,
              47.306823
            ],
            [
              158.491581,
              47.175243
            ],
            [
              158.564064,
              47.048019
            ],
            [
              158.654404,
              46.926376
            ],
            [
              158.761731,
              46.811485
            ],
            [
              158.885011,
              46.704453
            ],
            [
              159.023057,
              46.60631
            ],
            [
              159.17454,
              46.518002
            ],
            [
              159.338,
              46.44038
            ],
            [
              159.511864,
              46.37419
            ],
            [
              159.694458,
              46.32007
            ],
            [
              159.884022,
              46.278542
            ]
          ]
        ],
        "type": "Polygon"
      },
      "properties": {
        "kind": "reachableSet",
        "observationStatus": "estimated",
        "vessel": "B"
      },
      "type": "Feature"
    }
  ],
  "properties": {
    "dateline": false
  },
  "type": "FeatureCollection"
}
