{
  "features": [
    {
      "geometry": {
        "coordinates": [
          162.280437,
          42.531647
        ],
        "type": "Point"
      },
      "properties": {
        "mmsi": "412439762",
        "observationStatus": "observed",
        "role": "off",
        "time": "2019-09-20T05:08:24Z",
        "vessel": "A"
      },
      "type": "Feature"
    },
    {
      "geometry": {
        "coordinates": [
          162.265962,
          42.536418
        ],
        "type": "Point"
      },
      "properties": {
        "mmsi": "412439761",
        "observationStatus": "observed",
        "role": "off",
        "time": "2019-09-20T05:13:18Z",
        "vessel": "B"
      },
      "type": "Feature"
    },
    {
      "geometry": {
        "coordinates": [
          161.917627,
          43.60808
        ],
        "type": "Point"
      },
      "properties": {
        "mmsi": "412439761",
        "observationStatus": "observed",
        "role": "on",
        "time": "2019-09-20T18:41:18Z",
        "vessel": "B"
      },
      "type": "Feature"
    },
    {
      "geometry": {
        "coordinates": [
          161.95944,
          43.620133
        ],
        "type": "Point"
      },
      "properties": {
        "mmsi": "412439762",
        "observationStatus": "observed",
        "role": "on",
        "time": "2019-09-20T18:45:05Z",
        "vessel": "A"
      },
      "type": "Feature"
    },
    {
      "geometry": {
        "coordinates": [
          [
            162.280437,
            42.531647
          ],
          [
            162.050213,
            43.198002
          ],
          [
            161.95944,
            43.620133
          ]
        ],
        "type": "LineString"
      },
      "properties": {
        "confidence": "low",
        "lineStyle": "dashed",
        "observationStatus": "estimated",
        "source": "reachable-set heuristic",
        "vessel": "A"
      },
      "type": "Feature"
    },
    {
      "geometry": {
        "coordinates": [
          [
            162.265962,
            42.536418
          ],
          [
            162.050213,
            43.198002
          ],
          [
            161.917627,
            43.60808
          ]
        ],
        "type": "LineString"
      },
      "properties": {
        "confidence": "low",
        "lineStyle": "dashed",
        "observationStatus": "estimated",
        "source": "reachable-set heuristic",
        "vessel": "B"
      },
      "type": "Feature"
    },
    {
      "geometry": {
        "coordinates": [
          162.050213,
          43.198002
        ],
        "type": "Point"
      },
      "properties": {
        "kind": "meetingPoint",
        "observationStatus": "estimated"
      },
      "type": "Feature"
    },
    {
      "geometry": {
        "coordinates": [
          [
            [
              161.754668,
              44.314508
            ],
            [
              161.60813,
              44.284893
            ],
            [
              161.466521,
              44.243633
            ],
            [
              161.331205,
              44.191128
            ],
            [
              161.203484,
              44.127882
            ],
            [
              161.08459,
              44.054505
            ],
            [
              160.975667,
              43.971704
            ],
            [
              160.877764,
              43.880275
            ],
            [
              160.791823,
              43.7811
            ],
            [
              160.718673,
              43.675133
            ],
            [
              160.659018,
              43.563395
            ],
            [
              160.613432,
              43.446962
            ],
            [
              160.582355,
              43.326955
            ],
            [
              160.566086,
              43.204531
            ],
            [
              160.564781,
              43.080868
            ],
            [
              160.578453,
              42.957157
            ],
            [
              160.60697,
              42.834589
            ],
            [
              160.650059,
              42.714345
            ],
            [
              160.707303,
              42.597583
            ],
            [
              160.778151,
              42.485427
            ],
            [
              160.861921,
              42.378958
            ],
            [
              160.957807,
              42.279201
            ],
            [
              161.064885,
              42.187116
            ],
            [
              161.182124,
              42.10359
            ],
            [
              161.308394,
              42.029429
            ],
            [
              161.44248,
              41.965345
            ],
            [
              161.58309,
              41.911957
            ],
            [
              161.72887,
              41.869777
            ],
            [
              161.878417,
              41.839214
            ],
            [
              162.030289,
              41.82056
            ],
            [
              162.183025,
              41.813996
            ],
            [
              162.335153,
              41.819584
            ],
            [
              162.485209,
              41.837272
            ],
            [
              162.631747,
              41.866887
            ],
            [
              162.773356,
              41.908147
            ],
            [
              162.908672,
              41.960652
            ],
            [
              163.036392,
              42.023898
            ],
            [
              163.155287,
              42.097275
            ],
            [
              163.26421,
              42.180076
            ],
            [
              163.362113,
              42.271505
            ],
            [
              163.448054,
              42.37068
            ],
            [
              163.521204,
              42.476647
            ],
            [
              163.580859,
              42.588385
            ],
            [
              163.626444,
              42.704818
            ],
            [
              163.657521,
              42.824825
            ],
            [
              163.673791,
              42.947249
            ],
            [
              163.675096,
              43.070912
            ],
            [
              163.661424,
              43.194623
            ],
            [
              163.632906,
              43.317191
            ],
            [
              163.589818,
              43.437435
            ],
            [
              163.532574,
              43.554197
            ],
            [
              163.461726,
              43.666353
            ],
            [
              163.377955,
              43.772822
            ],
            [
              163.282069,
              43.872579
            ],
            [
              163.174992,
              43.964664
            ],
            [
              163.057753,
              44.04819
            ],
            [
              162.931483,
              44.122351
            ],
            [
              162.797397,
              44.186435
            ],
            [
              162.656787,
              44.239823
            ],
            [
              162.511006,
              44.282003
            ],
            [
              162.36146,
              44.312566
            ],
            [
              162.209587,
              44.33122
            ],
            [
              162.056851,
              44.337784
            ],
            [
              161.904723,
              44.332196
            ],
            [
              161.754668,
              44.314508
            ]
          ]
        ],
        "type": "Polygon"
      },
      "properties": {
        "kind": "reachableSet",
        "observationStatus": "estimated",
        "vessel": "A"
      },
      "type": "Feature"
    },
    {
      "geometry": {
        "coordinates": [
          [
            [
              161.695719,
              44.290784
            ],
            [
              161.55177,
              44.259273
            ],
            [
              161.413021,
              44.216331
            ],
            [
              161.280809,
              44.16237
            ],
            [
              161.156408,
              44.097911
            ],
            [
              161.041015,
              44.023575
            ],
            [
              160.935741,
              43.940076
            ],
            [
              160.841601,
              43.84822
            ],
            [
              160.759501,
              43.748891
            ],
            [
              160.690231,
              43.643046
            ],
            [
              160.63446,
              43.531703
            ],
            [
              160.592723,
              43.415936
            ],
            [
              160.565423,
              43.296859
            ],
            [
              160.552823,
              43.175618
            ],
            [
              160.555044,
              43.053382
            ],
            [
              160.572065,
              42.931328
            ],
            [
              160.603721,
              42.810631
            ],
            [
              160.649709,
              42.692454
            ],
            [
              160.709585,
              42.577934
            ],
            [
              160.782772,
              42.468174
            ],
            [
              160.868566,
              42.364233
            ],
            [
              160.96614,
              42.267109
            ],
            [
              161.074554,
              42.17774
            ],
            [
              161.192766,
              42.096986
            ],
            [
              161.319635,
              42.025623
            ],
            [
              161.453941,
              41.96434
            ],
            [
              161.594389,
              41.913728
            ],
            [
              161.739628,
              41.874272
            ],
            [
              161.888259,
              41.846353
            ],
            [
              162.038849,
              41.830241
            ],
            [
              162.18995,
              41.826089
            ],
            [
              162.340105,
              41.833939
            ],
            [
              162.487869,
              41.853715
            ],
            [
              162.631818,
              41.885225
            ],
            [
              162.770567,
              41.928168
            ],
            [
              162.902779,
              41.982128
            ],
            [
              163.02718,
              42.046587
            ],
            [
              163.142574,
              42.120923
            ],
            [
              163.247847,
              42.204422
            ],
            [
              163.341988,
              42.296278
            ],
            [
              163.424088,
              42.395607
            ],
            [
              163.493357,
              42.501452
            ],
            [
              163.549129,
              42.612795
            ],
            [
              163.590866,
              42.728562
            ],
            [
              163.618165,
              42.84764
            ],
            [
              163.630765,
              42.96888
            ],
            [
              163.628544,
              43.091116
            ],
            [
              163.611524,
              43.21317
            ],
            [
              163.579867,
              43.333867
            ],
            [
              163.533879,
              43.452045
            ],
            [
              163.474004,
              43.566565
            ],
            [
              163.400817,
              43.676324
            ],
            [
              163.315023,
              43.780266
            ],
            [
              163.217449,
              43.877389
            ],
            [
              163.109034,
              43.966758
            ],
            [
              162.990823,
              44.047513
            ],
            [
              162.863953,
              44.118875
            ],
            [
              162.729647,
              44.180158
            ],
            [
              162.589199,
              44.230771
            ],
            [
              162.44396,
              44.270227
            ],
            [
              162.295329,
              44.298145
            ],
            [
              162.144739,
              44.314258
            ],
            [
              161.993638,
              44.318409
            ],
            [
              161.843483,
              44.310559
            ],
            [
              161.695719,
              44.290784
            ]
          ]
        ],
        "type": "Polygon"
      },
      "properties": {
        "kind": "reachableSet",
        "observationStatus": "estimated",
        "vessel": "B"
      },
      "type": "Feature"
    }
  ],
  "properties": {
    "dateline": false
  },
  "type": "FeatureCollection"
}
