{
  "features": [
    {
      "geometry": {
        "coordinates": [
          -60.3384,
          -45.228267
        ],
        "type": "Point"
      },
      "properties": {
        "mmsi": "412329692",
        "observationStatus": "observed",
        "role": "off",
        "time": "2017-12-26T07:13:39Z",
        "vessel": "A"
      },
      "type": "Feature"
    },
    {
      "geometry": {
        "coordinates": [
          -60.325787,
          -45.316298
        ],
        "type": "Point"
      },
      "properties": {
        "mmsi": "412329685",
        "observationStatus": "observed",
        "role": "off",
        "time": "2017-12-26T07:25:39Z",
        "vessel": "B"
      },
      "type": "Feature"
    },
    {
      "geometry": {
        "coordinates": [
          -60.38842,
          -45.250915
        ],
        "type": "Point"
      },
      "properties": {
        "mmsi": "412329692",
        "observationStatus": "observed",
        "role": "on",
        "time": "2017-12-26T23:31:50Z",
        "vessel": "A"
      },
      "type": "Feature"
    },
    {
      "geometry": {
        "coordinates": [
          -60.318347,
          -45.207493
        ],
        "type": "Point"
      },
      "properties": {
        "mmsi": "412329685",
        "observationStatus": "observed",
        "role": "on",
        "time": "2017-12-26T23:32:41Z",
        "vessel": "B"
      },
      "type": "Feature"
    },
    {
      "geometry": {
        "coordinates": [
          [
            -60.3384,
            -45.228267
          ],
          [
            -60.319851,
            -45.261896
          ],
          [
            -60.38842,
            -45.250915
          ]
        ],
        "type": "LineString"
      },
      "properties": {
        "confidence": "low",
        "lineStyle": "dashed",
        "observationStatus": "estimated",
        "source": "reachable-set heuristic",
        "vessel": "A"
      },
      "type": "Feature"
    },
    {
      "geometry": {
        "coordinates": [
          [
            -60.325787,
            -45.316298
          ],
          [
            -60.319851,
            -45.261896
          ],
          [
            -60.318347,
            -45.207493
          ]
        ],
        "type": "LineString"
      },
      "properties": {
        "confidence": "low",
        "lineStyle": "dashed",
        "observationStatus": "estimated",
        "source": "reachable-set heuristic",
        "vessel": "B"
      },
      "type": "Feature"
    },
    {
      "geometry": {
        "coordinates": [
          -60.319851,
          -45.261896
        ],
        "type": "Point"
      },
      "properties": {
        "kind": "meetingPoint",
        "observationStatus": "estimated"
      },
      "type": "Feature"
    },
    {
      "geometry": {
        "coordinates": [
          [
            [
              -62.344055,
              -46.136398
            ],
            [
              -62.210533,
              -46.269697
            ],
            [
              -62.059222,
              -46.393075
            ],
            [
              -61.891579,
              -46.505344
            ],
            [
              -61.709219,
              -46.605423
            ],
            [
              -61.513898,
              -46.692349
            ],
            [
              -61.307497,
              -46.765284
            ],
            [
              -61.092005,
              -46.823525
            ],
            [
              -60.869495,
              -46.866512
            ],
            [
              -60.642112,
              -46.893832
            ],
            [
              -60.412044,
              -46.90522
            ],
            [
              -60.181509,
              -46.900567
            ],
            [
              -59.952725,
              -46.879918
            ],
            [
              -59.727896,
              -46.843471
            ],
            [
              -59.509187,
              -46.791579
            ],
            [
              -59.298705,
              -46.72474
            ],
            [
              -59.098477,
              -46.643598
            ],
            [
              -58.910431,
              -46.548935
            ],
            [
              -58.736378,
              -46.441662
            ],
            [
              -58.577994,
              -46.322812
            ],
            [
              -58.436804,
              -46.193531
            ],
            [
              -58.314169,
              -46.055062
            ],
            [
              -58.211269,
              -45.90874
            ],
            [
              -58.129096,
              -45.755974
            ],
            [
              -58.06844,
              -45.598235
            ],
            [
              -58.029886,
              -45.437042
            ],
            [
              -58.013805,
              -45.273947
            ],
            [
              -58.020352,
              -45.110522
            ],
            [
              -58.049464,
              -44.948339
            ],
            [
              -58.10086,
              -44.788961
            ],
            [
              -58.174046,
              -44.633923
            ],
            [
              -58.268317,
              -44.484718
            ],
            [
              -58.382765,
              -44.342783
            ],
            [
              -58.516287,
              -44.209485
            ],
            [
              -58.667598,
              -44.086107
            ],
            [
              -58.835241,
              -43.973838
            ],
            [
              -59.017601,
              -43.873758
            ],
            [
              -59.212922,
              -43.786833
            ],
            [
              -59.419323,
              -43.713898
            ],
            [
              -59.634815,
              -43.655657
            ],
            [
              -59.857325,
              -43.612669
            ],
            [
              -60.084708,
              -43.58535
            ],
            [
              -60.314776,
              -43.573962
            ],
            [
              -60.545311,
              -43.578615
            ],
            [
              -60.774095,
              -43.599264
            ],
            [
              -60.998924,
              -43.63571
            ],
            [
              -61.217633,
              -43.687603
            ],
            [
              -61.428115,
              -43.754442
            ],
            [
              -61.628343,
              -43.835584
            ],
            [
              -61.816389,
              -43.930247
            ],
            [
              -61.990442,
              -44.03752
            ],
            [
              -62.148826,
              -44.156369
            ],
            [
              -62.290016,
              -44.285651
            ],
            [
              -62.412651,
              -44.424119
            ],
            [
              -62.515551,
              -44.570441
            ],
            [
              -62.597724,
              -44.723207
            ],
            [
              -62.65838,
              -44.880947
            ],
            [
              -62.696934,
              -45.04214
            ],
            [
              -62.713015,
              -45.205235
            ],
            [
              -62.706468,
              -45.36866
            ],
            [
              -62.677356,
              -45.530843
            ],
            [
              -62.62596,
              -45.69022
            ],
            [
              -62.552774,
              -45.845258
            ],
            [
              -62.458503,
              -45.994463
            ],
            [
              -62.344055,
              -46.136398
            ]
          ]
        ],
        "type": "Polygon"
      },
      "properties": {
        "kind": "reachableSet",
        "observationStatus": "estimated",
        "vessel": "A"
      },
      "type": "Feature"
    },
    {
      "geometry": {
        "coordinates": [
          [
            [
              -60.209657,
              -43.617979
            ],
            [
              -60.437455,
              -43.618092
            ],
            [
              -60.664142,
              -43.634035
            ],
            [
              -60.887535,
              -43.665655
            ],
            [
              -61.105482,
              -43.712648
            ],
            [
              -61.315884,
              -43.774561
            ],
            [
              -61.516715,
              -43.850798
            ],
            [
              -61.706041,
              -43.940624
            ],
            [
              -61.882039,
              -44.043175
            ],
            [
              -62.043013,
              -44.157463
            ],
            [
              -62.187413,
              -44.282388
            ],
            [
              -62.31385,
              -44.416745
            ],
            [
              -62.421104,
              -44.559242
            ],
            [
              -62.508143,
              -44.708506
            ],
            [
              -62.57413,
              -44.863099
            ],
            [
              -62.618427,
              -45.021533
            ],
            [
              -62.64061,
              -45.182281
            ],
            [
              -62.640463,
              -45.343797
            ],
            [
              -62.61799,
              -45.504523
            ],
            [
              -62.573405,
              -45.662913
            ],
            [
              -62.507138,
              -45.817441
            ],
            [
              -62.419829,
              -45.966619
            ],
            [
              -62.312316,
              -46.10901
            ],
            [
              -62.185637,
              -46.243243
            ],
            [
              -62.04101,
              -46.368024
            ],
            [
              -61.879829,
              -46.482154
            ],
            [
              -61.703645,
              -46.584531
            ],
            [
              -61.514157,
              -46.674171
            ],
            [
              -61.313188,
              -46.750209
            ],
            [
              -61.102674,
              -46.811915
            ],
            [
              -60.884642,
              -46.858693
            ],
            [
              -60.661192,
              -46.890093
            ],
            [
              -60.434476,
              -46.905812
            ],
            [
              -60.206678,
              -46.9057
            ],
            [
              -59.979991,
              -46.889757
            ],
            [
              -59.756599,
              -46.858137
            ],
            [
              -59.538652,
              -46.811144
            ],
            [
              -59.32825,
              -46.749231
            ],
            [
              -59.127418,
              -46.672994
            ],
            [
              -58.938092,
              -46.583167
            ],
            [
              -58.762095,
              -46.480616
            ],
            [
              -58.601121,
              -46.366328
            ],
            [
              -58.45672,
              -46.241404
            ],
            [
              -58.330284,
              -46.107046
            ],
            [
              -58.22303,
              -45.96455
            ],
            [
              -58.13599,
              -45.815286
            ],
            [
              -58.070004,
              -45.660693
            ],
            [
              -58.025706,
              -45.502259
            ],
            [
              -58.003524,
              -45.34151
            ],
            [
              -58.00367,
              -45.179995
            ],
            [
              -58.026144,
              -45.019268
            ],
            [
              -58.070728,
              -44.860878
            ],
            [
              -58.136995,
              -44.70635
            ],
            [
              -58.224305,
              -44.557173
            ],
            [
              -58.331817,
              -44.414782
            ],
            [
              -58.458497,
              -44.280549
            ],
            [
              -58.603123,
              -44.155767
            ],
            [
              -58.764305,
              -44.041638
            ],
            [
              -58.940488,
              -43.939261
            ],
            [
              -59.129977,
              -43.849621
            ],
            [
              -59.330946,
              -43.773582
            ],
            [
              -59.54146,
              -43.711877
            ],
            [
              -59.759492,
              -43.665099
            ],
            [
              -59.982941,
              -43.633699
            ],
            [
              -60.209657,
              -43.617979
            ]
          ]
        ],
        "type": "Polygon"
      },
      "properties": {
        "kind": "reachableSet",
        "observationStatus": "estimated",
        "vessel": "B"
      },
      "type": "Feature"
    }
  ],
  "properties": {
    "dateline": false
  },
  "type": "FeatureCollection"
}
