{
  "features": [
    {
      "geometry": {
        "coordinates": [
          162.486747,
          42.207493
        ],
        "type": "Point"
      },
      "properties": {
        "mmsi": "416252600",
        "observationStatus": "observed",
        "role": "off",
        "time": "2019-09-09T03:52:26Z",
        "vessel": "A"
      },
      "type": "Feature"
    },
    {
      "geometry": {
        "coordinates": [
          162.460587,
          42.189547
        ],
        "type": "Point"
      },
      "properties": {
        "mmsi": "416252900",
        "observationStatus": "observed",
        "role": "off",
        "time": "2019-09-09T04:00:11Z",
        "vessel": "B"
      },
      "type": "Feature"
    },
    {
      "geometry": {
        "coordinates": [
          162.394645,
          42.065288
        ],
        "type": "Point"
      },
      "properties": {
        "mmsi": "416252600",
        "observationStatus": "observed",
        "role": "on",
        "time": "2019-09-09T17:21:24Z",
        "vessel": "A"
      },
      "type": "Feature"
    },
    {
      "geometry": {
        "coordinates": [
          162.282293,
          42.054
        ],
        "type": "Point"
      },
      "properties": {
        "mmsi": "416252900",
        "observationStatus": "observed",
        "role": "on",
        "time": "2019-09-09T17:57:15Z",
        "vessel": "B"
      },
      "type": "Feature"
    },
    {
      "geometry": {
        "coordinates": [
          [
            162.486747,
            42.207493
          ],
          [
            162.416836,
            42.106583
          ],
          [
            162.394645,
            42.065288
          ]
        ],
        "type": "LineString"
      },
      "properties": {
        "confidence": "low",
        "lineStyle": "dashed",
        "observationStatus": "estimated",
        "source": "reachable-set heuristic",
        "vessel": "A"
      },
      "type": "Feature"
    },
    {
      "geometry": {
        "coordinates": [
          [
            162.460587,
            42.189547
          ],
          [
            162.416836,
            42.106583
          ],
          [
            162.282293,
            42.054
          ]
        ],
        "type": "LineString"
      },
      "properties": {
        "confidence": "low",
        "lineStyle": "dashed",
        "observationStatus": "estimated",
        "source": "reachable-set heuristic",
        "vessel": "B"
      },
      "type": "Feature"
    },
    {
      "geometry": {
        "coordinates": [
          162.416836,
          42.106583
        ],
        "type": "Point"
      },
      "properties": {
        "kind": "meetingPoint",
        "observationStatus": "estimated"
      },
      "type": "Feature"
    },
    {
      "geometry": {
        "coordinates": [
          [
            [
              161.709228,
              41.007005
            ],
            [
              161.860731,
              40.959022
            ],
            [
              162.01782,
              40.922378
            ],
            [
              162.178981,
              40.897426
            ],
            [
              162.342663,
              40.884405
            ],
            [
              162.507288,
              40.883442
            ],
            [
              162.671273,
              40.894546
            ],
            [
              162.833036,
              40.917609
            ],
            [
              162.991022,
              40.95241
            ],
            [
              163.143707,
              40.998613
            ],
            [
              163.289622,
              41.055773
            ],
            [
              163.427361,
              41.123341
            ],
            [
              163.555599,
              41.200665
            ],
            [
              163.673099,
              41.287
            ],
            [
              163.77873,
              41.381515
            ],
            [
              163.871476,
              41.4833
            ],
            [
              163.950442,
              41.591375
            ],
            [
              164.014868,
              41.704699
            ],
            [
              164.064135,
              41.82218
            ],
            [
              164.097767,
              41.942687
            ],
            [
              164.11544,
              42.065059
            ],
            [
              164.116984,
              42.188119
            ],
            [
              164.102385,
              42.31068
            ],
            [
              164.071783,
              42.431563
            ],
            [
              164.025473,
              42.549603
            ],
            [
              163.963901,
              42.663664
            ],
            [
              163.887659,
              42.772647
            ],
            [
              163.797482,
              42.875502
            ],
            [
              163.694239,
              42.971239
            ],
            [
              163.578923,
              43.058936
            ],
            [
              163.452645,
              43.137749
            ],
            [
              163.316622,
              43.206918
            ],
            [
              163.172164,
              43.265777
            ],
            [
              163.02066,
              43.31376
            ],
            [
              162.863572,
              43.350404
            ],
            [
              162.702411,
              43.375356
            ],
            [
              162.538729,
              43.388376
            ],
            [
              162.374103,
              43.389339
            ],
            [
              162.210119,
              43.378236
            ],
            [
              162.048355,
              43.355173
            ],
            [
              161.89037,
              43.320372
            ],
            [
              161.737685,
              43.274169
            ],
            [
              161.59177,
              43.217008
            ],
            [
              161.45403,
              43.149441
            ],
            [
              161.325793,
              43.072117
            ],
            [
              161.208293,
              42.985782
            ],
            [
              161.102661,
              42.891267
            ],
            [
              161.009916,
              42.789481
            ],
            [
              160.93095,
              42.681407
            ],
            [
              160.866523,
              42.568083
            ],
            [
              160.817257,
              42.450602
            ],
            [
              160.783625,
              42.330095
            ],
            [
              160.765952,
              42.207722
            ],
            [
              160.764407,
              42.084663
            ],
            [
              160.779006,
              41.962101
            ],
            [
              160.809608,
              41.841219
            ],
            [
              160.855918,
              41.723178
            ],
            [
              160.917491,
              41.609118
            ],
            [
              160.993733,
              41.500135
            ],
            [
              161.08391,
              41.39728
            ],
            [
              161.187153,
              41.301542
            ],
            [
              161.302469,
              41.213845
            ],
            [
              161.428746,
              41.135033
            ],
            [
              161.564769,
              41.065864
            ],
            [
              161.709228,
              41.007005
            ]
          ]
        ],
        "type": "Polygon"
      },
      "properties": {
        "kind": "reachableSet",
        "observationStatus": "estimated",
        "vessel": "A"
      },
      "type": "Feature"
    },
    {
      "geometry": {
        "coordinates": [
          [
            [
              161.150071,
              41.193233
            ],
            [
              161.277505,
              41.108545
            ],
            [
              161.415475,
              41.033615
            ],
            [
              161.562651,
              40.969165
            ],
            [
              161.717616,
              40.915815
            ],
            [
              161.878878,
              40.874078
            ],
            [
              162.044883,
              40.844358
            ],
            [
              162.214034,
              40.82694
            ],
            [
              162.3847,
              40.821992
            ],
            [
              162.555239,
              40.829562
            ],
            [
              162.724007,
              40.849576
            ],
            [
              162.88938,
              40.881843
            ],
            [
              163.049765,
              40.92605
            ],
            [
              163.203618,
              40.981773
            ],
            [
              163.349456,
              41.048475
            ],
            [
              163.485875,
              41.125513
            ],
            [
              163.611562,
              41.212146
            ],
            [
              163.725306,
              41.307539
            ],
            [
              163.826011,
              41.410773
            ],
            [
              163.912707,
              41.520855
            ],
            [
              163.984561,
              41.636724
            ],
            [
              164.040879,
              41.757264
            ],
            [
              164.08112,
              41.881315
            ],
            [
              164.104896,
              42.007682
            ],
            [
              164.111977,
              42.135147
            ],
            [
              164.102296,
              42.262483
            ],
            [
              164.075946,
              42.388464
            ],
            [
              164.033181,
              42.511877
            ],
            [
              163.974412,
              42.631533
            ],
            [
              163.900206,
              42.74628
            ],
            [
              163.811277,
              42.855012
            ],
            [
              163.708481,
              42.956683
            ],
            [
              163.592809,
              43.050314
            ],
            [
              163.465375,
              43.135002
            ],
            [
              163.327405,
              43.209932
            ],
            [
              163.180229,
              43.274382
            ],
            [
              163.025264,
              43.327732
            ],
            [
              162.864002,
              43.369468
            ],
            [
              162.697997,
              43.399188
            ],
            [
              162.528846,
              43.416606
            ],
            [
              162.35818,
              43.421554
            ],
            [
              162.187641,
              43.413985
            ],
            [
              162.018873,
              43.39397
            ],
            [
              161.8535,
              43.361704
            ],
            [
              161.693115,
              43.317497
            ],
            [
              161.539262,
              43.261774
            ],
            [
              161.393424,
              43.195072
            ],
            [
              161.257005,
              43.118034
            ],
            [
              161.131318,
              43.031401
            ],
            [
              161.017574,
              42.936008
            ],
            [
              160.916869,
              42.832773
            ],
            [
              160.830173,
              42.722692
            ],
            [
              160.758319,
              42.606823
            ],
            [
              160.702001,
              42.486282
            ],
            [
              160.66176,
              42.362232
            ],
            [
              160.637984,
              42.235865
            ],
            [
              160.630903,
              42.1084
            ],
            [
              160.640584,
              41.981064
            ],
            [
              160.666934,
              41.855082
            ],
            [
              160.709699,
              41.731669
            ],
            [
              160.768468,
              41.612013
            ],
            [
              160.842674,
              41.497267
            ],
            [
              160.931603,
              41.388534
            ],
            [
              161.034399,
              41.286863
            ],
            [
              161.150071,
              41.193233
            ]
          ]
        ],
        "type": "Polygon"
      },
      "properties": {
        "kind": "reachableSet",
        "observationStatus": "estimated",
        "vessel": "B"
      },
      "type": "Feature"
    }
  ],
  "properties": {
    "dateline": false
  },
  "type": "FeatureCollection"
}
