{
  "features": [
    {
      "geometry": {
        "coordinates": [
          -167.115455,
          58.086433
        ],
        "type": "Point"
      },
      "properties": {
        "mmsi": "367390380",
        "observationStatus": "observed",
        "role": "off",
        "time": "2019-04-06T02:02:14Z",
        "vessel": "A"
      },
      "type": "Feature"
    },
    {
      "geometry": {
        "coordinates": [
          -167.00662,
          58.09025
        ],
        "type": "Point"
      },
      "properties": {
        "mmsi": "338626000",
        "observationStatus": "observed",
        "role": "off",
        "time": "2019-04-06T02:27:56Z",
        "vessel": "B"
      },
      "type": "Feature"
    },
    {
      "geometry": {
        "coordinates": [
          -162.66682,
          58.096717
        ],
        "type": "Point"
      },
      "properties": {
        "mmsi": "338626000",
        "observationStatus": "observed",
        "role": "on",
        "time": "2019-04-06T16:17:45Z",
        "vessel": "B"
      },
      "type": "Feature"
    },
    {
      "geometry": {
        "coordinates": [
          -162.590798,
          58.050682
        ],
        "type": "Point"
      },
      "properties": {
        "mmsi": "367390380",
        "observationStatus": "observed",
        "role": "on",
        "time": "2019-04-06T16:40:06Z",
        "vessel": "A"
      },
      "type": "Feature"
    },
    {
      "geometry": {
        "coordinates": [
          [
            -167.115455,
            58.086433
          ],
          [
            -165.919783,
            58.090149
          ],
          [
            -162.590798,
            58.050682
          ]
        ],
        "type": "LineString"
      },
      "properties": {
        "confidence": "low",
        "lineStyle": "dashed",
        "observationStatus": "estimated",
        "source": "reachable-set heuristic",
        "vessel": "A"
      },
      "type": "Feature"
    },
    {
      "geometry": {
        "coordinates": [
          [
            -167.00662,
            58.09025
          ],
          [
            -165.919783,
            58.090149
          ],
          [
            -162.66682,
            58.096717
          ]
        ],
        "type": "LineString"
      },
      "properties": {
        "confidence": "low",
        "lineStyle": "dashed",
        "observationStatus": "estimated",
        "source": "reachable-set heuristic",
        "vessel": "B"
      },
      "type": "Feature"
    },
    {
      "geometry": {
        "coordinates": [
          -165.919783,
          58.090149
        ],
        "type": "Point"
      },
      "properties": {
        "kind": "meetingPoint",
        "observationStatus": "estimated"
      },
      "type": "Feature"
    },
    {
      "geometry": {
        "coordinates": [
          [
            [
              -162.066443,
              58.046538
            ],
            [
              -162.077495,
              58.131569
            ],
            [
              -162.115278,
              58.215992
            ],
            [
              -162.179428,
              58.298995
            ],
            [
              -162.269327,
              58.379779
            ],
            [
              -162.38411,
              58.457566
            ],
            [
              -162.52267,
              58.531607
            ],
            [
              -162.683674,
              58.601188
            ],
            [
              -162.865571,
              58.66564
            ],
            [
              -163.06661,
              58.724341
            ],
            [
              -163.284853,
              58.776727
            ],
            [
              -163.5182,
              58.822293
            ],
            [
              -163.764403,
              58.860599
            ],
            [
              -164.021091,
              58.891278
            ],
            [
              -164.285791,
              58.914034
            ],
            [
              -164.555956,
              58.928648
            ],
            [
              -164.828982,
              58.934978
            ],
            [
              -165.102241,
              58.932964
            ],
            [
              -165.373101,
              58.922626
            ],
            [
              -165.638954,
              58.904062
            ],
            [
              -165.897238,
              58.877452
            ],
            [
              -166.145467,
              58.843052
            ],
            [
              -166.38125,
              58.801193
            ],
            [
              -166.602316,
              58.752278
            ],
            [
              -166.806537,
              58.696779
            ],
            [
              -166.991945,
              58.63523
            ],
            [
              -167.156755,
              58.568223
            ],
            [
              -167.29938,
              58.496404
            ],
            [
              -167.418447,
              58.420465
            ],
            [
              -167.512808,
              58.341137
            ],
            [
              -167.581554,
              58.259184
            ],
            [
              -167.624025,
              58.175395
            ],
            [
              -167.63981,
              58.090577
            ],
            [
              -167.628758,
              58.005546
            ],
            [
              -167.590975,
              57.921123
            ],
            [
              -167.526825,
              57.83812
            ],
            [
              -167.436926,
              57.757336
            ],
            [
              -167.322143,
              57.679549
            ],
            [
              -167.183583,
              57.605508
            ],
            [
              -167.022579,
              57.535927
            ],
            [
              -166.840682,
              57.471475
            ],
            [
              -166.639644,
              57.412774
            ],
            [
              -166.4214,
              57.360388
            ],
            [
              -166.188053,
              57.314822
            ],
            [
              -165.941851,
              57.276516
            ],
            [
              -165.685163,
              57.245837
            ],
            [
              -165.420462,
              57.223081
            ],
            [
              -165.150297,
              57.208467
            ],
            [
              -164.877271,
              57.202137
            ],
            [
              -164.604012,
              57.204151
            ],
            [
              -164.333152,
              57.214489
            ],
            [
              -164.0673,
              57.233053
            ],
            [
              -163.809016,
              57.259663
            ],
            [
              -163.560787,
              57.294063
            ],
            [
              -163.325004,
              57.335922
            ],
            [
              -163.103937,
              57.384837
            ],
            [
              -162.899717,
              57.440336
            ],
            [
              -162.714308,
              57.501885
            ],
            [
              -162.549498,
              57.568892
            ],
            [
              -162.406873,
              57.640711
            ],
            [
              -162.287807,
              57.71665
            ],
            [
              -162.193446,
              57.795978
            ],
            [
              -162.124699,
              57.877931
            ],
            [
              -162.082229,
              57.96172
            ],
            [
              -162.066443,
              58.046538
            ]
          ]
        ],
        "type": "Polygon"
      },
      "properties": {
        "kind": "reachableSet",
        "observationStatus": "estimated",
        "vessel": "A"
      },
      "type": "Feature"
    },
    {
      "geometry": {
        "coordinates": [
          [
            [
              -162.211644,
              58.097395
            ],
            [
              -162.22469,
              58.17443
            ],
            [
              -162.262891,
              58.250685
            ],
            [
              -162.32588,
              58.325427
            ],
            [
              -162.413049,
              58.397935
            ],
            [
              -162.52356,
              58.46751
            ],
            [
              -162.656348,
              58.533484
            ],
            [
              -162.810134,
              58.59522
            ],
            [
              -162.983436,
              58.652124
            ],
            [
              -163.174588,
              58.703649
            ],
            [
              -163.381746,
              58.749297
            ],
            [
              -163.602916,
              58.788629
            ],
            [
              -163.835969,
              58.821266
            ],
            [
              -164.07866,
              58.846895
            ],
            [
              -164.328651,
              58.865268
            ],
            [
              -164.583535,
              58.876208
            ],
            [
              -164.840857,
              58.87961
            ],
            [
              -165.098139,
              58.875441
            ],
            [
              -165.352904,
              58.863741
            ],
            [
              -165.602698,
              58.844624
            ],
            [
              -165.845115,
              58.818272
            ],
            [
              -166.077821,
              58.784941
            ],
            [
              -166.298574,
              58.74495
            ],
            [
              -166.505248,
              58.698686
            ],
            [
              -166.695854,
              58.646593
            ],
            [
              -166.868555,
              58.589173
            ],
            [
              -167.021689,
              58.526979
            ],
            [
              -167.15378,
              58.460611
            ],
            [
              -167.263557,
              58.390707
            ],
            [
              -167.349962,
              58.317941
            ],
            [
              -167.412163,
              58.243013
            ],
            [
              -167.449561,
              58.166644
            ],
            [
              -167.461796,
              58.089572
            ],
            [
              -167.44875,
              58.012537
            ],
            [
              -167.410549,
              57.936281
            ],
            [
              -167.34756,
              57.86154
            ],
            [
              -167.260391,
              57.789032
            ],
            [
              -167.14988,
              57.719456
            ],
            [
              -167.017092,
              57.653483
            ],
            [
              -166.863306,
              57.591746
            ],
            [
              -166.690004,
              57.534842
            ],
            [
              -166.498852,
              57.483318
            ],
            [
              -166.291694,
              57.43767
            ],
            [
              -166.070524,
              57.398338
            ],
            [
              -165.837471,
              57.3657
            ],
            [
              -165.59478,
              57.340072
            ],
            [
              -165.344789,
              57.321699
            ],
            [
              -165.089905,
              57.310759
            ],
            [
              -164.832583,
              57.307357
            ],
            [
              -164.575301,
              57.311526
            ],
            [
              -164.320536,
              57.323225
            ],
            [
              -164.070742,
              57.342343
            ],
            [
              -163.828325,
              57.368694
            ],
            [
              -163.595619,
              57.402026
            ],
            [
              -163.374866,
              57.442016
            ],
            [
              -163.168192,
              57.488281
            ],
            [
              -162.977586,
              57.540374
            ],
            [
              -162.804885,
              57.597794
            ],
            [
              -162.651751,
              57.659987
            ],
            [
              -162.51966,
              57.726356
            ],
            [
              -162.409883,
              57.79626
            ],
            [
              -162.323478,
              57.869026
            ],
            [
              -162.261277,
              57.943954
            ],
            [
              -162.223879,
              58.020322
            ],
            [
              -162.211644,
              58.097395
            ]
          ]
        ],
        "type": "Polygon"
      },
      "properties": {
        "kind": "reachableSet",
        "observationStatus": "estimated",
        "vessel": "B"
      },
      "type": "Feature"
    }
  ],
  "properties": {
    "dateline": false
  },
  "type": "FeatureCollection"
}
