{
  "features": [
    {
      "geometry": {
        "coordinates": [
          -173.436815,
          -7.60204
        ],
        "type": "Point"
      },
      "properties": {
        "mmsi": "412333795",
        "observationStatus": "observed",
        "role": "off",
        "time": "2018-03-25T06:49:18Z",
        "vessel": "A"
      },
      "type": "Feature"
    },
    {
      "geometry": {
        "coordinates": [
          -173.400172,
          -7.59803
        ],
        "type": "Point"
      },
      "properties": {
        "mmsi": "412333792",
        "observationStatus": "observed",
        "role": "off",
        "time": "2018-03-25T06:49:26Z",
        "vessel": "B"
      },
      "type": "Feature"
    },
    {
      "geometry": {
        "coordinates": [
          -171.876115,
          -7.429692
        ],
        "type": "Point"
      },
      "properties": {
        "mmsi": "412333795",
        "observationStatus": "observed",
        "role": "on",
        "time": "2018-03-25T18:52:39Z",
        "vessel": "A"
      },
      "type": "Feature"
    },
    {
      "geometry": {
        "coordinates": [
          -171.849278,
          -7.424055
        ],
        "type": "Point"
      },
      "properties": {
        "mmsi": "412333792",
        "observationStatus": "observed",
        "role": "on",
        "time": "2018-03-25T18:54:20Z",
        "vessel": "B"
      },
      "type": "Feature"
    },
    {
      "geometry": {
        "coordinates": [
          [
            -173.436815,
            -7.60204
          ],
          [
            -172.643047,
            -7.513047
          ],
          [
            -171.876115,
            -7.429692
          ]
        ],
        "type": "LineString"
      },
      "properties": {
        "confidence": "low",
        "lineStyle": "dashed",
        "observationStatus": "estimated",
        "source": "reachable-set heuristic",
        "vessel": "A"
      },
      "type": "Feature"
    },
    {
      "geometry": {
        "coordinates": [
          [
            -173.400172,
            -7.59803
          ],
          [
            -172.643047,
            -7.513047
          ],
          [
            -171.849278,
            -7.424055
          ]
        ],
        "type": "LineString"
      },
      "properties": {
        "confidence": "low",
        "lineStyle": "dashed",
        "observationStatus": "estimated",
        "source": "reachable-set heuristic",
        "vessel": "B"
      },
      "type": "Feature"
    },
    {
      "geometry": {
        "coordinates": [
          -172.643047,
          -7.513047
        ],
        "type": "Point"
      },
      "properties": {
        "kind": "meetingPoint",
        "observationStatus": "estimated"
      },
      "type": "Feature"
    },
    {
      "geometry": {
        "coordinates": [
          [
            [
              -171.550055,
              -7.393685
            ],
            [
              -171.563889,
              -7.317537
            ],
            [
              -171.588244,
              -7.2433
            ],
            [
              -171.622887,
              -7.171688
            ],
            [
              -171.667484,
              -7.10339
            ],
            [
              -171.721605,
              -7.039065
            ],
            [
              -171.78473,
              -6.979331
            ],
            [
              -171.85625,
              -6.924765
            ],
            [
              -171.935476,
              -6.875891
            ],
            [
              -172.021646,
              -6.83318
            ],
            [
              -172.113929,
              -6.797044
            ],
            [
              -172.211438,
              -6.767831
            ],
            [
              -172.313232,
              -6.745822
            ],
            [
              -172.418332,
              -6.731229
            ],
            [
              -172.525725,
              -6.724192
            ],
            [
              -172.634377,
              -6.724779
            ],
            [
              -172.743242,
              -6.732985
            ],
            [
              -172.851272,
              -6.748731
            ],
            [
              -172.957425,
              -6.771865
            ],
            [
              -173.060679,
              -6.802163
            ],
            [
              -173.160041,
              -6.839335
            ],
            [
              -173.254554,
              -6.883023
            ],
            [
              -173.343306,
              -6.932805
            ],
            [
              -173.425444,
              -6.988202
            ],
            [
              -173.500176,
              -7.048681
            ],
            [
              -173.566782,
              -7.113659
            ],
            [
              -173.624622,
              -7.182511
            ],
            [
              -173.673138,
              -7.254573
            ],
            [
              -173.711862,
              -7.329151
            ],
            [
              -173.740423,
              -7.405528
            ],
            [
              -173.758545,
              -7.482967
            ],
            [
              -173.766053,
              -7.560723
            ],
            [
              -173.762875,
              -7.638047
            ],
            [
              -173.749041,
              -7.714194
            ],
            [
              -173.724686,
              -7.788432
            ],
            [
              -173.690043,
              -7.860044
            ],
            [
              -173.645446,
              -7.928342
            ],
            [
              -173.591325,
              -7.992667
            ],
            [
              -173.5282,
              -8.052401
            ],
            [
              -173.45668,
              -8.106967
            ],
            [
              -173.377454,
              -8.155841
            ],
            [
              -173.291284,
              -8.198551
            ],
            [
              -173.199001,
              -8.234687
            ],
            [
              -173.101492,
              -8.2639
            ],
            [
              -172.999698,
              -8.28591
            ],
            [
              -172.894598,
              -8.300503
            ],
            [
              -172.787205,
              -8.30754
            ],
            [
              -172.678553,
              -8.306952
            ],
            [
              -172.569688,
              -8.298746
            ],
            [
              -172.461658,
              -8.283001
            ],
            [
              -172.355505,
              -8.259867
            ],
            [
              -172.252251,
              -8.229568
            ],
            [
              -172.152889,
              -8.192396
            ],
            [
              -172.058376,
              -8.148709
            ],
            [
              -171.969624,
              -8.098927
            ],
            [
              -171.887486,
              -8.04353
            ],
            [
              -171.812754,
              -7.983051
            ],
            [
              -171.746148,
              -7.918073
            ],
            [
              -171.688308,
              -7.849221
            ],
            [
              -171.639792,
              -7.777159
            ],
            [
              -171.601068,
              -7.702581
            ],
            [
              -171.572507,
              -7.626204
            ],
            [
              -171.554385,
              -7.548765
            ],
            [
              -171.546877,
              -7.471009
            ],
            [
              -171.550055,
              -7.393685
            ]
          ]
        ],
        "type": "Polygon"
      },
      "properties": {
        "kind": "reachableSet",
        "observationStatus": "estimated",
        "vessel": "A"
      },
      "type": "Feature"
    },
    {
      "geometry": {
        "coordinates": [
          [
            [
              -171.515956,
              -7.386664
            ],
            [
              -171.530025,
              -7.309729
            ],
            [
              -171.554637,
              -7.234732
            ],
            [
              -171.589554,
              -7.162397
            ],
            [
              -171.63444,
              -7.093419
            ],
            [
              -171.688863,
              -7.028463
            ],
            [
              -171.752299,
              -6.968155
            ],
            [
              -171.824137,
              -6.913075
            ],
            [
              -171.903686,
              -6.863753
            ],
            [
              -171.990178,
              -6.820666
            ],
            [
              -172.082781,
              -6.784227
            ],
            [
              -172.180604,
              -6.754788
            ],
            [
              -172.282703,
              -6.732632
            ],
            [
              -172.388097,
              -6.717972
            ],
            [
              -172.495769,
              -6.71095
            ],
            [
              -172.604683,
              -6.711634
            ],
            [
              -172.71379,
              -6.720016
            ],
            [
              -172.82204,
              -6.736016
            ],
            [
              -172.928389,
              -6.759481
            ],
            [
              -173.031814,
              -6.790183
            ],
            [
              -173.131318,
              -6.827827
            ],
            [
              -173.225944,
              -6.872051
            ],
            [
              -173.314779,
              -6.922429
            ],
            [
              -173.396969,
              -6.978476
            ],
            [
              -173.471722,
              -7.039651
            ],
            [
              -173.538317,
              -7.105367
            ],
            [
              -173.596115,
              -7.174989
            ],
            [
              -173.644557,
              -7.247848
            ],
            [
              -173.683178,
              -7.323241
            ],
            [
              -173.711605,
              -7.400443
            ],
            [
              -173.729565,
              -7.47871
            ],
            [
              -173.736885,
              -7.557288
            ],
            [
              -173.733494,
              -7.635421
            ],
            [
              -173.719425,
              -7.712356
            ],
            [
              -173.694813,
              -7.787353
            ],
            [
              -173.659896,
              -7.859688
            ],
            [
              -173.61501,
              -7.928666
            ],
            [
              -173.560587,
              -7.993622
            ],
            [
              -173.497151,
              -8.05393
            ],
            [
              -173.425313,
              -8.10901
            ],
            [
              -173.345764,
              -8.158332
            ],
            [
              -173.259272,
              -8.201419
            ],
            [
              -173.166669,
              -8.237858
            ],
            [
              -173.068846,
              -8.267297
            ],
            [
              -172.966747,
              -8.289453
            ],
            [
              -172.861353,
              -8.304113
            ],
            [
              -172.753681,
              -8.311135
            ],
            [
              -172.644767,
              -8.310451
            ],
            [
              -172.53566,
              -8.302069
            ],
            [
              -172.42741,
              -8.286069
            ],
            [
              -172.321061,
              -8.262604
            ],
            [
              -172.217636,
              -8.231902
            ],
            [
              -172.118132,
              -8.194258
            ],
            [
              -172.023506,
              -8.150034
            ],
            [
              -171.934671,
              -8.099656
            ],
            [
              -171.852481,
              -8.043609
            ],
            [
              -171.777728,
              -7.982434
            ],
            [
              -171.711133,
              -7.916718
            ],
            [
              -171.653335,
              -7.847096
            ],
            [
              -171.604893,
              -7.774237
            ],
            [
              -171.566272,
              -7.698844
            ],
            [
              -171.537845,
              -7.621642
            ],
            [
              -171.519885,
              -7.543375
            ],
            [
              -171.512565,
              -7.464797
            ],
            [
              -171.515956,
              -7.386664
            ]
          ]
        ],
        "type": "Polygon"
      },
      "properties": {
        "kind": "reachableSet",
        "observationStatus": "estimated",
        "vessel": "B"
      },
      "type": "Feature"
    }
  ],
  "properties": {
    "dateline": false
  },
  "type": "FeatureCollection"
}
