{
  "features": [
    {
      "geometry": {
        "coordinates": [
          -57.832717,
          -42.063647
        ],
        "type": "Point"
      },
      "properties": {
        "mmsi": "412329693",
        "observationStatus": "observed",
        "role": "off",
        "time": "2019-05-05T05:06:36Z",
        "vessel": "A"
      },
      "type": "Feature"
    },
    {
      "geometry": {
        "coordinates": [
          -57.79246,
          -42.05714
        ],
        "type": "Point"
      },
      "properties": {
        "mmsi": "412329691",
        "observationStatus": "observed",
        "role": "off",
        "time": "2019-05-05T05:33:13Z",
        "vessel": "B"
      },
      "type": "Feature"
    },
    {
      "geometry": {
        "coordinates": [
          -57.934765,
          -42.02479
        ],
        "type": "Point"
      },
      "properties": {
        "mmsi": "412329693",
        "observationStatus": "observed",
        "role": "on",
        "time": "2019-05-05T22:45:23Z",
        "vessel": "A"
      },
      "type": "Feature"
    },
    {
      "geometry": {
        "coordinates": [
          -57.84819,
          -42.033185
        ],
        "type": "Point"
      },
      "properties": {
        "mmsi": "412329691",
        "observationStatus": "observed",
        "role": "on",
        "time": "2019-05-05T23:01:57Z",
        "vessel": "B"
      },
      "type": "Feature"
    },
    {
      "geometry": {
        "coordinates": [
          [
            -57.832717,
            -42.063647
          ],
          [
            -57.849382,
            -42.044218
          ],
          [
            -57.934765,
            -42.02479
          ]
        ],
        "type": "LineString"
      },
      "properties": {
        "confidence": "low",
        "lineStyle": "dashed",
        "observationStatus": "estimated",
        "source": "reachable-set heuristic",
        "vessel": "A"
      },
      "type": "Feature"
    },
    {
      "geometry": {
        "coordinates": [
          [
            -57.79246,
            -42.05714
          ],
          [
            -57.849382,
            -42.044218
          ],
          [
            -57.84819,
            -42.033185
          ]
        ],
        "type": "LineString"
      },
      "properties": {
        "confidence": "low",
        "lineStyle": "dashed",
        "observationStatus": "estimated",
        "source": "reachable-set heuristic",
        "vessel": "B"
      },
      "type": "Feature"
    },
    {
      "geometry": {
        "coordinates": [
          -57.849382,
          -42.044218
        ],
        "type": "Point"
      },
      "properties": {
        "kind": "meetingPoint",
        "observationStatus": "estimated"
      },
      "type": "Feature"
    },
    {
      "geometry": {
        "coordinates": [
          [
            [
              -60.043745,
              -41.221759
            ],
            [
              -60.141136,
              -41.383969
            ],
            [
              -60.216788,
              -41.552538
            ],
            [
              -60.269971,
              -41.725842
            ],
            [
              -60.300173,
              -41.902212
            ],
            [
              -60.307103,
              -42.079949
            ],
            [
              -60.290696,
              -42.257342
            ],
            [
              -60.251108,
              -42.432683
            ],
            [
              -60.18872,
              -42.604283
            ],
            [
              -60.104135,
              -42.770489
            ],
            [
              -59.998166,
              -42.929701
            ],
            [
              -59.871834,
              -43.080385
            ],
            [
              -59.726356,
              -43.22109
            ],
            [
              -59.563132,
              -43.350461
            ],
            [
              -59.383735,
              -43.467252
            ],
            [
              -59.189892,
              -43.570339
            ],
            [
              -58.98347,
              -43.658728
            ],
            [
              -58.766457,
              -43.731569
            ],
            [
              -58.540943,
              -43.78816
            ],
            [
              -58.3091,
              -43.827955
            ],
            [
              -58.07316,
              -43.850573
            ],
            [
              -57.835396,
              -43.855794
            ],
            [
              -57.598098,
              -43.843568
            ],
            [
              -57.363551,
              -43.814014
            ],
            [
              -57.134013,
              -43.767416
            ],
            [
              -56.911696,
              -43.704222
            ],
            [
              -56.69874,
              -43.625042
            ],
            [
              -56.497196,
              -43.530637
            ],
            [
              -56.309005,
              -43.421918
            ],
            [
              -56.13598,
              -43.29993
            ],
            [
              -55.979787,
              -43.165849
            ],
            [
              -55.84193,
              -43.020967
            ],
            [
              -55.723736,
              -42.866677
            ],
            [
              -55.626345,
              -42.704467
            ],
            [
              -55.550694,
              -42.535899
            ],
            [
              -55.497511,
              -42.362595
            ],
            [
              -55.467309,
              -42.186225
            ],
            [
              -55.460378,
              -42.008488
            ],
            [
              -55.476786,
              -41.831094
            ],
            [
              -55.516374,
              -41.655753
            ],
            [
              -55.578761,
              -41.484154
            ],
            [
              -55.663346,
              -41.317948
            ],
            [
              -55.769315,
              -41.158736
            ],
            [
              -55.895647,
              -41.008052
            ],
            [
              -56.041126,
              -40.867347
            ],
            [
              -56.20435,
              -40.737976
            ],
            [
              -56.383747,
              -40.621184
            ],
            [
              -56.57759,
              -40.518098
            ],
            [
              -56.784012,
              -40.429708
            ],
            [
              -57.001025,
              -40.356868
            ],
            [
              -57.226539,
              -40.300277
            ],
            [
              -57.458382,
              -40.260481
            ],
            [
              -57.694321,
              -40.237864
            ],
            [
              -57.932085,
              -40.232643
            ],
            [
              -58.169384,
              -40.244869
            ],
            [
              -58.403931,
              -40.274423
            ],
            [
              -58.633469,
              -40.321021
            ],
            [
              -58.855786,
              -40.384215
            ],
            [
              -59.068742,
              -40.463395
            ],
            [
              -59.270286,
              -40.557799
            ],
            [
              -59.458477,
              -40.666519
            ],
            [
              -59.631502,
              -40.788507
            ],
            [
              -59.787695,
              -40.922587
            ],
            [
              -59.925552,
              -41.06747
            ],
            [
              -60.043745,
              -41.221759
            ]
          ]
        ],
        "type": "Polygon"
      },
      "properties": {
        "kind": "reachableSet",
        "observationStatus": "estimated",
        "vessel": "A"
      },
      "type": "Feature"
    },
    {
      "geometry": {
        "coordinates": [
          [
            [
              -59.900652,
              -41.150954
            ],
            [
              -60.007854,
              -41.307699
            ],
            [
              -60.093989,
              -41.471546
            ],
            [
              -60.158228,
              -41.640917
            ],
            [
              -60.199952,
              -41.814181
            ],
            [
              -60.218758,
              -41.98967
            ],
            [
              -60.214466,
              -42.165693
            ],
            [
              -60.187117,
              -42.340555
            ],
            [
              -60.136975,
              -42.512572
            ],
            [
              -60.064522,
              -42.680089
            ],
            [
              -59.970456,
              -42.84149
            ],
            [
              -59.855684,
              -42.995222
            ],
            [
              -59.721309,
              -43.139805
            ],
            [
              -59.568627,
              -43.273846
            ],
            [
              -59.399108,
              -43.396054
            ],
            [
              -59.214385,
              -43.505252
            ],
            [
              -59.016236,
              -43.600388
            ],
            [
              -58.80657,
              -43.680547
            ],
            [
              -58.587405,
              -43.744956
            ],
            [
              -58.360853,
              -43.792996
            ],
            [
              -58.129096,
              -43.824202
            ],
            [
              -57.894365,
              -43.838276
            ],
            [
              -57.658921,
              -43.835081
            ],
            [
              -57.425031,
              -43.814648
            ],
            [
              -57.194949,
              -43.777174
            ],
            [
              -56.970889,
              -43.72302
            ],
            [
              -56.755009,
              -43.652707
            ],
            [
              -56.549389,
              -43.566912
            ],
            [
              -56.356009,
              -43.466462
            ],
            [
              -56.176731,
              -43.352325
            ],
            [
              -56.013282,
              -43.225598
            ],
            [
              -55.867235,
              -43.087504
            ],
            [
              -55.739998,
              -42.939371
            ],
            [
              -55.632796,
              -42.782626
            ],
            [
              -55.546661,
              -42.618779
            ],
            [
              -55.482422,
              -42.449408
            ],
            [
              -55.440698,
              -42.276144
            ],
            [
              -55.421892,
              -42.100655
            ],
            [
              -55.426184,
              -41.924632
            ],
            [
              -55.453533,
              -41.74977
            ],
            [
              -55.503675,
              -41.577753
            ],
            [
              -55.576128,
              -41.410236
            ],
            [
              -55.670194,
              -41.248835
            ],
            [
              -55.784966,
              -41.095103
            ],
            [
              -55.919341,
              -40.95052
            ],
            [
              -56.072023,
              -40.816479
            ],
            [
              -56.241542,
              -40.694271
            ],
            [
              -56.426265,
              -40.585073
            ],
            [
              -56.624414,
              -40.489937
            ],
            [
              -56.83408,
              -40.409778
            ],
            [
              -57.053245,
              -40.345369
            ],
            [
              -57.279797,
              -40.297329
            ],
            [
              -57.511554,
              -40.266123
            ],
            [
              -57.746285,
              -40.252049
            ],
            [
              -57.981729,
              -40.255244
            ],
            [
              -58.215619,
              -40.275677
            ],
            [
              -58.445701,
              -40.313151
            ],
            [
              -58.669761,
              -40.367305
            ],
            [
              -58.885641,
              -40.437618
            ],
            [
              -59.091261,
              -40.523413
            ],
            [
              -59.284641,
              -40.623863
            ],
            [
              -59.463919,
              -40.738
            ],
            [
              -59.627368,
              -40.864727
            ],
            [
              -59.773415,
              -41.002821
            ],
            [
              -59.900652,
              -41.150954
            ]
          ]
        ],
        "type": "Polygon"
      },
      "properties": {
        "kind": "reachableSet",
        "observationStatus": "estimated",
        "vessel": "B"
      },
      "type": "Feature"
    }
  ],
  "properties": {
    "dateline": false
  },
  "type": "FeatureCollection"
}
