{
  "features": [
    {
      "geometry": {
        "coordinates": [
          164.673317,
          46.245833
        ],
        "type": "Point"
      },
      "properties": {
        "mmsi": "416241900",
        "observationStatus": "observed",
        "role": "off",
        "time": "2018-07-23T01:48:09Z",
        "vessel": "A"
      },
      "type": "Feature"
    },
    {
      "geometry": {
        "coordinates": [
          164.671307,
          46.17976
        ],
        "type": "Point"
      },
      "properties": {
        "mmsi": "416253700",
        "observationStatus": "observed",
        "role": "off",
        "time": "2018-07-23T02:06:00Z",
        "vessel": "B"
      },
      "type": "Feature"
    },
    {
      "geometry": {
        "coordinates": [
          164.63096,
          46.62888
        ],
        "type": "Point"
      },
      "properties": {
        "mmsi": "416241900",
        "observationStatus": "observed",
        "role": "on",
        "time": "2018-07-23T16:37:26Z",
        "vessel": "A"
      },
      "type": "Feature"
    },
    {
      "geometry": {
        "coordinates": [
          164.643333,
          46.663013
        ],
        "type": "Point"
      },
      "properties": {
        "mmsi": "416253700",
        "observationStatus": "observed",
        "role": "on",
        "time": "2018-07-23T16:42:03Z",
        "vessel": "B"
      },
      "type": "Feature"
    },
    {
      "geometry": {
        "coordinates": [
          [
            164.673317,
            46.245833
          ],
          [
            164.652138,
            46.510092
          ],
          [
            164.63096,
            46.62888
          ]
        ],
        "type": "LineString"
      },
      "properties": {
        "confidence": "low",
        "lineStyle": "dashed",
        "observationStatus": "estimated",
        "source": "reachable-set heuristic",
        "vessel": "A"
      },
      "type": "Feature"
    },
    {
      "geometry": {
        "coordinates": [
          [
            164.671307,
            46.17976
          ],
          [
            164.652138,
            46.510092
          ],
          [
            164.643333,
            46.663013
          ]
        ],
        "type": "LineString"
      },
      "properties": {
        "confidence": "low",
        "lineStyle": "dashed",
        "observationStatus": "estimated",
        "source": "reachable-set heuristic",
        "vessel": "B"
      },
      "type": "Feature"
    },
    {
      "geometry": {
        "coordinates": [
          164.652138,
          46.510092
        ],
        "type": "Point"
      },
      "properties": {
        "kind": "meetingPoint",
        "observationStatus": "estimated"
      },
      "type": "Feature"
    },
    {
      "geometry": {
        "coordinates": [
          [
            [
              164.498994,
              47.822301
            ],
            [
              164.305958,
              47.805317
            ],
            [
              164.116256,
              47.775159
            ],
            [
              163.931715,
              47.732117
            ],
            [
              163.754113,
              47.676607
            ],
            [
              163.585158,
              47.609161
            ],
            [
              163.42648,
              47.53043
            ],
            [
              163.279605,
              47.441173
            ],
            [
              163.145948,
              47.342248
            ],
            [
              163.026797,
              47.234609
            ],
            [
              162.923298,
              47.119291
            ],
            [
              162.83645,
              46.997406
            ],
            [
              162.767087,
              46.870128
            ],
            [
              162.715879,
              46.738682
            ],
            [
              162.683317,
              46.604334
            ],
            [
              162.669717,
              46.468377
            ],
            [
              162.675208,
              46.332122
            ],
            [
              162.699738,
              46.196881
            ],
            [
              162.743071,
              46.063955
            ],
            [
              162.80479,
              45.934626
            ],
            [
              162.884299,
              45.810138
            ],
            [
              162.980834,
              45.69169
            ],
            [
              163.093464,
              45.580424
            ],
            [
              163.221105,
              45.47741
            ],
            [
              163.362527,
              45.383642
            ],
            [
              163.51637,
              45.300021
            ],
            [
              163.68115,
              45.227353
            ],
            [
              163.855282,
              45.166338
            ],
            [
              164.037087,
              45.117564
            ],
            [
              164.224816,
              45.0815
            ],
            [
              164.416661,
              45.058494
            ],
            [
              164.610773,
              45.048767
            ],
            [
              164.805283,
              45.052413
            ],
            [
              164.998319,
              45.069396
            ],
            [
              165.18802,
              45.099554
            ],
            [
              165.372561,
              45.142596
            ],
            [
              165.550164,
              45.198107
            ],
            [
              165.719118,
              45.265552
            ],
            [
              165.877797,
              45.344283
            ],
            [
              166.024672,
              45.43354
            ],
            [
              166.158329,
              45.532465
            ],
            [
              166.27748,
              45.640105
            ],
            [
              166.380978,
              45.755422
            ],
            [
              166.467827,
              45.877307
            ],
            [
              166.53719,
              46.004585
            ],
            [
              166.588398,
              46.136032
            ],
            [
              166.620959,
              46.27038
            ],
            [
              166.63456,
              46.406336
            ],
            [
              166.629068,
              46.542591
            ],
            [
              166.604538,
              46.677832
            ],
            [
              166.561205,
              46.810758
            ],
            [
              166.499487,
              46.940088
            ],
            [
              166.419978,
              47.064576
            ],
            [
              166.323443,
              47.183023
            ],
            [
              166.210813,
              47.294289
            ],
            [
              166.083172,
              47.397303
            ],
            [
              165.941749,
              47.491072
            ],
            [
              165.787907,
              47.574693
            ],
            [
              165.623127,
              47.64736
            ],
            [
              165.448995,
              47.708375
            ],
            [
              165.267189,
              47.757149
            ],
            [
              165.07946,
              47.793213
            ],
            [
              164.887616,
              47.816219
            ],
            [
              164.693504,
              47.825946
            ],
            [
              164.498994,
              47.822301
            ]
          ]
        ],
        "type": "Polygon"
      },
      "properties": {
        "kind": "reachableSet",
        "observationStatus": "estimated",
        "vessel": "A"
      },
      "type": "Feature"
    },
    {
      "geometry": {
        "coordinates": [
          [
            [
              164.578263,
              47.787134
            ],
            [
              164.388802,
              47.775264
            ],
            [
              164.201927,
              47.750356
            ],
            [
              164.019438,
              47.712649
            ],
            [
              163.843091,
              47.662507
            ],
            [
              163.674587,
              47.600412
            ],
            [
              163.515546,
              47.526962
            ],
            [
              163.367501,
              47.442865
            ],
            [
              163.231878,
              47.348931
            ],
            [
              163.109983,
              47.246063
            ],
            [
              163.00299,
              47.135254
            ],
            [
              162.911928,
              47.01757
            ],
            [
              162.837676,
              46.894144
            ],
            [
              162.780948,
              46.766165
            ],
            [
              162.74229,
              46.634866
            ],
            [
              162.722076,
              46.501511
            ],
            [
              162.720498,
              46.367385
            ],
            [
              162.737573,
              46.233778
            ],
            [
              162.773137,
              46.101978
            ],
            [
              162.826846,
              45.973255
            ],
            [
              162.898184,
              45.848847
            ],
            [
              162.986463,
              45.729953
            ],
            [
              163.090833,
              45.617717
            ],
            [
              163.21029,
              45.513222
            ],
            [
              163.343682,
              45.417473
            ],
            [
              163.489725,
              45.331391
            ],
            [
              163.647013,
              45.255808
            ],
            [
              163.81403,
              45.191449
            ],
            [
              163.989169,
              45.138935
            ],
            [
              164.170743,
              45.098772
            ],
            [
              164.357003,
              45.071347
            ],
            [
              164.546154,
              45.056923
            ],
            [
              164.736377,
              45.05564
            ],
            [
              164.925838,
              45.067509
            ],
            [
              165.112713,
              45.092417
            ],
            [
              165.295202,
              45.130124
            ],
            [
              165.471549,
              45.180267
            ],
            [
              165.640053,
              45.242362
            ],
            [
              165.799094,
              45.315811
            ],
            [
              165.947139,
              45.399908
            ],
            [
              166.082762,
              45.493843
            ],
            [
              166.204657,
              45.59671
            ],
            [
              166.31165,
              45.707519
            ],
            [
              166.402712,
              45.825203
            ],
            [
              166.476964,
              45.948629
            ],
            [
              166.533692,
              46.076608
            ],
            [
              166.57235,
              46.207907
            ],
            [
              166.592564,
              46.341262
            ],
            [
              166.594142,
              46.475389
            ],
            [
              166.577067,
              46.608995
            ],
            [
              166.541503,
              46.740795
            ],
            [
              166.487794,
              46.869519
            ],
            [
              166.416456,
              46.993927
            ],
            [
              166.328177,
              47.112821
            ],
            [
              166.223807,
              47.225056
            ],
            [
              166.10435,
              47.329551
            ],
            [
              165.970958,
              47.425301
            ],
            [
              165.824915,
              47.511382
            ],
            [
              165.667627,
              47.586966
            ],
            [
              165.50061,
              47.651324
            ],
            [
              165.325471,
              47.703838
            ],
            [
              165.143897,
              47.744001
            ],
            [
              164.957637,
              47.771426
            ],
            [
              164.768486,
              47.78585
            ],
            [
              164.578263,
              47.787134
            ]
          ]
        ],
        "type": "Polygon"
      },
      "properties": {
        "kind": "reachableSet",
        "observationStatus": "estimated",
        "vessel": "B"
      },
      "type": "Feature"
    }
  ],
  "properties": {
    "dateline": false
  },
  "type": "FeatureCollection"
}
