{
  "features": [
    {
      "geometry": {
        "coordinates": [
          -60.274193,
          -45.543988
        ],
        "type": "Point"
      },
      "properties": {
        "mmsi": "412329691",
        "observationStatus": "observed",
        "role": "off",
        "time": "2018-02-02T05:24:29Z",
        "vessel": "A"
      },
      "type": "Feature"
    },
    {
      "geometry": {
        "coordinates": [
          -60.349542,
          -45.574275
        ],
        "type": "Point"
      },
      "properties": {
        "mmsi": "412329685",
        "observationStatus": "observed",
        "role": "off",
        "time": "2018-02-02T05:39:07Z",
        "vessel": "B"
      },
      "type": "Feature"
    },
    {
      "geometry": {
        "coordinates": [
          -60.591818,
          -45.62811
        ],
        "type": "Point"
      },
      "properties": {
        "mmsi": "412329691",
        "observationStatus": "observed",
        "role": "on",
        "time": "2018-02-02T23:29:18Z",
        "vessel": "A"
      },
      "type": "Feature"
    },
    {
      "geometry": {
        "coordinates": [
          -60.571223,
          -45.684357
        ],
        "type": "Point"
      },
      "properties": {
        "mmsi": "412329685",
        "observationStatus": "observed",
        "role": "on",
        "time": "2018-02-02T23:30:54Z",
        "vessel": "B"
      },
      "type": "Feature"
    },
    {
      "geometry": {
        "coordinates": [
          [
            -60.274193,
            -45.543988
          ],
          [
            -60.422903,
            -45.614173
          ],
          [
            -60.591818,
            -45.62811
          ]
        ],
        "type": "LineString"
      },
      "properties": {
        "confidence": "low",
        "lineStyle": "dashed",
        "observationStatus": "estimated",
        "source": "reachable-set heuristic",
        "vessel": "A"
      },
      "type": "Feature"
    },
    {
      "geometry": {
        "coordinates": [
          [
            -60.349542,
            -45.574275
          ],
          [
            -60.422903,
            -45.614173
          ],
          [
            -60.571223,
            -45.684357
          ]
        ],
        "type": "LineString"
      },
      "properties": {
        "confidence": "low",
        "lineStyle": "dashed",
        "observationStatus": "estimated",
        "source": "reachable-set heuristic",
        "vessel": "B"
      },
      "type": "Feature"
    },
    {
      "geometry": {
        "coordinates": [
          -60.422903,
          -45.614173
        ],
        "type": "Point"
      },
      "properties": {
        "kind": "meetingPoint",
        "observationStatus": "estimated"
      },
      "type": "Feature"
    },
    {
      "geometry": {
        "coordinates": [
          [
            [
              -62.903481,
              -46.240344
            ],
            [
              -62.800752,
              -46.407455
            ],
            [
              -62.67522,
              -46.566655
            ],
            [
              -62.528095,
              -46.716412
            ],
            [
              -62.360792,
              -46.855282
            ],
            [
              -62.174924,
              -46.981929
            ],
            [
              -61.972281,
              -47.095133
            ],
            [
              -61.754813,
              -47.193804
            ],
            [
              -61.524616,
              -47.276991
            ],
            [
              -61.283906,
              -47.343893
            ],
            [
              -61.035001,
              -47.393866
            ],
            [
              -60.780299,
              -47.42643
            ],
            [
              -60.522252,
              -47.441269
            ],
            [
              -60.263346,
              -47.438241
            ],
            [
              -60.006073,
              -47.417376
            ],
            [
              -59.752912,
              -47.378874
            ],
            [
              -59.506301,
              -47.323107
            ],
            [
              -59.268614,
              -47.25061
            ],
            [
              -59.042142,
              -47.162083
            ],
            [
              -58.829064,
              -47.058378
            ],
            [
              -58.631432,
              -46.940493
            ],
            [
              -58.451151,
              -46.809565
            ],
            [
              -58.289957,
              -46.666853
            ],
            [
              -58.149401,
              -46.513732
            ],
            [
              -58.030837,
              -46.351678
            ],
            [
              -57.935408,
              -46.18225
            ],
            [
              -57.864031,
              -46.00708
            ],
            [
              -57.817396,
              -45.827856
            ],
            [
              -57.79595,
              -45.646302
            ],
            [
              -57.799901,
              -45.464169
            ],
            [
              -57.829209,
              -45.283209
            ],
            [
              -57.883594,
              -45.105166
            ],
            [
              -57.962531,
              -44.931754
            ],
            [
              -58.06526,
              -44.764643
            ],
            [
              -58.190792,
              -44.605443
            ],
            [
              -58.337917,
              -44.455687
            ],
            [
              -58.505219,
              -44.316816
            ],
            [
              -58.691087,
              -44.190169
            ],
            [
              -58.893731,
              -44.076965
            ],
            [
              -59.111198,
              -43.978295
            ],
            [
              -59.341396,
              -43.895108
            ],
            [
              -59.582106,
              -43.828205
            ],
            [
              -59.831011,
              -43.778232
            ],
            [
              -60.085713,
              -43.745669
            ],
            [
              -60.34376,
              -43.730829
            ],
            [
              -60.602666,
              -43.733857
            ],
            [
              -60.859939,
              -43.754722
            ],
            [
              -61.113099,
              -43.793224
            ],
            [
              -61.359711,
              -43.848992
            ],
            [
              -61.597397,
              -43.921488
            ],
            [
              -61.82387,
              -44.010015
            ],
            [
              -62.036948,
              -44.113721
            ],
            [
              -62.234579,
              -44.231605
            ],
            [
              -62.41486,
              -44.362534
            ],
            [
              -62.576055,
              -44.505246
            ],
            [
              -62.716611,
              -44.658366
            ],
            [
              -62.835175,
              -44.820421
            ],
            [
              -62.930604,
              -44.989848
            ],
            [
              -63.00198,
              -45.165018
            ],
            [
              -63.048616,
              -45.344243
            ],
            [
              -63.070062,
              -45.525796
            ],
            [
              -63.066111,
              -45.707929
            ],
            [
              -63.036802,
              -45.888889
            ],
            [
              -62.982418,
              -46.066932
            ],
            [
              -62.903481,
              -46.240344
            ]
          ]
        ],
        "type": "Polygon"
      },
      "properties": {
        "kind": "reachableSet",
        "observationStatus": "estimated",
        "vessel": "A"
      },
      "type": "Feature"
    },
    {
      "geometry": {
        "coordinates": [
          [
            [
              -62.591341,
              -46.687497
            ],
            [
              -62.433958,
              -46.829256
            ],
            [
              -62.257569,
              -46.959459
            ],
            [
              -62.063872,
              -47.076852
            ],
            [
              -61.854733,
              -47.180304
            ],
            [
              -61.632165,
              -47.26882
            ],
            [
              -61.398312,
              -47.341546
            ],
            [
              -61.155426,
              -47.397782
            ],
            [
              -60.905847,
              -47.436987
            ],
            [
              -60.651978,
              -47.458783
            ],
            [
              -60.396263,
              -47.462961
            ],
            [
              -60.141166,
              -47.449479
            ],
            [
              -59.889143,
              -47.418468
            ],
            [
              -59.642622,
              -47.370227
            ],
            [
              -59.403976,
              -47.30522
            ],
            [
              -59.175504,
              -47.224073
            ],
            [
              -58.959406,
              -47.127567
            ],
            [
              -58.757763,
              -47.016633
            ],
            [
              -58.572517,
              -46.892338
            ],
            [
              -58.405453,
              -46.755879
            ],
            [
              -58.258178,
              -46.608571
            ],
            [
              -58.132112,
              -46.451832
            ],
            [
              -58.028469,
              -46.287172
            ],
            [
              -57.948246,
              -46.116176
            ],
            [
              -57.892216,
              -45.940492
            ],
            [
              -57.86092,
              -45.761811
            ],
            [
              -57.854657,
              -45.581854
            ],
            [
              -57.873489,
              -45.402354
            ],
            [
              -57.917235,
              -45.225039
            ],
            [
              -57.985472,
              -45.051619
            ],
            [
              -58.077544,
              -44.883761
            ],
            [
              -58.192564,
              -44.723084
            ],
            [
              -58.329424,
              -44.571134
            ],
            [
              -58.486807,
              -44.429375
            ],
            [
              -58.663196,
              -44.299173
            ],
            [
              -58.856893,
              -44.18178
            ],
            [
              -59.066032,
              -44.078328
            ],
            [
              -59.2886,
              -43.989812
            ],
            [
              -59.522453,
              -43.917086
            ],
            [
              -59.765339,
              -43.86085
            ],
            [
              -60.014918,
              -43.821645
            ],
            [
              -60.268787,
              -43.799849
            ],
            [
              -60.524502,
              -43.795671
            ],
            [
              -60.779599,
              -43.809153
            ],
            [
              -61.031622,
              -43.840163
            ],
            [
              -61.278143,
              -43.888405
            ],
            [
              -61.516789,
              -43.953412
            ],
            [
              -61.745261,
              -44.034559
            ],
            [
              -61.961359,
              -44.131064
            ],
            [
              -62.163002,
              -44.241999
            ],
            [
              -62.348248,
              -44.366294
            ],
            [
              -62.515312,
              -44.502753
            ],
            [
              -62.662587,
              -44.650061
            ],
            [
              -62.788653,
              -44.806799
            ],
            [
              -62.892296,
              -44.97146
            ],
            [
              -62.972519,
              -45.142455
            ],
            [
              -63.028549,
              -45.31814
            ],
            [
              -63.059845,
              -45.496821
            ],
            [
              -63.066108,
              -45.676778
            ],
            [
              -63.047276,
              -45.856278
            ],
            [
              -63.00353,
              -46.033592
            ],
            [
              -62.935293,
              -46.207013
            ],
            [
              -62.843221,
              -46.37487
            ],
            [
              -62.728201,
              -46.535548
            ],
            [
              -62.591341,
              -46.687497
            ]
          ]
        ],
        "type": "Polygon"
      },
      "properties": {
        "kind": "reachableSet",
        "observationStatus": "estimated",
        "vessel": "B"
      },
      "type": "Feature"
    }
  ],
  "properties": {
    "dateline": false
  },
  "type": "FeatureCollection"
}
