{
  "features": [
    {
      "geometry": {
        "coordinates": [
          -57.723507,
          -41.993815
        ],
        "type": "Point"
      },
      "properties": {
        "mmsi": "412329686",
        "observationStatus": "observed",
        "role": "off",
        "time": "2019-05-14T05:22:02Z",
        "vessel": "A"
      },
      "type": "Feature"
    },
    {
      "geometry": {
        "coordinates": [
          -57.711848,
          -41.931158
        ],
        "type": "Point"
      },
      "properties": {
        "mmsi": "412329689",
        "observationStatus": "observed",
        "role": "off",
        "time": "2019-05-14T06:00:27Z",
        "vessel": "B"
      },
      "type": "Feature"
    },
    {
      "geometry": {
        "coordinates": [
          -57.870933,
          -42.064187
        ],
        "type": "Point"
      },
      "properties": {
        "mmsi": "412329689",
        "observationStatus": "observed",
        "role": "on",
        "time": "2019-05-14T22:08:28Z",
        "vessel": "B"
      },
      "type": "Feature"
    },
    {
      "geometry": {
        "coordinates": [
          -57.899653,
          -42.020053
        ],
        "type": "Point"
      },
      "properties": {
        "mmsi": "412329686",
        "observationStatus": "observed",
        "role": "on",
        "time": "2019-05-14T22:11:28Z",
        "vessel": "A"
      },
      "type": "Feature"
    },
    {
      "geometry": {
        "coordinates": [
          [
            -57.723507,
            -41.993815
          ],
          [
            -57.743282,
            -41.957312
          ],
          [
            -57.899653,
            -42.020053
          ]
        ],
        "type": "LineString"
      },
      "properties": {
        "confidence": "low",
        "lineStyle": "dashed",
        "observationStatus": "estimated",
        "source": "reachable-set heuristic",
        "vessel": "A"
      },
      "type": "Feature"
    },
    {
      "geometry": {
        "coordinates": [
          [
            -57.711848,
            -41.931158
          ],
          [
            -57.743282,
            -41.957312
          ],
          [
            -57.870933,
            -42.064187
          ]
        ],
        "type": "LineString"
      },
      "properties": {
        "confidence": "low",
        "lineStyle": "dashed",
        "observationStatus": "estimated",
        "source": "reachable-set heuristic",
        "vessel": "B"
      },
      "type": "Feature"
    },
    {
      "geometry": {
        "coordinates": [
          -57.743282,
          -41.957312
        ],
        "type": "Point"
      },
      "properties": {
        "kind": "meetingPoint",
        "observationStatus": "estimated"
      },
      "type": "Feature"
    },
    {
      "geometry": {
        "coordinates": [
          [
            [
              -60.070108,
              -42.343358
            ],
            [
              -60.015188,
              -42.507224
            ],
            [
              -59.939045,
              -42.666271
            ],
            [
              -59.842414,
              -42.818968
            ],
            [
              -59.726225,
              -42.963845
            ],
            [
              -59.591597,
              -43.099507
            ],
            [
              -59.439826,
              -43.224646
            ],
            [
              -59.272375,
              -43.338058
            ],
            [
              -59.090855,
              -43.438651
            ],
            [
              -58.897015,
              -43.525455
            ],
            [
              -58.692721,
              -43.597636
            ],
            [
              -58.479942,
              -43.654497
            ],
            [
              -58.260726,
              -43.695491
            ],
            [
              -58.037185,
              -43.720223
            ],
            [
              -57.811471,
              -43.728455
            ],
            [
              -57.585758,
              -43.720109
            ],
            [
              -57.36222,
              -43.695263
            ],
            [
              -57.143009,
              -43.654158
            ],
            [
              -56.930237,
              -43.597189
            ],
            [
              -56.725953,
              -43.524905
            ],
            [
              -56.532124,
              -43.438003
            ],
            [
              -56.350617,
              -43.337318
            ],
            [
              -56.183179,
              -43.223821
            ],
            [
              -56.031425,
              -43.098605
            ],
            [
              -55.896814,
              -42.962875
            ],
            [
              -55.780643,
              -42.817939
            ],
            [
              -55.684031,
              -42.665193
            ],
            [
              -55.607909,
              -42.506107
            ],
            [
              -55.553009,
              -42.342214
            ],
            [
              -55.519861,
              -42.175092
            ],
            [
              -55.508783,
              -42.006351
            ],
            [
              -55.519882,
              -41.837615
            ],
            [
              -55.553052,
              -41.67051
            ],
            [
              -55.607972,
              -41.506645
            ],
            [
              -55.684115,
              -41.347598
            ],
            [
              -55.780746,
              -41.1949
            ],
            [
              -55.896935,
              -41.050023
            ],
            [
              -56.031563,
              -40.914362
            ],
            [
              -56.183334,
              -40.789222
            ],
            [
              -56.350785,
              -40.67581
            ],
            [
              -56.532305,
              -40.575218
            ],
            [
              -56.726145,
              -40.488413
            ],
            [
              -56.930439,
              -40.416233
            ],
            [
              -57.143218,
              -40.359372
            ],
            [
              -57.362434,
              -40.318378
            ],
            [
              -57.585975,
              -40.293645
            ],
            [
              -57.811689,
              -40.285413
            ],
            [
              -58.037402,
              -40.29376
            ],
            [
              -58.26094,
              -40.318605
            ],
            [
              -58.480151,
              -40.35971
            ],
            [
              -58.692923,
              -40.416679
            ],
            [
              -58.897207,
              -40.488963
            ],
            [
              -59.091036,
              -40.575866
            ],
            [
              -59.272543,
              -40.67655
            ],
            [
              -59.439981,
              -40.790047
            ],
            [
              -59.591735,
              -40.915264
            ],
            [
              -59.726346,
              -41.050993
            ],
            [
              -59.842517,
              -41.195929
            ],
            [
              -59.939129,
              -41.348675
            ],
            [
              -60.015251,
              -41.507761
            ],
            [
              -60.070151,
              -41.671654
            ],
            [
              -60.103299,
              -41.838776
            ],
            [
              -60.114377,
              -42.007518
            ],
            [
              -60.103278,
              -42.176253
            ],
            [
              -60.070108,
              -42.343358
            ]
          ]
        ],
        "type": "Polygon"
      },
      "properties": {
        "kind": "reachableSet",
        "observationStatus": "estimated",
        "vessel": "A"
      },
      "type": "Feature"
    },
    {
      "geometry": {
        "coordinates": [
          [
            [
              -59.259759,
              -43.225535
            ],
            [
              -59.092072,
              -43.327151
            ],
            [
              -58.91186,
              -43.415964
            ],
            [
              -58.720856,
              -43.491118
            ],
            [
              -58.520901,
              -43.551888
            ],
            [
              -58.313921,
              -43.597691
            ],
            [
              -58.101909,
              -43.628085
            ],
            [
              -57.886906,
              -43.642777
            ],
            [
              -57.670983,
              -43.641626
            ],
            [
              -57.456219,
              -43.624643
            ],
            [
              -57.244684,
              -43.591991
            ],
            [
              -57.038414,
              -43.543985
            ],
            [
              -56.839395,
              -43.481087
            ],
            [
              -56.649544,
              -43.403903
            ],
            [
              -56.47069,
              -43.313176
            ],
            [
              -56.304556,
              -43.20978
            ],
            [
              -56.15274,
              -43.094711
            ],
            [
              -56.016705,
              -42.969077
            ],
            [
              -55.897762,
              -42.834088
            ],
            [
              -55.797055,
              -42.691043
            ],
            [
              -55.715555,
              -42.541322
            ],
            [
              -55.654046,
              -42.386364
            ],
            [
              -55.613121,
              -42.227663
            ],
            [
              -55.593174,
              -42.066747
            ],
            [
              -55.594397,
              -41.905166
            ],
            [
              -55.616778,
              -41.744476
            ],
            [
              -55.660102,
              -41.586224
            ],
            [
              -55.723951,
              -41.431935
            ],
            [
              -55.807711,
              -41.283094
            ],
            [
              -55.910575,
              -41.141135
            ],
            [
              -56.031552,
              -41.007424
            ],
            [
              -56.169477,
              -40.883251
            ],
            [
              -56.323023,
              -40.76981
            ],
            [
              -56.490709,
              -40.668194
            ],
            [
              -56.670922,
              -40.579381
            ],
            [
              -56.861925,
              -40.504227
            ],
            [
              -57.06188,
              -40.443457
            ],
            [
              -57.268861,
              -40.397654
            ],
            [
              -57.480873,
              -40.36726
            ],
            [
              -57.695876,
              -40.352568
            ],
            [
              -57.911799,
              -40.353719
            ],
            [
              -58.126562,
              -40.370702
            ],
            [
              -58.338098,
              -40.403354
            ],
            [
              -58.544368,
              -40.45136
            ],
            [
              -58.743387,
              -40.514258
            ],
            [
              -58.933237,
              -40.591442
            ],
            [
              -59.112091,
              -40.682169
            ],
            [
              -59.278226,
              -40.785565
            ],
            [
              -59.430042,
              -40.900634
            ],
            [
              -59.566077,
              -41.026268
            ],
            [
              -59.68502,
              -41.161257
            ],
            [
              -59.785727,
              -41.304302
            ],
            [
              -59.867227,
              -41.454023
            ],
            [
              -59.928736,
              -41.608981
            ],
            [
              -59.969661,
              -41.767682
            ],
            [
              -59.989608,
              -41.928598
            ],
            [
              -59.988385,
              -42.090179
            ],
            [
              -59.966004,
              -42.250869
            ],
            [
              -59.92268,
              -42.409121
            ],
            [
              -59.858831,
              -42.56341
            ],
            [
              -59.775071,
              -42.712251
            ],
            [
              -59.672207,
              -42.85421
            ],
            [
              -59.55123,
              -42.987921
            ],
            [
              -59.413304,
              -43.112094
            ],
            [
              -59.259759,
              -43.225535
            ]
          ]
        ],
        "type": "Polygon"
      },
      "properties": {
        "kind": "reachableSet",
        "observationStatus": "estimated",
        "vessel": "B"
      },
      "type": "Feature"
    }
  ],
  "properties": {
    "dateline": false
  },
  "type": "FeatureCollection"
}
