{
  "features": [
    {
      "geometry": {
        "coordinates": [
          158.673967,
          46.460185
        ],
        "type": "Point"
      },
      "properties": {
        "mmsi": "412439617",
        "observationStatus": "observed",
        "role": "off",
        "time": "2017-07-28T03:48:55Z",
        "vessel": "A"
      },
      "type": "Feature"
    },
    {
      "geometry": {
        "coordinates": [
          158.6168,
          46.430723
        ],
        "type": "Point"
      },
      "properties": {
        "mmsi": "416004244",
        "observationStatus": "observed",
        "role": "off",
        "time": "2017-07-28T04:17:53Z",
        "vessel": "B"
      },
      "type": "Feature"
    },
    {
      "geometry": {
        "coordinates": [
          158.601893,
          46.430373
        ],
        "type": "Point"
      },
      "properties": {
        "mmsi": "412439617",
        "observationStatus": "observed",
        "role": "on",
        "time": "2017-07-28T16:29:11Z",
        "vessel": "A"
      },
      "type": "Feature"
    },
    {
      "geometry": {
        "coordinates": [
          158.619168,
          46.390645
        ],
        "type": "Point"
      },
      "properties": {
        "mmsi": "416004244",
        "observationStatus": "observed",
        "role": "on",
        "time": "2017-07-28T17:28:57Z",
        "vessel": "B"
      },
      "type": "Feature"
    },
    {
      "geometry": {
        "coordinates": [
          [
            158.673967,
            46.460185
          ],
          [
            158.605099,
            46.430171
          ],
          [
            158.601893,
            46.430373
          ]
        ],
        "type": "LineString"
      },
      "properties": {
        "confidence": "low",
        "lineStyle": "dashed",
        "observationStatus": "estimated",
        "source": "reachable-set heuristic",
        "vessel": "A"
      },
      "type": "Feature"
    },
    {
      "geometry": {
        "coordinates": [
          [
            158.6168,
            46.430723
          ],
          [
            158.605099,
            46.430171
          ],
          [
            158.619168,
            46.390645
          ]
        ],
        "type": "LineString"
      },
      "properties": {
        "confidence": "low",
        "lineStyle": "dashed",
        "observationStatus": "estimated",
        "source": "reachable-set heuristic",
        "vessel": "B"
      },
      "type": "Feature"
    },
    {
      "geometry": {
        "coordinates": [
          158.605099,
          46.430171
        ],
        "type": "Point"
      },
      "properties": {
        "kind": "meetingPoint",
        "observationStatus": "estimated"
      },
      "type": "Feature"
    },
    {
      "geometry": {
        "coordinates": [
          [
            [
              157.185716,
              45.8446
            ],
            [
              157.277553,
              45.748778
            ],
            [
              157.382492,
              45.659663
            ],
            [
              157.499522,
              45.578113
            ],
            [
              157.627515,
              45.504916
            ],
            [
              157.765238,
              45.440774
            ],
            [
              157.911367,
              45.386306
            ],
            [
              158.064492,
              45.342037
            ],
            [
              158.22314,
              45.308393
            ],
            [
              158.385783,
              45.285697
            ],
            [
              158.550854,
              45.274169
            ],
            [
              158.716764,
              45.273919
            ],
            [
              158.881914,
              45.284951
            ],
            [
              159.044715,
              45.307156
            ],
            [
              159.203598,
              45.340323
            ],
            [
              159.357033,
              45.384131
            ],
            [
              159.503543,
              45.438158
            ],
            [
              159.641717,
              45.501884
            ],
            [
              159.770224,
              45.574696
            ],
            [
              159.887826,
              45.655892
            ],
            [
              159.993391,
              45.74469
            ],
            [
              160.085902,
              45.840236
            ],
            [
              160.164468,
              45.941608
            ],
            [
              160.228333,
              46.047831
            ],
            [
              160.276882,
              46.157881
            ],
            [
              160.309646,
              46.270699
            ],
            [
              160.326311,
              46.385199
            ],
            [
              160.326716,
              46.500277
            ],
            [
              160.310857,
              46.614826
            ],
            [
              160.278887,
              46.727741
            ],
            [
              160.231113,
              46.837937
            ],
            [
              160.167997,
              46.944351
            ],
            [
              160.090144,
              47.045958
            ],
            [
              159.998307,
              47.141781
            ],
            [
              159.893368,
              47.230896
            ],
            [
              159.776338,
              47.312445
            ],
            [
              159.648345,
              47.385643
            ],
            [
              159.510622,
              47.449784
            ],
            [
              159.364493,
              47.504252
            ],
            [
              159.211368,
              47.548521
            ],
            [
              159.05272,
              47.582166
            ],
            [
              158.890077,
              47.604861
            ],
            [
              158.725006,
              47.616389
            ],
            [
              158.559096,
              47.616639
            ],
            [
              158.393946,
              47.605608
            ],
            [
              158.231145,
              47.583402
            ],
            [
              158.072262,
              47.550235
            ],
            [
              157.918827,
              47.506428
            ],
            [
              157.772317,
              47.4524
            ],
            [
              157.634143,
              47.388674
            ],
            [
              157.505636,
              47.315862
            ],
            [
              157.388034,
              47.234666
            ],
            [
              157.282469,
              47.145868
            ],
            [
              157.189958,
              47.050323
            ],
            [
              157.111392,
              46.948951
            ],
            [
              157.047527,
              46.842728
            ],
            [
              156.998978,
              46.732677
            ],
            [
              156.966214,
              46.619859
            ],
            [
              156.949549,
              46.505359
            ],
            [
              156.949144,
              46.390281
            ],
            [
              156.965003,
              46.275733
            ],
            [
              156.996973,
              46.162817
            ],
            [
              157.044747,
              46.052622
            ],
            [
              157.107863,
              45.946208
            ],
            [
              157.185716,
              45.8446
            ]
          ]
        ],
        "type": "Polygon"
      },
      "properties": {
        "kind": "reachableSet",
        "observationStatus": "estimated",
        "vessel": "A"
      },
      "type": "Feature"
    },
    {
      "geometry": {
        "coordinates": [
          [
            [
              158.690283,
              45.187208
            ],
            [
              158.862669,
              45.198018
            ],
            [
              159.032699,
              45.220506
            ],
            [
              159.198735,
              45.254457
            ],
            [
              159.359178,
              45.299542
            ],
            [
              159.512483,
              45.355329
            ],
            [
              159.657173,
              45.421279
            ],
            [
              159.791855,
              45.496758
            ],
            [
              159.915233,
              45.581038
            ],
            [
              160.026117,
              45.673309
            ],
            [
              160.12344,
              45.77268
            ],
            [
              160.206265,
              45.878196
            ],
            [
              160.273794,
              45.98884
            ],
            [
              160.325376,
              46.103547
            ],
            [
              160.360515,
              46.221212
            ],
            [
              160.378873,
              46.340701
            ],
            [
              160.380272,
              46.460864
            ],
            [
              160.3647,
              46.580544
            ],
            [
              160.332306,
              46.698588
            ],
            [
              160.283402,
              46.81386
            ],
            [
              160.218459,
              46.925249
            ],
            [
              160.138102,
              47.031682
            ],
            [
              160.043106,
              47.132134
            ],
            [
              159.934386,
              47.225639
            ],
            [
              159.812987,
              47.311295
            ],
            [
              159.680081,
              47.388278
            ],
            [
              159.536945,
              47.455846
            ],
            [
              159.38496,
              47.513349
            ],
            [
              159.225588,
              47.560232
            ],
            [
              159.060364,
              47.596045
            ],
            [
              158.89088,
              47.620441
            ],
            [
              158.718768,
              47.633188
            ],
            [
              158.545686,
              47.634161
            ],
            [
              158.373299,
              47.623351
            ],
            [
              158.20327,
              47.600862
            ],
            [
              158.037234,
              47.566912
            ],
            [
              157.876791,
              47.521826
            ],
            [
              157.723486,
              47.466039
            ],
            [
              157.578795,
              47.400089
            ],
            [
              157.444113,
              47.32461
            ],
            [
              157.320736,
              47.24033
            ],
            [
              157.209851,
              47.14806
            ],
            [
              157.112528,
              47.048688
            ],
            [
              157.029703,
              46.943172
            ],
            [
              156.962175,
              46.832528
            ],
            [
              156.910592,
              46.717821
            ],
            [
              156.875453,
              46.600157
            ],
            [
              156.857095,
              46.480667
            ],
            [
              156.855696,
              46.360504
            ],
            [
              156.871268,
              46.240824
            ],
            [
              156.903663,
              46.12278
            ],
            [
              156.952567,
              46.007508
            ],
            [
              157.01751,
              45.89612
            ],
            [
              157.097866,
              45.789687
            ],
            [
              157.192862,
              45.689234
            ],
            [
              157.301583,
              45.595729
            ],
            [
              157.422981,
              45.510073
            ],
            [
              157.555888,
              45.43309
            ],
            [
              157.699023,
              45.365522
            ],
            [
              157.851009,
              45.30802
            ],
            [
              158.010381,
              45.261136
            ],
            [
              158.175604,
              45.225324
            ],
            [
              158.345088,
              45.200927
            ],
            [
              158.5172,
              45.188181
            ],
            [
              158.690283,
              45.187208
            ]
          ]
        ],
        "type": "Polygon"
      },
      "properties": {
        "kind": "reachableSet",
        "observationStatus": "estimated",
        "vessel": "B"
      },
      "type": "Feature"
    }
  ],
  "properties": {
    "dateline": false
  },
  "type": "FeatureCollection"
}
