{
  "features": [
    {
      "geometry": {
        "coordinates": [
          -60.68816,
          -46.332587
        ],
        "type": "Point"
      },
      "properties": {
        "mmsi": "412329684",
        "observationStatus": "observed",
        "role": "off",
        "time": "2019-02-11T04:20:42Z",
        "vessel": "A"
      },
      "type": "Feature"
    },
    {
      "geometry": {
        "coordinates": [
          -60.815093,
          -46.321867
        ],
        "type": "Point"
      },
      "properties": {
        "mmsi": "412329689",
        "observationStatus": "observed",
        "role": "off",
        "time": "2019-02-11T05:12:06Z",
        "vessel": "B"
      },
      "type": "Feature"
    },
    {
      "geometry": {
        "coordinates": [
          -60.678832,
          -45.744103
        ],
        "type": "Point"
      },
      "properties": {
        "mmsi": "412329689",
        "observationStatus": "observed",
        "role": "on",
        "time": "2019-02-11T22:39:12Z",
        "vessel": "B"
      },
      "type": "Feature"
    },
    {
      "geometry": {
        "coordinates": [
          -60.591115,
          -45.802308
        ],
        "type": "Point"
      },
      "properties": {
        "mmsi": "412329684",
        "observationStatus": "observed",
        "role": "on",
        "time": "2019-02-11T23:12:57Z",
        "vessel": "A"
      },
      "type": "Feature"
    },
    {
      "geometry": {
        "coordinates": [
          [
            -60.68816,
            -46.332587
          ],
          [
            -60.691239,
            -45.797067
          ],
          [
            -60.591115,
            -45.802308
          ]
        ],
        "type": "LineString"
      },
      "properties": {
        "confidence": "low",
        "lineStyle": "dashed",
        "observationStatus": "estimated",
        "source": "reachable-set heuristic",
        "vessel": "A"
      },
      "type": "Feature"
    },
    {
      "geometry": {
        "coordinates": [
          [
            -60.815093,
            -46.321867
          ],
          [
            -60.691239,
            -45.797067
          ],
          [
            -60.678832,
            -45.744103
          ]
        ],
        "type": "LineString"
      },
      "properties": {
        "confidence": "low",
        "lineStyle": "dashed",
        "observationStatus": "estimated",
        "source": "reachable-set heuristic",
        "vessel": "B"
      },
      "type": "Feature"
    },
    {
      "geometry": {
        "coordinates": [
          -60.691239,
          -45.797067
        ],
        "type": "Point"
      },
      "properties": {
        "kind": "meetingPoint",
        "observationStatus": "estimated"
      },
      "type": "Feature"
    },
    {
      "geometry": {
        "coordinates": [
          [
            [
              -60.286445,
              -44.137516
            ],
            [
              -60.556389,
              -44.122856
            ],
            [
              -60.827135,
              -44.126924
            ],
            [
              -61.096076,
              -44.14968
            ],
            [
              -61.36062,
              -44.190906
            ],
            [
              -61.618221,
              -44.250203
            ],
            [
              -61.866398,
              -44.327002
            ],
            [
              -62.102761,
              -44.420562
            ],
            [
              -62.325032,
              -44.529983
            ],
            [
              -62.531073,
              -44.65421
            ],
            [
              -62.718898,
              -44.792047
            ],
            [
              -62.886698,
              -44.942167
            ],
            [
              -63.032858,
              -45.103125
            ],
            [
              -63.15597,
              -45.273369
            ],
            [
              -63.254849,
              -45.45126
            ],
            [
              -63.328541,
              -45.635086
            ],
            [
              -63.376338,
              -45.823076
            ],
            [
              -63.397779,
              -46.013419
            ],
            [
              -63.392657,
              -46.204282
            ],
            [
              -63.361023,
              -46.393828
            ],
            [
              -63.30318,
              -46.580231
            ],
            [
              -63.219686,
              -46.761695
            ],
            [
              -63.111344,
              -46.936473
            ],
            [
              -62.979198,
              -47.102882
            ],
            [
              -62.824522,
              -47.259319
            ],
            [
              -62.648803,
              -47.404277
            ],
            [
              -62.453735,
              -47.536362
            ],
            [
              -62.241197,
              -47.6543
            ],
            [
              -62.013235,
              -47.756955
            ],
            [
              -61.772044,
              -47.84334
            ],
            [
              -61.519947,
              -47.912622
            ],
            [
              -61.259373,
              -47.964134
            ],
            [
              -60.99283,
              -47.997379
            ],
            [
              -60.722886,
              -48.012039
            ],
            [
              -60.45214,
              -48.007971
            ],
            [
              -60.183199,
              -47.985215
            ],
            [
              -59.918655,
              -47.943989
            ],
            [
              -59.661054,
              -47.884692
            ],
            [
              -59.412877,
              -47.807893
            ],
            [
              -59.176514,
              -47.714333
            ],
            [
              -58.954243,
              -47.604912
            ],
            [
              -58.748202,
              -47.480685
            ],
            [
              -58.560377,
              -47.342848
            ],
            [
              -58.392577,
              -47.192728
            ],
            [
              -58.246417,
              -47.03177
            ],
            [
              -58.123305,
              -46.861526
            ],
            [
              -58.024426,
              -46.683635
            ],
            [
              -57.950734,
              -46.499809
            ],
            [
              -57.902937,
              -46.311819
            ],
            [
              -57.881496,
              -46.121476
            ],
            [
              -57.886618,
              -45.930613
            ],
            [
              -57.918252,
              -45.741067
            ],
            [
              -57.976095,
              -45.554664
            ],
            [
              -58.059589,
              -45.3732
            ],
            [
              -58.167931,
              -45.198422
            ],
            [
              -58.300077,
              -45.032013
            ],
            [
              -58.454753,
              -44.875576
            ],
            [
              -58.630472,
              -44.730618
            ],
            [
              -58.82554,
              -44.598533
            ],
            [
              -59.038078,
              -44.480595
            ],
            [
              -59.26604,
              -44.37794
            ],
            [
              -59.507231,
              -44.291555
            ],
            [
              -59.759328,
              -44.222273
            ],
            [
              -60.019902,
              -44.170761
            ],
            [
              -60.286445,
              -44.137516
            ]
          ]
        ],
        "type": "Polygon"
      },
      "properties": {
        "kind": "reachableSet",
        "observationStatus": "estimated",
        "vessel": "A"
      },
      "type": "Feature"
    },
    {
      "geometry": {
        "coordinates": [
          [
            [
              -60.330161,
              -44.265706
            ],
            [
              -60.576668,
              -44.246045
            ],
            [
              -60.824815,
              -44.243594
            ],
            [
              -61.072211,
              -44.258375
            ],
            [
              -61.316476,
              -44.290247
            ],
            [
              -61.555255,
              -44.338902
            ],
            [
              -61.786251,
              -44.403872
            ],
            [
              -62.007237,
              -44.484532
            ],
            [
              -62.216087,
              -44.580103
            ],
            [
              -62.410788,
              -44.689667
            ],
            [
              -62.589465,
              -44.812168
            ],
            [
              -62.750398,
              -44.946426
            ],
            [
              -62.892037,
              -45.091148
            ],
            [
              -63.013018,
              -45.244941
            ],
            [
              -63.112175,
              -45.406322
            ],
            [
              -63.188554,
              -45.573739
            ],
            [
              -63.241419,
              -45.745579
            ],
            [
              -63.270261,
              -45.920187
            ],
            [
              -63.274803,
              -46.09588
            ],
            [
              -63.254999,
              -46.270969
            ],
            [
              -63.211043,
              -46.443765
            ],
            [
              -63.143355,
              -46.612605
            ],
            [
              -63.05259,
              -46.775863
            ],
            [
              -62.939619,
              -46.931967
            ],
            [
              -62.805532,
              -47.079413
            ],
            [
              -62.651621,
              -47.216781
            ],
            [
              -62.479366,
              -47.342749
            ],
            [
              -62.290427,
              -47.456103
            ],
            [
              -62.086624,
              -47.555752
            ],
            [
              -61.869919,
              -47.640736
            ],
            [
              -61.642399,
              -47.710236
            ],
            [
              -61.406256,
              -47.763583
            ],
            [
              -61.163764,
              -47.800264
            ],
            [
              -60.917257,
              -47.819925
            ],
            [
              -60.66911,
              -47.822376
            ],
            [
              -60.421714,
              -47.807595
            ],
            [
              -60.177449,
              -47.775723
            ],
            [
              -59.93867,
              -47.727068
            ],
            [
              -59.707674,
              -47.662098
            ],
            [
              -59.486688,
              -47.581438
            ],
            [
              -59.277838,
              -47.485867
            ],
            [
              -59.083137,
              -47.376303
            ],
            [
              -58.90446,
              -47.253802
            ],
            [
              -58.743527,
              -47.119544
            ],
            [
              -58.601888,
              -46.974822
            ],
            [
              -58.480907,
              -46.821029
            ],
            [
              -58.38175,
              -46.659648
            ],
            [
              -58.305371,
              -46.492231
            ],
            [
              -58.252506,
              -46.320391
            ],
            [
              -58.223664,
              -46.145783
            ],
            [
              -58.219122,
              -45.97009
            ],
            [
              -58.238926,
              -45.795001
            ],
            [
              -58.282882,
              -45.622205
            ],
            [
              -58.35057,
              -45.453365
            ],
            [
              -58.441335,
              -45.290107
            ],
            [
              -58.554306,
              -45.134003
            ],
            [
              -58.688393,
              -44.986557
            ],
            [
              -58.842304,
              -44.849189
            ],
            [
              -59.014559,
              -44.723221
            ],
            [
              -59.203498,
              -44.609867
            ],
            [
              -59.407301,
              -44.510218
            ],
            [
              -59.624006,
              -44.425234
            ],
            [
              -59.851526,
              -44.355734
            ],
            [
              -60.087669,
              -44.302387
            ],
            [
              -60.330161,
              -44.265706
            ]
          ]
        ],
        "type": "Polygon"
      },
      "properties": {
        "kind": "reachableSet",
        "observationStatus": "estimated",
        "vessel": "B"
      },
      "type": "Feature"
    }
  ],
  "properties": {
    "dateline": false
  },
  "type": "FeatureCollection"
}
