{
  "features": [
    {
      "geometry": {
        "coordinates": [
          -57.818345,
          -42.050833
        ],
        "type": "Point"
      },
      "properties": {
        "mmsi": "412329686",
        "observationStatus": "observed",
        "role": "off",
        "time": "2019-05-19T05:13:35Z",
        "vessel": "A"
      },
      "type": "Feature"
    },
    {
      "geometry": {
        "coordinates": [
          -57.756083,
          -42.032692
        ],
        "type": "Point"
      },
      "properties": {
        "mmsi": "412329684",
        "observationStatus": "observed",
        "role": "off",
        "time": "2019-05-19T05:19:10Z",
        "vessel": "B"
      },
      "type": "Feature"
    },
    {
      "geometry": {
        "coordinates": [
          -57.975945,
          -42.124388
        ],
        "type": "Point"
      },
      "properties": {
        "mmsi": "412329686",
        "observationStatus": "observed",
        "role": "on",
        "time": "2019-05-19T23:14:21Z",
        "vessel": "A"
      },
      "type": "Feature"
    },
    {
      "geometry": {
        "coordinates": [
          -57.994387,
          -42.15201
        ],
        "type": "Point"
      },
      "properties": {
        "mmsi": "412329684",
        "observationStatus": "observed",
        "role": "on",
        "time": "2019-05-19T23:14:30Z",
        "vessel": "B"
      },
      "type": "Feature"
    },
    {
      "geometry": {
        "coordinates": [
          [
            -57.818345,
            -42.050833
          ],
          [
            -57.875235,
            -42.092351
          ],
          [
            -57.975945,
            -42.124388
          ]
        ],
        "type": "LineString"
      },
      "properties": {
        "confidence": "low",
        "lineStyle": "dashed",
        "observationStatus": "estimated",
        "source": "reachable-set heuristic",
        "vessel": "A"
      },
      "type": "Feature"
    },
    {
      "geometry": {
        "coordinates": [
          [
            -57.756083,
            -42.032692
          ],
          [
            -57.875235,
            -42.092351
          ],
          [
            -57.994387,
            -42.15201
          ]
        ],
        "type": "LineString"
      },
      "properties": {
        "confidence": "low",
        "lineStyle": "dashed",
        "observationStatus": "estimated",
        "source": "reachable-set heuristic",
        "vessel": "B"
      },
      "type": "Feature"
    },
    {
      "geometry": {
        "coordinates": [
          -57.875235,
          -42.092351
        ],
        "type": "Point"
      },
      "properties": {
        "kind": "meetingPoint",
        "observationStatus": "estimated"
      },
      "type": "Feature"
    },
    {
      "geometry": {
        "coordinates": [
          [
            [
              -59.999677,
              -43.068904
            ],
            [
              -59.86091,
              -43.218047
            ],
            [
              -59.703231,
              -43.356304
            ],
            [
              -59.528158,
              -43.482342
            ],
            [
              -59.337378,
              -43.594948
            ],
            [
              -59.132728,
              -43.693038
            ],
            [
              -58.916178,
              -43.775667
            ],
            [
              -58.689815,
              -43.842039
            ],
            [
              -58.455817,
              -43.891515
            ],
            [
              -58.216439,
              -43.923618
            ],
            [
              -57.973987,
              -43.93804
            ],
            [
              -57.730794,
              -43.93464
            ],
            [
              -57.489203,
              -43.913453
            ],
            [
              -57.251541,
              -43.874682
            ],
            [
              -57.020097,
              -43.818701
            ],
            [
              -56.797099,
              -43.746048
            ],
            [
              -56.584695,
              -43.657424
            ],
            [
              -56.38493,
              -43.553681
            ],
            [
              -56.199729,
              -43.435819
            ],
            [
              -56.030876,
              -43.304974
            ],
            [
              -55.879995,
              -43.162404
            ],
            [
              -55.74854,
              -43.009484
            ],
            [
              -55.637778,
              -42.847685
            ],
            [
              -55.548775,
              -42.678567
            ],
            [
              -55.482388,
              -42.503757
            ],
            [
              -55.439256,
              -42.32494
            ],
            [
              -55.419795,
              -42.143837
            ],
            [
              -55.424193,
              -41.962193
            ],
            [
              -55.452406,
              -41.781756
            ],
            [
              -55.504163,
              -41.604265
            ],
            [
              -55.578966,
              -41.431429
            ],
            [
              -55.676095,
              -41.264912
            ],
            [
              -55.794613,
              -41.106318
            ],
            [
              -55.93338,
              -40.957175
            ],
            [
              -56.091059,
              -40.818918
            ],
            [
              -56.266132,
              -40.69288
            ],
            [
              -56.456912,
              -40.580273
            ],
            [
              -56.661562,
              -40.482183
            ],
            [
              -56.878112,
              -40.399554
            ],
            [
              -57.104475,
              -40.333183
            ],
            [
              -57.338473,
              -40.283707
            ],
            [
              -57.577851,
              -40.251604
            ],
            [
              -57.820303,
              -40.237182
            ],
            [
              -58.063496,
              -40.240581
            ],
            [
              -58.305087,
              -40.261768
            ],
            [
              -58.542749,
              -40.300539
            ],
            [
              -58.774193,
              -40.356521
            ],
            [
              -58.997191,
              -40.429174
            ],
            [
              -59.209595,
              -40.517798
            ],
            [
              -59.40936,
              -40.621541
            ],
            [
              -59.594561,
              -40.739402
            ],
            [
              -59.763414,
              -40.870248
            ],
            [
              -59.914295,
              -41.012817
            ],
            [
              -60.04575,
              -41.165738
            ],
            [
              -60.156512,
              -41.327536
            ],
            [
              -60.245515,
              -41.496655
            ],
            [
              -60.311902,
              -41.671464
            ],
            [
              -60.355034,
              -41.850282
            ],
            [
              -60.374495,
              -42.031385
            ],
            [
              -60.370097,
              -42.213029
            ],
            [
              -60.341884,
              -42.393466
            ],
            [
              -60.290127,
              -42.570957
            ],
            [
              -60.215324,
              -42.743793
            ],
            [
              -60.118195,
              -42.91031
            ],
            [
              -59.999677,
              -43.068904
            ]
          ]
        ],
        "type": "Polygon"
      },
      "properties": {
        "kind": "reachableSet",
        "observationStatus": "estimated",
        "vessel": "A"
      },
      "type": "Feature"
    },
    {
      "geometry": {
        "coordinates": [
          [
            [
              -59.923748,
              -43.11804
            ],
            [
              -59.779544,
              -43.262857
            ],
            [
              -59.617001,
              -43.3964
            ],
            [
              -59.437684,
              -43.517386
            ],
            [
              -59.243319,
              -43.624647
            ],
            [
              -59.035779,
              -43.717152
            ],
            [
              -58.817062,
              -43.794008
            ],
            [
              -58.589275,
              -43.854477
            ],
            [
              -58.354612,
              -43.897976
            ],
            [
              -58.115331,
              -43.924085
            ],
            [
              -57.873739,
              -43.932554
            ],
            [
              -57.632161,
              -43.923301
            ],
            [
              -57.392924,
              -43.896415
            ],
            [
              -57.158331,
              -43.852154
            ],
            [
              -56.930643,
              -43.790946
            ],
            [
              -56.712052,
              -43.713379
            ],
            [
              -56.504663,
              -43.620201
            ],
            [
              -56.310473,
              -43.512309
            ],
            [
              -56.131353,
              -43.390742
            ],
            [
              -55.969028,
              -43.256671
            ],
            [
              -55.82506,
              -43.111386
            ],
            [
              -55.700836,
              -42.956288
            ],
            [
              -55.597553,
              -42.79287
            ],
            [
              -55.516206,
              -42.622705
            ],
            [
              -55.457577,
              -42.447432
            ],
            [
              -55.422232,
              -42.26874
            ],
            [
              -55.41051,
              -42.08835
            ],
            [
              -55.422525,
              -41.907997
            ],
            [
              -55.458161,
              -41.729421
            ],
            [
              -55.517074,
              -41.554339
            ],
            [
              -55.598698,
              -41.384439
            ],
            [
              -55.702247,
              -41.221356
            ],
            [
              -55.826722,
              -41.066662
            ],
            [
              -55.970926,
              -40.921845
            ],
            [
              -56.133469,
              -40.788301
            ],
            [
              -56.312786,
              -40.667316
            ],
            [
              -56.507151,
              -40.560055
            ],
            [
              -56.714691,
              -40.46755
            ],
            [
              -56.933408,
              -40.390693
            ],
            [
              -57.161195,
              -40.330224
            ],
            [
              -57.395858,
              -40.286726
            ],
            [
              -57.635139,
              -40.260616
            ],
            [
              -57.876731,
              -40.252147
            ],
            [
              -58.118309,
              -40.261401
            ],
            [
              -58.357546,
              -40.288287
            ],
            [
              -58.592139,
              -40.332547
            ],
            [
              -58.819827,
              -40.393756
            ],
            [
              -59.038418,
              -40.471322
            ],
            [
              -59.245807,
              -40.5645
            ],
            [
              -59.439997,
              -40.672393
            ],
            [
              -59.619117,
              -40.79396
            ],
            [
              -59.781442,
              -40.928031
            ],
            [
              -59.92541,
              -41.073315
            ],
            [
              -60.049634,
              -41.228414
            ],
            [
              -60.152917,
              -41.391832
            ],
            [
              -60.234264,
              -41.561997
            ],
            [
              -60.292893,
              -41.737269
            ],
            [
              -60.328238,
              -41.915961
            ],
            [
              -60.33996,
              -42.096352
            ],
            [
              -60.327945,
              -42.276704
            ],
            [
              -60.292309,
              -42.455281
            ],
            [
              -60.233396,
              -42.630363
            ],
            [
              -60.151772,
              -42.800263
            ],
            [
              -60.048223,
              -42.963345
            ],
            [
              -59.923748,
              -43.11804
            ]
          ]
        ],
        "type": "Polygon"
      },
      "properties": {
        "kind": "reachableSet",
        "observationStatus": "estimated",
        "vessel": "B"
      },
      "type": "Feature"
    }
  ],
  "properties": {
    "dateline": false
  },
  "type": "FeatureCollection"
}
