{
  "features": [
    {
      "geometry": {
        "coordinates": [
          -57.78779,
          -41.979735
        ],
        "type": "Point"
      },
      "properties": {
        "mmsi": "412329686",
        "observationStatus": "observed",
        "role": "off",
        "time": "2019-07-27T05:04:54Z",
        "vessel": "A"
      },
      "type": "Feature"
    },
    {
      "geometry": {
        "coordinates": [
          -57.77648,
          -42.031893
        ],
        "type": "Point"
      },
      "properties": {
        "mmsi": "412329684",
        "observationStatus": "observed",
        "role": "off",
        "time": "2019-07-27T06:04:14Z",
        "vessel": "B"
      },
      "type": "Feature"
    },
    {
      "geometry": {
        "coordinates": [
          -57.97243,
          -42.173075
        ],
        "type": "Point"
      },
      "properties": {
        "mmsi": "412329686",
        "observationStatus": "observed",
        "role": "on",
        "time": "2019-07-27T23:12:12Z",
        "vessel": "A"
      },
      "type": "Feature"
    },
    {
      "geometry": {
        "coordinates": [
          -57.992942,
          -42.224943
        ],
        "type": "Point"
      },
      "properties": {
        "mmsi": "412329684",
        "observationStatus": "observed",
        "role": "on",
        "time": "2019-07-27T23:15:13Z",
        "vessel": "B"
      },
      "type": "Feature"
    },
    {
      "geometry": {
        "coordinates": [
          [
            -57.78779,
            -41.979735
          ],
          [
            -57.946489,
            -42.18423
          ],
          [
            -57.97243,
            -42.173075
          ]
        ],
        "type": "LineString"
      },
      "properties": {
        "confidence": "low",
        "lineStyle": "dashed",
        "observationStatus": "estimated",
        "source": "reachable-set heuristic",
        "vessel": "A"
      },
      "type": "Feature"
    },
    {
      "geometry": {
        "coordinates": [
          [
            -57.77648,
            -42.031893
          ],
          [
            -57.946489,
            -42.18423
          ],
          [
            -57.992942,
            -42.224943
          ]
        ],
        "type": "LineString"
      },
      "properties": {
        "confidence": "low",
        "lineStyle": "dashed",
        "observationStatus": "estimated",
        "source": "reachable-set heuristic",
        "vessel": "B"
      },
      "type": "Feature"
    },
    {
      "geometry": {
        "coordinates": [
          -57.946489,
          -42.18423
        ],
        "type": "Point"
      },
      "properties": {
        "kind": "meetingPoint",
        "observationStatus": "estimated"
      },
      "type": "Feature"
    },
    {
      "geometry": {
        "coordinates": [
          [
            [
              -59.329142,
              -43.593713
            ],
            [
              -59.123552,
              -43.692328
            ],
            [
              -58.905988,
              -43.775381
            ],
            [
              -58.678543,
              -43.842072
            ],
            [
              -58.44341,
              -43.891759
            ],
            [
              -58.202851,
              -43.923962
            ],
            [
              -57.959185,
              -43.938373
            ],
            [
              -57.714757,
              -43.934852
            ],
            [
              -57.471921,
              -43.913433
            ],
            [
              -57.233016,
              -43.874323
            ],
            [
              -57.000343,
              -43.817897
            ],
            [
              -56.776143,
              -43.7447
            ],
            [
              -56.562575,
              -43.655437
            ],
            [
              -56.361695,
              -43.550966
            ],
            [
              -56.175439,
              -43.432295
            ],
            [
              -56.005599,
              -43.300566
            ],
            [
              -55.853812,
              -43.157047
            ],
            [
              -55.721539,
              -43.003121
            ],
            [
              -55.610054,
              -42.840271
            ],
            [
              -55.520432,
              -42.670064
            ],
            [
              -55.453534,
              -42.494139
            ],
            [
              -55.410006,
              -42.314192
            ],
            [
              -55.390266,
              -42.131955
            ],
            [
              -55.394504,
              -41.949182
            ],
            [
              -55.422681,
              -41.767635
            ],
            [
              -55.474523,
              -41.589062
            ],
            [
              -55.549533,
              -41.415182
            ],
            [
              -55.646988,
              -41.24767
            ],
            [
              -55.765949,
              -41.088139
            ],
            [
              -55.90527,
              -40.938125
            ],
            [
              -56.06361,
              -40.799074
            ],
            [
              -56.239444,
              -40.672325
            ],
            [
              -56.431078,
              -40.559097
            ],
            [
              -56.636668,
              -40.460482
            ],
            [
              -56.854232,
              -40.377429
            ],
            [
              -57.081677,
              -40.310738
            ],
            [
              -57.31681,
              -40.261051
            ],
            [
              -57.557369,
              -40.228848
            ],
            [
              -57.801035,
              -40.214437
            ],
            [
              -58.045463,
              -40.217958
            ],
            [
              -58.288299,
              -40.239377
            ],
            [
              -58.527204,
              -40.278487
            ],
            [
              -58.759877,
              -40.334913
            ],
            [
              -58.984077,
              -40.40811
            ],
            [
              -59.197645,
              -40.497373
            ],
            [
              -59.398525,
              -40.601844
            ],
            [
              -59.584781,
              -40.720515
            ],
            [
              -59.754621,
              -40.852244
            ],
            [
              -59.906408,
              -40.995763
            ],
            [
              -60.038681,
              -41.149689
            ],
            [
              -60.150166,
              -41.312539
            ],
            [
              -60.239788,
              -41.482746
            ],
            [
              -60.306686,
              -41.658671
            ],
            [
              -60.350214,
              -41.838618
            ],
            [
              -60.369954,
              -42.020855
            ],
            [
              -60.365716,
              -42.203628
            ],
            [
              -60.337539,
              -42.385175
            ],
            [
              -60.285697,
              -42.563748
            ],
            [
              -60.210687,
              -42.737628
            ],
            [
              -60.113232,
              -42.90514
            ],
            [
              -59.994271,
              -43.064671
            ],
            [
              -59.85495,
              -43.214685
            ],
            [
              -59.69661,
              -43.353736
            ],
            [
              -59.520776,
              -43.480485
            ],
            [
              -59.329142,
              -43.593713
            ]
          ]
        ],
        "type": "Polygon"
      },
      "properties": {
        "kind": "reachableSet",
        "observationStatus": "estimated",
        "vessel": "A"
      },
      "type": "Feature"
    },
    {
      "geometry": {
        "coordinates": [
          [
            [
              -59.39947,
              -43.479347
            ],
            [
              -59.21529,
              -43.583419
            ],
            [
              -59.018297,
              -43.673478
            ],
            [
              -58.810386,
              -43.748658
            ],
            [
              -58.593561,
              -43.808234
            ],
            [
              -58.369909,
              -43.851632
            ],
            [
              -58.141584,
              -43.878435
            ],
            [
              -57.910785,
              -43.888385
            ],
            [
              -57.679736,
              -43.881385
            ],
            [
              -57.45066,
              -43.857502
            ],
            [
              -57.225764,
              -43.816968
            ],
            [
              -57.007215,
              -43.760172
            ],
            [
              -56.797116,
              -43.687662
            ],
            [
              -56.597492,
              -43.600135
            ],
            [
              -56.410264,
              -43.498435
            ],
            [
              -56.237235,
              -43.38354
            ],
            [
              -56.080073,
              -43.256558
            ],
            [
              -55.940291,
              -43.118712
            ],
            [
              -55.819234,
              -42.971328
            ],
            [
              -55.718069,
              -42.815827
            ],
            [
              -55.63777,
              -42.653706
            ],
            [
              -55.57911,
              -42.486526
            ],
            [
              -55.542654,
              -42.315897
            ],
            [
              -55.528754,
              -42.143462
            ],
            [
              -55.537543,
              -41.970883
            ],
            [
              -55.568936,
              -41.799821
            ],
            [
              -55.622632,
              -41.631923
            ],
            [
              -55.698112,
              -41.468807
            ],
            [
              -55.794651,
              -41.312044
            ],
            [
              -55.911318,
              -41.163142
            ],
            [
              -56.04699,
              -41.023537
            ],
            [
              -56.20036,
              -40.894572
            ],
            [
              -56.369952,
              -40.77749
            ],
            [
              -56.554131,
              -40.673418
            ],
            [
              -56.751125,
              -40.583358
            ],
            [
              -56.959035,
              -40.508179
            ],
            [
              -57.175861,
              -40.448603
            ],
            [
              -57.399513,
              -40.405204
            ],
            [
              -57.627838,
              -40.378401
            ],
            [
              -57.858636,
              -40.368452
            ],
            [
              -58.089686,
              -40.375452
            ],
            [
              -58.318762,
              -40.399334
            ],
            [
              -58.543657,
              -40.439868
            ],
            [
              -58.762207,
              -40.496664
            ],
            [
              -58.972305,
              -40.569175
            ],
            [
              -59.17193,
              -40.656702
            ],
            [
              -59.359158,
              -40.758402
            ],
            [
              -59.532186,
              -40.873296
            ],
            [
              -59.689348,
              -41.000278
            ],
            [
              -59.829131,
              -41.138125
            ],
            [
              -59.950188,
              -41.285508
            ],
            [
              -60.051353,
              -41.441009
            ],
            [
              -60.131652,
              -41.603131
            ],
            [
              -60.190312,
              -41.770311
            ],
            [
              -60.226767,
              -41.94094
            ],
            [
              -60.240668,
              -42.113374
            ],
            [
              -60.231879,
              -42.285953
            ],
            [
              -60.200485,
              -42.457016
            ],
            [
              -60.14679,
              -42.624913
            ],
            [
              -60.071309,
              -42.788029
            ],
            [
              -59.974771,
              -42.944793
            ],
            [
              -59.858104,
              -43.093695
            ],
            [
              -59.722432,
              -43.2333
            ],
            [
              -59.569061,
              -43.362265
            ],
            [
              -59.39947,
              -43.479347
            ]
          ]
        ],
        "type": "Polygon"
      },
      "properties": {
        "kind": "reachableSet",
        "observationStatus": "estimated",
        "vessel": "B"
      },
      "type": "Feature"
    }
  ],
  "properties": {
    "dateline": false
  },
  "type": "FeatureCollection"
}
