{
  "features": [
    {
      "geometry": {
        "coordinates": [
          -57.91875,
          -42.094752
        ],
        "type": "Point"
      },
      "properties": {
        "mmsi": "412424547",
        "observationStatus": "observed",
        "role": "off",
        "time": "2018-04-14T15:42:26Z",
        "vessel": "A"
      },
      "type": "Feature"
    },
    {
      "geometry": {
        "coordinates": [
          -57.94851,
          -42.144142
        ],
        "type": "Point"
      },
      "properties": {
        "mmsi": "412421072",
        "observationStatus": "observed",
        "role": "off",
        "time": "2018-04-14T16:16:47Z",
        "vessel": "B"
      },
      "type": "Feature"
    },
    {
      "geometry": {
        "coordinates": [
          -58.048133,
          -42.196053
        ],
        "type": "Point"
      },
      "properties": {
        "mmsi": "412421072",
        "observationStatus": "observed",
        "role": "on",
        "time": "2018-04-15T04:56:06Z",
        "vessel": "B"
      },
      "type": "Feature"
    },
    {
      "geometry": {
        "coordinates": [
          -58.019872,
          -42.150492
        ],
        "type": "Point"
      },
      "properties": {
        "mmsi": "412424547",
        "observationStatus": "observed",
        "role": "on",
        "time": "2018-04-15T05:05:03Z",
        "vessel": "A"
      },
      "type": "Feature"
    },
    {
      "geometry": {
        "coordinates": [
          [
            -57.91875,
            -42.094752
          ],
          [
            -58.011273,
            -42.176854
          ],
          [
            -58.019872,
            -42.150492
          ]
        ],
        "type": "LineString"
      },
      "properties": {
        "confidence": "low",
        "lineStyle": "dashed",
        "observationStatus": "estimated",
        "source": "reachable-set heuristic",
        "vessel": "A"
      },
      "type": "Feature"
    },
    {
      "geometry": {
        "coordinates": [
          [
            -57.94851,
            -42.144142
          ],
          [
            -58.011273,
            -42.176854
          ],
          [
            -58.048133,
            -42.196053
          ]
        ],
        "type": "LineString"
      },
      "properties": {
        "confidence": "low",
        "lineStyle": "dashed",
        "observationStatus": "estimated",
        "source": "reachable-set heuristic",
        "vessel": "B"
      },
      "type": "Feature"
    },
    {
      "geometry": {
        "coordinates": [
          -58.011273,
          -42.176854
        ],
        "type": "Point"
      },
      "properties": {
        "kind": "meetingPoint",
        "observationStatus": "estimated"
      },
      "type": "Feature"
    },
    {
      "geometry": {
        "coordinates": [
          [
            [
              -59.30945,
              -42.861329
            ],
            [
              -59.206103,
              -42.955792
            ],
            [
              -59.090845,
              -43.04223
            ],
            [
              -58.964787,
              -43.119813
            ],
            [
              -58.829141,
              -43.187792
            ],
            [
              -58.685215,
              -43.245512
            ],
            [
              -58.534394,
              -43.292419
            ],
            [
              -58.378131,
              -43.32806
            ],
            [
              -58.217931,
              -43.352092
            ],
            [
              -58.055337,
              -43.364283
            ],
            [
              -57.891914,
              -43.364516
            ],
            [
              -57.729237,
              -43.35279
            ],
            [
              -57.568871,
              -43.329216
            ],
            [
              -57.412363,
              -43.294022
            ],
            [
              -57.261217,
              -43.247547
            ],
            [
              -57.116891,
              -43.190238
            ],
            [
              -56.980775,
              -43.122647
            ],
            [
              -56.854178,
              -43.045426
            ],
            [
              -56.738321,
              -42.959317
            ],
            [
              -56.634319,
              -42.865151
            ],
            [
              -56.543174,
              -42.763834
            ],
            [
              -56.465763,
              -42.656341
            ],
            [
              -56.402832,
              -42.543709
            ],
            [
              -56.354987,
              -42.427021
            ],
            [
              -56.322689,
              -42.307401
            ],
            [
              -56.306249,
              -42.186003
            ],
            [
              -56.305825,
              -42.063993
            ],
            [
              -56.321421,
              -41.942549
            ],
            [
              -56.352888,
              -41.822838
            ],
            [
              -56.399921,
              -41.706015
            ],
            [
              -56.462069,
              -41.593204
            ],
            [
              -56.538732,
              -41.485491
            ],
            [
              -56.629172,
              -41.383914
            ],
            [
              -56.732519,
              -41.289452
            ],
            [
              -56.847776,
              -41.203013
            ],
            [
              -56.973835,
              -41.125431
            ],
            [
              -57.109481,
              -41.057452
            ],
            [
              -57.253407,
              -40.999731
            ],
            [
              -57.404227,
              -40.952824
            ],
            [
              -57.56049,
              -40.917184
            ],
            [
              -57.72069,
              -40.893152
            ],
            [
              -57.883285,
              -40.88096
            ],
            [
              -58.046707,
              -40.880727
            ],
            [
              -58.209385,
              -40.892454
            ],
            [
              -58.36975,
              -40.916027
            ],
            [
              -58.526259,
              -40.951221
            ],
            [
              -58.677404,
              -40.997697
            ],
            [
              -58.82173,
              -41.055006
            ],
            [
              -58.957847,
              -41.122596
            ],
            [
              -59.084443,
              -41.199818
            ],
            [
              -59.200301,
              -41.285926
            ],
            [
              -59.304303,
              -41.380092
            ],
            [
              -59.395448,
              -41.48141
            ],
            [
              -59.472859,
              -41.588902
            ],
            [
              -59.53579,
              -41.701535
            ],
            [
              -59.583635,
              -41.818223
            ],
            [
              -59.615933,
              -41.937842
            ],
            [
              -59.632373,
              -42.059241
            ],
            [
              -59.632797,
              -42.18125
            ],
            [
              -59.6172,
              -42.302695
            ],
            [
              -59.585734,
              -42.422405
            ],
            [
              -59.5387,
              -42.539229
            ],
            [
              -59.476553,
              -42.65204
            ],
            [
              -59.39989,
              -42.759752
            ],
            [
              -59.30945,
              -42.861329
            ]
          ]
        ],
        "type": "Polygon"
      },
      "properties": {
        "kind": "reachableSet",
        "observationStatus": "estimated",
        "vessel": "A"
      },
      "type": "Feature"
    },
    {
      "geometry": {
        "coordinates": [
          [
            [
              -59.285328,
              -42.84073
            ],
            [
              -59.191103,
              -42.93156
            ],
            [
              -59.085392,
              -43.015057
            ],
            [
              -58.969211,
              -43.090416
            ],
            [
              -58.843681,
              -43.156912
            ],
            [
              -58.710009,
              -43.213905
            ],
            [
              -58.569483,
              -43.260845
            ],
            [
              -58.423456,
              -43.297281
            ],
            [
              -58.273335,
              -43.322861
            ],
            [
              -58.120566,
              -43.33734
            ],
            [
              -57.966619,
              -43.340577
            ],
            [
              -57.812978,
              -43.332542
            ],
            [
              -57.661122,
              -43.313312
            ],
            [
              -57.512513,
              -43.283073
            ],
            [
              -57.368582,
              -43.242114
            ],
            [
              -57.230717,
              -43.190832
            ],
            [
              -57.100244,
              -43.129719
            ],
            [
              -56.97842,
              -43.059365
            ],
            [
              -56.866418,
              -42.980446
            ],
            [
              -56.765316,
              -42.893724
            ],
            [
              -56.67609,
              -42.800032
            ],
            [
              -56.599597,
              -42.700274
            ],
            [
              -56.536575,
              -42.59541
            ],
            [
              -56.48763,
              -42.48645
            ],
            [
              -56.453234,
              -42.374444
            ],
            [
              -56.433718,
              -42.260469
            ],
            [
              -56.42927,
              -42.145624
            ],
            [
              -56.439933,
              -42.031015
            ],
            [
              -56.465603,
              -41.917745
            ],
            [
              -56.506035,
              -41.806906
            ],
            [
              -56.560839,
              -41.699564
            ],
            [
              -56.629486,
              -41.596754
            ],
            [
              -56.711316,
              -41.499465
            ],
            [
              -56.80554,
              -41.408635
            ],
            [
              -56.911251,
              -41.325138
            ],
            [
              -57.027432,
              -41.249779
            ],
            [
              -57.152963,
              -41.183283
            ],
            [
              -57.286635,
              -41.12629
            ],
            [
              -57.427161,
              -41.07935
            ],
            [
              -57.573187,
              -41.042914
            ],
            [
              -57.723308,
              -41.017334
            ],
            [
              -57.876077,
              -41.002855
            ],
            [
              -58.030024,
              -40.999618
            ],
            [
              -58.183665,
              -41.007653
            ],
            [
              -58.335522,
              -41.026883
            ],
            [
              -58.484131,
              -41.057122
            ],
            [
              -58.628061,
              -41.098081
            ],
            [
              -58.765926,
              -41.149363
            ],
            [
              -58.8964,
              -41.210476
            ],
            [
              -59.018224,
              -41.28083
            ],
            [
              -59.130226,
              -41.359749
            ],
            [
              -59.231327,
              -41.446471
            ],
            [
              -59.320553,
              -41.540163
            ],
            [
              -59.397046,
              -41.639921
            ],
            [
              -59.460068,
              -41.744785
            ],
            [
              -59.509013,
              -41.853745
            ],
            [
              -59.543409,
              -41.965751
            ],
            [
              -59.562925,
              -42.079726
            ],
            [
              -59.567374,
              -42.194571
            ],
            [
              -59.556711,
              -42.30918
            ],
            [
              -59.53104,
              -42.42245
            ],
            [
              -59.490608,
              -42.533289
            ],
            [
              -59.435805,
              -42.640631
            ],
            [
              -59.367158,
              -42.743441
            ],
            [
              -59.285328,
              -42.84073
            ]
          ]
        ],
        "type": "Polygon"
      },
      "properties": {
        "kind": "reachableSet",
        "observationStatus": "estimated",
        "vessel": "B"
      },
      "type": "Feature"
    }
  ],
  "properties": {
    "dateline": false
  },
  "type": "FeatureCollection"
}
