{
  "features": [
    {
      "geometry": {
        "coordinates": [
          164.795867,
          47.031025
        ],
        "type": "Point"
      },
      "properties": {
        "mmsi": "412439762",
        "observationStatus": "observed",
        "role": "off",
        "time": "2019-07-15T04:40:48Z",
        "vessel": "A"
      },
      "type": "Feature"
    },
    {
      "geometry": {
        "coordinates": [
          164.852112,
          47.051255
        ],
        "type": "Point"
      },
      "properties": {
        "mmsi": "412439761",
        "observationStatus": "observed",
        "role": "off",
        "time": "2019-07-15T05:27:55Z",
        "vessel": "B"
      },
      "type": "Feature"
    },
    {
      "geometry": {
        "coordinates": [
          165.928533,
          46.35464
        ],
        "type": "Point"
      },
      "properties": {
        "mmsi": "412439762",
        "observationStatus": "observed",
        "role": "on",
        "time": "2019-07-17T17:08:33Z",
        "vessel": "A"
      },
      "type": "Feature"
    },
    {
      "geometry": {
        "coordinates": [
          165.996933,
          46.401013
        ],
        "type": "Point"
      },
      "properties": {
        "mmsi": "412439761",
        "observationStatus": "observed",
        "role": "on",
        "time": "2019-07-17T17:10:07Z",
        "vessel": "B"
      },
      "type": "Feature"
    },
    {
      "geometry": {
        "coordinates": [
          [
            164.795867,
            47.031025
          ],
          [
            164.969244,
            46.97349
          ],
          [
            165.928533,
            46.35464
          ]
        ],
        "type": "LineString"
      },
      "properties": {
        "confidence": "low",
        "lineStyle": "dashed",
        "observationStatus": "estimated",
        "source": "reachable-set heuristic",
        "vessel": "A"
      },
      "type": "Feature"
    },
    {
      "geometry": {
        "coordinates": [
          [
            164.852112,
            47.051255
          ],
          [
            164.969244,
            46.97349
          ],
          [
            165.996933,
            46.401013
          ]
        ],
        "type": "LineString"
      },
      "properties": {
        "confidence": "low",
        "lineStyle": "dashed",
        "observationStatus": "estimated",
        "source": "reachable-set heuristic",
        "vessel": "B"
      },
      "type": "Feature"
    },
    {
      "geometry": {
        "coordinates": [
          164.969244,
          46.97349
        ],
        "type": "Point"
      },
      "properties": {
        "kind": "meetingPoint",
        "observationStatus": "estimated"
      },
      "type": "Feature"
    },
    {
      "geometry": {
        "coordinates": [
          [
            [
              171.907825,
              42.784037
            ],
            [
              172.429033,
              43.244251
            ],
            [
              172.882183,
              43.737676
            ],
            [
              173.262912,
              44.259561
            ],
            [
              173.567553,
              44.80488
            ],
            [
              173.793172,
              45.368381
            ],
            [
              173.937596,
              45.944637
            ],
            [
              173.999434,
              46.528098
            ],
            [
              173.978091,
              47.113146
            ],
            [
              173.873772,
              47.694146
            ],
            [
              173.687482,
              48.265503
            ],
            [
              173.421015,
              48.821715
            ],
            [
              173.076937,
              49.357424
            ],
            [
              172.658563,
              49.867471
            ],
            [
              172.16992,
              50.346945
            ],
            [
              171.615715,
              50.791228
            ],
            [
              171.001285,
              51.196041
            ],
            [
              170.332548,
              51.557486
            ],
            [
              169.615944,
              51.872081
            ],
            [
              168.858374,
              52.136798
            ],
            [
              168.067133,
              52.349086
            ],
            [
              167.249843,
              52.506901
            ],
            [
              166.414374,
              52.608724
            ],
            [
              165.568772,
              52.653573
            ],
            [
              164.72118,
              52.641018
            ],
            [
              163.879762,
              52.571178
            ],
            [
              163.05262,
              52.444726
            ],
            [
              162.247721,
              52.26288
            ],
            [
              161.472816,
              52.027392
            ],
            [
              160.735368,
              51.740529
            ],
            [
              160.042479,
              51.405054
            ],
            [
              159.400821,
              51.024198
            ],
            [
              158.816575,
              50.601628
            ],
            [
              158.295367,
              50.141414
            ],
            [
              157.842217,
              49.647989
            ],
            [
              157.461488,
              49.126104
            ],
            [
              157.156847,
              48.580785
            ],
            [
              156.931228,
              48.017284
            ],
            [
              156.786804,
              47.441028
            ],
            [
              156.724966,
              46.857567
            ],
            [
              156.746309,
              46.272519
            ],
            [
              156.850628,
              45.691519
            ],
            [
              157.036918,
              45.120162
            ],
            [
              157.303385,
              44.56395
            ],
            [
              157.647463,
              44.028241
            ],
            [
              158.065837,
              43.518194
            ],
            [
              158.55448,
              43.03872
            ],
            [
              159.108685,
              42.594437
            ],
            [
              159.723115,
              42.189624
            ],
            [
              160.391852,
              41.828179
            ],
            [
              161.108456,
              41.513584
            ],
            [
              161.866026,
              41.248867
            ],
            [
              162.657267,
              41.036579
            ],
            [
              163.474557,
              40.878764
            ],
            [
              164.310026,
              40.776941
            ],
            [
              165.155628,
              40.732092
            ],
            [
              166.00322,
              40.744647
            ],
            [
              166.844638,
              40.814487
            ],
            [
              167.67178,
              40.940939
            ],
            [
              168.476679,
              41.122785
            ],
            [
              169.251584,
              41.358273
            ],
            [
              169.989032,
              41.645136
            ],
            [
              170.681921,
              41.980611
            ],
            [
              171.323579,
              42.361467
            ],
            [
              171.907825,
              42.784037
            ]
          ]
        ],
        "type": "Polygon"
      },
      "properties": {
        "kind": "reachableSet",
        "observationStatus": "estimated",
        "vessel": "A"
      },
      "type": "Feature"
    },
    {
      "geometry": {
        "coordinates": [
          [
            [
              172.024963,
              42.977182
            ],
            [
              172.523622,
              43.44004
            ],
            [
              172.953912,
              43.934545
            ],
            [
              173.311691,
              44.455934
            ],
            [
              173.593512,
              44.999187
            ],
            [
              173.796661,
              45.559071
            ],
            [
              173.919182,
              46.130194
            ],
            [
              173.959895,
              46.707057
            ],
            [
              173.918407,
              47.284103
            ],
            [
              173.795119,
              47.855776
            ],
            [
              173.591217,
              48.41657
            ],
            [
              173.308665,
              48.961084
            ],
            [
              172.950185,
              49.484074
            ],
            [
              172.519229,
              49.980504
            ],
            [
              172.019946,
              50.445592
            ],
            [
              171.457146,
              50.87486
            ],
            [
              170.836249,
              51.264174
            ],
            [
              170.163234,
              51.609783
            ],
            [
              169.444582,
              51.908361
            ],
            [
              168.687215,
              52.15703
            ],
            [
              167.898427,
              52.353398
            ],
            [
              167.085813,
              52.495571
            ],
            [
              166.257201,
              52.582182
            ],
            [
              165.420569,
              52.612396
            ],
            [
              164.583975,
              52.585922
            ],
            [
              163.755476,
              52.503015
            ],
            [
              162.943051,
              52.364473
            ],
            [
              162.154524,
              52.171631
            ],
            [
              161.397489,
              51.926346
            ],
            [
              160.679236,
              51.630981
            ],
            [
              160.006684,
              51.288378
            ],
            [
              159.386307,
              50.901839
            ],
            [
              158.824082,
              50.475086
            ],
            [
              158.325423,
              50.012228
            ],
            [
              157.895133,
              49.517723
            ],
            [
              157.537354,
              48.996334
            ],
            [
              157.255533,
              48.453081
            ],
            [
              157.052384,
              47.893197
            ],
            [
              156.929863,
              47.322074
            ],
            [
              156.88915,
              46.745211
            ],
            [
              156.930638,
              46.168165
            ],
            [
              157.053926,
              45.596492
            ],
            [
              157.257828,
              45.035698
            ],
            [
              157.54038,
              44.491184
            ],
            [
              157.89886,
              43.968194
            ],
            [
              158.329816,
              43.471764
            ],
            [
              158.829099,
              43.006676
            ],
            [
              159.391899,
              42.577408
            ],
            [
              160.012796,
              42.188095
            ],
            [
              160.685811,
              41.842485
            ],
            [
              161.404463,
              41.543908
            ],
            [
              162.16183,
              41.295238
            ],
            [
              162.950618,
              41.098871
            ],
            [
              163.763232,
              40.956697
            ],
            [
              164.591844,
              40.870086
            ],
            [
              165.428476,
              40.839873
            ],
            [
              166.26507,
              40.866347
            ],
            [
              167.093569,
              40.949254
            ],
            [
              167.905994,
              41.087795
            ],
            [
              168.694521,
              41.280637
            ],
            [
              169.451556,
              41.525922
            ],
            [
              170.169809,
              41.821288
            ],
            [
              170.842361,
              42.16389
            ],
            [
              171.462738,
              42.550429
            ],
            [
              172.024963,
              42.977182
            ]
          ]
        ],
        "type": "Polygon"
      },
      "properties": {
        "kind": "reachableSet",
        "observationStatus": "estimated",
        "vessel": "B"
      },
      "type": "Feature"
    }
  ],
  "properties": {
    "dateline": false
  },
  "type": "FeatureCollection"
}
