{
  "features": [
    {
      "geometry": {
        "coordinates": [
          159.757967,
          42.658015
        ],
        "type": "Point"
      },
      "properties": {
        "mmsi": "416236800",
        "observationStatus": "observed",
        "role": "off",
        "time": "2018-08-17T02:53:12Z",
        "vessel": "A"
      },
      "type": "Feature"
    },
    {
      "geometry": {
        "coordinates": [
          159.736685,
          42.633562
        ],
        "type": "Point"
      },
      "properties": {
        "mmsi": "416252900",
        "observationStatus": "observed",
        "role": "off",
        "time": "2018-08-17T03:23:06Z",
        "vessel": "B"
      },
      "type": "Feature"
    },
    {
      "geometry": {
        "coordinates": [
          160.363393,
          42.145083
        ],
        "type": "Point"
      },
      "properties": {
        "mmsi": "416252900",
        "observationStatus": "observed",
        "role": "on",
        "time": "2018-08-17T18:19:48Z",
        "vessel": "B"
      },
      "type": "Feature"
    },
    {
      "geometry": {
        "coordinates": [
          160.330435,
          42.187395
        ],
        "type": "Point"
      },
      "properties": {
        "mmsi": "416236800",
        "observationStatus": "observed",
        "role": "on",
        "time": "2018-08-17T18:53:41Z",
        "vessel": "A"
      },
      "type": "Feature"
    },
    {
      "geometry": {
        "coordinates": [
          [
            159.757967,
            42.658015
          ],
          [
            159.945872,
            42.470804
          ],
          [
            160.330435,
            42.187395
          ]
        ],
        "type": "LineString"
      },
      "properties": {
        "confidence": "low",
        "lineStyle": "dashed",
        "observationStatus": "estimated",
        "source": "reachable-set heuristic",
        "vessel": "A"
      },
      "type": "Feature"
    },
    {
      "geometry": {
        "coordinates": [
          [
            159.736685,
            42.633562
          ],
          [
            159.945872,
            42.470804
          ],
          [
            160.363393,
            42.145083
          ]
        ],
        "type": "LineString"
      },
      "properties": {
        "confidence": "low",
        "lineStyle": "dashed",
        "observationStatus": "estimated",
        "source": "reachable-set heuristic",
        "vessel": "B"
      },
      "type": "Feature"
    },
    {
      "geometry": {
        "coordinates": [
          159.945872,
          42.470804
        ],
        "type": "Point"
      },
      "properties": {
        "kind": "meetingPoint",
        "observationStatus": "estimated"
      },
      "type": "Feature"
    },
    {
      "geometry": {
        "coordinates": [
          [
            [
              161.405176,
              41.303862
            ],
            [
              161.542882,
              41.406174
            ],
            [
              161.666155,
              41.518275
            ],
            [
              161.773807,
              41.639086
            ],
            [
              161.864803,
              41.767444
            ],
            [
              161.938265,
              41.902113
            ],
            [
              161.993486,
              42.041795
            ],
            [
              162.029935,
              42.185146
            ],
            [
              162.04726,
              42.330784
            ],
            [
              162.045294,
              42.477308
            ],
            [
              162.024057,
              42.623306
            ],
            [
              161.983752,
              42.767372
            ],
            [
              161.924769,
              42.908118
            ],
            [
              161.847675,
              43.04419
            ],
            [
              161.753212,
              43.174276
            ],
            [
              161.642291,
              43.297125
            ],
            [
              161.515979,
              43.411552
            ],
            [
              161.375493,
              43.516456
            ],
            [
              161.222186,
              43.610827
            ],
            [
              161.057534,
              43.693756
            ],
            [
              160.883124,
              43.764443
            ],
            [
              160.700634,
              43.822209
            ],
            [
              160.511822,
              43.866497
            ],
            [
              160.318507,
              43.896881
            ],
            [
              160.12255,
              43.913067
            ],
            [
              159.925839,
              43.9149
            ],
            [
              159.730267,
              43.902363
            ],
            [
              159.537719,
              43.875576
            ],
            [
              159.350049,
              43.834796
            ],
            [
              159.169063,
              43.780418
            ],
            [
              158.996506,
              43.712964
            ],
            [
              158.834039,
              43.633084
            ],
            [
              158.683226,
              43.541548
            ],
            [
              158.54552,
              43.439236
            ],
            [
              158.422247,
              43.327135
            ],
            [
              158.314594,
              43.206324
            ],
            [
              158.223599,
              43.077966
            ],
            [
              158.150137,
              42.943297
            ],
            [
              158.094915,
              42.803615
            ],
            [
              158.058467,
              42.660264
            ],
            [
              158.041142,
              42.514626
            ],
            [
              158.043108,
              42.368102
            ],
            [
              158.064345,
              42.222104
            ],
            [
              158.104649,
              42.078038
            ],
            [
              158.163633,
              41.937292
            ],
            [
              158.240727,
              41.80122
            ],
            [
              158.33519,
              41.671134
            ],
            [
              158.446111,
              41.548285
            ],
            [
              158.572423,
              41.433858
            ],
            [
              158.712909,
              41.328954
            ],
            [
              158.866216,
              41.234583
            ],
            [
              159.030867,
              41.151654
            ],
            [
              159.205278,
              41.080967
            ],
            [
              159.387768,
              41.023201
            ],
            [
              159.576579,
              40.978913
            ],
            [
              159.769895,
              40.948529
            ],
            [
              159.965851,
              40.932343
            ],
            [
              160.162563,
              40.93051
            ],
            [
              160.358134,
              40.943047
            ],
            [
              160.550682,
              40.969834
            ],
            [
              160.738353,
              41.010614
            ],
            [
              160.919338,
              41.064992
            ],
            [
              161.091896,
              41.132446
            ],
            [
              161.254363,
              41.212326
            ],
            [
              161.405176,
              41.303862
            ]
          ]
        ],
        "type": "Polygon"
      },
      "properties": {
        "kind": "reachableSet",
        "observationStatus": "estimated",
        "vessel": "A"
      },
      "type": "Feature"
    },
    {
      "geometry": {
        "coordinates": [
          [
            [
              161.35099,
              41.375316
            ],
            [
              161.474453,
              41.472226
            ],
            [
              161.584198,
              41.577969
            ],
            [
              161.679168,
              41.691525
            ],
            [
              161.758448,
              41.811802
            ],
            [
              161.821276,
              41.93764
            ],
            [
              161.867045,
              42.067829
            ],
            [
              161.895316,
              42.201113
            ],
            [
              161.905816,
              42.33621
            ],
            [
              161.898444,
              42.471819
            ],
            [
              161.87327,
              42.606633
            ],
            [
              161.830538,
              42.739354
            ],
            [
              161.770659,
              42.868704
            ],
            [
              161.694209,
              42.993438
            ],
            [
              161.601925,
              43.112353
            ],
            [
              161.494696,
              43.224306
            ],
            [
              161.373553,
              43.328217
            ],
            [
              161.239665,
              43.423086
            ],
            [
              161.094319,
              43.507999
            ],
            [
              160.938917,
              43.582139
            ],
            [
              160.774954,
              43.644791
            ],
            [
              160.60401,
              43.695353
            ],
            [
              160.427731,
              43.733337
            ],
            [
              160.247815,
              43.758377
            ],
            [
              160.065994,
              43.770232
            ],
            [
              159.884019,
              43.768788
            ],
            [
              159.703643,
              43.75406
            ],
            [
              159.526603,
              43.726188
            ],
            [
              159.354604,
              43.685442
            ],
            [
              159.189302,
              43.632213
            ],
            [
              159.03229,
              43.567014
            ],
            [
              158.88508,
              43.490474
            ],
            [
              158.749088,
              43.403329
            ],
            [
              158.625625,
              43.306419
            ],
            [
              158.515881,
              43.200676
            ],
            [
              158.420911,
              43.08712
            ],
            [
              158.34163,
              42.966843
            ],
            [
              158.278803,
              42.841005
            ],
            [
              158.233033,
              42.710816
            ],
            [
              158.204762,
              42.577532
            ],
            [
              158.194262,
              42.442435
            ],
            [
              158.201634,
              42.306826
            ],
            [
              158.226808,
              42.172012
            ],
            [
              158.26954,
              42.039291
            ],
            [
              158.329419,
              41.909941
            ],
            [
              158.405869,
              41.785207
            ],
            [
              158.498153,
              41.666292
            ],
            [
              158.605383,
              41.554339
            ],
            [
              158.726525,
              41.450428
            ],
            [
              158.860414,
              41.355559
            ],
            [
              159.005759,
              41.270646
            ],
            [
              159.161161,
              41.196506
            ],
            [
              159.325124,
              41.133854
            ],
            [
              159.496068,
              41.083292
            ],
            [
              159.672347,
              41.045308
            ],
            [
              159.852264,
              41.020268
            ],
            [
              160.034085,
              41.008413
            ],
            [
              160.21606,
              41.009857
            ],
            [
              160.396436,
              41.024585
            ],
            [
              160.573475,
              41.052457
            ],
            [
              160.745474,
              41.093203
            ],
            [
              160.910776,
              41.146432
            ],
            [
              161.067788,
              41.211631
            ],
            [
              161.214999,
              41.288171
            ],
            [
              161.35099,
              41.375316
            ]
          ]
        ],
        "type": "Polygon"
      },
      "properties": {
        "kind": "reachableSet",
        "observationStatus": "estimated",
        "vessel": "B"
      },
      "type": "Feature"
    }
  ],
  "properties": {
    "dateline": false
  },
  "type": "FeatureCollection"
}
