{
  "features": [
    {
      "geometry": {
        "coordinates": [
          -60.61054,
          -45.669483
        ],
        "type": "Point"
      },
      "properties": {
        "mmsi": "412329689",
        "observationStatus": "observed",
        "role": "off",
        "time": "2018-01-24T06:51:29Z",
        "vessel": "A"
      },
      "type": "Feature"
    },
    {
      "geometry": {
        "coordinates": [
          -60.543243,
          -45.678163
        ],
        "type": "Point"
      },
      "properties": {
        "mmsi": "412329685",
        "observationStatus": "observed",
        "role": "off",
        "time": "2018-01-24T07:20:56Z",
        "vessel": "B"
      },
      "type": "Feature"
    },
    {
      "geometry": {
        "coordinates": [
          -60.603473,
          -45.712287
        ],
        "type": "Point"
      },
      "properties": {
        "mmsi": "412329689",
        "observationStatus": "observed",
        "role": "on",
        "time": "2018-01-24T23:26:06Z",
        "vessel": "A"
      },
      "type": "Feature"
    },
    {
      "geometry": {
        "coordinates": [
          -60.580092,
          -45.710417
        ],
        "type": "Point"
      },
      "properties": {
        "mmsi": "412329685",
        "observationStatus": "observed",
        "role": "on",
        "time": "2018-01-24T23:57:18Z",
        "vessel": "B"
      },
      "type": "Feature"
    },
    {
      "geometry": {
        "coordinates": [
          [
            -60.61054,
            -45.669483
          ],
          [
            -60.558054,
            -45.686515
          ],
          [
            -60.603473,
            -45.712287
          ]
        ],
        "type": "LineString"
      },
      "properties": {
        "confidence": "low",
        "lineStyle": "dashed",
        "observationStatus": "estimated",
        "source": "reachable-set heuristic",
        "vessel": "A"
      },
      "type": "Feature"
    },
    {
      "geometry": {
        "coordinates": [
          [
            -60.543243,
            -45.678163
          ],
          [
            -60.558054,
            -45.686515
          ],
          [
            -60.580092,
            -45.710417
          ]
        ],
        "type": "LineString"
      },
      "properties": {
        "confidence": "low",
        "lineStyle": "dashed",
        "observationStatus": "estimated",
        "source": "reachable-set heuristic",
        "vessel": "B"
      },
      "type": "Feature"
    },
    {
      "geometry": {
        "coordinates": [
          -60.558054,
          -45.686515
        ],
        "type": "Point"
      },
      "properties": {
        "kind": "meetingPoint",
        "observationStatus": "estimated"
      },
      "type": "Feature"
    },
    {
      "geometry": {
        "coordinates": [
          [
            [
              -60.328889,
              -47.375465
            ],
            [
              -60.095461,
              -47.348183
            ],
            [
              -59.866959,
              -47.304941
            ],
            [
              -59.645584,
              -47.246155
            ],
            [
              -59.433468,
              -47.17239
            ],
            [
              -59.232654,
              -47.084358
            ],
            [
              -59.045076,
              -46.982906
            ],
            [
              -58.87254,
              -46.869011
            ],
            [
              -58.716708,
              -46.74377
            ],
            [
              -58.57908,
              -46.608389
            ],
            [
              -58.460983,
              -46.464172
            ],
            [
              -58.363553,
              -46.312508
            ],
            [
              -58.287728,
              -46.154858
            ],
            [
              -58.23424,
              -45.992739
            ],
            [
              -58.203603,
              -45.827713
            ],
            [
              -58.196111,
              -45.661369
            ],
            [
              -58.211838,
              -45.49531
            ],
            [
              -58.250632,
              -45.331134
            ],
            [
              -58.312119,
              -45.170422
            ],
            [
              -58.395707,
              -45.014723
            ],
            [
              -58.50059,
              -44.865536
            ],
            [
              -58.62576,
              -44.724298
            ],
            [
              -58.770011,
              -44.592368
            ],
            [
              -58.931952,
              -44.471017
            ],
            [
              -59.110026,
              -44.361415
            ],
            [
              -59.302516,
              -44.264616
            ],
            [
              -59.507569,
              -44.181552
            ],
            [
              -59.72321,
              -44.113025
            ],
            [
              -59.947363,
              -44.059693
            ],
            [
              -60.177868,
              -44.02207
            ],
            [
              -60.412506,
              -44.000519
            ],
            [
              -60.649018,
              -43.995247
            ],
            [
              -60.885124,
              -44.006305
            ],
            [
              -61.118553,
              -44.033587
            ],
            [
              -61.347055,
              -44.076829
            ],
            [
              -61.568429,
              -44.135615
            ],
            [
              -61.780545,
              -44.20938
            ],
            [
              -61.981359,
              -44.297412
            ],
            [
              -62.168937,
              -44.398864
            ],
            [
              -62.341473,
              -44.512759
            ],
            [
              -62.497305,
              -44.638
            ],
            [
              -62.634933,
              -44.773381
            ],
            [
              -62.75303,
              -44.917598
            ],
            [
              -62.85046,
              -45.069262
            ],
            [
              -62.926285,
              -45.226912
            ],
            [
              -62.979773,
              -45.389031
            ],
            [
              -63.010411,
              -45.554057
            ],
            [
              -63.017902,
              -45.720401
            ],
            [
              -63.002175,
              -45.88646
            ],
            [
              -62.963382,
              -46.050636
            ],
            [
              -62.901895,
              -46.211348
            ],
            [
              -62.818307,
              -46.367047
            ],
            [
              -62.713423,
              -46.516234
            ],
            [
              -62.588253,
              -46.657472
            ],
            [
              -62.444003,
              -46.789402
            ],
            [
              -62.282061,
              -46.910753
            ],
            [
              -62.103988,
              -47.020355
            ],
            [
              -61.911498,
              -47.117154
            ],
            [
              -61.706445,
              -47.200218
            ],
            [
              -61.490803,
              -47.268745
            ],
            [
              -61.266651,
              -47.322077
            ],
            [
              -61.036145,
              -47.3597
            ],
            [
              -60.801507,
              -47.381251
            ],
            [
              -60.564996,
              -47.386523
            ],
            [
              -60.328889,
              -47.375465
            ]
          ]
        ],
        "type": "Polygon"
      },
      "properties": {
        "kind": "reachableSet",
        "observationStatus": "estimated",
        "vessel": "A"
      },
      "type": "Feature"
    },
    {
      "geometry": {
        "coordinates": [
          [
            [
              -62.074916,
              -47.018836
            ],
            [
              -61.883025,
              -47.116756
            ],
            [
              -61.678408,
              -47.200976
            ],
            [
              -61.463036,
              -47.270686
            ],
            [
              -61.238984,
              -47.325215
            ],
            [
              -61.008408,
              -47.364037
            ],
            [
              -60.773531,
              -47.386778
            ],
            [
              -60.536613,
              -47.39322
            ],
            [
              -60.299936,
              -47.3833
            ],
            [
              -60.06578,
              -47.357114
            ],
            [
              -59.8364,
              -47.314914
            ],
            [
              -59.614004,
              -47.257107
            ],
            [
              -59.400735,
              -47.184249
            ],
            [
              -59.198646,
              -47.097041
            ],
            [
              -59.009684,
              -46.996325
            ],
            [
              -58.835668,
              -46.883069
            ],
            [
              -58.678275,
              -46.758365
            ],
            [
              -58.539019,
              -46.623413
            ],
            [
              -58.419243,
              -46.479513
            ],
            [
              -58.3201,
              -46.328051
            ],
            [
              -58.242544,
              -46.170485
            ],
            [
              -58.187323,
              -46.008333
            ],
            [
              -58.154968,
              -45.843157
            ],
            [
              -58.14579,
              -45.676548
            ],
            [
              -58.159879,
              -45.510109
            ],
            [
              -58.197099,
              -45.345444
            ],
            [
              -58.25709,
              -45.184138
            ],
            [
              -58.339276,
              -45.027746
            ],
            [
              -58.442865,
              -44.877773
            ],
            [
              -58.566859,
              -44.735663
            ],
            [
              -58.710064,
              -44.602785
            ],
            [
              -58.871101,
              -44.48042
            ],
            [
              -59.048419,
              -44.369744
            ],
            [
              -59.24031,
              -44.271824
            ],
            [
              -59.444927,
              -44.187604
            ],
            [
              -59.660299,
              -44.117894
            ],
            [
              -59.884351,
              -44.063365
            ],
            [
              -60.114927,
              -44.024543
            ],
            [
              -60.349804,
              -44.001802
            ],
            [
              -60.586722,
              -43.99536
            ],
            [
              -60.823399,
              -44.00528
            ],
            [
              -61.057555,
              -44.031466
            ],
            [
              -61.286935,
              -44.073666
            ],
            [
              -61.509331,
              -44.131473
            ],
            [
              -61.7226,
              -44.204331
            ],
            [
              -61.924689,
              -44.291539
            ],
            [
              -62.113651,
              -44.392255
            ],
            [
              -62.287667,
              -44.505511
            ],
            [
              -62.44506,
              -44.630215
            ],
            [
              -62.584316,
              -44.765167
            ],
            [
              -62.704092,
              -44.909067
            ],
            [
              -62.803235,
              -45.060529
            ],
            [
              -62.880791,
              -45.218095
            ],
            [
              -62.936012,
              -45.380247
            ],
            [
              -62.968367,
              -45.545423
            ],
            [
              -62.977545,
              -45.712032
            ],
            [
              -62.963456,
              -45.878471
            ],
            [
              -62.926236,
              -46.043136
            ],
            [
              -62.866245,
              -46.204442
            ],
            [
              -62.784059,
              -46.360834
            ],
            [
              -62.68047,
              -46.510807
            ],
            [
              -62.556476,
              -46.652917
            ],
            [
              -62.413271,
              -46.785795
            ],
            [
              -62.252234,
              -46.90816
            ],
            [
              -62.074916,
              -47.018836
            ]
          ]
        ],
        "type": "Polygon"
      },
      "properties": {
        "kind": "reachableSet",
        "observationStatus": "estimated",
        "vessel": "B"
      },
      "type": "Feature"
    }
  ],
  "properties": {
    "dateline": false
  },
  "type": "FeatureCollection"
}
