{
  "features": [
    {
      "geometry": {
        "coordinates": [
          -60.263013,
          -45.345272
        ],
        "type": "Point"
      },
      "properties": {
        "mmsi": "412329691",
        "observationStatus": "observed",
        "role": "off",
        "time": "2018-02-07T06:07:19Z",
        "vessel": "A"
      },
      "type": "Feature"
    },
    {
      "geometry": {
        "coordinates": [
          -60.296067,
          -45.347473
        ],
        "type": "Point"
      },
      "properties": {
        "mmsi": "412329685",
        "observationStatus": "observed",
        "role": "off",
        "time": "2018-02-07T06:11:10Z",
        "vessel": "B"
      },
      "type": "Feature"
    },
    {
      "geometry": {
        "coordinates": [
          -60.444752,
          -45.314078
        ],
        "type": "Point"
      },
      "properties": {
        "mmsi": "412329685",
        "observationStatus": "observed",
        "role": "on",
        "time": "2018-02-07T23:15:24Z",
        "vessel": "B"
      },
      "type": "Feature"
    },
    {
      "geometry": {
        "coordinates": [
          -60.480312,
          -45.319198
        ],
        "type": "Point"
      },
      "properties": {
        "mmsi": "412329691",
        "observationStatus": "observed",
        "role": "on",
        "time": "2018-02-07T23:45:34Z",
        "vessel": "A"
      },
      "type": "Feature"
    },
    {
      "geometry": {
        "coordinates": [
          [
            -60.263013,
            -45.345272
          ],
          [
            -60.431454,
            -45.316325
          ],
          [
            -60.480312,
            -45.319198
          ]
        ],
        "type": "LineString"
      },
      "properties": {
        "confidence": "low",
        "lineStyle": "dashed",
        "observationStatus": "estimated",
        "source": "reachable-set heuristic",
        "vessel": "A"
      },
      "type": "Feature"
    },
    {
      "geometry": {
        "coordinates": [
          [
            -60.296067,
            -45.347473
          ],
          [
            -60.431454,
            -45.316325
          ],
          [
            -60.444752,
            -45.314078
          ]
        ],
        "type": "LineString"
      },
      "properties": {
        "confidence": "low",
        "lineStyle": "dashed",
        "observationStatus": "estimated",
        "source": "reachable-set heuristic",
        "vessel": "B"
      },
      "type": "Feature"
    },
    {
      "geometry": {
        "coordinates": [
          -60.431454,
          -45.316325
        ],
        "type": "Point"
      },
      "properties": {
        "kind": "meetingPoint",
        "observationStatus": "estimated"
      },
      "type": "Feature"
    },
    {
      "geometry": {
        "coordinates": [
          [
            [
              -62.894935,
              -45.029471
            ],
            [
              -62.924675,
              -45.205813
            ],
            [
              -62.929828,
              -45.383373
            ],
            [
              -62.910345,
              -45.56044
            ],
            [
              -62.866413,
              -45.73531
            ],
            [
              -62.798455,
              -45.906298
            ],
            [
              -62.707126,
              -46.071757
            ],
            [
              -62.593305,
              -46.230094
            ],
            [
              -62.458088,
              -46.379784
            ],
            [
              -62.302778,
              -46.519386
            ],
            [
              -62.12887,
              -46.647555
            ],
            [
              -61.93804,
              -46.763057
            ],
            [
              -61.732124,
              -46.864779
            ],
            [
              -61.513106,
              -46.951742
            ],
            [
              -61.283096,
              -47.023108
            ],
            [
              -61.044308,
              -47.07819
            ],
            [
              -60.799042,
              -47.116458
            ],
            [
              -60.54966,
              -47.137542
            ],
            [
              -60.298564,
              -47.141241
            ],
            [
              -60.048172,
              -47.127517
            ],
            [
              -59.800895,
              -47.096505
            ],
            [
              -59.559115,
              -47.048501
            ],
            [
              -59.32516,
              -46.983969
            ],
            [
              -59.101284,
              -46.903529
            ],
            [
              -58.889642,
              -46.807957
            ],
            [
              -58.692273,
              -46.698174
            ],
            [
              -58.511077,
              -46.575235
            ],
            [
              -58.3478,
              -46.440326
            ],
            [
              -58.204014,
              -46.294745
            ],
            [
              -58.081103,
              -46.139895
            ],
            [
              -57.980252,
              -45.977266
            ],
            [
              -57.902431,
              -45.808426
            ],
            [
              -57.84839,
              -45.634999
            ],
            [
              -57.81865,
              -45.458657
            ],
            [
              -57.813497,
              -45.281097
            ],
            [
              -57.83298,
              -45.10403
            ],
            [
              -57.876912,
              -44.92916
            ],
            [
              -57.94487,
              -44.758172
            ],
            [
              -58.036199,
              -44.592713
            ],
            [
              -58.15002,
              -44.434376
            ],
            [
              -58.285237,
              -44.284686
            ],
            [
              -58.440547,
              -44.145084
            ],
            [
              -58.614455,
              -44.016915
            ],
            [
              -58.805285,
              -43.901413
            ],
            [
              -59.011201,
              -43.799691
            ],
            [
              -59.230219,
              -43.712728
            ],
            [
              -59.460229,
              -43.641362
            ],
            [
              -59.699017,
              -43.58628
            ],
            [
              -59.944283,
              -43.548012
            ],
            [
              -60.193665,
              -43.526928
            ],
            [
              -60.444761,
              -43.523229
            ],
            [
              -60.695153,
              -43.536953
            ],
            [
              -60.94243,
              -43.567965
            ],
            [
              -61.18421,
              -43.615969
            ],
            [
              -61.418165,
              -43.680501
            ],
            [
              -61.642041,
              -43.760941
            ],
            [
              -61.853683,
              -43.856513
            ],
            [
              -62.051052,
              -43.966296
            ],
            [
              -62.232248,
              -44.089235
            ],
            [
              -62.395525,
              -44.224144
            ],
            [
              -62.539311,
              -44.369725
            ],
            [
              -62.662222,
              -44.524575
            ],
            [
              -62.763073,
              -44.687204
            ],
            [
              -62.840894,
              -44.856044
            ],
            [
              -62.894935,
              -45.029471
            ]
          ]
        ],
        "type": "Polygon"
      },
      "properties": {
        "kind": "reachableSet",
        "observationStatus": "estimated",
        "vessel": "A"
      },
      "type": "Feature"
    },
    {
      "geometry": {
        "coordinates": [
          [
            [
              -62.726621,
              -44.801565
            ],
            [
              -62.788526,
              -44.967494
            ],
            [
              -62.827144,
              -45.136921
            ],
            [
              -62.842102,
              -45.308215
            ],
            [
              -62.833256,
              -45.479726
            ],
            [
              -62.800692,
              -45.649802
            ],
            [
              -62.744722,
              -45.816807
            ],
            [
              -62.665887,
              -45.97913
            ],
            [
              -62.564945,
              -46.13521
            ],
            [
              -62.442869,
              -46.283542
            ],
            [
              -62.300833,
              -46.422699
            ],
            [
              -62.140207,
              -46.55134
            ],
            [
              -61.962536,
              -46.668226
            ],
            [
              -61.769533,
              -46.772232
            ],
            [
              -61.563055,
              -46.862356
            ],
            [
              -61.345091,
              -46.93773
            ],
            [
              -61.11774,
              -46.997628
            ],
            [
              -60.883193,
              -47.041473
            ],
            [
              -60.643707,
              -47.068844
            ],
            [
              -60.401589,
              -47.079476
            ],
            [
              -60.15917,
              -47.073267
            ],
            [
              -59.918786,
              -47.050276
            ],
            [
              -59.682751,
              -47.010727
            ],
            [
              -59.453339,
              -46.954998
            ],
            [
              -59.232759,
              -46.883627
            ],
            [
              -59.023135,
              -46.797301
            ],
            [
              -58.826486,
              -46.696852
            ],
            [
              -58.644706,
              -46.583247
            ],
            [
              -58.479545,
              -46.457579
            ],
            [
              -58.332594,
              -46.321061
            ],
            [
              -58.205269,
              -46.175005
            ],
            [
              -58.098795,
              -46.020818
            ],
            [
              -58.014198,
              -45.859986
            ],
            [
              -57.952292,
              -45.694058
            ],
            [
              -57.913674,
              -45.524631
            ],
            [
              -57.898717,
              -45.353337
            ],
            [
              -57.907562,
              -45.181826
            ],
            [
              -57.940127,
              -45.011749
            ],
            [
              -57.996096,
              -44.844745
            ],
            [
              -58.074931,
              -44.682421
            ],
            [
              -58.175873,
              -44.526342
            ],
            [
              -58.29795,
              -44.378009
            ],
            [
              -58.439985,
              -44.238852
            ],
            [
              -58.600611,
              -44.110212
            ],
            [
              -58.778282,
              -43.993325
            ],
            [
              -58.971286,
              -43.889319
            ],
            [
              -59.177764,
              -43.799196
            ],
            [
              -59.395727,
              -43.723822
            ],
            [
              -59.623078,
              -43.663924
            ],
            [
              -59.857626,
              -43.620078
            ],
            [
              -60.097112,
              -43.592708
            ],
            [
              -60.33923,
              -43.582076
            ],
            [
              -60.581648,
              -43.588285
            ],
            [
              -60.822032,
              -43.611275
            ],
            [
              -61.058067,
              -43.650825
            ],
            [
              -61.287479,
              -43.706554
            ],
            [
              -61.508059,
              -43.777925
            ],
            [
              -61.717683,
              -43.864251
            ],
            [
              -61.914332,
              -43.9647
            ],
            [
              -62.096113,
              -44.078305
            ],
            [
              -62.261273,
              -44.203972
            ],
            [
              -62.408224,
              -44.340491
            ],
            [
              -62.53555,
              -44.486547
            ],
            [
              -62.642024,
              -44.640733
            ],
            [
              -62.726621,
              -44.801565
            ]
          ]
        ],
        "type": "Polygon"
      },
      "properties": {
        "kind": "reachableSet",
        "observationStatus": "estimated",
        "vessel": "B"
      },
      "type": "Feature"
    }
  ],
  "properties": {
    "dateline": false
  },
  "type": "FeatureCollection"
}
