{
  "features": [
    {
      "geometry": {
        "coordinates": [
          149.77848,
          43.654533
        ],
        "type": "Point"
      },
      "properties": {
        "mmsi": "412439761",
        "observationStatus": "observed",
        "role": "off",
        "time": "2019-10-27T06:02:27Z",
        "vessel": "A"
      },
      "type": "Feature"
    },
    {
      "geometry": {
        "coordinates": [
          149.795607,
          43.594752
        ],
        "type": "Point"
      },
      "properties": {
        "mmsi": "412439617",
        "observationStatus": "observed",
        "role": "off",
        "time": "2019-10-27T06:03:44Z",
        "vessel": "B"
      },
      "type": "Feature"
    },
    {
      "geometry": {
        "coordinates": [
          152.613333,
          42.938333
        ],
        "type": "Point"
      },
      "properties": {
        "mmsi": "412439761",
        "observationStatus": "observed",
        "role": "on",
        "time": "2019-10-27T20:42:57Z",
        "vessel": "A"
      },
      "type": "Feature"
    },
    {
      "geometry": {
        "coordinates": [
          152.686667,
          42.968333
        ],
        "type": "Point"
      },
      "properties": {
        "mmsi": "412439617",
        "observationStatus": "observed",
        "role": "on",
        "time": "2019-10-27T20:47:02Z",
        "vessel": "B"
      },
      "type": "Feature"
    },
    {
      "geometry": {
        "coordinates": [
          [
            149.77848,
            43.654533
          ],
          [
            152.223578,
            43.0777
          ],
          [
            152.613333,
            42.938333
          ]
        ],
        "type": "LineString"
      },
      "properties": {
        "confidence": "low",
        "lineStyle": "dashed",
        "observationStatus": "estimated",
        "source": "reachable-set heuristic",
        "vessel": "A"
      },
      "type": "Feature"
    },
    {
      "geometry": {
        "coordinates": [
          [
            149.795607,
            43.594752
          ],
          [
            152.223578,
            43.0777
          ],
          [
            152.686667,
            42.968333
          ]
        ],
        "type": "LineString"
      },
      "properties": {
        "confidence": "low",
        "lineStyle": "dashed",
        "observationStatus": "estimated",
        "source": "reachable-set heuristic",
        "vessel": "B"
      },
      "type": "Feature"
    },
    {
      "geometry": {
        "coordinates": [
          152.223578,
          43.0777
        ],
        "type": "Point"
      },
      "properties": {
        "kind": "meetingPoint",
        "observationStatus": "estimated"
      },
      "type": "Feature"
    },
    {
      "geometry": {
        "coordinates": [
          [
            [
              152.969011,
              42.848475
            ],
            [
              152.996473,
              42.927142
            ],
            [
              153.006595,
              43.009365
            ],
            [
              152.999279,
              43.094354
            ],
            [
              152.974596,
              43.181288
            ],
            [
              152.932783,
              43.269331
            ],
            [
              152.874243,
              43.357636
            ],
            [
              152.799539,
              43.44535
            ],
            [
              152.709392,
              43.531631
            ],
            [
              152.604669,
              43.615647
            ],
            [
              152.486379,
              43.696588
            ],
            [
              152.355661,
              43.773676
            ],
            [
              152.213773,
              43.846168
            ],
            [
              152.062084,
              43.913365
            ],
            [
              151.902052,
              43.974621
            ],
            [
              151.73522,
              44.029346
            ],
            [
              151.563194,
              44.077012
            ],
            [
              151.387631,
              44.117161
            ],
            [
              151.210221,
              44.149406
            ],
            [
              151.032674,
              44.173436
            ],
            [
              150.856699,
              44.18902
            ],
            [
              150.68399,
              44.196008
            ],
            [
              150.516211,
              44.194333
            ],
            [
              150.354978,
              44.184011
            ],
            [
              150.201844,
              44.16514
            ],
            [
              150.058284,
              44.137904
            ],
            [
              149.925679,
              44.102564
            ],
            [
              149.805307,
              44.05946
            ],
            [
              149.698327,
              44.009008
            ],
            [
              149.60577,
              43.951693
            ],
            [
              149.528527,
              43.888068
            ],
            [
              149.467341,
              43.818745
            ],
            [
              149.422803,
              43.744392
            ],
            [
              149.39534,
              43.665725
            ],
            [
              149.385218,
              43.583501
            ],
            [
              149.392534,
              43.498513
            ],
            [
              149.417217,
              43.411579
            ],
            [
              149.459031,
              43.323535
            ],
            [
              149.517571,
              43.235231
            ],
            [
              149.592274,
              43.147516
            ],
            [
              149.682421,
              43.061236
            ],
            [
              149.787144,
              42.97722
            ],
            [
              149.905435,
              42.896278
            ],
            [
              150.036153,
              42.819191
            ],
            [
              150.17804,
              42.746699
            ],
            [
              150.32973,
              42.679502
            ],
            [
              150.489761,
              42.618246
            ],
            [
              150.656593,
              42.563521
            ],
            [
              150.828619,
              42.515855
            ],
            [
              151.004182,
              42.475706
            ],
            [
              151.181592,
              42.443461
            ],
            [
              151.359139,
              42.419431
            ],
            [
              151.535115,
              42.403846
            ],
            [
              151.707823,
              42.396858
            ],
            [
              151.875602,
              42.398533
            ],
            [
              152.036835,
              42.408856
            ],
            [
              152.189969,
              42.427726
            ],
            [
              152.33353,
              42.454963
            ],
            [
              152.466135,
              42.490303
            ],
            [
              152.586507,
              42.533407
            ],
            [
              152.693486,
              42.583859
            ],
            [
              152.786043,
              42.641174
            ],
            [
              152.863287,
              42.704799
            ],
            [
              152.924472,
              42.774122
            ],
            [
              152.969011,
              42.848475
            ]
          ]
        ],
        "type": "Polygon"
      },
      "properties": {
        "kind": "reachableSet",
        "observationStatus": "estimated",
        "vessel": "A"
      },
      "type": "Feature"
    },
    {
      "geometry": {
        "coordinates": [
          [
            [
              153.045419,
              42.890601
            ],
            [
              153.068019,
              42.970053
            ],
            [
              153.073025,
              43.052505
            ],
            [
              153.060388,
              43.137163
            ],
            [
              153.030231,
              43.223211
            ],
            [
              152.982845,
              43.309821
            ],
            [
              152.918684,
              43.396159
            ],
            [
              152.838368,
              43.481393
            ],
            [
              152.74267,
              43.564702
            ],
            [
              152.632511,
              43.645284
            ],
            [
              152.508952,
              43.722363
            ],
            [
              152.373184,
              43.795197
            ],
            [
              152.226513,
              43.863084
            ],
            [
              152.070353,
              43.925371
            ],
            [
              151.906207,
              43.981457
            ],
            [
              151.735656,
              44.030802
            ],
            [
              151.560342,
              44.072932
            ],
            [
              151.381955,
              44.10744
            ],
            [
              151.202211,
              44.133995
            ],
            [
              151.022842,
              44.152339
            ],
            [
              150.845575,
              44.162298
            ],
            [
              150.672118,
              44.163774
            ],
            [
              150.504141,
              44.156754
            ],
            [
              150.343261,
              44.141306
            ],
            [
              150.191029,
              44.117577
            ],
            [
              150.048909,
              44.085797
            ],
            [
              149.918272,
              44.046271
            ],
            [
              149.800374,
              43.999381
            ],
            [
              149.696352,
              43.945577
            ],
            [
              149.607206,
              43.885379
            ],
            [
              149.533797,
              43.819365
            ],
            [
              149.47683,
              43.748171
            ],
            [
              149.436854,
              43.672484
            ],
            [
              149.414254,
              43.593032
            ],
            [
              149.409249,
              43.51058
            ],
            [
              149.421885,
              43.425922
            ],
            [
              149.452042,
              43.339874
            ],
            [
              149.499429,
              43.253264
            ],
            [
              149.563589,
              43.166926
            ],
            [
              149.643905,
              43.081692
            ],
            [
              149.739604,
              42.998383
            ],
            [
              149.849762,
              42.917801
            ],
            [
              149.973321,
              42.840722
            ],
            [
              150.109089,
              42.767888
            ],
            [
              150.25576,
              42.700001
            ],
            [
              150.41192,
              42.637714
            ],
            [
              150.576066,
              42.581628
            ],
            [
              150.746617,
              42.532283
            ],
            [
              150.921931,
              42.490153
            ],
            [
              151.100319,
              42.455645
            ],
            [
              151.280063,
              42.42909
            ],
            [
              151.459431,
              42.410746
            ],
            [
              151.636698,
              42.400787
            ],
            [
              151.810155,
              42.399311
            ],
            [
              151.978133,
              42.406331
            ],
            [
              152.139012,
              42.421779
            ],
            [
              152.291245,
              42.445508
            ],
            [
              152.433364,
              42.477288
            ],
            [
              152.564002,
              42.516814
            ],
            [
              152.681899,
              42.563704
            ],
            [
              152.785922,
              42.617508
            ],
            [
              152.875067,
              42.677706
            ],
            [
              152.948477,
              42.74372
            ],
            [
              153.005444,
              42.814914
            ],
            [
              153.045419,
              42.890601
            ]
          ]
        ],
        "type": "Polygon"
      },
      "properties": {
        "kind": "reachableSet",
        "observationStatus": "estimated",
        "vessel": "B"
      },
      "type": "Feature"
    }
  ],
  "properties": {
    "dateline": false
  },
  "type": "FeatureCollection"
}
