{
  "features": [
    {
      "geometry": {
        "coordinates": [
          -57.779653,
          -42.055067
        ],
        "type": "Point"
      },
      "properties": {
        "mmsi": "412329684",
        "observationStatus": "observed",
        "role": "off",
        "time": "2019-05-17T04:19:52Z",
        "vessel": "A"
      },
      "type": "Feature"
    },
    {
      "geometry": {
        "coordinates": [
          -57.682145,
          -42.054848
        ],
        "type": "Point"
      },
      "properties": {
        "mmsi": "412329686",
        "observationStatus": "observed",
        "role": "off",
        "time": "2019-05-17T04:26:37Z",
        "vessel": "B"
      },
      "type": "Feature"
    },
    {
      "geometry": {
        "coordinates": [
          -57.884667,
          -42.02272
        ],
        "type": "Point"
      },
      "properties": {
        "mmsi": "412329686",
        "observationStatus": "observed",
        "role": "on",
        "time": "2019-05-17T22:06:05Z",
        "vessel": "B"
      },
      "type": "Feature"
    },
    {
      "geometry": {
        "coordinates": [
          -57.938625,
          -42.067325
        ],
        "type": "Point"
      },
      "properties": {
        "mmsi": "412329684",
        "observationStatus": "observed",
        "role": "on",
        "time": "2019-05-17T22:32:34Z",
        "vessel": "A"
      },
      "type": "Feature"
    },
    {
      "geometry": {
        "coordinates": [
          [
            -57.779653,
            -42.055067
          ],
          [
            -57.774931,
            -42.039898
          ],
          [
            -57.938625,
            -42.067325
          ]
        ],
        "type": "LineString"
      },
      "properties": {
        "confidence": "low",
        "lineStyle": "dashed",
        "observationStatus": "estimated",
        "source": "reachable-set heuristic",
        "vessel": "A"
      },
      "type": "Feature"
    },
    {
      "geometry": {
        "coordinates": [
          [
            -57.682145,
            -42.054848
          ],
          [
            -57.774931,
            -42.039898
          ],
          [
            -57.884667,
            -42.02272
          ]
        ],
        "type": "LineString"
      },
      "properties": {
        "confidence": "low",
        "lineStyle": "dashed",
        "observationStatus": "estimated",
        "source": "reachable-set heuristic",
        "vessel": "B"
      },
      "type": "Feature"
    },
    {
      "geometry": {
        "coordinates": [
          -57.774931,
          -42.039898
        ],
        "type": "Point"
      },
      "properties": {
        "kind": "meetingPoint",
        "observationStatus": "estimated"
      },
      "type": "Feature"
    },
    {
      "geometry": {
        "coordinates": [
          [
            [
              -60.352872,
              -42.253488
            ],
            [
              -60.315661,
              -42.435171
            ],
            [
              -60.254793,
              -42.613253
            ],
            [
              -60.170852,
              -42.786018
            ],
            [
              -60.064649,
              -42.951802
            ],
            [
              -59.937206,
              -43.10901
            ],
            [
              -59.78975,
              -43.256126
            ],
            [
              -59.6237,
              -43.391735
            ],
            [
              -59.440658,
              -43.51453
            ],
            [
              -59.242384,
              -43.623328
            ],
            [
              -59.030789,
              -43.717083
            ],
            [
              -58.80791,
              -43.79489
            ],
            [
              -58.575894,
              -43.856001
            ],
            [
              -58.336975,
              -43.899826
            ],
            [
              -58.093455,
              -43.925945
            ],
            [
              -57.847678,
              -43.934105
            ],
            [
              -57.602011,
              -43.924228
            ],
            [
              -57.358821,
              -43.89641
            ],
            [
              -57.120448,
              -43.850916
            ],
            [
              -56.88919,
              -43.788187
            ],
            [
              -56.667273,
              -43.708827
            ],
            [
              -56.456835,
              -43.613598
            ],
            [
              -56.259901,
              -43.503419
            ],
            [
              -56.078369,
              -43.379351
            ],
            [
              -55.913987,
              -43.242588
            ],
            [
              -55.768337,
              -43.094447
            ],
            [
              -55.642823,
              -42.936356
            ],
            [
              -55.538654,
              -42.769837
            ],
            [
              -55.456832,
              -42.596493
            ],
            [
              -55.398145,
              -42.417994
            ],
            [
              -55.363159,
              -42.236058
            ],
            [
              -55.352211,
              -42.052439
            ],
            [
              -55.365406,
              -41.868904
            ],
            [
              -55.402617,
              -41.68722
            ],
            [
              -55.463486,
              -41.509139
            ],
            [
              -55.547426,
              -41.336374
            ],
            [
              -55.653629,
              -41.170589
            ],
            [
              -55.781072,
              -41.013382
            ],
            [
              -55.928529,
              -40.866265
            ],
            [
              -56.094578,
              -40.730657
            ],
            [
              -56.277621,
              -40.607862
            ],
            [
              -56.475894,
              -40.499063
            ],
            [
              -56.68749,
              -40.405309
            ],
            [
              -56.910368,
              -40.327502
            ],
            [
              -57.142384,
              -40.266391
            ],
            [
              -57.381303,
              -40.222565
            ],
            [
              -57.624824,
              -40.196446
            ],
            [
              -57.870601,
              -40.188286
            ],
            [
              -58.116267,
              -40.198163
            ],
            [
              -58.359458,
              -40.225982
            ],
            [
              -58.59783,
              -40.271475
            ],
            [
              -58.829088,
              -40.334204
            ],
            [
              -59.051005,
              -40.413565
            ],
            [
              -59.261444,
              -40.508794
            ],
            [
              -59.458377,
              -40.618973
            ],
            [
              -59.639909,
              -40.743041
            ],
            [
              -59.804292,
              -40.879804
            ],
            [
              -59.949941,
              -41.027944
            ],
            [
              -60.075455,
              -41.186035
            ],
            [
              -60.179625,
              -41.352555
            ],
            [
              -60.261447,
              -41.525899
            ],
            [
              -60.320133,
              -41.704398
            ],
            [
              -60.355119,
              -41.886334
            ],
            [
              -60.366067,
              -42.069953
            ],
            [
              -60.352872,
              -42.253488
            ]
          ]
        ],
        "type": "Polygon"
      },
      "properties": {
        "kind": "reachableSet",
        "observationStatus": "estimated",
        "vessel": "A"
      },
      "type": "Feature"
    },
    {
      "geometry": {
        "coordinates": [
          [
            [
              -60.156028,
              -41.662388
            ],
            [
              -60.193899,
              -41.837932
            ],
            [
              -60.208555,
              -42.015411
            ],
            [
              -60.199856,
              -42.193114
            ],
            [
              -60.167885,
              -42.369332
            ],
            [
              -60.11295,
              -42.542366
            ],
            [
              -60.035581,
              -42.71055
            ],
            [
              -59.936521,
              -42.872265
            ],
            [
              -59.816726,
              -43.025953
            ],
            [
              -59.677349,
              -43.170133
            ],
            [
              -59.519733,
              -43.303419
            ],
            [
              -59.345394,
              -43.424525
            ],
            [
              -59.156013,
              -43.532286
            ],
            [
              -58.953413,
              -43.625664
            ],
            [
              -58.739545,
              -43.703759
            ],
            [
              -58.516469,
              -43.765819
            ],
            [
              -58.286333,
              -43.811247
            ],
            [
              -58.051353,
              -43.839606
            ],
            [
              -57.813794,
              -43.850621
            ],
            [
              -57.575941,
              -43.844188
            ],
            [
              -57.340087,
              -43.820367
            ],
            [
              -57.108501,
              -43.779389
            ],
            [
              -56.883416,
              -43.721648
            ],
            [
              -56.666998,
              -43.6477
            ],
            [
              -56.461332,
              -43.558257
            ],
            [
              -56.268397,
              -43.454181
            ],
            [
              -56.090054,
              -43.336474
            ],
            [
              -55.928018,
              -43.206269
            ],
            [
              -55.78385,
              -43.064821
            ],
            [
              -55.65894,
              -42.913492
            ],
            [
              -55.554489,
              -42.753739
            ],
            [
              -55.471504,
              -42.5871
            ],
            [
              -55.410783,
              -42.41518
            ],
            [
              -55.372913,
              -42.239636
            ],
            [
              -55.358256,
              -42.062158
            ],
            [
              -55.366956,
              -41.884454
            ],
            [
              -55.398927,
              -41.708237
            ],
            [
              -55.453861,
              -41.535203
            ],
            [
              -55.531231,
              -41.367018
            ],
            [
              -55.63029,
              -41.205304
            ],
            [
              -55.750085,
              -41.051616
            ],
            [
              -55.889462,
              -40.907435
            ],
            [
              -56.047079,
              -40.774149
            ],
            [
              -56.221417,
              -40.653043
            ],
            [
              -56.410799,
              -40.545282
            ],
            [
              -56.613399,
              -40.451905
            ],
            [
              -56.827267,
              -40.37381
            ],
            [
              -57.050343,
              -40.311749
            ],
            [
              -57.280479,
              -40.266321
            ],
            [
              -57.515458,
              -40.237963
            ],
            [
              -57.753018,
              -40.226947
            ],
            [
              -57.990871,
              -40.233381
            ],
            [
              -58.226725,
              -40.257201
            ],
            [
              -58.45831,
              -40.298179
            ],
            [
              -58.683396,
              -40.35592
            ],
            [
              -58.899814,
              -40.429868
            ],
            [
              -59.10548,
              -40.519311
            ],
            [
              -59.298414,
              -40.623387
            ],
            [
              -59.476758,
              -40.741094
            ],
            [
              -59.638794,
              -40.871299
            ],
            [
              -59.782961,
              -41.012747
            ],
            [
              -59.907872,
              -41.164076
            ],
            [
              -60.012323,
              -41.32383
            ],
            [
              -60.095308,
              -41.490469
            ],
            [
              -60.156028,
              -41.662388
            ]
          ]
        ],
        "type": "Polygon"
      },
      "properties": {
        "kind": "reachableSet",
        "observationStatus": "estimated",
        "vessel": "B"
      },
      "type": "Feature"
    }
  ],
  "properties": {
    "dateline": false
  },
  "type": "FeatureCollection"
}
