{
  "features": [
    {
      "geometry": {
        "coordinates": [
          -57.860148,
          -42.048858
        ],
        "type": "Point"
      },
      "properties": {
        "mmsi": "412328763",
        "observationStatus": "observed",
        "role": "off",
        "time": "2018-12-21T19:02:38Z",
        "vessel": "A"
      },
      "type": "Feature"
    },
    {
      "geometry": {
        "coordinates": [
          -57.886703,
          -42.016452
        ],
        "type": "Point"
      },
      "properties": {
        "mmsi": "412200336",
        "observationStatus": "observed",
        "role": "off",
        "time": "2018-12-21T19:51:54Z",
        "vessel": "B"
      },
      "type": "Feature"
    },
    {
      "geometry": {
        "coordinates": [
          -57.97316,
          -42.080963
        ],
        "type": "Point"
      },
      "properties": {
        "mmsi": "412328763",
        "observationStatus": "observed",
        "role": "on",
        "time": "2018-12-22T08:48:15Z",
        "vessel": "A"
      },
      "type": "Feature"
    },
    {
      "geometry": {
        "coordinates": [
          -57.988218,
          -42.118947
        ],
        "type": "Point"
      },
      "properties": {
        "mmsi": "412200336",
        "observationStatus": "observed",
        "role": "on",
        "time": "2018-12-22T08:52:25Z",
        "vessel": "B"
      },
      "type": "Feature"
    },
    {
      "geometry": {
        "coordinates": [
          [
            -57.860148,
            -42.048858
          ],
          [
            -57.938074,
            -42.067699
          ],
          [
            -57.97316,
            -42.080963
          ]
        ],
        "type": "LineString"
      },
      "properties": {
        "confidence": "low",
        "lineStyle": "dashed",
        "observationStatus": "estimated",
        "source": "reachable-set heuristic",
        "vessel": "A"
      },
      "type": "Feature"
    },
    {
      "geometry": {
        "coordinates": [
          [
            -57.886703,
            -42.016452
          ],
          [
            -57.938074,
            -42.067699
          ],
          [
            -57.988218,
            -42.118947
          ]
        ],
        "type": "LineString"
      },
      "properties": {
        "confidence": "low",
        "lineStyle": "dashed",
        "observationStatus": "estimated",
        "source": "reachable-set heuristic",
        "vessel": "B"
      },
      "type": "Feature"
    },
    {
      "geometry": {
        "coordinates": [
          -57.938074,
          -42.067699
        ],
        "type": "Point"
      },
      "properties": {
        "kind": "meetingPoint",
        "observationStatus": "estimated"
      },
      "type": "Feature"
    },
    {
      "geometry": {
        "coordinates": [
          [
            [
              -59.520445,
              -42.520525
            ],
            [
              -59.45301,
              -42.635752
            ],
            [
              -59.370779,
              -42.745482
            ],
            [
              -59.274544,
              -42.848657
            ],
            [
              -59.165232,
              -42.944284
            ],
            [
              -59.043895,
              -43.031443
            ],
            [
              -58.911703,
              -43.109293
            ],
            [
              -58.769927,
              -43.177086
            ],
            [
              -58.619934,
              -43.234167
            ],
            [
              -58.463168,
              -43.279988
            ],
            [
              -58.301139,
              -43.314107
            ],
            [
              -58.135407,
              -43.336196
            ],
            [
              -57.967569,
              -43.346041
            ],
            [
              -57.79924,
              -43.343549
            ],
            [
              -57.632042,
              -43.328742
            ],
            [
              -57.467584,
              -43.301764
            ],
            [
              -57.307452,
              -43.262875
            ],
            [
              -57.153186,
              -43.212448
            ],
            [
              -57.006273,
              -43.15097
            ],
            [
              -56.868128,
              -43.079033
            ],
            [
              -56.740081,
              -42.997329
            ],
            [
              -56.623364,
              -42.906646
            ],
            [
              -56.519103,
              -42.807856
            ],
            [
              -56.4283,
              -42.701911
            ],
            [
              -56.351832,
              -42.589832
            ],
            [
              -56.290433,
              -42.472697
            ],
            [
              -56.244696,
              -42.351635
            ],
            [
              -56.215061,
              -42.227811
            ],
            [
              -56.201813,
              -42.102419
            ],
            [
              -56.20508,
              -41.976666
            ],
            [
              -56.22483,
              -41.851763
            ],
            [
              -56.260874,
              -41.728912
            ],
            [
              -56.312863,
              -41.609297
            ],
            [
              -56.380298,
              -41.49407
            ],
            [
              -56.462529,
              -41.38434
            ],
            [
              -56.558764,
              -41.281165
            ],
            [
              -56.668076,
              -41.185537
            ],
            [
              -56.789413,
              -41.098379
            ],
            [
              -56.921606,
              -41.020528
            ],
            [
              -57.063381,
              -40.952736
            ],
            [
              -57.213374,
              -40.895655
            ],
            [
              -57.37014,
              -40.849834
            ],
            [
              -57.532169,
              -40.815715
            ],
            [
              -57.697901,
              -40.793626
            ],
            [
              -57.86574,
              -40.78378
            ],
            [
              -58.034069,
              -40.786273
            ],
            [
              -58.201267,
              -40.801079
            ],
            [
              -58.365724,
              -40.828057
            ],
            [
              -58.525856,
              -40.866947
            ],
            [
              -58.680122,
              -40.917373
            ],
            [
              -58.827035,
              -40.978851
            ],
            [
              -58.96518,
              -41.050788
            ],
            [
              -59.093228,
              -41.132492
            ],
            [
              -59.209944,
              -41.223176
            ],
            [
              -59.314206,
              -41.321966
            ],
            [
              -59.405008,
              -41.427911
            ],
            [
              -59.481476,
              -41.53999
            ],
            [
              -59.542875,
              -41.657125
            ],
            [
              -59.588612,
              -41.778187
            ],
            [
              -59.618247,
              -41.90201
            ],
            [
              -59.631495,
              -42.027402
            ],
            [
              -59.628228,
              -42.153156
            ],
            [
              -59.608478,
              -42.278059
            ],
            [
              -59.572434,
              -42.40091
            ],
            [
              -59.520445,
              -42.520525
            ]
          ]
        ],
        "type": "Polygon"
      },
      "properties": {
        "kind": "reachableSet",
        "observationStatus": "estimated",
        "vessel": "A"
      },
      "type": "Feature"
    },
    {
      "geometry": {
        "coordinates": [
          [
            [
              -58.898178,
              -43.037691
            ],
            [
              -58.766519,
              -43.103301
            ],
            [
              -58.626875,
              -43.158937
            ],
            [
              -58.480593,
              -43.204065
            ],
            [
              -58.329079,
              -43.238249
            ],
            [
              -58.173794,
              -43.261159
            ],
            [
              -58.016234,
              -43.272576
            ],
            [
              -57.857914,
              -43.272389
            ],
            [
              -57.700361,
              -43.260601
            ],
            [
              -57.545091,
              -43.237324
            ],
            [
              -57.393599,
              -43.202783
            ],
            [
              -57.247346,
              -43.157311
            ],
            [
              -57.107738,
              -43.101345
            ],
            [
              -56.976121,
              -43.035424
            ],
            [
              -56.853763,
              -42.960184
            ],
            [
              -56.741841,
              -42.876349
            ],
            [
              -56.641434,
              -42.784726
            ],
            [
              -56.553508,
              -42.686197
            ],
            [
              -56.47891,
              -42.581712
            ],
            [
              -56.418359,
              -42.472277
            ],
            [
              -56.372437,
              -42.358946
            ],
            [
              -56.341588,
              -42.242809
            ],
            [
              -56.326108,
              -42.124987
            ],
            [
              -56.326146,
              -42.006612
            ],
            [
              -56.341702,
              -41.888826
            ],
            [
              -56.372626,
              -41.772762
            ],
            [
              -56.41862,
              -41.659539
            ],
            [
              -56.479241,
              -41.550247
            ],
            [
              -56.553906,
              -41.445938
            ],
            [
              -56.641895,
              -41.347617
            ],
            [
              -56.742361,
              -41.256231
            ],
            [
              -56.854337,
              -41.172659
            ],
            [
              -56.976744,
              -41.097708
            ],
            [
              -57.108403,
              -41.032098
            ],
            [
              -57.248046,
              -40.976461
            ],
            [
              -57.394329,
              -40.931333
            ],
            [
              -57.545842,
              -40.89715
            ],
            [
              -57.701127,
              -40.874239
            ],
            [
              -57.858688,
              -40.862822
            ],
            [
              -58.017008,
              -40.863009
            ],
            [
              -58.174561,
              -40.874797
            ],
            [
              -58.329831,
              -40.898074
            ],
            [
              -58.481322,
              -40.932615
            ],
            [
              -58.627576,
              -40.978087
            ],
            [
              -58.767184,
              -41.034053
            ],
            [
              -58.8988,
              -41.099974
            ],
            [
              -59.021159,
              -41.175214
            ],
            [
              -59.133081,
              -41.25905
            ],
            [
              -59.233488,
              -41.350673
            ],
            [
              -59.321414,
              -41.449201
            ],
            [
              -59.396012,
              -41.553686
            ],
            [
              -59.456563,
              -41.663121
            ],
            [
              -59.502484,
              -41.776453
            ],
            [
              -59.533334,
              -41.892589
            ],
            [
              -59.548814,
              -42.010412
            ],
            [
              -59.548776,
              -42.128786
            ],
            [
              -59.53322,
              -42.246572
            ],
            [
              -59.502296,
              -42.362636
            ],
            [
              -59.456302,
              -42.475859
            ],
            [
              -59.395681,
              -42.585151
            ],
            [
              -59.321016,
              -42.68946
            ],
            [
              -59.233026,
              -42.787781
            ],
            [
              -59.13256,
              -42.879168
            ],
            [
              -59.020584,
              -42.962739
            ],
            [
              -58.898178,
              -43.037691
            ]
          ]
        ],
        "type": "Polygon"
      },
      "properties": {
        "kind": "reachableSet",
        "observationStatus": "estimated",
        "vessel": "B"
      },
      "type": "Feature"
    }
  ],
  "properties": {
    "dateline": false
  },
  "type": "FeatureCollection"
}
