{
  "features": [
    {
      "geometry": {
        "coordinates": [
          -60.235198,
          -45.102843
        ],
        "type": "Point"
      },
      "properties": {
        "mmsi": "412329691",
        "observationStatus": "observed",
        "role": "off",
        "time": "2017-02-18T07:56:05Z",
        "vessel": "A"
      },
      "type": "Feature"
    },
    {
      "geometry": {
        "coordinates": [
          -60.187102,
          -45.090487
        ],
        "type": "Point"
      },
      "properties": {
        "mmsi": "412329685",
        "observationStatus": "observed",
        "role": "off",
        "time": "2017-02-18T08:23:34Z",
        "vessel": "B"
      },
      "type": "Feature"
    },
    {
      "geometry": {
        "coordinates": [
          -60.096255,
          -44.993777
        ],
        "type": "Point"
      },
      "properties": {
        "mmsi": "412329691",
        "observationStatus": "observed",
        "role": "on",
        "time": "2017-02-18T21:14:31Z",
        "vessel": "A"
      },
      "type": "Feature"
    },
    {
      "geometry": {
        "coordinates": [
          -60.12064,
          -45.021378
        ],
        "type": "Point"
      },
      "properties": {
        "mmsi": "412329685",
        "observationStatus": "observed",
        "role": "on",
        "time": "2017-02-18T22:00:36Z",
        "vessel": "B"
      },
      "type": "Feature"
    },
    {
      "geometry": {
        "coordinates": [
          [
            -60.235198,
            -45.102843
          ],
          [
            -60.106605,
            -45.005423
          ],
          [
            -60.096255,
            -44.993777
          ]
        ],
        "type": "LineString"
      },
      "properties": {
        "confidence": "low",
        "lineStyle": "dashed",
        "observationStatus": "estimated",
        "source": "reachable-set heuristic",
        "vessel": "A"
      },
      "type": "Feature"
    },
    {
      "geometry": {
        "coordinates": [
          [
            -60.187102,
            -45.090487
          ],
          [
            -60.106605,
            -45.005423
          ],
          [
            -60.12064,
            -45.021378
          ]
        ],
        "type": "LineString"
      },
      "properties": {
        "confidence": "low",
        "lineStyle": "dashed",
        "observationStatus": "estimated",
        "source": "reachable-set heuristic",
        "vessel": "B"
      },
      "type": "Feature"
    },
    {
      "geometry": {
        "coordinates": [
          -60.106605,
          -45.005423
        ],
        "type": "Point"
      },
      "properties": {
        "kind": "meetingPoint",
        "observationStatus": "estimated"
      },
      "type": "Feature"
    },
    {
      "geometry": {
        "coordinates": [
          [
            [
              -58.90083,
              -44.055401
            ],
            [
              -59.043537,
              -43.972127
            ],
            [
              -59.197051,
              -43.899217
            ],
            [
              -59.359894,
              -43.837374
            ],
            [
              -59.530497,
              -43.787192
            ],
            [
              -59.707218,
              -43.749156
            ],
            [
              -59.888355,
              -43.723631
            ],
            [
              -60.072163,
              -43.710864
            ],
            [
              -60.256872,
              -43.710977
            ],
            [
              -60.440703,
              -43.723969
            ],
            [
              -60.621886,
              -43.749716
            ],
            [
              -60.798676,
              -43.787968
            ],
            [
              -60.96937,
              -43.838358
            ],
            [
              -61.132325,
              -43.900401
            ],
            [
              -61.285971,
              -43.973499
            ],
            [
              -61.428828,
              -44.056948
            ],
            [
              -61.559521,
              -44.149944
            ],
            [
              -61.676791,
              -44.251592
            ],
            [
              -61.779509,
              -44.360913
            ],
            [
              -61.866685,
              -44.476853
            ],
            [
              -61.93748,
              -44.598298
            ],
            [
              -61.991212,
              -44.724076
            ],
            [
              -62.027363,
              -44.852976
            ],
            [
              -62.045586,
              -44.983758
            ],
            [
              -62.045705,
              -45.115162
            ],
            [
              -62.027719,
              -45.245921
            ],
            [
              -61.9918,
              -45.374778
            ],
            [
              -61.938296,
              -45.50049
            ],
            [
              -61.867721,
              -45.621848
            ],
            [
              -61.780754,
              -45.737682
            ],
            [
              -61.678234,
              -45.846878
            ],
            [
              -61.561148,
              -45.948382
            ],
            [
              -61.430623,
              -46.041219
            ],
            [
              -61.287916,
              -46.124493
            ],
            [
              -61.134402,
              -46.197403
            ],
            [
              -60.97156,
              -46.259246
            ],
            [
              -60.800956,
              -46.309428
            ],
            [
              -60.624235,
              -46.347464
            ],
            [
              -60.443099,
              -46.372989
            ],
            [
              -60.259291,
              -46.385756
            ],
            [
              -60.074582,
              -46.385643
            ],
            [
              -59.89075,
              -46.372651
            ],
            [
              -59.709567,
              -46.346904
            ],
            [
              -59.532777,
              -46.308652
            ],
            [
              -59.362083,
              -46.258262
            ],
            [
              -59.199128,
              -46.196219
            ],
            [
              -59.045482,
              -46.123121
            ],
            [
              -58.902625,
              -46.039672
            ],
            [
              -58.771932,
              -45.946676
            ],
            [
              -58.654662,
              -45.845028
            ],
            [
              -58.551944,
              -45.735707
            ],
            [
              -58.464768,
              -45.619767
            ],
            [
              -58.393973,
              -45.498322
            ],
            [
              -58.340241,
              -45.372544
            ],
            [
              -58.30409,
              -45.243644
            ],
            [
              -58.285867,
              -45.112862
            ],
            [
              -58.285748,
              -44.981458
            ],
            [
              -58.303735,
              -44.850699
            ],
            [
              -58.339653,
              -44.721842
            ],
            [
              -58.393157,
              -44.59613
            ],
            [
              -58.463733,
              -44.474772
            ],
            [
              -58.550699,
              -44.358938
            ],
            [
              -58.653219,
              -44.249742
            ],
            [
              -58.770305,
              -44.148238
            ],
            [
              -58.90083,
              -44.055401
            ]
          ]
        ],
        "type": "Polygon"
      },
      "properties": {
        "kind": "reachableSet",
        "observationStatus": "estimated",
        "vessel": "A"
      },
      "type": "Feature"
    },
    {
      "geometry": {
        "coordinates": [
          [
            [
              -59.063471,
              -43.92211
            ],
            [
              -59.22491,
              -43.851593
            ],
            [
              -59.395295,
              -43.792674
            ],
            [
              -59.572986,
              -43.745921
            ],
            [
              -59.756271,
              -43.711784
            ],
            [
              -59.943385,
              -43.690592
            ],
            [
              -60.132527,
              -43.682548
            ],
            [
              -60.321874,
              -43.687732
            ],
            [
              -60.509602,
              -43.706092
            ],
            [
              -60.693905,
              -43.737451
            ],
            [
              -60.873008,
              -43.781509
            ],
            [
              -61.045184,
              -43.837839
            ],
            [
              -61.208777,
              -43.905901
            ],
            [
              -61.36221,
              -43.985038
            ],
            [
              -61.504007,
              -44.074488
            ],
            [
              -61.6328,
              -44.17339
            ],
            [
              -61.747351,
              -44.280792
            ],
            [
              -61.846556,
              -44.395658
            ],
            [
              -61.92946,
              -44.516884
            ],
            [
              -61.995263,
              -44.6433
            ],
            [
              -62.043333,
              -44.773691
            ],
            [
              -62.073206,
              -44.9068
            ],
            [
              -62.084595,
              -45.041344
            ],
            [
              -62.07739,
              -45.17603
            ],
            [
              -62.051661,
              -45.309559
            ],
            [
              -62.007655,
              -45.440645
            ],
            [
              -61.945796,
              -45.568026
            ],
            [
              -61.866679,
              -45.690476
            ],
            [
              -61.771068,
              -45.806814
            ],
            [
              -61.659882,
              -45.915921
            ],
            [
              -61.534192,
              -46.016746
            ],
            [
              -61.395209,
              -46.108318
            ],
            [
              -61.244271,
              -46.189755
            ],
            [
              -61.082832,
              -46.260272
            ],
            [
              -60.912446,
              -46.319191
            ],
            [
              -60.734756,
              -46.365944
            ],
            [
              -60.551471,
              -46.400081
            ],
            [
              -60.364356,
              -46.421273
            ],
            [
              -60.175215,
              -46.429317
            ],
            [
              -59.985868,
              -46.424133
            ],
            [
              -59.798139,
              -46.405773
            ],
            [
              -59.613836,
              -46.374414
            ],
            [
              -59.434734,
              -46.330356
            ],
            [
              -59.262558,
              -46.274026
            ],
            [
              -59.098965,
              -46.205964
            ],
            [
              -58.945531,
              -46.126827
            ],
            [
              -58.803735,
              -46.037377
            ],
            [
              -58.674941,
              -45.938475
            ],
            [
              -58.56039,
              -45.831073
            ],
            [
              -58.461185,
              -45.716207
            ],
            [
              -58.378282,
              -45.594981
            ],
            [
              -58.312479,
              -45.468565
            ],
            [
              -58.264409,
              -45.338174
            ],
            [
              -58.234535,
              -45.205065
            ],
            [
              -58.223146,
              -45.070521
            ],
            [
              -58.230351,
              -44.935835
            ],
            [
              -58.256081,
              -44.802306
            ],
            [
              -58.300087,
              -44.67122
            ],
            [
              -58.361946,
              -44.543839
            ],
            [
              -58.441062,
              -44.421389
            ],
            [
              -58.536674,
              -44.305051
            ],
            [
              -58.64786,
              -44.195944
            ],
            [
              -58.77355,
              -44.095119
            ],
            [
              -58.912533,
              -44.003547
            ],
            [
              -59.063471,
              -43.92211
            ]
          ]
        ],
        "type": "Polygon"
      },
      "properties": {
        "kind": "reachableSet",
        "observationStatus": "estimated",
        "vessel": "B"
      },
      "type": "Feature"
    }
  ],
  "properties": {
    "dateline": false
  },
  "type": "FeatureCollection"
}
