{
  "features": [
    {
      "geometry": {
        "coordinates": [
          158.723748,
          46.81425
        ],
        "type": "Point"
      },
      "properties": {
        "mmsi": "416706000",
        "observationStatus": "observed",
        "role": "off",
        "time": "2017-08-02T04:44:42Z",
        "vessel": "A"
      },
      "type": "Feature"
    },
    {
      "geometry": {
        "coordinates": [
          158.695167,
          46.758352
        ],
        "type": "Point"
      },
      "properties": {
        "mmsi": "416236800",
        "observationStatus": "observed",
        "role": "off",
        "time": "2017-08-02T05:12:19Z",
        "vessel": "B"
      },
      "type": "Feature"
    },
    {
      "geometry": {
        "coordinates": [
          158.449368,
          46.534277
        ],
        "type": "Point"
      },
      "properties": {
        "mmsi": "416706000",
        "observationStatus": "observed",
        "role": "on",
        "time": "2017-08-02T17:30:02Z",
        "vessel": "A"
      },
      "type": "Feature"
    },
    {
      "geometry": {
        "coordinates": [
          158.359343,
          46.520235
        ],
        "type": "Point"
      },
      "properties": {
        "mmsi": "416236800",
        "observationStatus": "observed",
        "role": "on",
        "time": "2017-08-02T18:03:33Z",
        "vessel": "B"
      },
      "type": "Feature"
    },
    {
      "geometry": {
        "coordinates": [
          [
            158.723748,
            46.81425
          ],
          [
            158.586471,
            46.659051
          ],
          [
            158.449368,
            46.534277
          ]
        ],
        "type": "LineString"
      },
      "properties": {
        "confidence": "low",
        "lineStyle": "dashed",
        "observationStatus": "estimated",
        "source": "reachable-set heuristic",
        "vessel": "A"
      },
      "type": "Feature"
    },
    {
      "geometry": {
        "coordinates": [
          [
            158.695167,
            46.758352
          ],
          [
            158.586471,
            46.659051
          ],
          [
            158.359343,
            46.520235
          ]
        ],
        "type": "LineString"
      },
      "properties": {
        "confidence": "low",
        "lineStyle": "dashed",
        "observationStatus": "estimated",
        "source": "reachable-set heuristic",
        "vessel": "B"
      },
      "type": "Feature"
    },
    {
      "geometry": {
        "coordinates": [
          158.586471,
          46.659051
        ],
        "type": "Point"
      },
      "properties": {
        "kind": "meetingPoint",
        "observationStatus": "estimated"
      },
      "type": "Feature"
    },
    {
      "geometry": {
        "coordinates": [
          [
            [
              157.627806,
              45.695967
            ],
            [
              157.769804,
              45.636428
            ],
            [
              157.919668,
              45.586885
            ],
            [
              158.075955,
              45.547813
            ],
            [
              158.237159,
              45.51959
            ],
            [
              158.401727,
              45.502487
            ],
            [
              158.568076,
              45.496669
            ],
            [
              158.734603,
              45.502191
            ],
            [
              158.899704,
              45.519002
            ],
            [
              159.06179,
              45.546938
            ],
            [
              159.219298,
              45.585731
            ],
            [
              159.370713,
              45.635007
            ],
            [
              159.514576,
              45.694292
            ],
            [
              159.649502,
              45.763014
            ],
            [
              159.774191,
              45.840512
            ],
            [
              159.887442,
              45.92604
            ],
            [
              159.988166,
              46.018773
            ],
            [
              160.075391,
              46.11782
            ],
            [
              160.148278,
              46.222225
            ],
            [
              160.206124,
              46.330983
            ],
            [
              160.248373,
              46.443048
            ],
            [
              160.274618,
              46.557339
            ],
            [
              160.284607,
              46.672756
            ],
            [
              160.278242,
              46.788188
            ],
            [
              160.255585,
              46.902522
            ],
            [
              160.216854,
              47.014659
            ],
            [
              160.162423,
              47.123517
            ],
            [
              160.092816,
              47.228048
            ],
            [
              160.008702,
              47.327247
            ],
            [
              159.910892,
              47.420156
            ],
            [
              159.800329,
              47.505883
            ],
            [
              159.678076,
              47.5836
            ],
            [
              159.545311,
              47.65256
            ],
            [
              159.403312,
              47.712099
            ],
            [
              159.253448,
              47.761642
            ],
            [
              159.097162,
              47.800714
            ],
            [
              158.935958,
              47.828937
            ],
            [
              158.771389,
              47.84604
            ],
            [
              158.60504,
              47.851858
            ],
            [
              158.438514,
              47.846335
            ],
            [
              158.273412,
              47.829525
            ],
            [
              158.111327,
              47.801589
            ],
            [
              157.953819,
              47.762796
            ],
            [
              157.802404,
              47.71352
            ],
            [
              157.658541,
              47.654235
            ],
            [
              157.523615,
              47.585513
            ],
            [
              157.398926,
              47.508014
            ],
            [
              157.285674,
              47.422487
            ],
            [
              157.184951,
              47.329753
            ],
            [
              157.097726,
              47.230707
            ],
            [
              157.024839,
              47.126302
            ],
            [
              156.966993,
              47.017543
            ],
            [
              156.924743,
              46.905479
            ],
            [
              156.898498,
              46.791188
            ],
            [
              156.88851,
              46.675771
            ],
            [
              156.894875,
              46.560339
            ],
            [
              156.917532,
              46.446004
            ],
            [
              156.956262,
              46.333868
            ],
            [
              157.010694,
              46.22501
            ],
            [
              157.080301,
              46.120478
            ],
            [
              157.164415,
              46.02128
            ],
            [
              157.262224,
              45.92837
            ],
            [
              157.372788,
              45.842644
            ],
            [
              157.495041,
              45.764927
            ],
            [
              157.627806,
              45.695967
            ]
          ]
        ],
        "type": "Polygon"
      },
      "properties": {
        "kind": "reachableSet",
        "observationStatus": "estimated",
        "vessel": "A"
      },
      "type": "Feature"
    },
    {
      "geometry": {
        "coordinates": [
          [
            [
              157.32423,
              45.786284
            ],
            [
              157.449794,
              45.70968
            ],
            [
              157.585734,
              45.642028
            ],
            [
              157.730741,
              45.583981
            ],
            [
              157.88342,
              45.536096
            ],
            [
              158.042299,
              45.498836
            ],
            [
              158.205848,
              45.47256
            ],
            [
              158.372493,
              45.457519
            ],
            [
              158.540628,
              45.45386
            ],
            [
              158.708634,
              45.461617
            ],
            [
              158.874894,
              45.480716
            ],
            [
              159.037805,
              45.510973
            ],
            [
              159.1958,
              45.552095
            ],
            [
              159.347356,
              45.603689
            ],
            [
              159.491014,
              45.665255
            ],
            [
              159.625391,
              45.736202
            ],
            [
              159.749192,
              45.815847
            ],
            [
              159.861225,
              45.903421
            ],
            [
              159.960411,
              45.998083
            ],
            [
              160.045796,
              46.098919
            ],
            [
              160.116555,
              46.20496
            ],
            [
              160.172009,
              46.315184
            ],
            [
              160.211624,
              46.428529
            ],
            [
              160.235016,
              46.543904
            ],
            [
              160.241962,
              46.660197
            ],
            [
              160.232395,
              46.776289
            ],
            [
              160.206406,
              46.891062
            ],
            [
              160.164246,
              47.00341
            ],
            [
              160.10632,
              47.112252
            ],
            [
              160.033188,
              47.216538
            ],
            [
              159.945552,
              47.315266
            ],
            [
              159.844258,
              47.407483
            ],
            [
              159.73028,
              47.492302
            ],
            [
              159.604716,
              47.568907
            ],
            [
              159.468776,
              47.636558
            ],
            [
              159.323769,
              47.694606
            ],
            [
              159.17109,
              47.74249
            ],
            [
              159.012211,
              47.77975
            ],
            [
              158.848662,
              47.806027
            ],
            [
              158.682017,
              47.821067
            ],
            [
              158.513882,
              47.824727
            ],
            [
              158.345876,
              47.816969
            ],
            [
              158.179616,
              47.797871
            ],
            [
              158.016705,
              47.767614
            ],
            [
              157.85871,
              47.726491
            ],
            [
              157.707154,
              47.674898
            ],
            [
              157.563496,
              47.613331
            ],
            [
              157.429119,
              47.542384
            ],
            [
              157.305318,
              47.46274
            ],
            [
              157.193285,
              47.375165
            ],
            [
              157.094099,
              47.280504
            ],
            [
              157.008714,
              47.179667
            ],
            [
              156.937955,
              47.073626
            ],
            [
              156.882501,
              46.963403
            ],
            [
              156.842886,
              46.850058
            ],
            [
              156.819494,
              46.734683
            ],
            [
              156.812548,
              46.61839
            ],
            [
              156.822115,
              46.502297
            ],
            [
              156.848104,
              46.387525
            ],
            [
              156.890264,
              46.275177
            ],
            [
              156.94819,
              46.166335
            ],
            [
              157.021322,
              46.062049
            ],
            [
              157.108958,
              45.963321
            ],
            [
              157.210252,
              45.871104
            ],
            [
              157.32423,
              45.786284
            ]
          ]
        ],
        "type": "Polygon"
      },
      "properties": {
        "kind": "reachableSet",
        "observationStatus": "estimated",
        "vessel": "B"
      },
      "type": "Feature"
    }
  ],
  "properties": {
    "dateline": false
  },
  "type": "FeatureCollection"
}
