{
  "features": [
    {
      "geometry": {
        "coordinates": [
          164.611787,
          46.840133
        ],
        "type": "Point"
      },
      "properties": {
        "mmsi": "416137600",
        "observationStatus": "observed",
        "role": "off",
        "time": "2018-07-24T01:44:37Z",
        "vessel": "A"
      },
      "type": "Feature"
    },
    {
      "geometry": {
        "coordinates": [
          164.6557,
          46.770938
        ],
        "type": "Point"
      },
      "properties": {
        "mmsi": "416239600",
        "observationStatus": "observed",
        "role": "off",
        "time": "2018-07-24T01:56:52Z",
        "vessel": "B"
      },
      "type": "Feature"
    },
    {
      "geometry": {
        "coordinates": [
          164.597168,
          46.933198
        ],
        "type": "Point"
      },
      "properties": {
        "mmsi": "416239600",
        "observationStatus": "observed",
        "role": "on",
        "time": "2018-07-24T16:40:09Z",
        "vessel": "B"
      },
      "type": "Feature"
    },
    {
      "geometry": {
        "coordinates": [
          164.515067,
          46.97304
        ],
        "type": "Point"
      },
      "properties": {
        "mmsi": "416137600",
        "observationStatus": "observed",
        "role": "on",
        "time": "2018-07-24T17:16:46Z",
        "vessel": "A"
      },
      "type": "Feature"
    },
    {
      "geometry": {
        "coordinates": [
          [
            164.611787,
            46.840133
          ],
          [
            164.626871,
            46.851635
          ],
          [
            164.515067,
            46.97304
          ]
        ],
        "type": "LineString"
      },
      "properties": {
        "confidence": "low",
        "lineStyle": "dashed",
        "observationStatus": "estimated",
        "source": "reachable-set heuristic",
        "vessel": "A"
      },
      "type": "Feature"
    },
    {
      "geometry": {
        "coordinates": [
          [
            164.6557,
            46.770938
          ],
          [
            164.626871,
            46.851635
          ],
          [
            164.597168,
            46.933198
          ]
        ],
        "type": "LineString"
      },
      "properties": {
        "confidence": "low",
        "lineStyle": "dashed",
        "observationStatus": "estimated",
        "source": "reachable-set heuristic",
        "vessel": "B"
      },
      "type": "Feature"
    },
    {
      "geometry": {
        "coordinates": [
          164.626871,
          46.851635
        ],
        "type": "Point"
      },
      "properties": {
        "kind": "meetingPoint",
        "observationStatus": "estimated"
      },
      "type": "Feature"
    },
    {
      "geometry": {
        "coordinates": [
          [
            [
              163.612791,
              48.212891
            ],
            [
              163.431457,
              48.142593
            ],
            [
              163.261025,
              48.060392
            ],
            [
              163.103135,
              47.967079
            ],
            [
              162.959309,
              47.863554
            ],
            [
              162.830931,
              47.750811
            ],
            [
              162.719238,
              47.629939
            ],
            [
              162.625306,
              47.5021
            ],
            [
              162.550039,
              47.368526
            ],
            [
              162.494162,
              47.230504
            ],
            [
              162.458213,
              47.089362
            ],
            [
              162.442538,
              46.946459
            ],
            [
              162.447289,
              46.803173
            ],
            [
              162.472419,
              46.660883
            ],
            [
              162.517687,
              46.520959
            ],
            [
              162.582656,
              46.384748
            ],
            [
              162.666701,
              46.253564
            ],
            [
              162.769013,
              46.128668
            ],
            [
              162.888606,
              46.011264
            ],
            [
              163.024329,
              45.902482
            ],
            [
              163.174873,
              45.803371
            ],
            [
              163.338791,
              45.714884
            ],
            [
              163.514502,
              45.637874
            ],
            [
              163.700315,
              45.573082
            ],
            [
              163.89444,
              45.521133
            ],
            [
              164.095008,
              45.482526
            ],
            [
              164.300087,
              45.457634
            ],
            [
              164.507702,
              45.446696
            ],
            [
              164.715854,
              45.449818
            ],
            [
              164.922538,
              45.466969
            ],
            [
              165.125763,
              45.497984
            ],
            [
              165.323573,
              45.542565
            ],
            [
              165.514062,
              45.600282
            ],
            [
              165.695396,
              45.67058
            ],
            [
              165.865829,
              45.752781
            ],
            [
              166.023718,
              45.846094
            ],
            [
              166.167545,
              45.94962
            ],
            [
              166.295922,
              46.062362
            ],
            [
              166.407615,
              46.183234
            ],
            [
              166.501547,
              46.311073
            ],
            [
              166.576815,
              46.444647
            ],
            [
              166.632692,
              46.58267
            ],
            [
              166.668641,
              46.723812
            ],
            [
              166.684315,
              46.866714
            ],
            [
              166.679565,
              47.01
            ],
            [
              166.654435,
              47.152291
            ],
            [
              166.609167,
              47.292215
            ],
            [
              166.544197,
              47.428425
            ],
            [
              166.460152,
              47.55961
            ],
            [
              166.35784,
              47.684505
            ],
            [
              166.238247,
              47.801909
            ],
            [
              166.102525,
              47.910691
            ],
            [
              165.95198,
              48.009802
            ],
            [
              165.788063,
              48.098289
            ],
            [
              165.612351,
              48.175299
            ],
            [
              165.426539,
              48.240091
            ],
            [
              165.232413,
              48.29204
            ],
            [
              165.031845,
              48.330647
            ],
            [
              164.826766,
              48.355539
            ],
            [
              164.619151,
              48.366477
            ],
            [
              164.411,
              48.363356
            ],
            [
              164.204316,
              48.346205
            ],
            [
              164.00109,
              48.315189
            ],
            [
              163.803281,
              48.270608
            ],
            [
              163.612791,
              48.212891
            ]
          ]
        ],
        "type": "Polygon"
      },
      "properties": {
        "kind": "reachableSet",
        "observationStatus": "estimated",
        "vessel": "A"
      },
      "type": "Feature"
    },
    {
      "geometry": {
        "coordinates": [
          [
            [
              164.143671,
              48.190372
            ],
            [
              163.955827,
              48.151407
            ],
            [
              163.774442,
              48.099929
            ],
            [
              163.601261,
              48.036434
            ],
            [
              163.437954,
              47.961532
            ],
            [
              163.286092,
              47.875946
            ],
            [
              163.147138,
              47.780499
            ],
            [
              163.022431,
              47.676111
            ],
            [
              162.913172,
              47.563786
            ],
            [
              162.820412,
              47.444608
            ],
            [
              162.745045,
              47.319723
            ],
            [
              162.687796,
              47.190334
            ],
            [
              162.649218,
              47.057688
            ],
            [
              162.629682,
              46.923062
            ],
            [
              162.629375,
              46.787751
            ],
            [
              162.648302,
              46.65306
            ],
            [
              162.686278,
              46.520286
            ],
            [
              162.74294,
              46.390707
            ],
            [
              162.81774,
              46.265571
            ],
            [
              162.909959,
              46.146083
            ],
            [
              163.018709,
              46.033395
            ],
            [
              163.142942,
              45.92859
            ],
            [
              163.281462,
              45.83268
            ],
            [
              163.432935,
              45.746586
            ],
            [
              163.595902,
              45.671139
            ],
            [
              163.768793,
              45.607065
            ],
            [
              163.949944,
              45.554981
            ],
            [
              164.13761,
              45.515389
            ],
            [
              164.329984,
              45.488669
            ],
            [
              164.525212,
              45.47508
            ],
            [
              164.721415,
              45.474752
            ],
            [
              164.916704,
              45.487689
            ],
            [
              165.109197,
              45.513765
            ],
            [
              165.297041,
              45.552729
            ],
            [
              165.478427,
              45.604207
            ],
            [
              165.651607,
              45.667703
            ],
            [
              165.814915,
              45.742605
            ],
            [
              165.966776,
              45.828191
            ],
            [
              166.10573,
              45.923638
            ],
            [
              166.230437,
              46.028026
            ],
            [
              166.339697,
              46.14035
            ],
            [
              166.432457,
              46.259529
            ],
            [
              166.507824,
              46.384414
            ],
            [
              166.565072,
              46.513802
            ],
            [
              166.60365,
              46.646449
            ],
            [
              166.623186,
              46.781075
            ],
            [
              166.623493,
              46.916385
            ],
            [
              166.604567,
              47.051076
            ],
            [
              166.56659,
              47.183851
            ],
            [
              166.509929,
              47.31343
            ],
            [
              166.435128,
              47.438566
            ],
            [
              166.342909,
              47.558053
            ],
            [
              166.234159,
              47.670742
            ],
            [
              166.109926,
              47.775546
            ],
            [
              165.971406,
              47.871457
            ],
            [
              165.819933,
              47.95755
            ],
            [
              165.656967,
              48.032997
            ],
            [
              165.484075,
              48.097072
            ],
            [
              165.302924,
              48.149156
            ],
            [
              165.115258,
              48.188748
            ],
            [
              164.922885,
              48.215467
            ],
            [
              164.727656,
              48.229056
            ],
            [
              164.531453,
              48.229384
            ],
            [
              164.336164,
              48.216448
            ],
            [
              164.143671,
              48.190372
            ]
          ]
        ],
        "type": "Polygon"
      },
      "properties": {
        "kind": "reachableSet",
        "observationStatus": "estimated",
        "vessel": "B"
      },
      "type": "Feature"
    }
  ],
  "properties": {
    "dateline": false
  },
  "type": "FeatureCollection"
}
