{
  "features": [
    {
      "geometry": {
        "coordinates": [
          164.445547,
          47.337297
        ],
        "type": "Point"
      },
      "properties": {
        "mmsi": "416251900",
        "observationStatus": "observed",
        "role": "off",
        "time": "2018-07-26T03:29:26Z",
        "vessel": "A"
      },
      "type": "Feature"
    },
    {
      "geometry": {
        "coordinates": [
          164.386342,
          47.343663
        ],
        "type": "Point"
      },
      "properties": {
        "mmsi": "416242500",
        "observationStatus": "observed",
        "role": "off",
        "time": "2018-07-26T03:30:25Z",
        "vessel": "B"
      },
      "type": "Feature"
    },
    {
      "geometry": {
        "coordinates": [
          163.90531,
          47.277608
        ],
        "type": "Point"
      },
      "properties": {
        "mmsi": "416242500",
        "observationStatus": "observed",
        "role": "on",
        "time": "2018-07-26T16:39:00Z",
        "vessel": "B"
      },
      "type": "Feature"
    },
    {
      "geometry": {
        "coordinates": [
          163.87632,
          47.33144
        ],
        "type": "Point"
      },
      "properties": {
        "mmsi": "416251900",
        "observationStatus": "observed",
        "role": "on",
        "time": "2018-07-26T16:41:58Z",
        "vessel": "A"
      },
      "type": "Feature"
    },
    {
      "geometry": {
        "coordinates": [
          [
            164.445547,
            47.337297
          ],
          [
            164.259785,
            47.336026
          ],
          [
            163.87632,
            47.33144
          ]
        ],
        "type": "LineString"
      },
      "properties": {
        "confidence": "low",
        "lineStyle": "dashed",
        "observationStatus": "estimated",
        "source": "reachable-set heuristic",
        "vessel": "A"
      },
      "type": "Feature"
    },
    {
      "geometry": {
        "coordinates": [
          [
            164.386342,
            47.343663
          ],
          [
            164.259785,
            47.336026
          ],
          [
            163.90531,
            47.277608
          ]
        ],
        "type": "LineString"
      },
      "properties": {
        "confidence": "low",
        "lineStyle": "dashed",
        "observationStatus": "estimated",
        "source": "reachable-set heuristic",
        "vessel": "B"
      },
      "type": "Feature"
    },
    {
      "geometry": {
        "coordinates": [
          164.259785,
          47.336026
        ],
        "type": "Point"
      },
      "properties": {
        "kind": "meetingPoint",
        "observationStatus": "estimated"
      },
      "type": "Feature"
    },
    {
      "geometry": {
        "coordinates": [
          [
            [
              162.362906,
              47.315869
            ],
            [
              162.374188,
              47.197224
            ],
            [
              162.402677,
              47.079901
            ],
            [
              162.4481,
              46.965028
            ],
            [
              162.510017,
              46.853711
            ],
            [
              162.587834,
              46.747024
            ],
            [
              162.680801,
              46.645994
            ],
            [
              162.788023,
              46.551592
            ],
            [
              162.908466,
              46.46473
            ],
            [
              163.040971,
              46.386242
            ],
            [
              163.184262,
              46.316886
            ],
            [
              163.336959,
              46.257328
            ],
            [
              163.497591,
              46.208143
            ],
            [
              163.664612,
              46.169804
            ],
            [
              163.836412,
              46.14268
            ],
            [
              164.011338,
              46.127033
            ],
            [
              164.187704,
              46.123013
            ],
            [
              164.363813,
              46.13066
            ],
            [
              164.537968,
              46.149898
            ],
            [
              164.708491,
              46.180544
            ],
            [
              164.873742,
              46.222302
            ],
            [
              165.032128,
              46.274769
            ],
            [
              165.182123,
              46.337441
            ],
            [
              165.322284,
              46.409714
            ],
            [
              165.451261,
              46.490892
            ],
            [
              165.567811,
              46.580193
            ],
            [
              165.670812,
              46.676757
            ],
            [
              165.759272,
              46.779655
            ],
            [
              165.832339,
              46.887894
            ],
            [
              165.88931,
              47.000434
            ],
            [
              165.929635,
              47.116189
            ],
            [
              165.952927,
              47.234045
            ],
            [
              165.958961,
              47.352868
            ],
            [
              165.947679,
              47.471512
            ],
            [
              165.919189,
              47.588836
            ],
            [
              165.873767,
              47.703709
            ],
            [
              165.811849,
              47.815025
            ],
            [
              165.734032,
              47.921712
            ],
            [
              165.641065,
              48.022743
            ],
            [
              165.533844,
              48.117144
            ],
            [
              165.413401,
              48.204007
            ],
            [
              165.280896,
              48.282494
            ],
            [
              165.137605,
              48.351851
            ],
            [
              164.984908,
              48.411409
            ],
            [
              164.824275,
              48.460594
            ],
            [
              164.657255,
              48.498933
            ],
            [
              164.485454,
              48.526057
            ],
            [
              164.310529,
              48.541704
            ],
            [
              164.134162,
              48.545723
            ],
            [
              163.958054,
              48.538077
            ],
            [
              163.783899,
              48.518838
            ],
            [
              163.613375,
              48.488193
            ],
            [
              163.448125,
              48.446435
            ],
            [
              163.289739,
              48.393967
            ],
            [
              163.139743,
              48.331295
            ],
            [
              162.999582,
              48.259022
            ],
            [
              162.870606,
              48.177845
            ],
            [
              162.754056,
              48.088543
            ],
            [
              162.651055,
              47.991979
            ],
            [
              162.562595,
              47.889082
            ],
            [
              162.489528,
              47.780842
            ],
            [
              162.432557,
              47.668303
            ],
            [
              162.392232,
              47.552548
            ],
            [
              162.36894,
              47.434691
            ],
            [
              162.362906,
              47.315869
            ]
          ]
        ],
        "type": "Polygon"
      },
      "properties": {
        "kind": "reachableSet",
        "observationStatus": "estimated",
        "vessel": "A"
      },
      "type": "Feature"
    },
    {
      "geometry": {
        "coordinates": [
          [
            [
              162.393204,
              47.069967
            ],
            [
              162.435874,
              46.954969
            ],
            [
              162.495011,
              46.843397
            ],
            [
              162.570047,
              46.736325
            ],
            [
              162.660259,
              46.634784
            ],
            [
              162.764777,
              46.539751
            ],
            [
              162.882596,
              46.452143
            ],
            [
              163.01258,
              46.372802
            ],
            [
              163.153478,
              46.302493
            ],
            [
              163.303933,
              46.241893
            ],
            [
              163.462495,
              46.191586
            ],
            [
              163.627639,
              46.152056
            ],
            [
              163.797773,
              46.123683
            ],
            [
              163.971259,
              46.106742
            ],
            [
              164.146426,
              46.101394
            ],
            [
              164.321587,
              46.107693
            ],
            [
              164.495056,
              46.125576
            ],
            [
              164.665161,
              46.154872
            ],
            [
              164.830265,
              46.195299
            ],
            [
              164.988777,
              46.246467
            ],
            [
              165.139172,
              46.307883
            ],
            [
              165.279999,
              46.378957
            ],
            [
              165.409904,
              46.459003
            ],
            [
              165.527636,
              46.547251
            ],
            [
              165.632059,
              46.642851
            ],
            [
              165.72217,
              46.744882
            ],
            [
              165.797099,
              46.852361
            ],
            [
              165.856126,
              46.964254
            ],
            [
              165.898682,
              47.079482
            ],
            [
              165.924357,
              47.196937
            ],
            [
              165.932903,
              47.315487
            ],
            [
              165.924239,
              47.43399
            ],
            [
              165.898448,
              47.551305
            ],
            [
              165.855778,
              47.666302
            ],
            [
              165.79664,
              47.777874
            ],
            [
              165.721604,
              47.884946
            ],
            [
              165.631393,
              47.986488
            ],
            [
              165.526875,
              48.08152
            ],
            [
              165.409056,
              48.169129
            ],
            [
              165.279072,
              48.24847
            ],
            [
              165.138174,
              48.318778
            ],
            [
              164.987719,
              48.379378
            ],
            [
              164.829156,
              48.429686
            ],
            [
              164.664013,
              48.469216
            ],
            [
              164.493879,
              48.497588
            ],
            [
              164.320393,
              48.51453
            ],
            [
              164.145226,
              48.519877
            ],
            [
              163.970065,
              48.513579
            ],
            [
              163.796596,
              48.495696
            ],
            [
              163.626491,
              48.4664
            ],
            [
              163.461387,
              48.425973
            ],
            [
              163.302874,
              48.374805
            ],
            [
              163.15248,
              48.313388
            ],
            [
              163.011652,
              48.242315
            ],
            [
              162.881747,
              48.162268
            ],
            [
              162.764016,
              48.074021
            ],
            [
              162.659592,
              47.978421
            ],
            [
              162.569482,
              47.87639
            ],
            [
              162.494552,
              47.768911
            ],
            [
              162.435525,
              47.657018
            ],
            [
              162.39297,
              47.541789
            ],
            [
              162.367295,
              47.424335
            ],
            [
              162.358749,
              47.305785
            ],
            [
              162.367413,
              47.187282
            ],
            [
              162.393204,
              47.069967
            ]
          ]
        ],
        "type": "Polygon"
      },
      "properties": {
        "kind": "reachableSet",
        "observationStatus": "estimated",
        "vessel": "B"
      },
      "type": "Feature"
    }
  ],
  "properties": {
    "dateline": false
  },
  "type": "FeatureCollection"
}
