{
  "features": [
    {
      "geometry": {
        "coordinates": [
          164.67344,
          46.136373
        ],
        "type": "Point"
      },
      "properties": {
        "mmsi": "577101000",
        "observationStatus": "observed",
        "role": "off",
        "time": "2018-07-23T02:06:27Z",
        "vessel": "A"
      },
      "type": "Feature"
    },
    {
      "geometry": {
        "coordinates": [
          164.594347,
          46.158593
        ],
        "type": "Point"
      },
      "properties": {
        "mmsi": "416004853",
        "observationStatus": "observed",
        "role": "off",
        "time": "2018-07-23T02:56:01Z",
        "vessel": "B"
      },
      "type": "Feature"
    },
    {
      "geometry": {
        "coordinates": [
          164.568105,
          46.591182
        ],
        "type": "Point"
      },
      "properties": {
        "mmsi": "577101000",
        "observationStatus": "observed",
        "role": "on",
        "time": "2018-07-23T17:09:04Z",
        "vessel": "A"
      },
      "type": "Feature"
    },
    {
      "geometry": {
        "coordinates": [
          164.514853,
          46.58527
        ],
        "type": "Point"
      },
      "properties": {
        "mmsi": "416004853",
        "observationStatus": "observed",
        "role": "on",
        "time": "2018-07-23T17:10:57Z",
        "vessel": "B"
      },
      "type": "Feature"
    },
    {
      "geometry": {
        "coordinates": [
          [
            164.67344,
            46.136373
          ],
          [
            164.594147,
            46.161374
          ],
          [
            164.568105,
            46.591182
          ]
        ],
        "type": "LineString"
      },
      "properties": {
        "confidence": "low",
        "lineStyle": "dashed",
        "observationStatus": "estimated",
        "source": "reachable-set heuristic",
        "vessel": "A"
      },
      "type": "Feature"
    },
    {
      "geometry": {
        "coordinates": [
          [
            164.594347,
            46.158593
          ],
          [
            164.594147,
            46.161374
          ],
          [
            164.514853,
            46.58527
          ]
        ],
        "type": "LineString"
      },
      "properties": {
        "confidence": "low",
        "lineStyle": "dashed",
        "observationStatus": "estimated",
        "source": "reachable-set heuristic",
        "vessel": "B"
      },
      "type": "Feature"
    },
    {
      "geometry": {
        "coordinates": [
          164.594147,
          46.161374
        ],
        "type": "Point"
      },
      "properties": {
        "kind": "meetingPoint",
        "observationStatus": "estimated"
      },
      "type": "Feature"
    },
    {
      "geometry": {
        "coordinates": [
          [
            [
              164.298051,
              47.757201
            ],
            [
              164.105656,
              47.728809
            ],
            [
              163.91822,
              47.687271
            ],
            [
              163.737551,
              47.632987
            ],
            [
              163.565388,
              47.56648
            ],
            [
              163.403389,
              47.488391
            ],
            [
              163.253114,
              47.39947
            ],
            [
              163.11601,
              47.300576
            ],
            [
              162.993397,
              47.192659
            ],
            [
              162.886458,
              47.07676
            ],
            [
              162.79622,
              46.953995
            ],
            [
              162.723555,
              46.825545
            ],
            [
              162.66916,
              46.692649
            ],
            [
              162.63356,
              46.556585
            ],
            [
              162.617099,
              46.418664
            ],
            [
              162.619934,
              46.280215
            ],
            [
              162.642038,
              46.14257
            ],
            [
              162.683198,
              46.007056
            ],
            [
              162.743018,
              45.874977
            ],
            [
              162.820922,
              45.747606
            ],
            [
              162.91616,
              45.626169
            ],
            [
              163.027814,
              45.511835
            ],
            [
              163.154809,
              45.405706
            ],
            [
              163.295922,
              45.308804
            ],
            [
              163.449794,
              45.222062
            ],
            [
              163.614943,
              45.146315
            ],
            [
              163.789779,
              45.082292
            ],
            [
              163.972618,
              45.030612
            ],
            [
              164.161699,
              44.99177
            ],
            [
              164.355201,
              44.966142
            ],
            [
              164.551261,
              44.953973
            ],
            [
              164.74799,
              44.955382
            ],
            [
              164.943494,
              44.970354
            ],
            [
              165.135889,
              44.998746
            ],
            [
              165.323325,
              45.040284
            ],
            [
              165.503994,
              45.094568
            ],
            [
              165.676157,
              45.161075
            ],
            [
              165.838156,
              45.239164
            ],
            [
              165.988431,
              45.328085
            ],
            [
              166.125535,
              45.426979
            ],
            [
              166.248148,
              45.534896
            ],
            [
              166.355087,
              45.650795
            ],
            [
              166.445325,
              45.77356
            ],
            [
              166.51799,
              45.90201
            ],
            [
              166.572385,
              46.034906
            ],
            [
              166.607985,
              46.17097
            ],
            [
              166.624446,
              46.308891
            ],
            [
              166.621611,
              46.44734
            ],
            [
              166.599507,
              46.584985
            ],
            [
              166.558347,
              46.720499
            ],
            [
              166.498527,
              46.852578
            ],
            [
              166.420623,
              46.979949
            ],
            [
              166.325385,
              47.101386
            ],
            [
              166.213731,
              47.21572
            ],
            [
              166.086736,
              47.321849
            ],
            [
              165.945623,
              47.418751
            ],
            [
              165.791751,
              47.505493
            ],
            [
              165.626602,
              47.58124
            ],
            [
              165.451766,
              47.645263
            ],
            [
              165.268927,
              47.696943
            ],
            [
              165.079846,
              47.735785
            ],
            [
              164.886344,
              47.761413
            ],
            [
              164.690284,
              47.773582
            ],
            [
              164.493555,
              47.772173
            ],
            [
              164.298051,
              47.757201
            ]
          ]
        ],
        "type": "Polygon"
      },
      "properties": {
        "kind": "reachableSet",
        "observationStatus": "estimated",
        "vessel": "A"
      },
      "type": "Feature"
    },
    {
      "geometry": {
        "coordinates": [
          [
            [
              164.308586,
              47.692398
            ],
            [
              164.125898,
              47.669509
            ],
            [
              163.947339,
              47.634124
            ],
            [
              163.774628,
              47.586583
            ],
            [
              163.609428,
              47.527344
            ],
            [
              163.453331,
              47.456978
            ],
            [
              163.30784,
              47.376163
            ],
            [
              163.174355,
              47.285676
            ],
            [
              163.054163,
              47.186389
            ],
            [
              162.948422,
              47.079259
            ],
            [
              162.858148,
              46.965317
            ],
            [
              162.784213,
              46.84566
            ],
            [
              162.727327,
              46.721441
            ],
            [
              162.688039,
              46.593856
            ],
            [
              162.666726,
              46.464133
            ],
            [
              162.663595,
              46.333523
            ],
            [
              162.678676,
              46.203282
            ],
            [
              162.711823,
              46.074666
            ],
            [
              162.762716,
              45.948913
            ],
            [
              162.830867,
              45.827233
            ],
            [
              162.915617,
              45.710799
            ],
            [
              163.016153,
              45.600733
            ],
            [
              163.131504,
              45.498093
            ],
            [
              163.26056,
              45.403869
            ],
            [
              163.402079,
              45.318968
            ],
            [
              163.554697,
              45.244207
            ],
            [
              163.716945,
              45.180307
            ],
            [
              163.88726,
              45.127883
            ],
            [
              164.064002,
              45.08744
            ],
            [
              164.245468,
              45.059368
            ],
            [
              164.429912,
              45.043936
            ],
            [
              164.615556,
              45.041293
            ],
            [
              164.800614,
              45.051465
            ],
            [
              164.983302,
              45.074354
            ],
            [
              165.161861,
              45.109739
            ],
            [
              165.334572,
              45.15728
            ],
            [
              165.499772,
              45.216519
            ],
            [
              165.655869,
              45.286885
            ],
            [
              165.80136,
              45.3677
            ],
            [
              165.934845,
              45.458187
            ],
            [
              166.055037,
              45.557474
            ],
            [
              166.160778,
              45.664604
            ],
            [
              166.251052,
              45.778547
            ],
            [
              166.324987,
              45.898203
            ],
            [
              166.381873,
              46.022423
            ],
            [
              166.421161,
              46.150008
            ],
            [
              166.442474,
              46.27973
            ],
            [
              166.445605,
              46.410341
            ],
            [
              166.430524,
              46.540581
            ],
            [
              166.397377,
              46.669197
            ],
            [
              166.346484,
              46.794951
            ],
            [
              166.278333,
              46.91663
            ],
            [
              166.193583,
              47.033064
            ],
            [
              166.093047,
              47.143131
            ],
            [
              165.977696,
              47.24577
            ],
            [
              165.84864,
              47.339994
            ],
            [
              165.707121,
              47.424896
            ],
            [
              165.554503,
              47.499656
            ],
            [
              165.392255,
              47.563556
            ],
            [
              165.22194,
              47.61598
            ],
            [
              165.045198,
              47.656423
            ],
            [
              164.863732,
              47.684496
            ],
            [
              164.679288,
              47.699928
            ],
            [
              164.493644,
              47.70257
            ],
            [
              164.308586,
              47.692398
            ]
          ]
        ],
        "type": "Polygon"
      },
      "properties": {
        "kind": "reachableSet",
        "observationStatus": "estimated",
        "vessel": "B"
      },
      "type": "Feature"
    }
  ],
  "properties": {
    "dateline": false
  },
  "type": "FeatureCollection"
}
