{
  "features": [
    {
      "geometry": {
        "coordinates": [
          -60.556107,
          -45.60486
        ],
        "type": "Point"
      },
      "properties": {
        "mmsi": "412328786",
        "observationStatus": "observed",
        "role": "off",
        "time": "2018-03-23T19:41:08Z",
        "vessel": "A"
      },
      "type": "Feature"
    },
    {
      "geometry": {
        "coordinates": [
          -60.593707,
          -45.602747
        ],
        "type": "Point"
      },
      "properties": {
        "mmsi": "412328785",
        "observationStatus": "observed",
        "role": "off",
        "time": "2018-03-23T20:35:42Z",
        "vessel": "B"
      },
      "type": "Feature"
    },
    {
      "geometry": {
        "coordinates": [
          -60.562247,
          -45.672217
        ],
        "type": "Point"
      },
      "properties": {
        "mmsi": "412328785",
        "observationStatus": "observed",
        "role": "on",
        "time": "2018-03-24T11:49:40Z",
        "vessel": "B"
      },
      "type": "Feature"
    },
    {
      "geometry": {
        "coordinates": [
          -60.592293,
          -45.64602
        ],
        "type": "Point"
      },
      "properties": {
        "mmsi": "412328786",
        "observationStatus": "observed",
        "role": "on",
        "time": "2018-03-24T12:22:19Z",
        "vessel": "A"
      },
      "type": "Feature"
    },
    {
      "geometry": {
        "coordinates": [
          [
            -60.556107,
            -45.60486
          ],
          [
            -60.587168,
            -45.618463
          ],
          [
            -60.592293,
            -45.64602
          ]
        ],
        "type": "LineString"
      },
      "properties": {
        "confidence": "low",
        "lineStyle": "dashed",
        "observationStatus": "estimated",
        "source": "reachable-set heuristic",
        "vessel": "A"
      },
      "type": "Feature"
    },
    {
      "geometry": {
        "coordinates": [
          [
            -60.593707,
            -45.602747
          ],
          [
            -60.587168,
            -45.618463
          ],
          [
            -60.562247,
            -45.672217
          ]
        ],
        "type": "LineString"
      },
      "properties": {
        "confidence": "low",
        "lineStyle": "dashed",
        "observationStatus": "estimated",
        "source": "reachable-set heuristic",
        "vessel": "B"
      },
      "type": "Feature"
    },
    {
      "geometry": {
        "coordinates": [
          -60.587168,
          -45.618463
        ],
        "type": "Point"
      },
      "properties": {
        "kind": "meetingPoint",
        "observationStatus": "estimated"
      },
      "type": "Feature"
    },
    {
      "geometry": {
        "coordinates": [
          [
            [
              -61.752652,
              -46.965853
            ],
            [
              -61.560399,
              -47.040717
            ],
            [
              -61.358648,
              -47.101952
            ],
            [
              -61.149343,
              -47.148966
            ],
            [
              -60.934499,
              -47.181309
            ],
            [
              -60.716185,
              -47.198667
            ],
            [
              -60.496503,
              -47.200875
            ],
            [
              -60.27757,
              -47.18791
            ],
            [
              -60.061493,
              -47.159898
            ],
            [
              -59.850354,
              -47.117108
            ],
            [
              -59.646187,
              -47.059952
            ],
            [
              -59.450956,
              -46.988982
            ],
            [
              -59.266543,
              -46.904879
            ],
            [
              -59.094723,
              -46.808455
            ],
            [
              -58.937152,
              -46.700638
            ],
            [
              -58.795346,
              -46.582466
            ],
            [
              -58.670671,
              -46.455078
            ],
            [
              -58.564329,
              -46.3197
            ],
            [
              -58.477343,
              -46.177635
            ],
            [
              -58.41055,
              -46.030253
            ],
            [
              -58.364595,
              -45.878972
            ],
            [
              -58.339919,
              -45.725249
            ],
            [
              -58.336761,
              -45.570565
            ],
            [
              -58.355151,
              -45.41641
            ],
            [
              -58.394911,
              -45.264268
            ],
            [
              -58.455659,
              -45.115604
            ],
            [
              -58.536809,
              -44.97185
            ],
            [
              -58.637581,
              -44.83439
            ],
            [
              -58.757004,
              -44.704549
            ],
            [
              -58.893927,
              -44.583576
            ],
            [
              -59.047032,
              -44.472637
            ],
            [
              -59.214844,
              -44.3728
            ],
            [
              -59.395748,
              -44.285027
            ],
            [
              -59.588001,
              -44.210163
            ],
            [
              -59.789752,
              -44.148928
            ],
            [
              -59.999057,
              -44.101914
            ],
            [
              -60.213901,
              -44.069571
            ],
            [
              -60.432215,
              -44.052213
            ],
            [
              -60.651897,
              -44.050005
            ],
            [
              -60.87083,
              -44.06297
            ],
            [
              -61.086907,
              -44.090982
            ],
            [
              -61.298046,
              -44.133772
            ],
            [
              -61.502213,
              -44.190928
            ],
            [
              -61.697444,
              -44.261898
            ],
            [
              -61.881857,
              -44.346001
            ],
            [
              -62.053677,
              -44.442425
            ],
            [
              -62.211248,
              -44.550242
            ],
            [
              -62.353054,
              -44.668414
            ],
            [
              -62.477729,
              -44.795802
            ],
            [
              -62.584071,
              -44.93118
            ],
            [
              -62.671057,
              -45.073245
            ],
            [
              -62.73785,
              -45.220627
            ],
            [
              -62.783805,
              -45.371908
            ],
            [
              -62.808481,
              -45.525631
            ],
            [
              -62.811639,
              -45.680315
            ],
            [
              -62.793249,
              -45.83447
            ],
            [
              -62.753489,
              -45.986612
            ],
            [
              -62.692741,
              -46.135276
            ],
            [
              -62.611591,
              -46.27903
            ],
            [
              -62.510819,
              -46.41649
            ],
            [
              -62.391396,
              -46.546331
            ],
            [
              -62.254473,
              -46.667304
            ],
            [
              -62.101368,
              -46.778243
            ],
            [
              -61.933556,
              -46.87808
            ],
            [
              -61.752652,
              -46.965853
            ]
          ]
        ],
        "type": "Polygon"
      },
      "properties": {
        "kind": "reachableSet",
        "observationStatus": "estimated",
        "vessel": "A"
      },
      "type": "Feature"
    },
    {
      "geometry": {
        "coordinates": [
          [
            [
              -59.960828,
              -47.000269
            ],
            [
              -59.774106,
              -46.951139
            ],
            [
              -59.595125,
              -46.889357
            ],
            [
              -59.42561,
              -46.815519
            ],
            [
              -59.267192,
              -46.730336
            ],
            [
              -59.121398,
              -46.634628
            ],
            [
              -58.989632,
              -46.529318
            ],
            [
              -58.873162,
              -46.415418
            ],
            [
              -58.773111,
              -46.294026
            ],
            [
              -58.690441,
              -46.166312
            ],
            [
              -58.62595,
              -46.033504
            ],
            [
              -58.580257,
              -45.896883
            ],
            [
              -58.553804,
              -45.757763
            ],
            [
              -58.546844,
              -45.617485
            ],
            [
              -58.559446,
              -45.4774
            ],
            [
              -58.591487,
              -45.338856
            ],
            [
              -58.642659,
              -45.203188
            ],
            [
              -58.712469,
              -45.071703
            ],
            [
              -58.800245,
              -44.945667
            ],
            [
              -58.905142,
              -44.826293
            ],
            [
              -59.026149,
              -44.714731
            ],
            [
              -59.1621,
              -44.612056
            ],
            [
              -59.311688,
              -44.519256
            ],
            [
              -59.473471,
              -44.437225
            ],
            [
              -59.64589,
              -44.366754
            ],
            [
              -59.827286,
              -44.30852
            ],
            [
              -60.015912,
              -44.263085
            ],
            [
              -60.20995,
              -44.230886
            ],
            [
              -60.407533,
              -44.212234
            ],
            [
              -60.606758,
              -44.207307
            ],
            [
              -60.805705,
              -44.216154
            ],
            [
              -61.002459,
              -44.238688
            ],
            [
              -61.195125,
              -44.274694
            ],
            [
              -61.381847,
              -44.323825
            ],
            [
              -61.560828,
              -44.385606
            ],
            [
              -61.730344,
              -44.459444
            ],
            [
              -61.888761,
              -44.544627
            ],
            [
              -62.034555,
              -44.640335
            ],
            [
              -62.166322,
              -44.745646
            ],
            [
              -62.282791,
              -44.859546
            ],
            [
              -62.382843,
              -44.980937
            ],
            [
              -62.465512,
              -45.108652
            ],
            [
              -62.530004,
              -45.241459
            ],
            [
              -62.575696,
              -45.378081
            ],
            [
              -62.60215,
              -45.5172
            ],
            [
              -62.609109,
              -45.657478
            ],
            [
              -62.596507,
              -45.797563
            ],
            [
              -62.564466,
              -45.936107
            ],
            [
              -62.513294,
              -46.071775
            ],
            [
              -62.443484,
              -46.20326
            ],
            [
              -62.355708,
              -46.329297
            ],
            [
              -62.250812,
              -46.448671
            ],
            [
              -62.129805,
              -46.560232
            ],
            [
              -61.993853,
              -46.662908
            ],
            [
              -61.844265,
              -46.755707
            ],
            [
              -61.682483,
              -46.837738
            ],
            [
              -61.510063,
              -46.90821
            ],
            [
              -61.328667,
              -46.966443
            ],
            [
              -61.140042,
              -47.011878
            ],
            [
              -60.946003,
              -47.044077
            ],
            [
              -60.74842,
              -47.06273
            ],
            [
              -60.549196,
              -47.067657
            ],
            [
              -60.350249,
              -47.05881
            ],
            [
              -60.153494,
              -47.036275
            ],
            [
              -59.960828,
              -47.000269
            ]
          ]
        ],
        "type": "Polygon"
      },
      "properties": {
        "kind": "reachableSet",
        "observationStatus": "estimated",
        "vessel": "B"
      },
      "type": "Feature"
    }
  ],
  "properties": {
    "dateline": false
  },
  "type": "FeatureCollection"
}
