{
  "features": [
    {
      "geometry": {
        "coordinates": [
          161.18528,
          41.331333
        ],
        "type": "Point"
      },
      "properties": {
        "mmsi": "416180600",
        "observationStatus": "observed",
        "role": "off",
        "time": "2019-09-25T04:05:50Z",
        "vessel": "A"
      },
      "type": "Feature"
    },
    {
      "geometry": {
        "coordinates": [
          161.166827,
          41.35072
        ],
        "type": "Point"
      },
      "properties": {
        "mmsi": "416005531",
        "observationStatus": "observed",
        "role": "off",
        "time": "2019-09-25T04:40:23Z",
        "vessel": "B"
      },
      "type": "Feature"
    },
    {
      "geometry": {
        "coordinates": [
          161.764667,
          41.62648
        ],
        "type": "Point"
      },
      "properties": {
        "mmsi": "416005531",
        "observationStatus": "observed",
        "role": "on",
        "time": "2019-09-25T17:57:52Z",
        "vessel": "B"
      },
      "type": "Feature"
    },
    {
      "geometry": {
        "coordinates": [
          161.81313,
          41.615413
        ],
        "type": "Point"
      },
      "properties": {
        "mmsi": "416180600",
        "observationStatus": "observed",
        "role": "on",
        "time": "2019-09-25T18:19:42Z",
        "vessel": "A"
      },
      "type": "Feature"
    },
    {
      "geometry": {
        "coordinates": [
          [
            161.18528,
            41.331333
          ],
          [
            161.504765,
            41.506478
          ],
          [
            161.81313,
            41.615413
          ]
        ],
        "type": "LineString"
      },
      "properties": {
        "confidence": "low",
        "lineStyle": "dashed",
        "observationStatus": "estimated",
        "source": "reachable-set heuristic",
        "vessel": "A"
      },
      "type": "Feature"
    },
    {
      "geometry": {
        "coordinates": [
          [
            161.166827,
            41.35072
          ],
          [
            161.504765,
            41.506478
          ],
          [
            161.764667,
            41.62648
          ]
        ],
        "type": "LineString"
      },
      "properties": {
        "confidence": "low",
        "lineStyle": "dashed",
        "observationStatus": "estimated",
        "source": "reachable-set heuristic",
        "vessel": "B"
      },
      "type": "Feature"
    },
    {
      "geometry": {
        "coordinates": [
          161.504765,
          41.506478
        ],
        "type": "Point"
      },
      "properties": {
        "kind": "meetingPoint",
        "observationStatus": "estimated"
      },
      "type": "Feature"
    },
    {
      "geometry": {
        "coordinates": [
          [
            [
              163.010842,
              42.157336
            ],
            [
              162.916629,
              42.263374
            ],
            [
              162.808765,
              42.361805
            ],
            [
              162.68829,
              42.451679
            ],
            [
              162.556363,
              42.532132
            ],
            [
              162.414255,
              42.602388
            ],
            [
              162.263334,
              42.661771
            ],
            [
              162.105055,
              42.709709
            ],
            [
              161.94094,
              42.745741
            ],
            [
              161.772572,
              42.769519
            ],
            [
              161.601571,
              42.780814
            ],
            [
              161.429584,
              42.779519
            ],
            [
              161.258268,
              42.765644
            ],
            [
              161.089272,
              42.739324
            ],
            [
              160.924224,
              42.700812
            ],
            [
              160.764713,
              42.650479
            ],
            [
              160.612276,
              42.58881
            ],
            [
              160.468381,
              42.516399
            ],
            [
              160.334413,
              42.433943
            ],
            [
              160.211662,
              42.342236
            ],
            [
              160.101311,
              42.242162
            ],
            [
              160.004423,
              42.134683
            ],
            [
              159.92193,
              42.020836
            ],
            [
              159.854627,
              41.901717
            ],
            [
              159.803163,
              41.778472
            ],
            [
              159.768032,
              41.652289
            ],
            [
              159.749573,
              41.524383
            ],
            [
              159.747965,
              41.395986
            ],
            [
              159.763221,
              41.268334
            ],
            [
              159.795197,
              41.142656
            ],
            [
              159.843582,
              41.020164
            ],
            [
              159.907913,
              40.902036
            ],
            [
              159.987568,
              40.789411
            ],
            [
              160.081781,
              40.683372
            ],
            [
              160.189645,
              40.584942
            ],
            [
              160.31012,
              40.495068
            ],
            [
              160.442047,
              40.414615
            ],
            [
              160.584155,
              40.344359
            ],
            [
              160.735076,
              40.284976
            ],
            [
              160.893355,
              40.237037
            ],
            [
              161.05747,
              40.201006
            ],
            [
              161.225838,
              40.177228
            ],
            [
              161.396839,
              40.165932
            ],
            [
              161.568826,
              40.167228
            ],
            [
              161.740142,
              40.181103
            ],
            [
              161.909138,
              40.207423
            ],
            [
              162.074186,
              40.245935
            ],
            [
              162.233697,
              40.296267
            ],
            [
              162.386134,
              40.357936
            ],
            [
              162.530029,
              40.430348
            ],
            [
              162.663997,
              40.512804
            ],
            [
              162.786748,
              40.604511
            ],
            [
              162.897099,
              40.704585
            ],
            [
              162.993987,
              40.812063
            ],
            [
              163.07648,
              40.925911
            ],
            [
              163.143783,
              41.04503
            ],
            [
              163.195247,
              41.168275
            ],
            [
              163.230378,
              41.294458
            ],
            [
              163.248837,
              41.422364
            ],
            [
              163.250445,
              41.550761
            ],
            [
              163.235189,
              41.678413
            ],
            [
              163.203213,
              41.80409
            ],
            [
              163.154828,
              41.926583
            ],
            [
              163.090497,
              42.04471
            ],
            [
              163.010842,
              42.157336
            ]
          ]
        ],
        "type": "Polygon"
      },
      "properties": {
        "kind": "reachableSet",
        "observationStatus": "estimated",
        "vessel": "A"
      },
      "type": "Feature"
    },
    {
      "geometry": {
        "coordinates": [
          [
            [
              162.863024,
              42.133109
            ],
            [
              162.77447,
              42.230903
            ],
            [
              162.673312,
              42.321548
            ],
            [
              162.560525,
              42.404172
            ],
            [
              162.437194,
              42.477978
            ],
            [
              162.304508,
              42.542256
            ],
            [
              162.163744,
              42.596386
            ],
            [
              162.016259,
              42.639848
            ],
            [
              161.863471,
              42.672223
            ],
            [
              161.706853,
              42.693199
            ],
            [
              161.547913,
              42.702574
            ],
            [
              161.388182,
              42.700257
            ],
            [
              161.229197,
              42.686272
            ],
            [
              161.072491,
              42.660753
            ],
            [
              160.919572,
              42.623945
            ],
            [
              160.771913,
              42.576203
            ],
            [
              160.630936,
              42.517987
            ],
            [
              160.497999,
              42.449857
            ],
            [
              160.374382,
              42.37247
            ],
            [
              160.261275,
              42.28657
            ],
            [
              160.159768,
              42.192986
            ],
            [
              160.070838,
              42.092618
            ],
            [
              159.995342,
              41.986434
            ],
            [
              159.934006,
              41.875454
            ],
            [
              159.887422,
              41.76075
            ],
            [
              159.856039,
              41.643424
            ],
            [
              159.840157,
              41.524607
            ],
            [
              159.839931,
              41.405443
            ],
            [
              159.855363,
              41.287081
            ],
            [
              159.886303,
              41.170659
            ],
            [
              159.932454,
              41.057299
            ],
            [
              159.993372,
              40.948092
            ],
            [
              160.068469,
              40.844091
            ],
            [
              160.157023,
              40.746297
            ],
            [
              160.258181,
              40.655652
            ],
            [
              160.370968,
              40.573028
            ],
            [
              160.494299,
              40.499222
            ],
            [
              160.626985,
              40.434944
            ],
            [
              160.767749,
              40.380814
            ],
            [
              160.915235,
              40.337352
            ],
            [
              161.068022,
              40.304977
            ],
            [
              161.22464,
              40.284001
            ],
            [
              161.38358,
              40.274626
            ],
            [
              161.543312,
              40.276943
            ],
            [
              161.702296,
              40.290928
            ],
            [
              161.859002,
              40.316447
            ],
            [
              162.011921,
              40.353255
            ],
            [
              162.15958,
              40.400997
            ],
            [
              162.300557,
              40.459213
            ],
            [
              162.433494,
              40.527343
            ],
            [
              162.557112,
              40.60473
            ],
            [
              162.670219,
              40.69063
            ],
            [
              162.771726,
              40.784214
            ],
            [
              162.860656,
              40.884582
            ],
            [
              162.936152,
              40.990766
            ],
            [
              162.997487,
              41.101746
            ],
            [
              163.044071,
              41.21645
            ],
            [
              163.075455,
              41.333776
            ],
            [
              163.091336,
              41.452593
            ],
            [
              163.091562,
              41.571757
            ],
            [
              163.076131,
              41.690119
            ],
            [
              163.04519,
              41.806541
            ],
            [
              162.999039,
              41.919901
            ],
            [
              162.938121,
              42.029108
            ],
            [
              162.863024,
              42.133109
            ]
          ]
        ],
        "type": "Polygon"
      },
      "properties": {
        "kind": "reachableSet",
        "observationStatus": "estimated",
        "vessel": "B"
      },
      "type": "Feature"
    }
  ],
  "properties": {
    "dateline": false
  },
  "type": "FeatureCollection"
}
