{
  "features": [
    {
      "geometry": {
        "coordinates": [
          -57.838123,
          -42.13719
        ],
        "type": "Point"
      },
      "properties": {
        "mmsi": "412329684",
        "observationStatus": "observed",
        "role": "off",
        "time": "2019-05-08T05:02:44Z",
        "vessel": "A"
      },
      "type": "Feature"
    },
    {
      "geometry": {
        "coordinates": [
          -57.78472,
          -42.08816
        ],
        "type": "Point"
      },
      "properties": {
        "mmsi": "412329686",
        "observationStatus": "observed",
        "role": "off",
        "time": "2019-05-08T05:19:25Z",
        "vessel": "B"
      },
      "type": "Feature"
    },
    {
      "geometry": {
        "coordinates": [
          -57.92913,
          -42.04283
        ],
        "type": "Point"
      },
      "properties": {
        "mmsi": "412329686",
        "observationStatus": "observed",
        "role": "on",
        "time": "2019-05-08T22:23:26Z",
        "vessel": "B"
      },
      "type": "Feature"
    },
    {
      "geometry": {
        "coordinates": [
          -57.953653,
          -42.082325
        ],
        "type": "Point"
      },
      "properties": {
        "mmsi": "412329684",
        "observationStatus": "observed",
        "role": "on",
        "time": "2019-05-08T22:46:16Z",
        "vessel": "A"
      },
      "type": "Feature"
    },
    {
      "geometry": {
        "coordinates": [
          [
            -57.838123,
            -42.13719
          ],
          [
            -57.846608,
            -42.068817
          ],
          [
            -57.953653,
            -42.082325
          ]
        ],
        "type": "LineString"
      },
      "properties": {
        "confidence": "low",
        "lineStyle": "dashed",
        "observationStatus": "estimated",
        "source": "reachable-set heuristic",
        "vessel": "A"
      },
      "type": "Feature"
    },
    {
      "geometry": {
        "coordinates": [
          [
            -57.78472,
            -42.08816
          ],
          [
            -57.846608,
            -42.068817
          ],
          [
            -57.92913,
            -42.04283
          ]
        ],
        "type": "LineString"
      },
      "properties": {
        "confidence": "low",
        "lineStyle": "dashed",
        "observationStatus": "estimated",
        "source": "reachable-set heuristic",
        "vessel": "B"
      },
      "type": "Feature"
    },
    {
      "geometry": {
        "coordinates": [
          -57.846608,
          -42.068817
        ],
        "type": "Point"
      },
      "properties": {
        "kind": "meetingPoint",
        "observationStatus": "estimated"
      },
      "type": "Feature"
    },
    {
      "geometry": {
        "coordinates": [
          [
            [
              -59.953255,
              -41.132718
            ],
            [
              -60.071518,
              -41.287979
            ],
            [
              -60.168828,
              -41.451155
            ],
            [
              -60.244248,
              -41.620674
            ],
            [
              -60.297053,
              -41.794903
            ],
            [
              -60.326733,
              -41.972164
            ],
            [
              -60.333002,
              -42.15075
            ],
            [
              -60.315801,
              -42.328942
            ],
            [
              -60.275295,
              -42.505022
            ],
            [
              -60.211874,
              -42.677296
            ],
            [
              -60.126148,
              -42.844104
            ],
            [
              -60.018944,
              -43.00384
            ],
            [
              -59.891294,
              -43.154966
            ],
            [
              -59.744427,
              -43.296025
            ],
            [
              -59.579757,
              -43.425661
            ],
            [
              -59.398871,
              -43.542623
            ],
            [
              -59.20351,
              -43.645786
            ],
            [
              -58.995557,
              -43.734156
            ],
            [
              -58.777013,
              -43.806883
            ],
            [
              -58.549983,
              -43.863265
            ],
            [
              -58.316653,
              -43.90276
            ],
            [
              -58.079272,
              -43.924987
            ],
            [
              -57.840125,
              -43.929733
            ],
            [
              -57.601514,
              -43.916951
            ],
            [
              -57.365739,
              -43.886765
            ],
            [
              -57.135069,
              -43.839466
            ],
            [
              -56.911726,
              -43.775508
            ],
            [
              -56.697862,
              -43.695509
            ],
            [
              -56.495535,
              -43.600237
            ],
            [
              -56.306694,
              -43.490612
            ],
            [
              -56.133158,
              -43.367688
            ],
            [
              -55.976598,
              -43.23265
            ],
            [
              -55.838522,
              -43.086797
            ],
            [
              -55.720259,
              -42.931536
            ],
            [
              -55.622949,
              -42.76836
            ],
            [
              -55.547528,
              -42.598841
            ],
            [
              -55.494724,
              -42.424612
            ],
            [
              -55.465044,
              -42.247351
            ],
            [
              -55.458774,
              -42.068765
            ],
            [
              -55.475976,
              -41.890573
            ],
            [
              -55.516482,
              -41.714493
            ],
            [
              -55.579903,
              -41.542219
            ],
            [
              -55.665629,
              -41.375411
            ],
            [
              -55.772833,
              -41.215675
            ],
            [
              -55.900483,
              -41.064549
            ],
            [
              -56.04735,
              -40.92349
            ],
            [
              -56.212019,
              -40.793854
            ],
            [
              -56.392906,
              -40.676892
            ],
            [
              -56.588266,
              -40.573729
            ],
            [
              -56.79622,
              -40.485359
            ],
            [
              -57.014764,
              -40.412632
            ],
            [
              -57.241794,
              -40.35625
            ],
            [
              -57.475123,
              -40.316755
            ],
            [
              -57.712505,
              -40.294528
            ],
            [
              -57.951652,
              -40.289782
            ],
            [
              -58.190262,
              -40.302564
            ],
            [
              -58.426038,
              -40.33275
            ],
            [
              -58.656708,
              -40.380049
            ],
            [
              -58.88005,
              -40.444007
            ],
            [
              -59.093915,
              -40.524006
            ],
            [
              -59.296242,
              -40.619278
            ],
            [
              -59.485083,
              -40.728903
            ],
            [
              -59.658619,
              -40.851827
            ],
            [
              -59.815179,
              -40.986865
            ],
            [
              -59.953255,
              -41.132718
            ]
          ]
        ],
        "type": "Polygon"
      },
      "properties": {
        "kind": "reachableSet",
        "observationStatus": "estimated",
        "vessel": "A"
      },
      "type": "Feature"
    },
    {
      "geometry": {
        "coordinates": [
          [
            [
              -60.014741,
              -41.388161
            ],
            [
              -60.093127,
              -41.549415
            ],
            [
              -60.149978,
              -41.715638
            ],
            [
              -60.184745,
              -41.885231
            ],
            [
              -60.197094,
              -42.05656
            ],
            [
              -60.186906,
              -42.227975
            ],
            [
              -60.154279,
              -42.397825
            ],
            [
              -60.099527,
              -42.564475
            ],
            [
              -60.023178,
              -42.726319
            ],
            [
              -59.925966,
              -42.8818
            ],
            [
              -59.808828,
              -43.029418
            ],
            [
              -59.672893,
              -43.167754
            ],
            [
              -59.519469,
              -43.295474
            ],
            [
              -59.350033,
              -43.411349
            ],
            [
              -59.166219,
              -43.514263
            ],
            [
              -58.969794,
              -43.603224
            ],
            [
              -58.762653,
              -43.677376
            ],
            [
              -58.546789,
              -43.736005
            ],
            [
              -58.324281,
              -43.778545
            ],
            [
              -58.097272,
              -43.804588
            ],
            [
              -57.867948,
              -43.813883
            ],
            [
              -57.638518,
              -43.80634
            ],
            [
              -57.411192,
              -43.782032
            ],
            [
              -57.188158,
              -43.741192
            ],
            [
              -56.971565,
              -43.684214
            ],
            [
              -56.763498,
              -43.611648
            ],
            [
              -56.565962,
              -43.524191
            ],
            [
              -56.380858,
              -43.422686
            ],
            [
              -56.20997,
              -43.30811
            ],
            [
              -56.054943,
              -43.181567
            ],
            [
              -55.91727,
              -43.044277
            ],
            [
              -55.798276,
              -42.897559
            ],
            [
              -55.699109,
              -42.742829
            ],
            [
              -55.620723,
              -42.581575
            ],
            [
              -55.563872,
              -42.415352
            ],
            [
              -55.529105,
              -42.245759
            ],
            [
              -55.516756,
              -42.07443
            ],
            [
              -55.526944,
              -41.903015
            ],
            [
              -55.559571,
              -41.733165
            ],
            [
              -55.614323,
              -41.566515
            ],
            [
              -55.690672,
              -41.404671
            ],
            [
              -55.787884,
              -41.24919
            ],
            [
              -55.905022,
              -41.101572
            ],
            [
              -56.040957,
              -40.963236
            ],
            [
              -56.194381,
              -40.835516
            ],
            [
              -56.363817,
              -40.719641
            ],
            [
              -56.547631,
              -40.616727
            ],
            [
              -56.744056,
              -40.527766
            ],
            [
              -56.951197,
              -40.453614
            ],
            [
              -57.167061,
              -40.394985
            ],
            [
              -57.389569,
              -40.352445
            ],
            [
              -57.616578,
              -40.326402
            ],
            [
              -57.845902,
              -40.317107
            ],
            [
              -58.075332,
              -40.32465
            ],
            [
              -58.302658,
              -40.348958
            ],
            [
              -58.525692,
              -40.389798
            ],
            [
              -58.742285,
              -40.446776
            ],
            [
              -58.950352,
              -40.519342
            ],
            [
              -59.147888,
              -40.606799
            ],
            [
              -59.332992,
              -40.708304
            ],
            [
              -59.50388,
              -40.82288
            ],
            [
              -59.658907,
              -40.949423
            ],
            [
              -59.79658,
              -41.086713
            ],
            [
              -59.915574,
              -41.233431
            ],
            [
              -60.014741,
              -41.388161
            ]
          ]
        ],
        "type": "Polygon"
      },
      "properties": {
        "kind": "reachableSet",
        "observationStatus": "estimated",
        "vessel": "B"
      },
      "type": "Feature"
    }
  ],
  "properties": {
    "dateline": false
  },
  "type": "FeatureCollection"
}
