{
  "features": [
    {
      "geometry": {
        "coordinates": [
          155.188128,
          41.754488
        ],
        "type": "Point"
      },
      "properties": {
        "mmsi": "416528000",
        "observationStatus": "observed",
        "role": "off",
        "time": "2019-11-08T03:04:18Z",
        "vessel": "A"
      },
      "type": "Feature"
    },
    {
      "geometry": {
        "coordinates": [
          155.102187,
          41.709333
        ],
        "type": "Point"
      },
      "properties": {
        "mmsi": "416004693",
        "observationStatus": "observed",
        "role": "off",
        "time": "2019-11-08T03:16:09Z",
        "vessel": "B"
      },
      "type": "Feature"
    },
    {
      "geometry": {
        "coordinates": [
          154.543488,
          41.453265
        ],
        "type": "Point"
      },
      "properties": {
        "mmsi": "416528000",
        "observationStatus": "observed",
        "role": "on",
        "time": "2019-11-08T19:59:00Z",
        "vessel": "A"
      },
      "type": "Feature"
    },
    {
      "geometry": {
        "coordinates": [
          154.433333,
          41.45
        ],
        "type": "Point"
      },
      "properties": {
        "mmsi": "416004693",
        "observationStatus": "observed",
        "role": "on",
        "time": "2019-11-08T20:05:57Z",
        "vessel": "B"
      },
      "type": "Feature"
    },
    {
      "geometry": {
        "coordinates": [
          [
            155.188128,
            41.754488
          ],
          [
            154.810731,
            41.602244
          ],
          [
            154.543488,
            41.453265
          ]
        ],
        "type": "LineString"
      },
      "properties": {
        "confidence": "low",
        "lineStyle": "dashed",
        "observationStatus": "estimated",
        "source": "reachable-set heuristic",
        "vessel": "A"
      },
      "type": "Feature"
    },
    {
      "geometry": {
        "coordinates": [
          [
            155.102187,
            41.709333
          ],
          [
            154.810731,
            41.602244
          ],
          [
            154.433333,
            41.45
          ]
        ],
        "type": "LineString"
      },
      "properties": {
        "confidence": "low",
        "lineStyle": "dashed",
        "observationStatus": "estimated",
        "source": "reachable-set heuristic",
        "vessel": "B"
      },
      "type": "Feature"
    },
    {
      "geometry": {
        "coordinates": [
          154.810731,
          41.602244
        ],
        "type": "Point"
      },
      "properties": {
        "kind": "meetingPoint",
        "observationStatus": "estimated"
      },
      "type": "Feature"
    },
    {
      "geometry": {
        "coordinates": [
          [
            [
              153.061085,
              40.760577
            ],
            [
              153.177806,
              40.633608
            ],
            [
              153.310785,
              40.515984
            ],
            [
              153.458739,
              40.408837
            ],
            [
              153.620243,
              40.313199
            ],
            [
              153.793744,
              40.229991
            ],
            [
              153.977568,
              40.160013
            ],
            [
              154.169947,
              40.103942
            ],
            [
              154.369028,
              40.062315
            ],
            [
              154.572893,
              40.035534
            ],
            [
              154.779579,
              40.023858
            ],
            [
              154.987095,
              40.027398
            ],
            [
              155.193443,
              40.04612
            ],
            [
              155.396636,
              40.079844
            ],
            [
              155.594717,
              40.128246
            ],
            [
              155.785777,
              40.190858
            ],
            [
              155.967979,
              40.267079
            ],
            [
              156.139565,
              40.356174
            ],
            [
              156.298885,
              40.457285
            ],
            [
              156.444403,
              40.569438
            ],
            [
              156.574719,
              40.691554
            ],
            [
              156.688577,
              40.822455
            ],
            [
              156.78488,
              40.960883
            ],
            [
              156.862702,
              41.105502
            ],
            [
              156.921293,
              41.254921
            ],
            [
              156.960088,
              41.407701
            ],
            [
              156.978714,
              41.56237
            ],
            [
              156.976992,
              41.717439
            ],
            [
              156.954938,
              41.871414
            ],
            [
              156.912764,
              42.022813
            ],
            [
              156.850878,
              42.170177
            ],
            [
              156.769873,
              42.312087
            ],
            [
              156.670532,
              42.447177
            ],
            [
              156.55381,
              42.574145
            ],
            [
              156.420832,
              42.691769
            ],
            [
              156.272878,
              42.798916
            ],
            [
              156.111373,
              42.894554
            ],
            [
              155.937873,
              42.977763
            ],
            [
              155.754048,
              43.04774
            ],
            [
              155.561669,
              43.103812
            ],
            [
              155.362589,
              43.145438
            ],
            [
              155.158724,
              43.172219
            ],
            [
              154.952038,
              43.183895
            ],
            [
              154.744522,
              43.180356
            ],
            [
              154.538174,
              43.161633
            ],
            [
              154.334981,
              43.127909
            ],
            [
              154.1369,
              43.079508
            ],
            [
              153.945839,
              43.016895
            ],
            [
              153.763638,
              42.940674
            ],
            [
              153.592052,
              42.851579
            ],
            [
              153.432732,
              42.750468
            ],
            [
              153.287214,
              42.638315
            ],
            [
              153.156898,
              42.5162
            ],
            [
              153.04304,
              42.385298
            ],
            [
              152.946737,
              42.246871
            ],
            [
              152.868915,
              42.102251
            ],
            [
              152.810324,
              41.952832
            ],
            [
              152.771529,
              41.800052
            ],
            [
              152.752902,
              41.645383
            ],
            [
              152.754625,
              41.490314
            ],
            [
              152.776679,
              41.336339
            ],
            [
              152.818852,
              41.184941
            ],
            [
              152.880739,
              41.037577
            ],
            [
              152.961743,
              40.895666
            ],
            [
              153.061085,
              40.760577
            ]
          ]
        ],
        "type": "Polygon"
      },
      "properties": {
        "kind": "reachableSet",
        "observationStatus": "estimated",
        "vessel": "A"
      },
      "type": "Feature"
    },
    {
      "geometry": {
        "coordinates": [
          [
            [
              152.889639,
              40.851466
            ],
            [
              152.991943,
              40.71855
            ],
            [
              153.11135,
              40.593927
            ],
            [
              153.246709,
              40.478797
            ],
            [
              153.396716,
              40.374269
            ],
            [
              153.559927,
              40.28135
            ],
            [
              153.734771,
              40.200935
            ],
            [
              153.919562,
              40.133797
            ],
            [
              154.112522,
              40.080584
            ],
            [
              154.311793,
              40.041807
            ],
            [
              154.515454,
              40.017841
            ],
            [
              154.721546,
              40.008917
            ],
            [
              154.928083,
              40.015119
            ],
            [
              155.133075,
              40.03639
            ],
            [
              155.33455,
              40.072522
            ],
            [
              155.530565,
              40.123169
            ],
            [
              155.719235,
              40.187844
            ],
            [
              155.898742,
              40.265922
            ],
            [
              156.067356,
              40.356652
            ],
            [
              156.223455,
              40.459161
            ],
            [
              156.365534,
              40.57246
            ],
            [
              156.492226,
              40.69546
            ],
            [
              156.602311,
              40.826975
            ],
            [
              156.694728,
              40.965738
            ],
            [
              156.768587,
              41.110415
            ],
            [
              156.823177,
              41.25961
            ],
            [
              156.857972,
              41.411888
            ],
            [
              156.872637,
              41.565781
            ],
            [
              156.867031,
              41.719809
            ],
            [
              156.841209,
              41.872486
            ],
            [
              156.795417,
              42.022344
            ],
            [
              156.730098,
              42.167938
            ],
            [
              156.645881,
              42.307867
            ],
            [
              156.543577,
              42.440783
            ],
            [
              156.42417,
              42.565406
            ],
            [
              156.288811,
              42.680536
            ],
            [
              156.138804,
              42.785064
            ],
            [
              155.975593,
              42.877983
            ],
            [
              155.800749,
              42.958399
            ],
            [
              155.615958,
              43.025537
            ],
            [
              155.422998,
              43.07875
            ],
            [
              155.223727,
              43.117526
            ],
            [
              155.020066,
              43.141492
            ],
            [
              154.813974,
              43.150416
            ],
            [
              154.607437,
              43.144214
            ],
            [
              154.402445,
              43.122944
            ],
            [
              154.20097,
              43.086811
            ],
            [
              154.004955,
              43.036164
            ],
            [
              153.816285,
              42.97149
            ],
            [
              153.636778,
              42.893412
            ],
            [
              153.468164,
              42.802681
            ],
            [
              153.312065,
              42.700173
            ],
            [
              153.169986,
              42.586873
            ],
            [
              153.043294,
              42.463874
            ],
            [
              152.933209,
              42.332359
            ],
            [
              152.840792,
              42.193595
            ],
            [
              152.766933,
              42.048919
            ],
            [
              152.712343,
              41.899723
            ],
            [
              152.677548,
              41.747445
            ],
            [
              152.662883,
              41.593552
            ],
            [
              152.668489,
              41.439525
            ],
            [
              152.694311,
              41.286847
            ],
            [
              152.740103,
              41.136989
            ],
            [
              152.805422,
              40.991395
            ],
            [
              152.889639,
              40.851466
            ]
          ]
        ],
        "type": "Polygon"
      },
      "properties": {
        "kind": "reachableSet",
        "observationStatus": "estimated",
        "vessel": "B"
      },
      "type": "Feature"
    }
  ],
  "properties": {
    "dateline": false
  },
  "type": "FeatureCollection"
}
