{
  "features": [
    {
      "geometry": {
        "coordinates": [
          -60.79576,
          -46.862898
        ],
        "type": "Point"
      },
      "properties": {
        "mmsi": "412329691",
        "observationStatus": "observed",
        "role": "off",
        "time": "2017-03-08T08:04:42Z",
        "vessel": "A"
      },
      "type": "Feature"
    },
    {
      "geometry": {
        "coordinates": [
          -60.80108,
          -46.828025
        ],
        "type": "Point"
      },
      "properties": {
        "mmsi": "441239687",
        "observationStatus": "observed",
        "role": "off",
        "time": "2017-03-08T08:23:46Z",
        "vessel": "B"
      },
      "type": "Feature"
    },
    {
      "geometry": {
        "coordinates": [
          -60.853033,
          -46.68319
        ],
        "type": "Point"
      },
      "properties": {
        "mmsi": "441239687",
        "observationStatus": "observed",
        "role": "on",
        "time": "2017-03-08T23:52:27Z",
        "vessel": "B"
      },
      "type": "Feature"
    },
    {
      "geometry": {
        "coordinates": [
          -60.860987,
          -46.664372
        ],
        "type": "Point"
      },
      "properties": {
        "mmsi": "412329691",
        "observationStatus": "observed",
        "role": "on",
        "time": "2017-03-09T00:19:08Z",
        "vessel": "A"
      },
      "type": "Feature"
    },
    {
      "geometry": {
        "coordinates": [
          [
            -60.79576,
            -46.862898
          ],
          [
            -60.83586,
            -46.729984
          ],
          [
            -60.860987,
            -46.664372
          ]
        ],
        "type": "LineString"
      },
      "properties": {
        "confidence": "low",
        "lineStyle": "dashed",
        "observationStatus": "estimated",
        "source": "reachable-set heuristic",
        "vessel": "A"
      },
      "type": "Feature"
    },
    {
      "geometry": {
        "coordinates": [
          [
            -60.80108,
            -46.828025
          ],
          [
            -60.83586,
            -46.729984
          ],
          [
            -60.853033,
            -46.68319
          ]
        ],
        "type": "LineString"
      },
      "properties": {
        "confidence": "low",
        "lineStyle": "dashed",
        "observationStatus": "estimated",
        "source": "reachable-set heuristic",
        "vessel": "B"
      },
      "type": "Feature"
    },
    {
      "geometry": {
        "coordinates": [
          -60.83586,
          -46.729984
        ],
        "type": "Point"
      },
      "properties": {
        "kind": "meetingPoint",
        "observationStatus": "estimated"
      },
      "type": "Feature"
    },
    {
      "geometry": {
        "coordinates": [
          [
            [
              -61.360055,
              -45.145385
            ],
            [
              -61.587055,
              -45.18905
            ],
            [
              -61.806749,
              -45.24788
            ],
            [
              -62.01702,
              -45.321307
            ],
            [
              -62.215844,
              -45.408624
            ],
            [
              -62.401306,
              -45.508991
            ],
            [
              -62.571619,
              -45.621441
            ],
            [
              -62.725144,
              -45.74489
            ],
            [
              -62.860403,
              -45.878151
            ],
            [
              -62.976091,
              -46.01994
            ],
            [
              -63.071096,
              -46.168891
            ],
            [
              -63.144503,
              -46.323569
            ],
            [
              -63.195603,
              -46.482486
            ],
            [
              -63.223906,
              -46.64411
            ],
            [
              -63.229139,
              -46.806885
            ],
            [
              -63.211251,
              -46.969244
            ],
            [
              -63.170415,
              -47.129622
            ],
            [
              -63.107023,
              -47.286476
            ],
            [
              -63.021687,
              -47.438295
            ],
            [
              -62.915228,
              -47.583616
            ],
            [
              -62.788671,
              -47.721041
            ],
            [
              -62.643236,
              -47.849245
            ],
            [
              -62.480323,
              -47.966994
            ],
            [
              -62.3015,
              -48.073154
            ],
            [
              -62.108491,
              -48.166703
            ],
            [
              -61.903153,
              -48.246739
            ],
            [
              -61.687464,
              -48.312493
            ],
            [
              -61.463502,
              -48.36333
            ],
            [
              -61.233424,
              -48.398761
            ],
            [
              -60.999444,
              -48.418444
            ],
            [
              -60.763817,
              -48.422192
            ],
            [
              -60.528812,
              -48.409966
            ],
            [
              -60.296691,
              -48.381885
            ],
            [
              -60.069691,
              -48.33822
            ],
            [
              -59.849998,
              -48.27939
            ],
            [
              -59.639727,
              -48.205963
            ],
            [
              -59.440903,
              -48.118646
            ],
            [
              -59.255441,
              -48.018279
            ],
            [
              -59.085127,
              -47.905829
            ],
            [
              -58.931602,
              -47.78238
            ],
            [
              -58.796344,
              -47.649119
            ],
            [
              -58.680655,
              -47.50733
            ],
            [
              -58.58565,
              -47.358379
            ],
            [
              -58.512244,
              -47.203701
            ],
            [
              -58.461143,
              -47.044784
            ],
            [
              -58.43284,
              -46.88316
            ],
            [
              -58.427608,
              -46.720385
            ],
            [
              -58.445496,
              -46.558026
            ],
            [
              -58.486332,
              -46.397648
            ],
            [
              -58.549724,
              -46.240794
            ],
            [
              -58.63506,
              -46.088975
            ],
            [
              -58.741519,
              -45.943654
            ],
            [
              -58.868075,
              -45.806229
            ],
            [
              -59.01351,
              -45.678025
            ],
            [
              -59.176424,
              -45.560276
            ],
            [
              -59.355246,
              -45.454116
            ],
            [
              -59.548256,
              -45.360567
            ],
            [
              -59.753594,
              -45.280531
            ],
            [
              -59.969282,
              -45.214777
            ],
            [
              -60.193244,
              -45.16394
            ],
            [
              -60.423323,
              -45.128509
            ],
            [
              -60.657303,
              -45.108826
            ],
            [
              -60.89293,
              -45.105078
            ],
            [
              -61.127935,
              -45.117304
            ],
            [
              -61.360055,
              -45.145385
            ]
          ]
        ],
        "type": "Polygon"
      },
      "properties": {
        "kind": "reachableSet",
        "observationStatus": "estimated",
        "vessel": "A"
      },
      "type": "Feature"
    },
    {
      "geometry": {
        "coordinates": [
          [
            [
              -61.375921,
              -45.225489
            ],
            [
              -61.59047,
              -45.269923
            ],
            [
              -61.797666,
              -45.328665
            ],
            [
              -61.995515,
              -45.401149
            ],
            [
              -62.182111,
              -45.486678
            ],
            [
              -62.355658,
              -45.584427
            ],
            [
              -62.514482,
              -45.693455
            ],
            [
              -62.657057,
              -45.812712
            ],
            [
              -62.782007,
              -45.94105
            ],
            [
              -62.88813,
              -46.077232
            ],
            [
              -62.974404,
              -46.219947
            ],
            [
              -63.039997,
              -46.367822
            ],
            [
              -63.084279,
              -46.519431
            ],
            [
              -63.106822,
              -46.673314
            ],
            [
              -63.10741,
              -46.82799
            ],
            [
              -63.086038,
              -46.981968
            ],
            [
              -63.042909,
              -47.133767
            ],
            [
              -62.978441,
              -47.281924
            ],
            [
              -62.893254,
              -47.425012
            ],
            [
              -62.788169,
              -47.561654
            ],
            [
              -62.664196,
              -47.690533
            ],
            [
              -62.522531,
              -47.810408
            ],
            [
              -62.364538,
              -47.920124
            ],
            [
              -62.191738,
              -48.018626
            ],
            [
              -62.005795,
              -48.104964
            ],
            [
              -61.808501,
              -48.178307
            ],
            [
              -61.601754,
              -48.237949
            ],
            [
              -61.387547,
              -48.283315
            ],
            [
              -61.167942,
              -48.313968
            ],
            [
              -60.945054,
              -48.329614
            ],
            [
              -60.72103,
              -48.330101
            ],
            [
              -60.498027,
              -48.315424
            ],
            [
              -60.278192,
              -48.285726
            ],
            [
              -60.063644,
              -48.241292
            ],
            [
              -59.856447,
              -48.18255
            ],
            [
              -59.658598,
              -48.110066
            ],
            [
              -59.472002,
              -48.024537
            ],
            [
              -59.298456,
              -47.926788
            ],
            [
              -59.139631,
              -47.81776
            ],
            [
              -58.997057,
              -47.698503
            ],
            [
              -58.872107,
              -47.570165
            ],
            [
              -58.765984,
              -47.433983
            ],
            [
              -58.67971,
              -47.291268
            ],
            [
              -58.614116,
              -47.143393
            ],
            [
              -58.569834,
              -46.991784
            ],
            [
              -58.547291,
              -46.837901
            ],
            [
              -58.546703,
              -46.683225
            ],
            [
              -58.568076,
              -46.529247
            ],
            [
              -58.611204,
              -46.377448
            ],
            [
              -58.675672,
              -46.229291
            ],
            [
              -58.760859,
              -46.086203
            ],
            [
              -58.865945,
              -45.949561
            ],
            [
              -58.989917,
              -45.820682
            ],
            [
              -59.131582,
              -45.700807
            ],
            [
              -59.289575,
              -45.591091
            ],
            [
              -59.462375,
              -45.492589
            ],
            [
              -59.648318,
              -45.406251
            ],
            [
              -59.845612,
              -45.332908
            ],
            [
              -60.052359,
              -45.273266
            ],
            [
              -60.266566,
              -45.2279
            ],
            [
              -60.486171,
              -45.197247
            ],
            [
              -60.709059,
              -45.181601
            ],
            [
              -60.933083,
              -45.181114
            ],
            [
              -61.156087,
              -45.195791
            ],
            [
              -61.375921,
              -45.225489
            ]
          ]
        ],
        "type": "Polygon"
      },
      "properties": {
        "kind": "reachableSet",
        "observationStatus": "estimated",
        "vessel": "B"
      },
      "type": "Feature"
    }
  ],
  "properties": {
    "dateline": false
  },
  "type": "FeatureCollection"
}
