{
  "features": [
    {
      "geometry": {
        "coordinates": [
          154.548853,
          41.255827
        ],
        "type": "Point"
      },
      "properties": {
        "mmsi": "416171800",
        "observationStatus": "observed",
        "role": "off",
        "time": "2019-11-11T06:25:24Z",
        "vessel": "A"
      },
      "type": "Feature"
    },
    {
      "geometry": {
        "coordinates": [
          154.504493,
          41.319302
        ],
        "type": "Point"
      },
      "properties": {
        "mmsi": "416239500",
        "observationStatus": "observed",
        "role": "off",
        "time": "2019-11-11T07:07:54Z",
        "vessel": "B"
      },
      "type": "Feature"
    },
    {
      "geometry": {
        "coordinates": [
          155.432187,
          41.963813
        ],
        "type": "Point"
      },
      "properties": {
        "mmsi": "416171800",
        "observationStatus": "observed",
        "role": "on",
        "time": "2019-11-11T20:32:41Z",
        "vessel": "A"
      },
      "type": "Feature"
    },
    {
      "geometry": {
        "coordinates": [
          155.547335,
          41.961607
        ],
        "type": "Point"
      },
      "properties": {
        "mmsi": "416239500",
        "observationStatus": "observed",
        "role": "on",
        "time": "2019-11-11T20:34:32Z",
        "vessel": "B"
      },
      "type": "Feature"
    },
    {
      "geometry": {
        "coordinates": [
          [
            154.548853,
            41.255827
          ],
          [
            155.338918,
            41.83362
          ],
          [
            155.432187,
            41.963813
          ]
        ],
        "type": "LineString"
      },
      "properties": {
        "confidence": "low",
        "lineStyle": "dashed",
        "observationStatus": "estimated",
        "source": "reachable-set heuristic",
        "vessel": "A"
      },
      "type": "Feature"
    },
    {
      "geometry": {
        "coordinates": [
          [
            154.504493,
            41.319302
          ],
          [
            155.338918,
            41.83362
          ],
          [
            155.547335,
            41.961607
          ]
        ],
        "type": "LineString"
      },
      "properties": {
        "confidence": "low",
        "lineStyle": "dashed",
        "observationStatus": "estimated",
        "source": "reachable-set heuristic",
        "vessel": "B"
      },
      "type": "Feature"
    },
    {
      "geometry": {
        "coordinates": [
          155.338918,
          41.83362
        ],
        "type": "Point"
      },
      "properties": {
        "kind": "meetingPoint",
        "observationStatus": "estimated"
      },
      "type": "Feature"
    },
    {
      "geometry": {
        "coordinates": [
          [
            [
              156.189786,
              42.571025
            ],
            [
              156.067648,
              42.648662
            ],
            [
              155.935138,
              42.716295
            ],
            [
              155.79353,
              42.773272
            ],
            [
              155.644188,
              42.819045
            ],
            [
              155.488552,
              42.853172
            ],
            [
              155.328119,
              42.875325
            ],
            [
              155.164435,
              42.88529
            ],
            [
              154.999076,
              42.882972
            ],
            [
              154.833635,
              42.868392
            ],
            [
              154.669704,
              42.841692
            ],
            [
              154.508863,
              42.803128
            ],
            [
              154.352661,
              42.753073
            ],
            [
              154.202602,
              42.692007
            ],
            [
              154.060131,
              42.620518
            ],
            [
              153.926619,
              42.539297
            ],
            [
              153.803354,
              42.449124
            ],
            [
              153.691522,
              42.350868
            ],
            [
              153.5922,
              42.245475
            ],
            [
              153.506345,
              42.133961
            ],
            [
              153.434783,
              42.017398
            ],
            [
              153.378203,
              41.896911
            ],
            [
              153.337152,
              41.773659
            ],
            [
              153.312023,
              41.648829
            ],
            [
              153.303058,
              41.523623
            ],
            [
              153.310345,
              41.399247
            ],
            [
              153.333813,
              41.2769
            ],
            [
              153.373236,
              41.157758
            ],
            [
              153.428234,
              41.04297
            ],
            [
              153.498278,
              40.933642
            ],
            [
              153.582693,
              40.830825
            ],
            [
              153.680667,
              40.73551
            ],
            [
              153.791254,
              40.648615
            ],
            [
              153.913392,
              40.570978
            ],
            [
              154.045902,
              40.503345
            ],
            [
              154.18751,
              40.446368
            ],
            [
              154.336852,
              40.400595
            ],
            [
              154.492488,
              40.366468
            ],
            [
              154.652921,
              40.344315
            ],
            [
              154.816605,
              40.33435
            ],
            [
              154.981964,
              40.336668
            ],
            [
              155.147405,
              40.351248
            ],
            [
              155.311336,
              40.377948
            ],
            [
              155.472177,
              40.416512
            ],
            [
              155.628379,
              40.466567
            ],
            [
              155.778438,
              40.527633
            ],
            [
              155.920909,
              40.599122
            ],
            [
              156.054421,
              40.680343
            ],
            [
              156.177686,
              40.770516
            ],
            [
              156.289518,
              40.868772
            ],
            [
              156.38884,
              40.974165
            ],
            [
              156.474695,
              41.085679
            ],
            [
              156.546257,
              41.202242
            ],
            [
              156.602837,
              41.322729
            ],
            [
              156.643888,
              41.445981
            ],
            [
              156.669017,
              41.570811
            ],
            [
              156.677982,
              41.696017
            ],
            [
              156.670695,
              41.820393
            ],
            [
              156.647227,
              41.94274
            ],
            [
              156.607804,
              42.061882
            ],
            [
              156.552806,
              42.17667
            ],
            [
              156.482762,
              42.285998
            ],
            [
              156.398347,
              42.388815
            ],
            [
              156.300373,
              42.48413
            ],
            [
              156.189786,
              42.571025
            ]
          ]
        ],
        "type": "Polygon"
      },
      "properties": {
        "kind": "reachableSet",
        "observationStatus": "estimated",
        "vessel": "A"
      },
      "type": "Feature"
    },
    {
      "geometry": {
        "coordinates": [
          [
            [
              156.312059,
              42.432614
            ],
            [
              156.21153,
              42.515506
            ],
            [
              156.099583,
              42.58997
            ],
            [
              155.977296,
              42.65529
            ],
            [
              155.845846,
              42.710836
            ],
            [
              155.706501,
              42.756075
            ],
            [
              155.5606,
              42.790569
            ],
            [
              155.409551,
              42.813987
            ],
            [
              155.254807,
              42.826103
            ],
            [
              155.097858,
              42.8268
            ],
            [
              154.940217,
              42.816073
            ],
            [
              154.783401,
              42.794024
            ],
            [
              154.62892,
              42.760865
            ],
            [
              154.478263,
              42.716916
            ],
            [
              154.33288,
              42.6626
            ],
            [
              154.194171,
              42.59844
            ],
            [
              154.063472,
              42.525055
            ],
            [
              153.942042,
              42.44315
            ],
            [
              153.831051,
              42.353515
            ],
            [
              153.731567,
              42.257012
            ],
            [
              153.644547,
              42.154572
            ],
            [
              153.570832,
              42.047181
            ],
            [
              153.511129,
              41.935872
            ],
            [
              153.466015,
              41.821719
            ],
            [
              153.435923,
              41.70582
            ],
            [
              153.421144,
              41.589291
            ],
            [
              153.42182,
              41.473255
            ],
            [
              153.437944,
              41.358829
            ],
            [
              153.469361,
              41.247116
            ],
            [
              153.515768,
              41.13919
            ],
            [
              153.576719,
              41.036092
            ],
            [
              153.651627,
              40.938815
            ],
            [
              153.739769,
              40.848294
            ],
            [
              153.840298,
              40.765403
            ],
            [
              153.952245,
              40.690938
            ],
            [
              154.074532,
              40.625619
            ],
            [
              154.205982,
              40.570072
            ],
            [
              154.345328,
              40.524834
            ],
            [
              154.491228,
              40.49034
            ],
            [
              154.642277,
              40.466922
            ],
            [
              154.797022,
              40.454806
            ],
            [
              154.95397,
              40.454108
            ],
            [
              155.111612,
              40.464835
            ],
            [
              155.268428,
              40.486885
            ],
            [
              155.422908,
              40.520043
            ],
            [
              155.573566,
              40.563992
            ],
            [
              155.718949,
              40.618308
            ],
            [
              155.857657,
              40.682468
            ],
            [
              155.988356,
              40.755854
            ],
            [
              156.109786,
              40.837758
            ],
            [
              156.220777,
              40.927394
            ],
            [
              156.320262,
              41.023896
            ],
            [
              156.407281,
              41.126336
            ],
            [
              156.480997,
              41.233728
            ],
            [
              156.540699,
              41.345036
            ],
            [
              156.585813,
              41.45919
            ],
            [
              156.615905,
              41.575089
            ],
            [
              156.630684,
              41.691617
            ],
            [
              156.630009,
              41.807653
            ],
            [
              156.613885,
              41.922079
            ],
            [
              156.582468,
              42.033792
            ],
            [
              156.53606,
              42.141718
            ],
            [
              156.475109,
              42.244816
            ],
            [
              156.400202,
              42.342093
            ],
            [
              156.312059,
              42.432614
            ]
          ]
        ],
        "type": "Polygon"
      },
      "properties": {
        "kind": "reachableSet",
        "observationStatus": "estimated",
        "vessel": "B"
      },
      "type": "Feature"
    }
  ],
  "properties": {
    "dateline": false
  },
  "type": "FeatureCollection"
}
