{
  "features": [
    {
      "geometry": {
        "coordinates": [
          -60.489173,
          -45.947577
        ],
        "type": "Point"
      },
      "properties": {
        "mmsi": "412329686",
        "observationStatus": "observed",
        "role": "off",
        "time": "2018-02-10T08:07:01Z",
        "vessel": "A"
      },
      "type": "Feature"
    },
    {
      "geometry": {
        "coordinates": [
          -60.575132,
          -45.996173
        ],
        "type": "Point"
      },
      "properties": {
        "mmsi": "412329689",
        "observationStatus": "observed",
        "role": "off",
        "time": "2018-02-10T08:11:50Z",
        "vessel": "B"
      },
      "type": "Feature"
    },
    {
      "geometry": {
        "coordinates": [
          -60.551335,
          -45.811548
        ],
        "type": "Point"
      },
      "properties": {
        "mmsi": "412329689",
        "observationStatus": "observed",
        "role": "on",
        "time": "2018-02-10T23:24:15Z",
        "vessel": "B"
      },
      "type": "Feature"
    },
    {
      "geometry": {
        "coordinates": [
          -60.62432,
          -45.801058
        ],
        "type": "Point"
      },
      "properties": {
        "mmsi": "412329686",
        "observationStatus": "observed",
        "role": "on",
        "time": "2018-02-10T23:25:44Z",
        "vessel": "A"
      },
      "type": "Feature"
    },
    {
      "geometry": {
        "coordinates": [
          [
            -60.489173,
            -45.947577
          ],
          [
            -60.589016,
            -45.938683
          ],
          [
            -60.62432,
            -45.801058
          ]
        ],
        "type": "LineString"
      },
      "properties": {
        "confidence": "low",
        "lineStyle": "dashed",
        "observationStatus": "estimated",
        "source": "reachable-set heuristic",
        "vessel": "A"
      },
      "type": "Feature"
    },
    {
      "geometry": {
        "coordinates": [
          [
            -60.575132,
            -45.996173
          ],
          [
            -60.589016,
            -45.938683
          ],
          [
            -60.551335,
            -45.811548
          ]
        ],
        "type": "LineString"
      },
      "properties": {
        "confidence": "low",
        "lineStyle": "dashed",
        "observationStatus": "estimated",
        "source": "reachable-set heuristic",
        "vessel": "B"
      },
      "type": "Feature"
    },
    {
      "geometry": {
        "coordinates": [
          -60.589016,
          -45.938683
        ],
        "type": "Point"
      },
      "properties": {
        "kind": "meetingPoint",
        "observationStatus": "estimated"
      },
      "type": "Feature"
    },
    {
      "geometry": {
        "coordinates": [
          [
            [
              -61.763688,
              -44.565821
            ],
            [
              -61.94056,
              -44.654915
            ],
            [
              -62.104106,
              -44.755753
            ],
            [
              -62.25275,
              -44.867364
            ],
            [
              -62.38506,
              -44.988672
            ],
            [
              -62.499763,
              -45.118509
            ],
            [
              -62.595753,
              -45.255625
            ],
            [
              -62.672107,
              -45.3987
            ],
            [
              -62.728089,
              -45.546354
            ],
            [
              -62.763159,
              -45.697168
            ],
            [
              -62.77698,
              -45.849687
            ],
            [
              -62.76942,
              -46.002444
            ],
            [
              -62.74055,
              -46.153966
            ],
            [
              -62.690649,
              -46.302796
            ],
            [
              -62.620197,
              -46.447499
            ],
            [
              -62.529873,
              -46.586682
            ],
            [
              -62.420547,
              -46.719004
            ],
            [
              -62.293271,
              -46.843192
            ],
            [
              -62.149272,
              -46.958049
            ],
            [
              -61.989936,
              -47.062469
            ],
            [
              -61.816797,
              -47.155446
            ],
            [
              -61.631524,
              -47.236086
            ],
            [
              -61.4359,
              -47.303611
            ],
            [
              -61.231809,
              -47.357371
            ],
            [
              -61.021216,
              -47.396848
            ],
            [
              -60.806151,
              -47.421663
            ],
            [
              -60.588684,
              -47.431576
            ],
            [
              -60.370909,
              -47.426491
            ],
            [
              -60.154924,
              -47.406458
            ],
            [
              -59.942809,
              -47.37167
            ],
            [
              -59.736606,
              -47.322462
            ],
            [
              -59.538302,
              -47.259307
            ],
            [
              -59.349806,
              -47.182814
            ],
            [
              -59.172933,
              -47.09372
            ],
            [
              -59.009387,
              -46.992882
            ],
            [
              -58.860744,
              -46.881271
            ],
            [
              -58.728433,
              -46.759963
            ],
            [
              -58.61373,
              -46.630126
            ],
            [
              -58.51774,
              -46.49301
            ],
            [
              -58.441386,
              -46.349935
            ],
            [
              -58.385405,
              -46.202281
            ],
            [
              -58.350334,
              -46.051467
            ],
            [
              -58.336513,
              -45.898948
            ],
            [
              -58.344074,
              -45.746191
            ],
            [
              -58.372943,
              -45.594669
            ],
            [
              -58.422845,
              -45.445839
            ],
            [
              -58.493296,
              -45.301136
            ],
            [
              -58.58362,
              -45.161953
            ],
            [
              -58.692946,
              -45.029631
            ],
            [
              -58.820222,
              -44.905443
            ],
            [
              -58.964221,
              -44.790586
            ],
            [
              -59.123557,
              -44.686166
            ],
            [
              -59.296696,
              -44.593189
            ],
            [
              -59.48197,
              -44.512549
            ],
            [
              -59.677594,
              -44.445024
            ],
            [
              -59.881685,
              -44.391264
            ],
            [
              -60.092277,
              -44.351787
            ],
            [
              -60.307342,
              -44.326972
            ],
            [
              -60.524809,
              -44.317059
            ],
            [
              -60.742584,
              -44.322144
            ],
            [
              -60.958569,
              -44.342177
            ],
            [
              -61.170684,
              -44.376965
            ],
            [
              -61.376887,
              -44.426173
            ],
            [
              -61.575191,
              -44.489328
            ],
            [
              -61.763688,
              -44.565821
            ]
          ]
        ],
        "type": "Polygon"
      },
      "properties": {
        "kind": "reachableSet",
        "observationStatus": "estimated",
        "vessel": "A"
      },
      "type": "Feature"
    },
    {
      "geometry": {
        "coordinates": [
          [
            [
              -60.364679,
              -44.363387
            ],
            [
              -60.580772,
              -44.357195
            ],
            [
              -60.796696,
              -44.365898
            ],
            [
              -61.010371,
              -44.389412
            ],
            [
              -61.219741,
              -44.427512
            ],
            [
              -61.422787,
              -44.479829
            ],
            [
              -61.617556,
              -44.545861
            ],
            [
              -61.802171,
              -44.62497
            ],
            [
              -61.974855,
              -44.716397
            ],
            [
              -62.133944,
              -44.819259
            ],
            [
              -62.277906,
              -44.932566
            ],
            [
              -62.405355,
              -45.055228
            ],
            [
              -62.515063,
              -45.186062
            ],
            [
              -62.605974,
              -45.32381
            ],
            [
              -62.677212,
              -45.467143
            ],
            [
              -62.728092,
              -45.614682
            ],
            [
              -62.758122,
              -45.765007
            ],
            [
              -62.767015,
              -45.916668
            ],
            [
              -62.754684,
              -46.068206
            ],
            [
              -62.721249,
              -46.218161
            ],
            [
              -62.66703,
              -46.36509
            ],
            [
              -62.592551,
              -46.507577
            ],
            [
              -62.498528,
              -46.644249
            ],
            [
              -62.385867,
              -46.773791
            ],
            [
              -62.255654,
              -46.894955
            ],
            [
              -62.109141,
              -47.006575
            ],
            [
              -61.94774,
              -47.107575
            ],
            [
              -61.773006,
              -47.196982
            ],
            [
              -61.586622,
              -47.273936
            ],
            [
              -61.390381,
              -47.337695
            ],
            [
              -61.186174,
              -47.387646
            ],
            [
              -60.975969,
              -47.423307
            ],
            [
              -60.761788,
              -47.444334
            ],
            [
              -60.545695,
              -47.450527
            ],
            [
              -60.329771,
              -47.441824
            ],
            [
              -60.116096,
              -47.418309
            ],
            [
              -59.906726,
              -47.38021
            ],
            [
              -59.703679,
              -47.327893
            ],
            [
              -59.50891,
              -47.261861
            ],
            [
              -59.324295,
              -47.182751
            ],
            [
              -59.151612,
              -47.091325
            ],
            [
              -58.992523,
              -46.988463
            ],
            [
              -58.848561,
              -46.875155
            ],
            [
              -58.721112,
              -46.752494
            ],
            [
              -58.611404,
              -46.621659
            ],
            [
              -58.520493,
              -46.483912
            ],
            [
              -58.449254,
              -46.340579
            ],
            [
              -58.398375,
              -46.193039
            ],
            [
              -58.368344,
              -46.042715
            ],
            [
              -58.359451,
              -45.891054
            ],
            [
              -58.371782,
              -45.739516
            ],
            [
              -58.405218,
              -45.58956
            ],
            [
              -58.459437,
              -45.442632
            ],
            [
              -58.533916,
              -45.300145
            ],
            [
              -58.627939,
              -45.163473
            ],
            [
              -58.740599,
              -45.033931
            ],
            [
              -58.870813,
              -44.912766
            ],
            [
              -59.017326,
              -44.801147
            ],
            [
              -59.178726,
              -44.700147
            ],
            [
              -59.35346,
              -44.61074
            ],
            [
              -59.539845,
              -44.533786
            ],
            [
              -59.736086,
              -44.470027
            ],
            [
              -59.940292,
              -44.420076
            ],
            [
              -60.150498,
              -44.384415
            ],
            [
              -60.364679,
              -44.363387
            ]
          ]
        ],
        "type": "Polygon"
      },
      "properties": {
        "kind": "reachableSet",
        "observationStatus": "estimated",
        "vessel": "B"
      },
      "type": "Feature"
    }
  ],
  "properties": {
    "dateline": false
  },
  "type": "FeatureCollection"
}
