{
  "features": [
    {
      "geometry": {
        "coordinates": [
          -60.69082,
          -46.007748
        ],
        "type": "Point"
      },
      "properties": {
        "mmsi": "412329685",
        "observationStatus": "observed",
        "role": "off",
        "time": "2017-01-25T07:22:09Z",
        "vessel": "A"
      },
      "type": "Feature"
    },
    {
      "geometry": {
        "coordinates": [
          -60.687202,
          -46.047828
        ],
        "type": "Point"
      },
      "properties": {
        "mmsi": "412329693",
        "observationStatus": "observed",
        "role": "off",
        "time": "2017-01-25T07:29:29Z",
        "vessel": "B"
      },
      "type": "Feature"
    },
    {
      "geometry": {
        "coordinates": [
          -60.688033,
          -45.976972
        ],
        "type": "Point"
      },
      "properties": {
        "mmsi": "412329693",
        "observationStatus": "observed",
        "role": "on",
        "time": "2017-01-25T23:52:05Z",
        "vessel": "B"
      },
      "type": "Feature"
    },
    {
      "geometry": {
        "coordinates": [
          -60.652397,
          -45.900177
        ],
        "type": "Point"
      },
      "properties": {
        "mmsi": "412329685",
        "observationStatus": "observed",
        "role": "on",
        "time": "2017-01-26T00:21:19Z",
        "vessel": "A"
      },
      "type": "Feature"
    },
    {
      "geometry": {
        "coordinates": [
          [
            -60.69082,
            -46.007748
          ],
          [
            -60.685099,
            -46.015662
          ],
          [
            -60.652397,
            -45.900177
          ]
        ],
        "type": "LineString"
      },
      "properties": {
        "confidence": "low",
        "lineStyle": "dashed",
        "observationStatus": "estimated",
        "source": "reachable-set heuristic",
        "vessel": "A"
      },
      "type": "Feature"
    },
    {
      "geometry": {
        "coordinates": [
          [
            -60.687202,
            -46.047828
          ],
          [
            -60.685099,
            -46.015662
          ],
          [
            -60.688033,
            -45.976972
          ]
        ],
        "type": "LineString"
      },
      "properties": {
        "confidence": "low",
        "lineStyle": "dashed",
        "observationStatus": "estimated",
        "source": "reachable-set heuristic",
        "vessel": "B"
      },
      "type": "Feature"
    },
    {
      "geometry": {
        "coordinates": [
          -60.685099,
          -46.015662
        ],
        "type": "Point"
      },
      "properties": {
        "kind": "meetingPoint",
        "observationStatus": "estimated"
      },
      "type": "Feature"
    },
    {
      "geometry": {
        "coordinates": [
          [
            [
              -60.068506,
              -44.26549
            ],
            [
              -60.307734,
              -44.232265
            ],
            [
              -60.550466,
              -44.21562
            ],
            [
              -60.794365,
              -44.215716
            ],
            [
              -61.037081,
              -44.232553
            ],
            [
              -61.276278,
              -44.265967
            ],
            [
              -61.509652,
              -44.315638
            ],
            [
              -61.734954,
              -44.381087
            ],
            [
              -61.950016,
              -44.461684
            ],
            [
              -62.152767,
              -44.556652
            ],
            [
              -62.341253,
              -44.665077
            ],
            [
              -62.513659,
              -44.785915
            ],
            [
              -62.668326,
              -44.918001
            ],
            [
              -62.803763,
              -45.060065
            ],
            [
              -62.918666,
              -45.210737
            ],
            [
              -63.011929,
              -45.368567
            ],
            [
              -63.082653,
              -45.532034
            ],
            [
              -63.130157,
              -45.699565
            ],
            [
              -63.153985,
              -45.869546
            ],
            [
              -63.153905,
              -46.04034
            ],
            [
              -63.12992,
              -46.210302
            ],
            [
              -63.08226,
              -46.377795
            ],
            [
              -63.011384,
              -46.541207
            ],
            [
              -62.917975,
              -46.698963
            ],
            [
              -62.802932,
              -46.849544
            ],
            [
              -62.667363,
              -46.991501
            ],
            [
              -62.512574,
              -47.123465
            ],
            [
              -62.340056,
              -47.244166
            ],
            [
              -62.151469,
              -47.352442
            ],
            [
              -61.948631,
              -47.44725
            ],
            [
              -61.733494,
              -47.527677
            ],
            [
              -61.50813,
              -47.592948
            ],
            [
              -61.274711,
              -47.642435
            ],
            [
              -61.035483,
              -47.67566
            ],
            [
              -60.792751,
              -47.692305
            ],
            [
              -60.548852,
              -47.692209
            ],
            [
              -60.306136,
              -47.675372
            ],
            [
              -60.066939,
              -47.641958
            ],
            [
              -59.833565,
              -47.592287
            ],
            [
              -59.608262,
              -47.526838
            ],
            [
              -59.3932,
              -47.446241
            ],
            [
              -59.19045,
              -47.351273
            ],
            [
              -59.001964,
              -47.242848
            ],
            [
              -58.829557,
              -47.12201
            ],
            [
              -58.674891,
              -46.989924
            ],
            [
              -58.539454,
              -46.84786
            ],
            [
              -58.424551,
              -46.697188
            ],
            [
              -58.331288,
              -46.539358
            ],
            [
              -58.260564,
              -46.375891
            ],
            [
              -58.213059,
              -46.20836
            ],
            [
              -58.189232,
              -46.038379
            ],
            [
              -58.189311,
              -45.867585
            ],
            [
              -58.213296,
              -45.697623
            ],
            [
              -58.260957,
              -45.53013
            ],
            [
              -58.331832,
              -45.366718
            ],
            [
              -58.425242,
              -45.208962
            ],
            [
              -58.540285,
              -45.058381
            ],
            [
              -58.675854,
              -44.916424
            ],
            [
              -58.830643,
              -44.78446
            ],
            [
              -59.003161,
              -44.663759
            ],
            [
              -59.191748,
              -44.555483
            ],
            [
              -59.394586,
              -44.460675
            ],
            [
              -59.609723,
              -44.380248
            ],
            [
              -59.835086,
              -44.314977
            ],
            [
              -60.068506,
              -44.26549
            ]
          ]
        ],
        "type": "Polygon"
      },
      "properties": {
        "kind": "reachableSet",
        "observationStatus": "estimated",
        "vessel": "A"
      },
      "type": "Feature"
    },
    {
      "geometry": {
        "coordinates": [
          [
            [
              -60.707266,
              -44.338365
            ],
            [
              -60.941789,
              -44.347772
            ],
            [
              -61.173863,
              -44.373211
            ],
            [
              -61.401255,
              -44.414435
            ],
            [
              -61.621774,
              -44.471049
            ],
            [
              -61.833297,
              -44.542508
            ],
            [
              -62.033786,
              -44.628122
            ],
            [
              -62.221311,
              -44.727067
            ],
            [
              -62.394065,
              -44.838391
            ],
            [
              -62.550386,
              -44.961021
            ],
            [
              -62.688767,
              -45.093777
            ],
            [
              -62.807875,
              -45.235379
            ],
            [
              -62.906565,
              -45.384464
            ],
            [
              -62.983885,
              -45.539597
            ],
            [
              -63.039091,
              -45.699284
            ],
            [
              -63.07165,
              -45.861985
            ],
            [
              -63.08125,
              -46.026136
            ],
            [
              -63.067798,
              -46.190154
            ],
            [
              -63.031424,
              -46.35246
            ],
            [
              -62.972477,
              -46.511491
            ],
            [
              -62.891527,
              -46.665716
            ],
            [
              -62.789351,
              -46.813648
            ],
            [
              -62.666934,
              -46.953865
            ],
            [
              -62.525456,
              -47.085014
            ],
            [
              -62.366278,
              -47.205834
            ],
            [
              -62.190933,
              -47.31516
            ],
            [
              -62.001111,
              -47.411941
            ],
            [
              -61.79864,
              -47.495242
            ],
            [
              -61.585468,
              -47.564263
            ],
            [
              -61.36365,
              -47.618339
            ],
            [
              -61.135321,
              -47.656949
            ],
            [
              -60.90268,
              -47.679721
            ],
            [
              -60.667969,
              -47.686435
            ],
            [
              -60.433446,
              -47.677028
            ],
            [
              -60.201372,
              -47.651589
            ],
            [
              -59.97398,
              -47.610365
            ],
            [
              -59.753461,
              -47.553751
            ],
            [
              -59.541938,
              -47.482292
            ],
            [
              -59.341449,
              -47.396678
            ],
            [
              -59.153924,
              -47.297733
            ],
            [
              -58.98117,
              -47.186409
            ],
            [
              -58.824849,
              -47.063779
            ],
            [
              -58.686468,
              -46.931023
            ],
            [
              -58.56736,
              -46.789421
            ],
            [
              -58.46867,
              -46.640336
            ],
            [
              -58.39135,
              -46.485203
            ],
            [
              -58.336144,
              -46.325516
            ],
            [
              -58.303585,
              -46.162815
            ],
            [
              -58.293985,
              -45.998664
            ],
            [
              -58.307437,
              -45.834646
            ],
            [
              -58.343811,
              -45.67234
            ],
            [
              -58.402758,
              -45.513309
            ],
            [
              -58.483708,
              -45.359084
            ],
            [
              -58.585884,
              -45.211152
            ],
            [
              -58.708301,
              -45.070935
            ],
            [
              -58.849779,
              -44.939786
            ],
            [
              -59.008957,
              -44.818966
            ],
            [
              -59.184302,
              -44.70964
            ],
            [
              -59.374124,
              -44.612859
            ],
            [
              -59.576595,
              -44.529558
            ],
            [
              -59.789767,
              -44.460537
            ],
            [
              -60.011585,
              -44.406461
            ],
            [
              -60.239914,
              -44.367851
            ],
            [
              -60.472555,
              -44.345079
            ],
            [
              -60.707266,
              -44.338365
            ]
          ]
        ],
        "type": "Polygon"
      },
      "properties": {
        "kind": "reachableSet",
        "observationStatus": "estimated",
        "vessel": "B"
      },
      "type": "Feature"
    }
  ],
  "properties": {
    "dateline": false
  },
  "type": "FeatureCollection"
}
