{
  "features": [
    {
      "geometry": {
        "coordinates": [
          -84.579558,
          -6.267347
        ],
        "type": "Point"
      },
      "properties": {
        "mmsi": "412421145",
        "observationStatus": "observed",
        "role": "off",
        "time": "2019-07-04T19:00:19Z",
        "vessel": "A"
      },
      "type": "Feature"
    },
    {
      "geometry": {
        "coordinates": [
          -84.536632,
          -6.250152
        ],
        "type": "Point"
      },
      "properties": {
        "mmsi": "412328763",
        "observationStatus": "observed",
        "role": "off",
        "time": "2019-07-04T19:37:35Z",
        "vessel": "B"
      },
      "type": "Feature"
    },
    {
      "geometry": {
        "coordinates": [
          -84.507217,
          -6.320483
        ],
        "type": "Point"
      },
      "properties": {
        "mmsi": "412421145",
        "observationStatus": "observed",
        "role": "on",
        "time": "2019-07-05T08:29:36Z",
        "vessel": "A"
      },
      "type": "Feature"
    },
    {
      "geometry": {
        "coordinates": [
          -84.493352,
          -6.372575
        ],
        "type": "Point"
      },
      "properties": {
        "mmsi": "412328763",
        "observationStatus": "observed",
        "role": "on",
        "time": "2019-07-05T08:43:31Z",
        "vessel": "B"
      },
      "type": "Feature"
    },
    {
      "geometry": {
        "coordinates": [
          [
            -84.579558,
            -6.267347
          ],
          [
            -84.520877,
            -6.294668
          ],
          [
            -84.507217,
            -6.320483
          ]
        ],
        "type": "LineString"
      },
      "properties": {
        "confidence": "low",
        "lineStyle": "dashed",
        "observationStatus": "estimated",
        "source": "reachable-set heuristic",
        "vessel": "A"
      },
      "type": "Feature"
    },
    {
      "geometry": {
        "coordinates": [
          [
            -84.536632,
            -6.250152
          ],
          [
            -84.520877,
            -6.294668
          ],
          [
            -84.493352,
            -6.372575
          ]
        ],
        "type": "LineString"
      },
      "properties": {
        "confidence": "low",
        "lineStyle": "dashed",
        "observationStatus": "estimated",
        "source": "reachable-set heuristic",
        "vessel": "B"
      },
      "type": "Feature"
    },
    {
      "geometry": {
        "coordinates": [
          -84.520877,
          -6.294668
        ],
        "type": "Point"
      },
      "properties": {
        "kind": "meetingPoint",
        "observationStatus": "estimated"
      },
      "type": "Feature"
    },
    {
      "geometry": {
        "coordinates": [
          [
            [
              -83.532379,
              -7.036525
            ],
            [
              -83.464557,
              -6.933845
            ],
            [
              -83.407126,
              -6.825003
            ],
            [
              -83.360636,
              -6.711046
            ],
            [
              -83.325538,
              -6.593072
            ],
            [
              -83.302168,
              -6.472217
            ],
            [
              -83.290752,
              -6.349645
            ],
            [
              -83.291399,
              -6.226536
            ],
            [
              -83.304103,
              -6.104075
            ],
            [
              -83.328743,
              -5.983444
            ],
            [
              -83.36508,
              -5.865802
            ],
            [
              -83.412765,
              -5.752283
            ],
            [
              -83.471338,
              -5.64398
            ],
            [
              -83.540236,
              -5.541937
            ],
            [
              -83.618795,
              -5.447135
            ],
            [
              -83.706258,
              -5.360489
            ],
            [
              -83.801783,
              -5.282832
            ],
            [
              -83.904451,
              -5.214912
            ],
            [
              -84.013271,
              -5.157383
            ],
            [
              -84.127197,
              -5.1108
            ],
            [
              -84.245131,
              -5.075611
            ],
            [
              -84.365937,
              -5.052155
            ],
            [
              -84.488452,
              -5.040658
            ],
            [
              -84.611497,
              -5.04123
            ],
            [
              -84.733885,
              -5.053867
            ],
            [
              -84.854439,
              -5.078446
            ],
            [
              -84.971997,
              -5.11473
            ],
            [
              -85.085428,
              -5.16237
            ],
            [
              -85.193638,
              -5.220908
            ],
            [
              -85.295586,
              -5.28978
            ],
            [
              -85.39029,
              -5.368322
            ],
            [
              -85.476838,
              -5.455778
            ],
            [
              -85.554396,
              -5.551305
            ],
            [
              -85.622218,
              -5.653985
            ],
            [
              -85.679649,
              -5.762827
            ],
            [
              -85.726139,
              -5.876784
            ],
            [
              -85.761237,
              -5.994758
            ],
            [
              -85.784607,
              -6.115613
            ],
            [
              -85.796023,
              -6.238185
            ],
            [
              -85.795376,
              -6.361294
            ],
            [
              -85.782672,
              -6.483755
            ],
            [
              -85.758032,
              -6.604386
            ],
            [
              -85.721695,
              -6.722028
            ],
            [
              -85.67401,
              -6.835547
            ],
            [
              -85.615437,
              -6.94385
            ],
            [
              -85.546539,
              -7.045893
            ],
            [
              -85.46798,
              -7.140695
            ],
            [
              -85.380517,
              -7.227341
            ],
            [
              -85.284992,
              -7.304998
            ],
            [
              -85.182324,
              -7.372918
            ],
            [
              -85.073504,
              -7.430447
            ],
            [
              -84.959578,
              -7.47703
            ],
            [
              -84.841644,
              -7.512219
            ],
            [
              -84.720838,
              -7.535675
            ],
            [
              -84.598323,
              -7.547172
            ],
            [
              -84.475278,
              -7.5466
            ],
            [
              -84.35289,
              -7.533963
            ],
            [
              -84.232336,
              -7.509384
            ],
            [
              -84.114778,
              -7.4731
            ],
            [
              -84.001347,
              -7.42546
            ],
            [
              -83.893137,
              -7.366922
            ],
            [
              -83.791189,
              -7.29805
            ],
            [
              -83.696485,
              -7.219508
            ],
            [
              -83.609937,
              -7.132052
            ],
            [
              -83.532379,
              -7.036525
            ]
          ]
        ],
        "type": "Polygon"
      },
      "properties": {
        "kind": "reachableSet",
        "observationStatus": "estimated",
        "vessel": "A"
      },
      "type": "Feature"
    },
    {
      "geometry": {
        "coordinates": [
          [
            [
              -84.109746,
              -7.457654
            ],
            [
              -83.999578,
              -7.412443
            ],
            [
              -83.894374,
              -7.356628
            ],
            [
              -83.795146,
              -7.290747
            ],
            [
              -83.702851,
              -7.215433
            ],
            [
              -83.618378,
              -7.131413
            ],
            [
              -83.542539,
              -7.039495
            ],
            [
              -83.476065,
              -6.940565
            ],
            [
              -83.419597,
              -6.835576
            ],
            [
              -83.373679,
              -6.725538
            ],
            [
              -83.338751,
              -6.611511
            ],
            [
              -83.315152,
              -6.494594
            ],
            [
              -83.303107,
              -6.375912
            ],
            [
              -83.302734,
              -6.256608
            ],
            [
              -83.314035,
              -6.137832
            ],
            [
              -83.336903,
              -6.020727
            ],
            [
              -83.371115,
              -5.906421
            ],
            [
              -83.416344,
              -5.796014
            ],
            [
              -83.472154,
              -5.690571
            ],
            [
              -83.538007,
              -5.591107
            ],
            [
              -83.613268,
              -5.498579
            ],
            [
              -83.697214,
              -5.413878
            ],
            [
              -83.789035,
              -5.337821
            ],
            [
              -83.887848,
              -5.271139
            ],
            [
              -83.992701,
              -5.214476
            ],
            [
              -84.102583,
              -5.168376
            ],
            [
              -84.216437,
              -5.133283
            ],
            [
              -84.333166,
              -5.109536
            ],
            [
              -84.451647,
              -5.097364
            ],
            [
              -84.570737,
              -5.096883
            ],
            [
              -84.689291,
              -5.108098
            ],
            [
              -84.806166,
              -5.130901
            ],
            [
              -84.920237,
              -5.165072
            ],
            [
              -85.030405,
              -5.210283
            ],
            [
              -85.135609,
              -5.266099
            ],
            [
              -85.234837,
              -5.33198
            ],
            [
              -85.327132,
              -5.407294
            ],
            [
              -85.411606,
              -5.491314
            ],
            [
              -85.487444,
              -5.583231
            ],
            [
              -85.553918,
              -5.682161
            ],
            [
              -85.610386,
              -5.787151
            ],
            [
              -85.656305,
              -5.897189
            ],
            [
              -85.691232,
              -6.011216
            ],
            [
              -85.714832,
              -6.128133
            ],
            [
              -85.726876,
              -6.246815
            ],
            [
              -85.727249,
              -6.366119
            ],
            [
              -85.715948,
              -6.484895
            ],
            [
              -85.693081,
              -6.602
            ],
            [
              -85.658868,
              -6.716306
            ],
            [
              -85.613639,
              -6.826712
            ],
            [
              -85.557829,
              -6.932155
            ],
            [
              -85.491977,
              -7.03162
            ],
            [
              -85.416715,
              -7.124148
            ],
            [
              -85.332769,
              -7.208849
            ],
            [
              -85.240948,
              -7.284906
            ],
            [
              -85.142135,
              -7.351587
            ],
            [
              -85.037283,
              -7.408251
            ],
            [
              -84.9274,
              -7.454351
            ],
            [
              -84.813546,
              -7.489443
            ],
            [
              -84.696817,
              -7.51319
            ],
            [
              -84.578336,
              -7.525363
            ],
            [
              -84.459246,
              -7.525844
            ],
            [
              -84.340692,
              -7.514629
            ],
            [
              -84.223817,
              -7.491826
            ],
            [
              -84.109746,
              -7.457654
            ]
          ]
        ],
        "type": "Polygon"
      },
      "properties": {
        "kind": "reachableSet",
        "observationStatus": "estimated",
        "vessel": "B"
      },
      "type": "Feature"
    }
  ],
  "properties": {
    "dateline": false
  },
  "type": "FeatureCollection"
}
