{
  "features": [
    {
      "geometry": {
        "coordinates": [
          -57.70931,
          -42.0515
        ],
        "type": "Point"
      },
      "properties": {
        "mmsi": "412329684",
        "observationStatus": "observed",
        "role": "off",
        "time": "2019-05-09T05:38:29Z",
        "vessel": "A"
      },
      "type": "Feature"
    },
    {
      "geometry": {
        "coordinates": [
          -57.734167,
          -42.005987
        ],
        "type": "Point"
      },
      "properties": {
        "mmsi": "412329693",
        "observationStatus": "observed",
        "role": "off",
        "time": "2019-05-09T06:08:24Z",
        "vessel": "B"
      },
      "type": "Feature"
    },
    {
      "geometry": {
        "coordinates": [
          -57.861573,
          -42.106507
        ],
        "type": "Point"
      },
      "properties": {
        "mmsi": "412329684",
        "observationStatus": "observed",
        "role": "on",
        "time": "2019-05-09T22:23:26Z",
        "vessel": "A"
      },
      "type": "Feature"
    },
    {
      "geometry": {
        "coordinates": [
          -57.937733,
          -42.037093
        ],
        "type": "Point"
      },
      "properties": {
        "mmsi": "412329693",
        "observationStatus": "observed",
        "role": "on",
        "time": "2019-05-09T22:23:51Z",
        "vessel": "B"
      },
      "type": "Feature"
    },
    {
      "geometry": {
        "coordinates": [
          [
            -57.70931,
            -42.0515
          ],
          [
            -57.806654,
            -42.017128
          ],
          [
            -57.861573,
            -42.106507
          ]
        ],
        "type": "LineString"
      },
      "properties": {
        "confidence": "low",
        "lineStyle": "dashed",
        "observationStatus": "estimated",
        "source": "reachable-set heuristic",
        "vessel": "A"
      },
      "type": "Feature"
    },
    {
      "geometry": {
        "coordinates": [
          [
            -57.734167,
            -42.005987
          ],
          [
            -57.806654,
            -42.017128
          ],
          [
            -57.937733,
            -42.037093
          ]
        ],
        "type": "LineString"
      },
      "properties": {
        "confidence": "low",
        "lineStyle": "dashed",
        "observationStatus": "estimated",
        "source": "reachable-set heuristic",
        "vessel": "B"
      },
      "type": "Feature"
    },
    {
      "geometry": {
        "coordinates": [
          -57.806654,
          -42.017128
        ],
        "type": "Point"
      },
      "properties": {
        "kind": "meetingPoint",
        "observationStatus": "estimated"
      },
      "type": "Feature"
    },
    {
      "geometry": {
        "coordinates": [
          [
            [
              -59.85128,
              -42.825308
            ],
            [
              -59.743507,
              -42.972922
            ],
            [
              -59.616876,
              -43.111927
            ],
            [
              -59.472608,
              -43.240984
            ],
            [
              -59.312091,
              -43.35885
            ],
            [
              -59.136872,
              -43.464391
            ],
            [
              -58.948637,
              -43.55659
            ],
            [
              -58.749201,
              -43.634559
            ],
            [
              -58.540483,
              -43.697547
            ],
            [
              -58.324493,
              -43.744948
            ],
            [
              -58.103313,
              -43.776305
            ],
            [
              -57.879071,
              -43.791315
            ],
            [
              -57.653927,
              -43.789835
            ],
            [
              -57.43005,
              -43.771879
            ],
            [
              -57.209595,
              -43.73762
            ],
            [
              -56.994686,
              -43.687387
            ],
            [
              -56.787393,
              -43.621665
            ],
            [
              -56.589711,
              -43.541086
            ],
            [
              -56.403545,
              -43.446426
            ],
            [
              -56.230687,
              -43.338598
            ],
            [
              -56.072802,
              -43.218638
            ],
            [
              -55.931411,
              -43.087704
            ],
            [
              -55.807876,
              -42.947055
            ],
            [
              -55.703385,
              -42.798046
            ],
            [
              -55.618946,
              -42.642112
            ],
            [
              -55.555371,
              -42.480756
            ],
            [
              -55.513273,
              -42.31553
            ],
            [
              -55.493058,
              -42.148027
            ],
            [
              -55.494919,
              -41.979858
            ],
            [
              -55.518839,
              -41.812645
            ],
            [
              -55.564588,
              -41.647997
            ],
            [
              -55.631725,
              -41.487499
            ],
            [
              -55.719603,
              -41.332698
            ],
            [
              -55.827377,
              -41.185085
            ],
            [
              -55.954007,
              -41.04608
            ],
            [
              -56.098276,
              -40.917023
            ],
            [
              -56.258792,
              -40.799156
            ],
            [
              -56.434012,
              -40.693615
            ],
            [
              -56.622246,
              -40.601416
            ],
            [
              -56.821682,
              -40.523448
            ],
            [
              -57.0304,
              -40.460459
            ],
            [
              -57.24639,
              -40.413059
            ],
            [
              -57.467571,
              -40.381702
            ],
            [
              -57.691813,
              -40.366691
            ],
            [
              -57.916957,
              -40.368171
            ],
            [
              -58.140834,
              -40.386127
            ],
            [
              -58.361288,
              -40.420387
            ],
            [
              -58.576197,
              -40.470619
            ],
            [
              -58.783491,
              -40.536342
            ],
            [
              -58.981172,
              -40.616921
            ],
            [
              -59.167339,
              -40.71158
            ],
            [
              -59.340196,
              -40.819409
            ],
            [
              -59.498081,
              -40.939368
            ],
            [
              -59.639472,
              -41.070303
            ],
            [
              -59.763008,
              -41.210952
            ],
            [
              -59.867498,
              -41.359961
            ],
            [
              -59.951937,
              -41.515894
            ],
            [
              -60.015512,
              -41.677251
            ],
            [
              -60.05761,
              -41.842476
            ],
            [
              -60.077826,
              -42.00998
            ],
            [
              -60.075965,
              -42.178148
            ],
            [
              -60.052044,
              -42.345362
            ],
            [
              -60.006296,
              -42.51001
            ],
            [
              -59.939159,
              -42.670507
            ],
            [
              -59.85128,
              -42.825308
            ]
          ]
        ],
        "type": "Polygon"
      },
      "properties": {
        "kind": "reachableSet",
        "observationStatus": "estimated",
        "vessel": "A"
      },
      "type": "Feature"
    },
    {
      "geometry": {
        "coordinates": [
          [
            [
              -60.011946,
              -42.35405
            ],
            [
              -59.95794,
              -42.511797
            ],
            [
              -59.883498,
              -42.664823
            ],
            [
              -59.789337,
              -42.811653
            ],
            [
              -59.676364,
              -42.950874
            ],
            [
              -59.545667,
              -43.081145
            ],
            [
              -59.398504,
              -43.201212
            ],
            [
              -59.236293,
              -43.309917
            ],
            [
              -59.060595,
              -43.406215
            ],
            [
              -58.873104,
              -43.489178
            ],
            [
              -58.675625,
              -43.558007
            ],
            [
              -58.470059,
              -43.612038
            ],
            [
              -58.258386,
              -43.650752
            ],
            [
              -58.042645,
              -43.673776
            ],
            [
              -57.824913,
              -43.680888
            ],
            [
              -57.607287,
              -43.67202
            ],
            [
              -57.391864,
              -43.647256
            ],
            [
              -57.180718,
              -43.606836
            ],
            [
              -56.975881,
              -43.551149
            ],
            [
              -56.779328,
              -43.480731
            ],
            [
              -56.59295,
              -43.39626
            ],
            [
              -56.418544,
              -43.29855
            ],
            [
              -56.257787,
              -43.188541
            ],
            [
              -56.11223,
              -43.067294
            ],
            [
              -55.983272,
              -42.935975
            ],
            [
              -55.872157,
              -42.79585
            ],
            [
              -55.779954,
              -42.648268
            ],
            [
              -55.707552,
              -42.49465
            ],
            [
              -55.655647,
              -42.336475
            ],
            [
              -55.62474,
              -42.175268
            ],
            [
              -55.615128,
              -42.01258
            ],
            [
              -55.626904,
              -41.849979
            ],
            [
              -55.659954,
              -41.68903
            ],
            [
              -55.71396,
              -41.531283
            ],
            [
              -55.788402,
              -41.378257
            ],
            [
              -55.882563,
              -41.231427
            ],
            [
              -55.995536,
              -41.092206
            ],
            [
              -56.126233,
              -40.961935
            ],
            [
              -56.273396,
              -40.841868
            ],
            [
              -56.435607,
              -40.733163
            ],
            [
              -56.611305,
              -40.636865
            ],
            [
              -56.798796,
              -40.553902
            ],
            [
              -56.996275,
              -40.485073
            ],
            [
              -57.201841,
              -40.431042
            ],
            [
              -57.413514,
              -40.392328
            ],
            [
              -57.629255,
              -40.369304
            ],
            [
              -57.846987,
              -40.362192
            ],
            [
              -58.064613,
              -40.37106
            ],
            [
              -58.280036,
              -40.395824
            ],
            [
              -58.491182,
              -40.436244
            ],
            [
              -58.696019,
              -40.491931
            ],
            [
              -58.892572,
              -40.562349
            ],
            [
              -59.07895,
              -40.64682
            ],
            [
              -59.253356,
              -40.74453
            ],
            [
              -59.414113,
              -40.854539
            ],
            [
              -59.55967,
              -40.975786
            ],
            [
              -59.688628,
              -41.107105
            ],
            [
              -59.799743,
              -41.24723
            ],
            [
              -59.891946,
              -41.394812
            ],
            [
              -59.964348,
              -41.54843
            ],
            [
              -60.016253,
              -41.706605
            ],
            [
              -60.04716,
              -41.867812
            ],
            [
              -60.056772,
              -42.0305
            ],
            [
              -60.044996,
              -42.193101
            ],
            [
              -60.011946,
              -42.35405
            ]
          ]
        ],
        "type": "Polygon"
      },
      "properties": {
        "kind": "reachableSet",
        "observationStatus": "estimated",
        "vessel": "B"
      },
      "type": "Feature"
    }
  ],
  "properties": {
    "dateline": false
  },
  "type": "FeatureCollection"
}
