{
  "features": [
    {
      "geometry": {
        "coordinates": [
          -57.79696,
          -41.968
        ],
        "type": "Point"
      },
      "properties": {
        "mmsi": "412329684",
        "observationStatus": "observed",
        "role": "off",
        "time": "2019-04-25T06:03:28Z",
        "vessel": "A"
      },
      "type": "Feature"
    },
    {
      "geometry": {
        "coordinates": [
          -57.730422,
          -41.97051
        ],
        "type": "Point"
      },
      "properties": {
        "mmsi": "412329689",
        "observationStatus": "observed",
        "role": "off",
        "time": "2019-04-25T06:24:06Z",
        "vessel": "B"
      },
      "type": "Feature"
    },
    {
      "geometry": {
        "coordinates": [
          -57.852715,
          -42.070293
        ],
        "type": "Point"
      },
      "properties": {
        "mmsi": "412329684",
        "observationStatus": "observed",
        "role": "on",
        "time": "2019-04-25T23:38:17Z",
        "vessel": "A"
      },
      "type": "Feature"
    },
    {
      "geometry": {
        "coordinates": [
          -57.844655,
          -42.089297
        ],
        "type": "Point"
      },
      "properties": {
        "mmsi": "412329689",
        "observationStatus": "observed",
        "role": "on",
        "time": "2019-04-25T23:38:30Z",
        "vessel": "B"
      },
      "type": "Feature"
    },
    {
      "geometry": {
        "coordinates": [
          [
            -57.79696,
            -41.968
          ],
          [
            -57.791568,
            -42.034196
          ],
          [
            -57.852715,
            -42.070293
          ]
        ],
        "type": "LineString"
      },
      "properties": {
        "confidence": "low",
        "lineStyle": "dashed",
        "observationStatus": "estimated",
        "source": "reachable-set heuristic",
        "vessel": "A"
      },
      "type": "Feature"
    },
    {
      "geometry": {
        "coordinates": [
          [
            -57.730422,
            -41.97051
          ],
          [
            -57.791568,
            -42.034196
          ],
          [
            -57.844655,
            -42.089297
          ]
        ],
        "type": "LineString"
      },
      "properties": {
        "confidence": "low",
        "lineStyle": "dashed",
        "observationStatus": "estimated",
        "source": "reachable-set heuristic",
        "vessel": "B"
      },
      "type": "Feature"
    },
    {
      "geometry": {
        "coordinates": [
          -57.791568,
          -42.034196
        ],
        "type": "Point"
      },
      "properties": {
        "kind": "meetingPoint",
        "observationStatus": "estimated"
      },
      "type": "Feature"
    },
    {
      "geometry": {
        "coordinates": [
          [
            [
              -58.735922,
              -43.690708
            ],
            [
              -58.512587,
              -43.749422
            ],
            [
              -58.282627,
              -43.791473
            ],
            [
              -58.048259,
              -43.816455
            ],
            [
              -57.81174,
              -43.824128
            ],
            [
              -57.575346,
              -43.814418
            ],
            [
              -57.341355,
              -43.787418
            ],
            [
              -57.112021,
              -43.74339
            ],
            [
              -56.889551,
              -43.682755
            ],
            [
              -56.676089,
              -43.6061
            ],
            [
              -56.473689,
              -43.514161
            ],
            [
              -56.284302,
              -43.407824
            ],
            [
              -56.109751,
              -43.288114
            ],
            [
              -55.951718,
              -43.156182
            ],
            [
              -55.811723,
              -43.013301
            ],
            [
              -55.691116,
              -42.860845
            ],
            [
              -55.591058,
              -42.700283
            ],
            [
              -55.512512,
              -42.533162
            ],
            [
              -55.456235,
              -42.36109
            ],
            [
              -55.42277,
              -42.185725
            ],
            [
              -55.412437,
              -42.008756
            ],
            [
              -55.425337,
              -41.831887
            ],
            [
              -55.461346,
              -41.656821
            ],
            [
              -55.520116,
              -41.485245
            ],
            [
              -55.601082,
              -41.31881
            ],
            [
              -55.703464,
              -41.15912
            ],
            [
              -55.826277,
              -41.007713
            ],
            [
              -55.968336,
              -40.866046
            ],
            [
              -56.128274,
              -40.735485
            ],
            [
              -56.304552,
              -40.617285
            ],
            [
              -56.49547,
              -40.512587
            ],
            [
              -56.699191,
              -40.422397
            ],
            [
              -56.913753,
              -40.347585
            ],
            [
              -57.137088,
              -40.288871
            ],
            [
              -57.367048,
              -40.246821
            ],
            [
              -57.601416,
              -40.221839
            ],
            [
              -57.837935,
              -40.214166
            ],
            [
              -58.074329,
              -40.223876
            ],
            [
              -58.30832,
              -40.250875
            ],
            [
              -58.537654,
              -40.294904
            ],
            [
              -58.760124,
              -40.355538
            ],
            [
              -58.973586,
              -40.432194
            ],
            [
              -59.175986,
              -40.524133
            ],
            [
              -59.365373,
              -40.630469
            ],
            [
              -59.539924,
              -40.75018
            ],
            [
              -59.697957,
              -40.882111
            ],
            [
              -59.837952,
              -41.024993
            ],
            [
              -59.958559,
              -41.177448
            ],
            [
              -60.058617,
              -41.33801
            ],
            [
              -60.137163,
              -41.505132
            ],
            [
              -60.19344,
              -41.677204
            ],
            [
              -60.226905,
              -41.852568
            ],
            [
              -60.237238,
              -42.029538
            ],
            [
              -60.224338,
              -42.206407
            ],
            [
              -60.188329,
              -42.381472
            ],
            [
              -60.129559,
              -42.553049
            ],
            [
              -60.048593,
              -42.719483
            ],
            [
              -59.946211,
              -42.879173
            ],
            [
              -59.823398,
              -43.03058
            ],
            [
              -59.681339,
              -43.172247
            ],
            [
              -59.521401,
              -43.302809
            ],
            [
              -59.345123,
              -43.421008
            ],
            [
              -59.154205,
              -43.525706
            ],
            [
              -58.950484,
              -43.615896
            ],
            [
              -58.735922,
              -43.690708
            ]
          ]
        ],
        "type": "Polygon"
      },
      "properties": {
        "kind": "reachableSet",
        "observationStatus": "estimated",
        "vessel": "A"
      },
      "type": "Feature"
    },
    {
      "geometry": {
        "coordinates": [
          [
            [
              -59.167943,
              -43.465331
            ],
            [
              -58.973318,
              -43.559517
            ],
            [
              -58.767274,
              -43.638971
            ],
            [
              -58.551794,
              -43.70293
            ],
            [
              -58.328954,
              -43.750776
            ],
            [
              -58.1009,
              -43.78205
            ],
            [
              -57.869829,
              -43.796449
            ],
            [
              -57.637964,
              -43.793836
            ],
            [
              -57.40754,
              -43.774235
            ],
            [
              -57.180776,
              -43.737835
            ],
            [
              -56.959855,
              -43.684986
            ],
            [
              -56.746905,
              -43.616199
            ],
            [
              -56.543977,
              -43.532134
            ],
            [
              -56.353025,
              -43.433602
            ],
            [
              -56.175889,
              -43.321552
            ],
            [
              -56.014273,
              -43.197063
            ],
            [
              -55.869735,
              -43.061333
            ],
            [
              -55.743667,
              -42.91567
            ],
            [
              -55.637282,
              -42.761476
            ],
            [
              -55.551605,
              -42.600237
            ],
            [
              -55.487461,
              -42.433505
            ],
            [
              -55.445469,
              -42.262887
            ],
            [
              -55.426031,
              -42.090025
            ],
            [
              -55.429337,
              -41.916583
            ],
            [
              -55.455353,
              -41.744233
            ],
            [
              -55.50383,
              -41.574635
            ],
            [
              -55.574299,
              -41.40942
            ],
            [
              -55.666084,
              -41.250182
            ],
            [
              -55.778299,
              -41.098452
            ],
            [
              -55.909864,
              -40.955693
            ],
            [
              -56.059513,
              -40.823279
            ],
            [
              -56.225803,
              -40.702486
            ],
            [
              -56.407134,
              -40.594476
            ],
            [
              -56.601758,
              -40.50029
            ],
            [
              -56.807803,
              -40.420835
            ],
            [
              -57.023282,
              -40.356877
            ],
            [
              -57.246122,
              -40.30903
            ],
            [
              -57.474176,
              -40.277757
            ],
            [
              -57.705248,
              -40.263357
            ],
            [
              -57.937113,
              -40.265971
            ],
            [
              -58.167536,
              -40.285572
            ],
            [
              -58.394301,
              -40.321972
            ],
            [
              -58.615222,
              -40.37482
            ],
            [
              -58.828172,
              -40.443608
            ],
            [
              -59.031099,
              -40.527672
            ],
            [
              -59.222051,
              -40.626204
            ],
            [
              -59.399188,
              -40.738255
            ],
            [
              -59.560804,
              -40.862744
            ],
            [
              -59.705342,
              -40.998474
            ],
            [
              -59.83141,
              -41.144137
            ],
            [
              -59.937795,
              -41.298331
            ],
            [
              -60.023472,
              -41.45957
            ],
            [
              -60.087616,
              -41.626301
            ],
            [
              -60.129608,
              -41.79692
            ],
            [
              -60.149045,
              -41.969782
            ],
            [
              -60.14574,
              -42.143223
            ],
            [
              -60.119724,
              -42.315573
            ],
            [
              -60.071247,
              -42.485172
            ],
            [
              -60.000777,
              -42.650386
            ],
            [
              -59.908993,
              -42.809625
            ],
            [
              -59.796778,
              -42.961355
            ],
            [
              -59.665212,
              -43.104114
            ],
            [
              -59.515564,
              -43.236528
            ],
            [
              -59.349274,
              -43.357321
            ],
            [
              -59.167943,
              -43.465331
            ]
          ]
        ],
        "type": "Polygon"
      },
      "properties": {
        "kind": "reachableSet",
        "observationStatus": "estimated",
        "vessel": "B"
      },
      "type": "Feature"
    }
  ],
  "properties": {
    "dateline": false
  },
  "type": "FeatureCollection"
}
