{
  "features": [
    {
      "geometry": {
        "coordinates": [
          -60.793028,
          -46.374402
        ],
        "type": "Point"
      },
      "properties": {
        "mmsi": "412420461",
        "observationStatus": "observed",
        "role": "off",
        "time": "2019-02-08T14:10:03Z",
        "vessel": "A"
      },
      "type": "Feature"
    },
    {
      "geometry": {
        "coordinates": [
          -60.809817,
          -46.4538
        ],
        "type": "Point"
      },
      "properties": {
        "mmsi": "412421137",
        "observationStatus": "observed",
        "role": "off",
        "time": "2019-02-08T14:42:11Z",
        "vessel": "B"
      },
      "type": "Feature"
    },
    {
      "geometry": {
        "coordinates": [
          -60.834905,
          -46.303652
        ],
        "type": "Point"
      },
      "properties": {
        "mmsi": "412420461",
        "observationStatus": "observed",
        "role": "on",
        "time": "2019-02-09T23:51:12Z",
        "vessel": "A"
      },
      "type": "Feature"
    },
    {
      "geometry": {
        "coordinates": [
          -60.8137,
          -46.3127
        ],
        "type": "Point"
      },
      "properties": {
        "mmsi": "412421137",
        "observationStatus": "observed",
        "role": "on",
        "time": "2019-02-09T23:51:13Z",
        "vessel": "B"
      },
      "type": "Feature"
    },
    {
      "geometry": {
        "coordinates": [
          [
            -60.793028,
            -46.374402
          ],
          [
            -60.82081,
            -46.390705
          ],
          [
            -60.834905,
            -46.303652
          ]
        ],
        "type": "LineString"
      },
      "properties": {
        "confidence": "low",
        "lineStyle": "dashed",
        "observationStatus": "estimated",
        "source": "reachable-set heuristic",
        "vessel": "A"
      },
      "type": "Feature"
    },
    {
      "geometry": {
        "coordinates": [
          [
            -60.809817,
            -46.4538
          ],
          [
            -60.82081,
            -46.390705
          ],
          [
            -60.8137,
            -46.3127
          ]
        ],
        "type": "LineString"
      },
      "properties": {
        "confidence": "low",
        "lineStyle": "dashed",
        "observationStatus": "estimated",
        "source": "reachable-set heuristic",
        "vessel": "B"
      },
      "type": "Feature"
    },
    {
      "geometry": {
        "coordinates": [
          -60.82081,
          -46.390705
        ],
        "type": "Point"
      },
      "properties": {
        "kind": "meetingPoint",
        "observationStatus": "estimated"
      },
      "type": "Feature"
    },
    {
      "geometry": {
        "coordinates": [
          [
            [
              -62.612029,
              -43.301227
            ],
            [
              -63.031724,
              -43.438347
            ],
            [
              -63.43006,
              -43.603402
            ],
            [
              -63.803202,
              -43.794802
            ],
            [
              -64.147556,
              -44.010705
            ],
            [
              -64.459805,
              -44.249031
            ],
            [
              -64.736943,
              -44.507484
            ],
            [
              -64.976301,
              -44.783577
            ],
            [
              -65.175573,
              -45.074649
            ],
            [
              -65.332841,
              -45.377898
            ],
            [
              -65.446589,
              -45.690403
            ],
            [
              -65.515723,
              -46.009154
            ],
            [
              -65.539576,
              -46.331083
            ],
            [
              -65.517919,
              -46.653088
            ],
            [
              -65.45096,
              -46.972068
            ],
            [
              -65.339345,
              -47.284952
            ],
            [
              -65.184148,
              -47.588726
            ],
            [
              -64.986863,
              -47.880465
            ],
            [
              -64.749391,
              -48.157359
            ],
            [
              -64.474019,
              -48.416741
            ],
            [
              -64.163399,
              -48.656114
            ],
            [
              -63.820521,
              -48.873172
            ],
            [
              -63.448689,
              -49.065825
            ],
            [
              -63.051483,
              -49.232217
            ],
            [
              -62.632729,
              -49.370746
            ],
            [
              -62.196459,
              -49.480078
            ],
            [
              -61.746875,
              -49.559161
            ],
            [
              -61.288306,
              -49.607231
            ],
            [
              -60.825169,
              -49.623827
            ],
            [
              -60.361925,
              -49.608788
            ],
            [
              -59.903033,
              -49.56226
            ],
            [
              -59.452915,
              -49.48469
            ],
            [
              -59.015904,
              -49.376826
            ],
            [
              -58.59621,
              -49.239706
            ],
            [
              -58.197873,
              -49.074652
            ],
            [
              -57.824732,
              -48.883251
            ],
            [
              -57.480378,
              -48.667348
            ],
            [
              -57.168128,
              -48.429022
            ],
            [
              -56.89099,
              -48.170569
            ],
            [
              -56.651632,
              -47.894477
            ],
            [
              -56.45236,
              -47.603404
            ],
            [
              -56.295092,
              -47.300156
            ],
            [
              -56.181344,
              -46.987651
            ],
            [
              -56.11221,
              -46.668899
            ],
            [
              -56.088357,
              -46.34697
            ],
            [
              -56.110014,
              -46.024965
            ],
            [
              -56.176973,
              -45.705985
            ],
            [
              -56.288588,
              -45.393101
            ],
            [
              -56.443786,
              -45.089327
            ],
            [
              -56.64107,
              -44.797588
            ],
            [
              -56.878542,
              -44.520695
            ],
            [
              -57.153914,
              -44.261312
            ],
            [
              -57.464535,
              -44.021939
            ],
            [
              -57.807412,
              -43.804881
            ],
            [
              -58.179244,
              -43.612228
            ],
            [
              -58.57645,
              -43.445836
            ],
            [
              -58.995204,
              -43.307307
            ],
            [
              -59.431474,
              -43.197975
            ],
            [
              -59.881059,
              -43.118893
            ],
            [
              -60.339627,
              -43.070822
            ],
            [
              -60.802764,
              -43.054227
            ],
            [
              -61.266009,
              -43.069265
            ],
            [
              -61.7249,
              -43.115793
            ],
            [
              -62.175018,
              -43.193363
            ],
            [
              -62.612029,
              -43.301227
            ]
          ]
        ],
        "type": "Polygon"
      },
      "properties": {
        "kind": "reachableSet",
        "observationStatus": "estimated",
        "vessel": "A"
      },
      "type": "Feature"
    },
    {
      "geometry": {
        "coordinates": [
          [
            [
              -60.900667,
              -43.152792
            ],
            [
              -61.356048,
              -43.174399
            ],
            [
              -61.806188,
              -43.226908
            ],
            [
              -62.246751,
              -43.309815
            ],
            [
              -62.673495,
              -43.42232
            ],
            [
              -63.082309,
              -43.563341
            ],
            [
              -63.469256,
              -43.731519
            ],
            [
              -63.83061,
              -43.925235
            ],
            [
              -64.162891,
              -44.142623
            ],
            [
              -64.462898,
              -44.381589
            ],
            [
              -64.727743,
              -44.639833
            ],
            [
              -64.954875,
              -44.914866
            ],
            [
              -65.142107,
              -45.204041
            ],
            [
              -65.287635,
              -45.504572
            ],
            [
              -65.390058,
              -45.813566
            ],
            [
              -65.448389,
              -46.128045
            ],
            [
              -65.462067,
              -46.444983
            ],
            [
              -65.43096,
              -46.761326
            ],
            [
              -65.355367,
              -47.074028
            ],
            [
              -65.236017,
              -47.380077
            ],
            [
              -65.074059,
              -47.676527
            ],
            [
              -64.871053,
              -47.960521
            ],
            [
              -64.628954,
              -48.229325
            ],
            [
              -64.350093,
              -48.480351
            ],
            [
              -64.037155,
              -48.71118
            ],
            [
              -63.693156,
              -48.919591
            ],
            [
              -63.321407,
              -49.103575
            ],
            [
              -62.925489,
              -49.26136
            ],
            [
              -62.509214,
              -49.391428
            ],
            [
              -62.076592,
              -49.492526
            ],
            [
              -61.631789,
              -49.563679
            ],
            [
              -61.179088,
              -49.604203
            ],
            [
              -60.72285,
              -49.613708
            ],
            [
              -60.267468,
              -49.592101
            ],
            [
              -59.817328,
              -49.539592
            ],
            [
              -59.376765,
              -49.456685
            ],
            [
              -58.950022,
              -49.34418
            ],
            [
              -58.541208,
              -49.203159
            ],
            [
              -58.154261,
              -49.034981
            ],
            [
              -57.792907,
              -48.841265
            ],
            [
              -57.460626,
              -48.623877
            ],
            [
              -57.160619,
              -48.384911
            ],
            [
              -56.895773,
              -48.126667
            ],
            [
              -56.668641,
              -47.851634
            ],
            [
              -56.48141,
              -47.562459
            ],
            [
              -56.335882,
              -47.261928
            ],
            [
              -56.233459,
              -46.952934
            ],
            [
              -56.175128,
              -46.638455
            ],
            [
              -56.16145,
              -46.321517
            ],
            [
              -56.192557,
              -46.005174
            ],
            [
              -56.268149,
              -45.692472
            ],
            [
              -56.387499,
              -45.386423
            ],
            [
              -56.549457,
              -45.089973
            ],
            [
              -56.752463,
              -44.805979
            ],
            [
              -56.994563,
              -44.537175
            ],
            [
              -57.273424,
              -44.286149
            ],
            [
              -57.586361,
              -44.05532
            ],
            [
              -57.930361,
              -43.846909
            ],
            [
              -58.30211,
              -43.662925
            ],
            [
              -58.698028,
              -43.50514
            ],
            [
              -59.114303,
              -43.375072
            ],
            [
              -59.546925,
              -43.273974
            ],
            [
              -59.991728,
              -43.202821
            ],
            [
              -60.444428,
              -43.162297
            ],
            [
              -60.900667,
              -43.152792
            ]
          ]
        ],
        "type": "Polygon"
      },
      "properties": {
        "kind": "reachableSet",
        "observationStatus": "estimated",
        "vessel": "B"
      },
      "type": "Feature"
    }
  ],
  "properties": {
    "dateline": false
  },
  "type": "FeatureCollection"
}
