{
  "features": [
    {
      "geometry": {
        "coordinates": [
          -60.709508,
          -47.13764
        ],
        "type": "Point"
      },
      "properties": {
        "mmsi": "412424702",
        "observationStatus": "observed",
        "role": "off",
        "time": "2018-03-16T18:06:49Z",
        "vessel": "A"
      },
      "type": "Feature"
    },
    {
      "geometry": {
        "coordinates": [
          -60.71944,
          -47.192
        ],
        "type": "Point"
      },
      "properties": {
        "mmsi": "412200335",
        "observationStatus": "observed",
        "role": "off",
        "time": "2018-03-16T18:27:35Z",
        "vessel": "B"
      },
      "type": "Feature"
    },
    {
      "geometry": {
        "coordinates": [
          -60.734787,
          -47.18081
        ],
        "type": "Point"
      },
      "properties": {
        "mmsi": "412200335",
        "observationStatus": "observed",
        "role": "on",
        "time": "2018-03-17T10:02:57Z",
        "vessel": "B"
      },
      "type": "Feature"
    },
    {
      "geometry": {
        "coordinates": [
          -60.751028,
          -47.188182
        ],
        "type": "Point"
      },
      "properties": {
        "mmsi": "412424702",
        "observationStatus": "observed",
        "role": "on",
        "time": "2018-03-17T10:04:39Z",
        "vessel": "A"
      },
      "type": "Feature"
    },
    {
      "geometry": {
        "coordinates": [
          [
            -60.709508,
            -47.13764
          ],
          [
            -60.724046,
            -47.191961
          ],
          [
            -60.751028,
            -47.188182
          ]
        ],
        "type": "LineString"
      },
      "properties": {
        "confidence": "low",
        "lineStyle": "dashed",
        "observationStatus": "estimated",
        "source": "reachable-set heuristic",
        "vessel": "A"
      },
      "type": "Feature"
    },
    {
      "geometry": {
        "coordinates": [
          [
            -60.71944,
            -47.192
          ],
          [
            -60.724046,
            -47.191961
          ],
          [
            -60.734787,
            -47.18081
          ]
        ],
        "type": "LineString"
      },
      "properties": {
        "confidence": "low",
        "lineStyle": "dashed",
        "observationStatus": "estimated",
        "source": "reachable-set heuristic",
        "vessel": "B"
      },
      "type": "Feature"
    },
    {
      "geometry": {
        "coordinates": [
          -60.724046,
          -47.191961
        ],
        "type": "Point"
      },
      "properties": {
        "kind": "meetingPoint",
        "observationStatus": "estimated"
      },
      "type": "Feature"
    },
    {
      "geometry": {
        "coordinates": [
          [
            [
              -61.807085,
              -48.473704
            ],
            [
              -61.614243,
              -48.539628
            ],
            [
              -61.412888,
              -48.592294
            ],
            [
              -61.204959,
              -48.631194
            ],
            [
              -60.992459,
              -48.655954
            ],
            [
              -60.777433,
              -48.666334
            ],
            [
              -60.561953,
              -48.662236
            ],
            [
              -60.348094,
              -48.643699
            ],
            [
              -60.137916,
              -48.610901
            ],
            [
              -59.933442,
              -48.564158
            ],
            [
              -59.736642,
              -48.50392
            ],
            [
              -59.549412,
              -48.430768
            ],
            [
              -59.373553,
              -48.345405
            ],
            [
              -59.210761,
              -48.248654
            ],
            [
              -59.062602,
              -48.141448
            ],
            [
              -58.930504,
              -48.024817
            ],
            [
              -58.815738,
              -47.899885
            ],
            [
              -58.719411,
              -47.767856
            ],
            [
              -58.642449,
              -47.630001
            ],
            [
              -58.585594,
              -47.487648
            ],
            [
              -58.549393,
              -47.342168
            ],
            [
              -58.534196,
              -47.194961
            ],
            [
              -58.540147,
              -47.047445
            ],
            [
              -58.567191,
              -46.901041
            ],
            [
              -58.615067,
              -46.75716
            ],
            [
              -58.683313,
              -46.617186
            ],
            [
              -58.771272,
              -46.482467
            ],
            [
              -58.878097,
              -46.354302
            ],
            [
              -59.00276,
              -46.233924
            ],
            [
              -59.14406,
              -46.122493
            ],
            [
              -59.300636,
              -46.021081
            ],
            [
              -59.47098,
              -45.930666
            ],
            [
              -59.653451,
              -45.852118
            ],
            [
              -59.846293,
              -45.786194
            ],
            [
              -60.047648,
              -45.733528
            ],
            [
              -60.255577,
              -45.694628
            ],
            [
              -60.468078,
              -45.669868
            ],
            [
              -60.683104,
              -45.659487
            ],
            [
              -60.898584,
              -45.663585
            ],
            [
              -61.112442,
              -45.682123
            ],
            [
              -61.322621,
              -45.714921
            ],
            [
              -61.527095,
              -45.761664
            ],
            [
              -61.723894,
              -45.821901
            ],
            [
              -61.911125,
              -45.895054
            ],
            [
              -62.086983,
              -45.980417
            ],
            [
              -62.249776,
              -46.077167
            ],
            [
              -62.397935,
              -46.184374
            ],
            [
              -62.530033,
              -46.301005
            ],
            [
              -62.644798,
              -46.425936
            ],
            [
              -62.741126,
              -46.557965
            ],
            [
              -62.818088,
              -46.69582
            ],
            [
              -62.874943,
              -46.838173
            ],
            [
              -62.911143,
              -46.983654
            ],
            [
              -62.926341,
              -47.130861
            ],
            [
              -62.920389,
              -47.278377
            ],
            [
              -62.893345,
              -47.42478
            ],
            [
              -62.84547,
              -47.568662
            ],
            [
              -62.777224,
              -47.708636
            ],
            [
              -62.689265,
              -47.843354
            ],
            [
              -62.582439,
              -47.97152
            ],
            [
              -62.457776,
              -48.091898
            ],
            [
              -62.316477,
              -48.203329
            ],
            [
              -62.159901,
              -48.304741
            ],
            [
              -61.989557,
              -48.395156
            ],
            [
              -61.807085,
              -48.473704
            ]
          ]
        ],
        "type": "Polygon"
      },
      "properties": {
        "kind": "reachableSet",
        "observationStatus": "estimated",
        "vessel": "A"
      },
      "type": "Feature"
    },
    {
      "geometry": {
        "coordinates": [
          [
            [
              -62.193446,
              -46.117231
            ],
            [
              -62.339545,
              -46.220719
            ],
            [
              -62.470115,
              -46.333507
            ],
            [
              -62.5839,
              -46.454508
            ],
            [
              -62.679803,
              -46.582559
            ],
            [
              -62.7569,
              -46.716424
            ],
            [
              -62.814449,
              -46.854816
            ],
            [
              -62.851896,
              -46.996401
            ],
            [
              -62.868881,
              -47.139816
            ],
            [
              -62.865238,
              -47.28368
            ],
            [
              -62.841005,
              -47.426607
            ],
            [
              -62.796414,
              -47.567221
            ],
            [
              -62.731894,
              -47.704167
            ],
            [
              -62.648067,
              -47.836127
            ],
            [
              -62.54574,
              -47.961829
            ],
            [
              -62.425899,
              -48.080064
            ],
            [
              -62.289697,
              -48.189693
            ],
            [
              -62.138447,
              -48.289659
            ],
            [
              -61.973605,
              -48.379
            ],
            [
              -61.796759,
              -48.456856
            ],
            [
              -61.609612,
              -48.522477
            ],
            [
              -61.413965,
              -48.575231
            ],
            [
              -61.211704,
              -48.61461
            ],
            [
              -61.004776,
              -48.640234
            ],
            [
              -60.795174,
              -48.651857
            ],
            [
              -60.584916,
              -48.649367
            ],
            [
              -60.376028,
              -48.632788
            ],
            [
              -60.170521,
              -48.602279
            ],
            [
              -59.970374,
              -48.558135
            ],
            [
              -59.777515,
              -48.50078
            ],
            [
              -59.593801,
              -48.430767
            ],
            [
              -59.421002,
              -48.34877
            ],
            [
              -59.260781,
              -48.255579
            ],
            [
              -59.114682,
              -48.152091
            ],
            [
              -58.984111,
              -48.039303
            ],
            [
              -58.870327,
              -47.918302
            ],
            [
              -58.774424,
              -47.790251
            ],
            [
              -58.697327,
              -47.656386
            ],
            [
              -58.639778,
              -47.517994
            ],
            [
              -58.60233,
              -47.376409
            ],
            [
              -58.585346,
              -47.232994
            ],
            [
              -58.588988,
              -47.08913
            ],
            [
              -58.613222,
              -46.946203
            ],
            [
              -58.657813,
              -46.805589
            ],
            [
              -58.722333,
              -46.668643
            ],
            [
              -58.80616,
              -46.536683
            ],
            [
              -58.908487,
              -46.410981
            ],
            [
              -59.028328,
              -46.292746
            ],
            [
              -59.164529,
              -46.183117
            ],
            [
              -59.315779,
              -46.083151
            ],
            [
              -59.480621,
              -45.99381
            ],
            [
              -59.657467,
              -45.915954
            ],
            [
              -59.844615,
              -45.850333
            ],
            [
              -60.040262,
              -45.797579
            ],
            [
              -60.242523,
              -45.7582
            ],
            [
              -60.449451,
              -45.732576
            ],
            [
              -60.659053,
              -45.720953
            ],
            [
              -60.869311,
              -45.723443
            ],
            [
              -61.078199,
              -45.740022
            ],
            [
              -61.283706,
              -45.770531
            ],
            [
              -61.483853,
              -45.814675
            ],
            [
              -61.676712,
              -45.87203
            ],
            [
              -61.860425,
              -45.942043
            ],
            [
              -62.033225,
              -46.02404
            ],
            [
              -62.193446,
              -46.117231
            ]
          ]
        ],
        "type": "Polygon"
      },
      "properties": {
        "kind": "reachableSet",
        "observationStatus": "estimated",
        "vessel": "B"
      },
      "type": "Feature"
    }
  ],
  "properties": {
    "dateline": false
  },
  "type": "FeatureCollection"
}
