{
  "features": [
    {
      "geometry": {
        "coordinates": [
          163.896963,
          47.758478
        ],
        "type": "Point"
      },
      "properties": {
        "mmsi": "416241900",
        "observationStatus": "observed",
        "role": "off",
        "time": "2018-07-30T02:35:20Z",
        "vessel": "A"
      },
      "type": "Feature"
    },
    {
      "geometry": {
        "coordinates": [
          163.976273,
          47.688557
        ],
        "type": "Point"
      },
      "properties": {
        "mmsi": "412331039",
        "observationStatus": "observed",
        "role": "off",
        "time": "2018-07-30T03:11:58Z",
        "vessel": "B"
      },
      "type": "Feature"
    },
    {
      "geometry": {
        "coordinates": [
          163.334053,
          48.182643
        ],
        "type": "Point"
      },
      "properties": {
        "mmsi": "416241900",
        "observationStatus": "observed",
        "role": "on",
        "time": "2018-07-30T16:43:11Z",
        "vessel": "A"
      },
      "type": "Feature"
    },
    {
      "geometry": {
        "coordinates": [
          163.35293,
          48.227957
        ],
        "type": "Point"
      },
      "properties": {
        "mmsi": "412331039",
        "observationStatus": "observed",
        "role": "on",
        "time": "2018-07-30T17:22:49Z",
        "vessel": "B"
      },
      "type": "Feature"
    },
    {
      "geometry": {
        "coordinates": [
          [
            163.896963,
            47.758478
          ],
          [
            163.62294,
            47.958257
          ],
          [
            163.334053,
            48.182643
          ]
        ],
        "type": "LineString"
      },
      "properties": {
        "confidence": "low",
        "lineStyle": "dashed",
        "observationStatus": "estimated",
        "source": "reachable-set heuristic",
        "vessel": "A"
      },
      "type": "Feature"
    },
    {
      "geometry": {
        "coordinates": [
          [
            163.976273,
            47.688557
          ],
          [
            163.62294,
            47.958257
          ],
          [
            163.35293,
            48.227957
          ]
        ],
        "type": "LineString"
      },
      "properties": {
        "confidence": "low",
        "lineStyle": "dashed",
        "observationStatus": "estimated",
        "source": "reachable-set heuristic",
        "vessel": "B"
      },
      "type": "Feature"
    },
    {
      "geometry": {
        "coordinates": [
          163.62294,
          47.958257
        ],
        "type": "Point"
      },
      "properties": {
        "kind": "meetingPoint",
        "observationStatus": "estimated"
      },
      "type": "Feature"
    },
    {
      "geometry": {
        "coordinates": [
          [
            [
              162.310266,
              48.95409
            ],
            [
              162.176896,
              48.865147
            ],
            [
              162.057381,
              48.767588
            ],
            [
              161.952872,
              48.662354
            ],
            [
              161.864375,
              48.550458
            ],
            [
              161.792742,
              48.432976
            ],
            [
              161.738663,
              48.311042
            ],
            [
              161.70266,
              48.185828
            ],
            [
              161.685078,
              48.058541
            ],
            [
              161.686087,
              47.930407
            ],
            [
              161.705678,
              47.80266
            ],
            [
              161.743661,
              47.67653
            ],
            [
              161.799672,
              47.553231
            ],
            [
              161.873169,
              47.433951
            ],
            [
              161.963447,
              47.31984
            ],
            [
              162.069635,
              47.211995
            ],
            [
              162.19071,
              47.111455
            ],
            [
              162.325507,
              47.019189
            ],
            [
              162.472727,
              46.936086
            ],
            [
              162.630953,
              46.862945
            ],
            [
              162.798661,
              46.800471
            ],
            [
              162.974235,
              46.749265
            ],
            [
              163.155986,
              46.709821
            ],
            [
              163.342161,
              46.682519
            ],
            [
              163.53097,
              46.667622
            ],
            [
              163.720592,
              46.665272
            ],
            [
              163.909202,
              46.675493
            ],
            [
              164.094984,
              46.698186
            ],
            [
              164.276149,
              46.733133
            ],
            [
              164.450951,
              46.779997
            ],
            [
              164.617707,
              46.838327
            ],
            [
              164.774811,
              46.907561
            ],
            [
              164.920751,
              46.987032
            ],
            [
              165.054121,
              47.075975
            ],
            [
              165.173635,
              47.173533
            ],
            [
              165.278145,
              47.278768
            ],
            [
              165.366642,
              47.390664
            ],
            [
              165.438275,
              47.508145
            ],
            [
              165.492354,
              47.63008
            ],
            [
              165.528357,
              47.755293
            ],
            [
              165.545939,
              47.88258
            ],
            [
              165.54493,
              48.010714
            ],
            [
              165.525339,
              48.138462
            ],
            [
              165.487355,
              48.264592
            ],
            [
              165.431345,
              48.387891
            ],
            [
              165.357847,
              48.50717
            ],
            [
              165.26757,
              48.621282
            ],
            [
              165.161382,
              48.729127
            ],
            [
              165.040307,
              48.829666
            ],
            [
              164.90551,
              48.921932
            ],
            [
              164.758289,
              49.005036
            ],
            [
              164.600063,
              49.078177
            ],
            [
              164.432356,
              49.140651
            ],
            [
              164.256781,
              49.191857
            ],
            [
              164.075031,
              49.2313
            ],
            [
              163.888855,
              49.258603
            ],
            [
              163.700047,
              49.2735
            ],
            [
              163.510425,
              49.27585
            ],
            [
              163.321814,
              49.265629
            ],
            [
              163.136032,
              49.242935
            ],
            [
              162.954868,
              49.207989
            ],
            [
              162.780066,
              49.161124
            ],
            [
              162.61331,
              49.102795
            ],
            [
              162.456205,
              49.033561
            ],
            [
              162.310266,
              48.95409
            ]
          ]
        ],
        "type": "Polygon"
      },
      "properties": {
        "kind": "reachableSet",
        "observationStatus": "estimated",
        "vessel": "A"
      },
      "type": "Feature"
    },
    {
      "geometry": {
        "coordinates": [
          [
            [
              162.45707,
              49.003175
            ],
            [
              162.316121,
              48.921048
            ],
            [
              162.18816,
              48.829649
            ],
            [
              162.074417,
              48.729858
            ],
            [
              161.975989,
              48.622636
            ],
            [
              161.893823,
              48.509015
            ],
            [
              161.82871,
              48.390091
            ],
            [
              161.781279,
              48.267008
            ],
            [
              161.751984,
              48.140951
            ],
            [
              161.741109,
              48.013135
            ],
            [
              161.748759,
              47.88479
            ],
            [
              161.774859,
              47.757153
            ],
            [
              161.819158,
              47.631452
            ],
            [
              161.88123,
              47.508899
            ],
            [
              161.960477,
              47.390674
            ],
            [
              162.056135,
              47.277914
            ],
            [
              162.167284,
              47.171707
            ],
            [
              162.292853,
              47.073075
            ],
            [
              162.431633,
              46.982967
            ],
            [
              162.582286,
              46.902252
            ],
            [
              162.743363,
              46.831707
            ],
            [
              162.913312,
              46.772011
            ],
            [
              163.090497,
              46.723739
            ],
            [
              163.27321,
              46.687356
            ],
            [
              163.459692,
              46.663213
            ],
            [
              163.648148,
              46.651542
            ],
            [
              163.836763,
              46.652455
            ],
            [
              164.023719,
              46.665944
            ],
            [
              164.207217,
              46.691879
            ],
            [
              164.38549,
              46.730009
            ],
            [
              164.556819,
              46.779968
            ],
            [
              164.719556,
              46.841275
            ],
            [
              164.872134,
              46.913338
            ],
            [
              165.013082,
              46.995465
            ],
            [
              165.141044,
              47.086864
            ],
            [
              165.254786,
              47.186656
            ],
            [
              165.353214,
              47.293878
            ],
            [
              165.43538,
              47.407498
            ],
            [
              165.500493,
              47.526422
            ],
            [
              165.547925,
              47.649506
            ],
            [
              165.577219,
              47.775562
            ],
            [
              165.588094,
              47.903379
            ],
            [
              165.580445,
              48.031723
            ],
            [
              165.554344,
              48.15936
            ],
            [
              165.510045,
              48.285061
            ],
            [
              165.447973,
              48.407614
            ],
            [
              165.368726,
              48.52584
            ],
            [
              165.273068,
              48.638599
            ],
            [
              165.161919,
              48.744806
            ],
            [
              165.03635,
              48.843439
            ],
            [
              164.897571,
              48.933546
            ],
            [
              164.746917,
              49.014261
            ],
            [
              164.58584,
              49.084807
            ],
            [
              164.415891,
              49.144503
            ],
            [
              164.238707,
              49.192774
            ],
            [
              164.055993,
              49.229157
            ],
            [
              163.869511,
              49.2533
            ],
            [
              163.681055,
              49.264971
            ],
            [
              163.49244,
              49.264058
            ],
            [
              163.305484,
              49.250569
            ],
            [
              163.121986,
              49.224635
            ],
            [
              162.943714,
              49.186504
            ],
            [
              162.772384,
              49.136545
            ],
            [
              162.609647,
              49.075239
            ],
            [
              162.45707,
              49.003175
            ]
          ]
        ],
        "type": "Polygon"
      },
      "properties": {
        "kind": "reachableSet",
        "observationStatus": "estimated",
        "vessel": "B"
      },
      "type": "Feature"
    }
  ],
  "properties": {
    "dateline": false
  },
  "type": "FeatureCollection"
}
