{
  "features": [
    {
      "geometry": {
        "coordinates": [
          -60.727487,
          -47.141427
        ],
        "type": "Point"
      },
      "properties": {
        "mmsi": "412421182",
        "observationStatus": "observed",
        "role": "off",
        "time": "2019-03-12T18:40:17Z",
        "vessel": "A"
      },
      "type": "Feature"
    },
    {
      "geometry": {
        "coordinates": [
          -60.743448,
          -47.137248
        ],
        "type": "Point"
      },
      "properties": {
        "mmsi": "412200336",
        "observationStatus": "observed",
        "role": "off",
        "time": "2019-03-12T18:59:03Z",
        "vessel": "B"
      },
      "type": "Feature"
    },
    {
      "geometry": {
        "coordinates": [
          -60.741488,
          -47.204253
        ],
        "type": "Point"
      },
      "properties": {
        "mmsi": "412200336",
        "observationStatus": "observed",
        "role": "on",
        "time": "2019-03-13T07:33:22Z",
        "vessel": "B"
      },
      "type": "Feature"
    },
    {
      "geometry": {
        "coordinates": [
          -60.736317,
          -47.246917
        ],
        "type": "Point"
      },
      "properties": {
        "mmsi": "412421182",
        "observationStatus": "observed",
        "role": "on",
        "time": "2019-03-13T07:58:07Z",
        "vessel": "A"
      },
      "type": "Feature"
    },
    {
      "geometry": {
        "coordinates": [
          [
            -60.727487,
            -47.141427
          ],
          [
            -60.741843,
            -47.192083
          ],
          [
            -60.736317,
            -47.246917
          ]
        ],
        "type": "LineString"
      },
      "properties": {
        "confidence": "low",
        "lineStyle": "dashed",
        "observationStatus": "estimated",
        "source": "reachable-set heuristic",
        "vessel": "A"
      },
      "type": "Feature"
    },
    {
      "geometry": {
        "coordinates": [
          [
            -60.743448,
            -47.137248
          ],
          [
            -60.741843,
            -47.192083
          ],
          [
            -60.741488,
            -47.204253
          ]
        ],
        "type": "LineString"
      },
      "properties": {
        "confidence": "low",
        "lineStyle": "dashed",
        "observationStatus": "estimated",
        "source": "reachable-set heuristic",
        "vessel": "B"
      },
      "type": "Feature"
    },
    {
      "geometry": {
        "coordinates": [
          -60.741843,
          -47.192083
        ],
        "type": "Point"
      },
      "properties": {
        "kind": "meetingPoint",
        "observationStatus": "estimated"
      },
      "type": "Feature"
    },
    {
      "geometry": {
        "coordinates": [
          [
            [
              -60.835178,
              -48.427989
            ],
            [
              -60.658069,
              -48.428967
            ],
            [
              -60.48167,
              -48.418053
            ],
            [
              -60.307682,
              -48.395353
            ],
            [
              -60.137779,
              -48.361084
            ],
            [
              -59.973598,
              -48.315577
            ],
            [
              -59.816719,
              -48.259271
            ],
            [
              -59.668655,
              -48.192707
            ],
            [
              -59.53083,
              -48.116527
            ],
            [
              -59.404572,
              -48.031464
            ],
            [
              -59.291097,
              -47.938337
            ],
            [
              -59.191497,
              -47.838044
            ],
            [
              -59.106733,
              -47.731549
            ],
            [
              -59.03762,
              -47.61988
            ],
            [
              -58.984823,
              -47.504111
            ],
            [
              -58.948852,
              -47.385356
            ],
            [
              -58.930053,
              -47.264761
            ],
            [
              -58.928607,
              -47.143486
            ],
            [
              -58.944527,
              -47.022699
            ],
            [
              -58.977661,
              -46.903563
            ],
            [
              -59.027689,
              -46.787226
            ],
            [
              -59.094129,
              -46.674808
            ],
            [
              -59.176342,
              -46.567392
            ],
            [
              -59.273536,
              -46.466012
            ],
            [
              -59.384775,
              -46.371645
            ],
            [
              -59.508987,
              -46.285199
            ],
            [
              -59.644977,
              -46.207507
            ],
            [
              -59.791435,
              -46.139317
            ],
            [
              -59.946949,
              -46.081286
            ],
            [
              -60.110023,
              -46.033973
            ],
            [
              -60.279087,
              -45.997833
            ],
            [
              -60.452511,
              -45.973214
            ],
            [
              -60.628625,
              -45.960354
            ],
            [
              -60.805735,
              -45.959376
            ],
            [
              -60.982133,
              -45.97029
            ],
            [
              -61.156122,
              -45.992991
            ],
            [
              -61.326024,
              -46.027259
            ],
            [
              -61.490206,
              -46.072766
            ],
            [
              -61.647084,
              -46.129072
            ],
            [
              -61.795149,
              -46.195636
            ],
            [
              -61.932974,
              -46.271817
            ],
            [
              -62.059232,
              -46.35688
            ],
            [
              -62.172707,
              -46.450006
            ],
            [
              -62.272306,
              -46.5503
            ],
            [
              -62.357071,
              -46.656794
            ],
            [
              -62.426184,
              -46.768464
            ],
            [
              -62.47898,
              -46.884233
            ],
            [
              -62.514951,
              -47.002987
            ],
            [
              -62.53375,
              -47.123582
            ],
            [
              -62.535197,
              -47.244858
            ],
            [
              -62.519276,
              -47.365645
            ],
            [
              -62.486143,
              -47.48478
            ],
            [
              -62.436115,
              -47.601117
            ],
            [
              -62.369674,
              -47.713535
            ],
            [
              -62.287461,
              -47.820951
            ],
            [
              -62.190267,
              -47.922331
            ],
            [
              -62.079028,
              -48.016698
            ],
            [
              -61.954816,
              -48.103144
            ],
            [
              -61.818826,
              -48.180836
            ],
            [
              -61.672369,
              -48.249026
            ],
            [
              -61.516854,
              -48.307057
            ],
            [
              -61.35378,
              -48.354371
            ],
            [
              -61.184717,
              -48.390511
            ],
            [
              -61.011293,
              -48.415129
            ],
            [
              -60.835178,
              -48.427989
            ]
          ]
        ],
        "type": "Polygon"
      },
      "properties": {
        "kind": "reachableSet",
        "observationStatus": "estimated",
        "vessel": "A"
      },
      "type": "Feature"
    },
    {
      "geometry": {
        "coordinates": [
          [
            [
              -60.708457,
              -48.333468
            ],
            [
              -60.542177,
              -48.325589
            ],
            [
              -60.377825,
              -48.306588
            ],
            [
              -60.216985,
              -48.276648
            ],
            [
              -60.061206,
              -48.236057
            ],
            [
              -59.911988,
              -48.185207
            ],
            [
              -59.770768,
              -48.124588
            ],
            [
              -59.638905,
              -48.054782
            ],
            [
              -59.517671,
              -47.976463
            ],
            [
              -59.408232,
              -47.890384
            ],
            [
              -59.311643,
              -47.797375
            ],
            [
              -59.228833,
              -47.698331
            ],
            [
              -59.1606,
              -47.594206
            ],
            [
              -59.107602,
              -47.486003
            ],
            [
              -59.070348,
              -47.374764
            ],
            [
              -59.049198,
              -47.261561
            ],
            [
              -59.044355,
              -47.147482
            ],
            [
              -59.055865,
              -47.033628
            ],
            [
              -59.083619,
              -46.921094
            ],
            [
              -59.127348,
              -46.810965
            ],
            [
              -59.186631,
              -46.704301
            ],
            [
              -59.260899,
              -46.602128
            ],
            [
              -59.349434,
              -46.505432
            ],
            [
              -59.451385,
              -46.415144
            ],
            [
              -59.56577,
              -46.332132
            ],
            [
              -59.691488,
              -46.257197
            ],
            [
              -59.827326,
              -46.191059
            ],
            [
              -59.971978,
              -46.134357
            ],
            [
              -60.124051,
              -46.087635
            ],
            [
              -60.282079,
              -46.051345
            ],
            [
              -60.444541,
              -46.025835
            ],
            [
              -60.609872,
              -46.011351
            ],
            [
              -60.77648,
              -46.008033
            ],
            [
              -60.94276,
              -46.015913
            ],
            [
              -61.107112,
              -46.034914
            ],
            [
              -61.267951,
              -46.064854
            ],
            [
              -61.423731,
              -46.105444
            ],
            [
              -61.572949,
              -46.156294
            ],
            [
              -61.714169,
              -46.216914
            ],
            [
              -61.846031,
              -46.286719
            ],
            [
              -61.967266,
              -46.365039
            ],
            [
              -62.076704,
              -46.451117
            ],
            [
              -62.173294,
              -46.544127
            ],
            [
              -62.256104,
              -46.643171
            ],
            [
              -62.324336,
              -46.747295
            ],
            [
              -62.377335,
              -46.855498
            ],
            [
              -62.414588,
              -46.966737
            ],
            [
              -62.435739,
              -47.079941
            ],
            [
              -62.440582,
              -47.194019
            ],
            [
              -62.429071,
              -47.307874
            ],
            [
              -62.401318,
              -47.420407
            ],
            [
              -62.357589,
              -47.530537
            ],
            [
              -62.298305,
              -47.637201
            ],
            [
              -62.224038,
              -47.739373
            ],
            [
              -62.135503,
              -47.836069
            ],
            [
              -62.033551,
              -47.926358
            ],
            [
              -61.919166,
              -48.00937
            ],
            [
              -61.793449,
              -48.084305
            ],
            [
              -61.65761,
              -48.150443
            ],
            [
              -61.512958,
              -48.207145
            ],
            [
              -61.360886,
              -48.253866
            ],
            [
              -61.202858,
              -48.290157
            ],
            [
              -61.040396,
              -48.315667
            ],
            [
              -60.875065,
              -48.33015
            ],
            [
              -60.708457,
              -48.333468
            ]
          ]
        ],
        "type": "Polygon"
      },
      "properties": {
        "kind": "reachableSet",
        "observationStatus": "estimated",
        "vessel": "B"
      },
      "type": "Feature"
    }
  ],
  "properties": {
    "dateline": false
  },
  "type": "FeatureCollection"
}
