{
  "features": [
    {
      "geometry": {
        "coordinates": [
          -61.124553,
          -47.133815
        ],
        "type": "Point"
      },
      "properties": {
        "mmsi": "701000681",
        "observationStatus": "observed",
        "role": "off",
        "time": "2017-03-09T03:22:03Z",
        "vessel": "A"
      },
      "type": "Feature"
    },
    {
      "geometry": {
        "coordinates": [
          -61.188262,
          -47.066128
        ],
        "type": "Point"
      },
      "properties": {
        "mmsi": "701000691",
        "observationStatus": "observed",
        "role": "off",
        "time": "2017-03-09T03:22:22Z",
        "vessel": "B"
      },
      "type": "Feature"
    },
    {
      "geometry": {
        "coordinates": [
          -61.095803,
          -47.094248
        ],
        "type": "Point"
      },
      "properties": {
        "mmsi": "701000681",
        "observationStatus": "observed",
        "role": "on",
        "time": "2017-03-09T16:01:01Z",
        "vessel": "A"
      },
      "type": "Feature"
    },
    {
      "geometry": {
        "coordinates": [
          -61.15204,
          -47.04655
        ],
        "type": "Point"
      },
      "properties": {
        "mmsi": "701000691",
        "observationStatus": "observed",
        "role": "on",
        "time": "2017-03-09T16:01:07Z",
        "vessel": "B"
      },
      "type": "Feature"
    },
    {
      "geometry": {
        "coordinates": [
          [
            -61.124553,
            -47.133815
          ],
          [
            -61.142032,
            -47.085155
          ],
          [
            -61.095803,
            -47.094248
          ]
        ],
        "type": "LineString"
      },
      "properties": {
        "confidence": "low",
        "lineStyle": "dashed",
        "observationStatus": "estimated",
        "source": "reachable-set heuristic",
        "vessel": "A"
      },
      "type": "Feature"
    },
    {
      "geometry": {
        "coordinates": [
          [
            -61.188262,
            -47.066128
          ],
          [
            -61.142032,
            -47.085155
          ],
          [
            -61.15204,
            -47.04655
          ]
        ],
        "type": "LineString"
      },
      "properties": {
        "confidence": "low",
        "lineStyle": "dashed",
        "observationStatus": "estimated",
        "source": "reachable-set heuristic",
        "vessel": "B"
      },
      "type": "Feature"
    },
    {
      "geometry": {
        "coordinates": [
          -61.142032,
          -47.085155
        ],
        "type": "Point"
      },
      "properties": {
        "kind": "meetingPoint",
        "observationStatus": "estimated"
      },
      "type": "Feature"
    },
    {
      "geometry": {
        "coordinates": [
          [
            [
              -60.348649,
              -46.065991
            ],
            [
              -60.50222,
              -46.019905
            ],
            [
              -60.661646,
              -45.984355
            ],
            [
              -60.825391,
              -45.959685
            ],
            [
              -60.991879,
              -45.946132
            ],
            [
              -61.159506,
              -45.943827
            ],
            [
              -61.326658,
              -45.952791
            ],
            [
              -61.491725,
              -45.972939
            ],
            [
              -61.653118,
              -46.004076
            ],
            [
              -61.809282,
              -46.045902
            ],
            [
              -61.958713,
              -46.098015
            ],
            [
              -62.099973,
              -46.159913
            ],
            [
              -62.2317,
              -46.231
            ],
            [
              -62.352626,
              -46.31059
            ],
            [
              -62.461587,
              -46.397919
            ],
            [
              -62.557533,
              -46.492143
            ],
            [
              -62.63954,
              -46.592357
            ],
            [
              -62.706819,
              -46.697595
            ],
            [
              -62.758721,
              -46.806844
            ],
            [
              -62.794746,
              -46.91905
            ],
            [
              -62.814549,
              -47.033135
            ],
            [
              -62.817937,
              -47.147999
            ],
            [
              -62.804879,
              -47.262535
            ],
            [
              -62.7755,
              -47.375642
            ],
            [
              -62.730083,
              -47.486229
            ],
            [
              -62.669065,
              -47.593231
            ],
            [
              -62.593034,
              -47.695619
            ],
            [
              -62.502723,
              -47.792405
            ],
            [
              -62.399001,
              -47.882659
            ],
            [
              -62.282866,
              -47.96551
            ],
            [
              -62.155438,
              -48.040161
            ],
            [
              -62.017944,
              -48.105893
            ],
            [
              -61.871707,
              -48.162072
            ],
            [
              -61.718137,
              -48.208159
            ],
            [
              -61.558711,
              -48.243708
            ],
            [
              -61.394966,
              -48.268378
            ],
            [
              -61.228478,
              -48.281931
            ],
            [
              -61.060851,
              -48.284237
            ],
            [
              -60.893699,
              -48.275272
            ],
            [
              -60.728631,
              -48.255125
            ],
            [
              -60.567239,
              -48.223988
            ],
            [
              -60.411075,
              -48.182161
            ],
            [
              -60.261643,
              -48.130048
            ],
            [
              -60.120384,
              -48.06815
            ],
            [
              -59.988657,
              -47.997064
            ],
            [
              -59.867731,
              -47.917473
            ],
            [
              -59.75877,
              -47.830145
            ],
            [
              -59.662824,
              -47.73592
            ],
            [
              -59.580817,
              -47.635706
            ],
            [
              -59.513538,
              -47.530468
            ],
            [
              -59.461636,
              -47.42122
            ],
            [
              -59.42561,
              -47.309013
            ],
            [
              -59.405808,
              -47.194928
            ],
            [
              -59.402419,
              -47.080065
            ],
            [
              -59.415478,
              -46.965528
            ],
            [
              -59.444857,
              -46.852422
            ],
            [
              -59.490274,
              -46.741835
            ],
            [
              -59.551292,
              -46.634832
            ],
            [
              -59.627322,
              -46.532445
            ],
            [
              -59.717634,
              -46.435658
            ],
            [
              -59.821356,
              -46.345405
            ],
            [
              -59.93749,
              -46.262554
            ],
            [
              -60.064918,
              -46.187903
            ],
            [
              -60.202413,
              -46.122171
            ],
            [
              -60.348649,
              -46.065991
            ]
          ]
        ],
        "type": "Polygon"
      },
      "properties": {
        "kind": "reachableSet",
        "observationStatus": "estimated",
        "vessel": "A"
      },
      "type": "Feature"
    },
    {
      "geometry": {
        "coordinates": [
          [
            [
              -59.829941,
              -46.331936
            ],
            [
              -59.939904,
              -46.24533
            ],
            [
              -60.061715,
              -46.166535
            ],
            [
              -60.194201,
              -46.096309
            ],
            [
              -60.336086,
              -46.035328
            ],
            [
              -60.486004,
              -45.984181
            ],
            [
              -60.64251,
              -45.943359
            ],
            [
              -60.804098,
              -45.913255
            ],
            [
              -60.969211,
              -45.89416
            ],
            [
              -61.136259,
              -45.886258
            ],
            [
              -61.303634,
              -45.889624
            ],
            [
              -61.469723,
              -45.904226
            ],
            [
              -61.632927,
              -45.929923
            ],
            [
              -61.791674,
              -45.966469
            ],
            [
              -61.944436,
              -46.01351
            ],
            [
              -62.089741,
              -46.070595
            ],
            [
              -62.226189,
              -46.137173
            ],
            [
              -62.352468,
              -46.212603
            ],
            [
              -62.46736,
              -46.296158
            ],
            [
              -62.569759,
              -46.387035
            ],
            [
              -62.658679,
              -46.484357
            ],
            [
              -62.733264,
              -46.587188
            ],
            [
              -62.792796,
              -46.694537
            ],
            [
              -62.8367,
              -46.80537
            ],
            [
              -62.864554,
              -46.918621
            ],
            [
              -62.876091,
              -47.033197
            ],
            [
              -62.871198,
              -47.147997
            ],
            [
              -62.849924,
              -47.261914
            ],
            [
              -62.812472,
              -47.373851
            ],
            [
              -62.759204,
              -47.48273
            ],
            [
              -62.690632,
              -47.587502
            ],
            [
              -62.607417,
              -47.68716
            ],
            [
              -62.510361,
              -47.780742
            ],
            [
              -62.400398,
              -47.867348
            ],
            [
              -62.278586,
              -47.946143
            ],
            [
              -62.1461,
              -48.016369
            ],
            [
              -62.004215,
              -48.07735
            ],
            [
              -61.854298,
              -48.128497
            ],
            [
              -61.697791,
              -48.16932
            ],
            [
              -61.536204,
              -48.199423
            ],
            [
              -61.371091,
              -48.218518
            ],
            [
              -61.204042,
              -48.226421
            ],
            [
              -61.036668,
              -48.223055
            ],
            [
              -60.870579,
              -48.208453
            ],
            [
              -60.707375,
              -48.182755
            ],
            [
              -60.548628,
              -48.14621
            ],
            [
              -60.395866,
              -48.099168
            ],
            [
              -60.250561,
              -48.042083
            ],
            [
              -60.114112,
              -47.975505
            ],
            [
              -59.987834,
              -47.900075
            ],
            [
              -59.872942,
              -47.81652
            ],
            [
              -59.770543,
              -47.725643
            ],
            [
              -59.681622,
              -47.628321
            ],
            [
              -59.607037,
              -47.52549
            ],
            [
              -59.547506,
              -47.418141
            ],
            [
              -59.503602,
              -47.307308
            ],
            [
              -59.475747,
              -47.194058
            ],
            [
              -59.464211,
              -47.079481
            ],
            [
              -59.469103,
              -46.964682
            ],
            [
              -59.490378,
              -46.850765
            ],
            [
              -59.52783,
              -46.738828
            ],
            [
              -59.581098,
              -46.629949
            ],
            [
              -59.64967,
              -46.525176
            ],
            [
              -59.732884,
              -46.425518
            ],
            [
              -59.829941,
              -46.331936
            ]
          ]
        ],
        "type": "Polygon"
      },
      "properties": {
        "kind": "reachableSet",
        "observationStatus": "estimated",
        "vessel": "B"
      },
      "type": "Feature"
    }
  ],
  "properties": {
    "dateline": false
  },
  "type": "FeatureCollection"
}
