{
  "features": [
    {
      "geometry": {
        "coordinates": [
          149.929253,
          40.473787
        ],
        "type": "Point"
      },
      "properties": {
        "mmsi": "416004853",
        "observationStatus": "observed",
        "role": "off",
        "time": "2018-10-25T03:05:38Z",
        "vessel": "A"
      },
      "type": "Feature"
    },
    {
      "geometry": {
        "coordinates": [
          150.016773,
          40.453387
        ],
        "type": "Point"
      },
      "properties": {
        "mmsi": "416236900",
        "observationStatus": "observed",
        "role": "off",
        "time": "2018-10-25T03:06:16Z",
        "vessel": "B"
      },
      "type": "Feature"
    },
    {
      "geometry": {
        "coordinates": [
          149.68032,
          40.61381
        ],
        "type": "Point"
      },
      "properties": {
        "mmsi": "416004853",
        "observationStatus": "observed",
        "role": "on",
        "time": "2018-10-25T17:20:47Z",
        "vessel": "A"
      },
      "type": "Feature"
    },
    {
      "geometry": {
        "coordinates": [
          149.71564,
          40.563693
        ],
        "type": "Point"
      },
      "properties": {
        "mmsi": "416236900",
        "observationStatus": "observed",
        "role": "on",
        "time": "2018-10-25T17:50:15Z",
        "vessel": "B"
      },
      "type": "Feature"
    },
    {
      "geometry": {
        "coordinates": [
          [
            149.929253,
            40.473787
          ],
          [
            149.848547,
            40.533598
          ],
          [
            149.68032,
            40.61381
          ]
        ],
        "type": "LineString"
      },
      "properties": {
        "confidence": "low",
        "lineStyle": "dashed",
        "observationStatus": "estimated",
        "source": "reachable-set heuristic",
        "vessel": "A"
      },
      "type": "Feature"
    },
    {
      "geometry": {
        "coordinates": [
          [
            150.016773,
            40.453387
          ],
          [
            149.848547,
            40.533598
          ],
          [
            149.71564,
            40.563693
          ]
        ],
        "type": "LineString"
      },
      "properties": {
        "confidence": "low",
        "lineStyle": "dashed",
        "observationStatus": "estimated",
        "source": "reachable-set heuristic",
        "vessel": "B"
      },
      "type": "Feature"
    },
    {
      "geometry": {
        "coordinates": [
          149.848547,
          40.533598
        ],
        "type": "Point"
      },
      "properties": {
        "kind": "meetingPoint",
        "observationStatus": "estimated"
      },
      "type": "Feature"
    },
    {
      "geometry": {
        "coordinates": [
          [
            [
              148.402242,
              41.33272
            ],
            [
              148.308321,
              41.22416
            ],
            [
              148.228812,
              41.109048
            ],
            [
              148.16448,
              40.988492
            ],
            [
              148.115945,
              40.863654
            ],
            [
              148.083674,
              40.735735
            ],
            [
              148.067979,
              40.605968
            ],
            [
              148.06901,
              40.475602
            ],
            [
              148.086758,
              40.345893
            ],
            [
              148.121051,
              40.21809
            ],
            [
              148.171559,
              40.093423
            ],
            [
              148.237797,
              39.973094
            ],
            [
              148.319125,
              39.858261
            ],
            [
              148.414761,
              39.75003
            ],
            [
              148.523784,
              39.649444
            ],
            [
              148.645143,
              39.557471
            ],
            [
              148.777671,
              39.474996
            ],
            [
              148.92009,
              39.402815
            ],
            [
              149.071029,
              39.341622
            ],
            [
              149.229035,
              39.292007
            ],
            [
              149.392586,
              39.254447
            ],
            [
              149.560106,
              39.229304
            ],
            [
              149.729983,
              39.21682
            ],
            [
              149.90058,
              39.217116
            ],
            [
              150.070255,
              39.230189
            ],
            [
              150.237373,
              39.255913
            ],
            [
              150.400325,
              39.294039
            ],
            [
              150.557541,
              39.344202
            ],
            [
              150.707508,
              39.405917
            ],
            [
              150.848782,
              39.47859
            ],
            [
              150.980001,
              39.561523
            ],
            [
              151.099902,
              39.653915
            ],
            [
              151.207331,
              39.754877
            ],
            [
              151.301252,
              39.863436
            ],
            [
              151.380762,
              39.978548
            ],
            [
              151.445094,
              40.099104
            ],
            [
              151.493629,
              40.223943
            ],
            [
              151.525899,
              40.351861
            ],
            [
              151.541595,
              40.481629
            ],
            [
              151.540563,
              40.611994
            ],
            [
              151.522816,
              40.741704
            ],
            [
              151.488523,
              40.869507
            ],
            [
              151.438014,
              40.994173
            ],
            [
              151.371777,
              41.114503
            ],
            [
              151.290448,
              41.229335
            ],
            [
              151.194812,
              41.337566
            ],
            [
              151.085789,
              41.438153
            ],
            [
              150.96443,
              41.530126
            ],
            [
              150.831902,
              41.6126
            ],
            [
              150.689483,
              41.684782
            ],
            [
              150.538544,
              41.745975
            ],
            [
              150.380538,
              41.79559
            ],
            [
              150.216987,
              41.83315
            ],
            [
              150.049467,
              41.858293
            ],
            [
              149.87959,
              41.870776
            ],
            [
              149.708993,
              41.87048
            ],
            [
              149.539319,
              41.857408
            ],
            [
              149.372201,
              41.831684
            ],
            [
              149.209249,
              41.793557
            ],
            [
              149.052032,
              41.743395
            ],
            [
              148.902065,
              41.68168
            ],
            [
              148.760791,
              41.609006
            ],
            [
              148.629572,
              41.526074
            ],
            [
              148.509671,
              41.433682
            ],
            [
              148.402242,
              41.33272
            ]
          ]
        ],
        "type": "Polygon"
      },
      "properties": {
        "kind": "reachableSet",
        "observationStatus": "estimated",
        "vessel": "A"
      },
      "type": "Feature"
    },
    {
      "geometry": {
        "coordinates": [
          [
            [
              148.239833,
              41.104289
            ],
            [
              148.171707,
              40.979919
            ],
            [
              148.1199,
              40.85101
            ],
            [
              148.084911,
              40.718803
            ],
            [
              148.067077,
              40.58457
            ],
            [
              148.066569,
              40.449606
            ],
            [
              148.083393,
              40.315209
            ],
            [
              148.117387,
              40.182674
            ],
            [
              148.168222,
              40.053277
            ],
            [
              148.23541,
              39.928265
            ],
            [
              148.318303,
              39.808841
            ],
            [
              148.416104,
              39.696155
            ],
            [
              148.52787,
              39.591294
            ],
            [
              148.652524,
              39.495265
            ],
            [
              148.788868,
              39.408996
            ],
            [
              148.935586,
              39.333315
            ],
            [
              149.091267,
              39.268952
            ],
            [
              149.254411,
              39.216528
            ],
            [
              149.423447,
              39.176546
            ],
            [
              149.596747,
              39.149392
            ],
            [
              149.772642,
              39.135327
            ],
            [
              149.949438,
              39.134487
            ],
            [
              150.125432,
              39.14688
            ],
            [
              150.29893,
              39.172387
            ],
            [
              150.468261,
              39.210761
            ],
            [
              150.631794,
              39.261634
            ],
            [
              150.787953,
              39.324515
            ],
            [
              150.935236,
              39.398799
            ],
            [
              151.072223,
              39.48377
            ],
            [
              151.197596,
              39.578611
            ],
            [
              151.310146,
              39.682407
            ],
            [
              151.408791,
              39.794159
            ],
            [
              151.49258,
              39.912791
            ],
            [
              151.560706,
              40.037161
            ],
            [
              151.612513,
              40.16607
            ],
            [
              151.647502,
              40.298277
            ],
            [
              151.665336,
              40.43251
            ],
            [
              151.665844,
              40.567474
            ],
            [
              151.64902,
              40.701871
            ],
            [
              151.615027,
              40.834406
            ],
            [
              151.564191,
              40.963803
            ],
            [
              151.497003,
              41.088815
            ],
            [
              151.41411,
              41.208239
            ],
            [
              151.31631,
              41.320925
            ],
            [
              151.204544,
              41.425786
            ],
            [
              151.079889,
              41.521815
            ],
            [
              150.943546,
              41.608084
            ],
            [
              150.796827,
              41.683765
            ],
            [
              150.641146,
              41.748128
            ],
            [
              150.478002,
              41.800552
            ],
            [
              150.308966,
              41.840534
            ],
            [
              150.135666,
              41.867688
            ],
            [
              149.959772,
              41.881753
            ],
            [
              149.782975,
              41.882593
            ],
            [
              149.606981,
              41.8702
            ],
            [
              149.433483,
              41.844693
            ],
            [
              149.264152,
              41.806319
            ],
            [
              149.10062,
              41.755446
            ],
            [
              148.94446,
              41.692565
            ],
            [
              148.797178,
              41.618281
            ],
            [
              148.66019,
              41.53331
            ],
            [
              148.534818,
              41.438469
            ],
            [
              148.422267,
              41.334673
            ],
            [
              148.323622,
              41.222921
            ],
            [
              148.239833,
              41.104289
            ]
          ]
        ],
        "type": "Polygon"
      },
      "properties": {
        "kind": "reachableSet",
        "observationStatus": "estimated",
        "vessel": "B"
      },
      "type": "Feature"
    }
  ],
  "properties": {
    "dateline": false
  },
  "type": "FeatureCollection"
}
