{
  "features": [
    {
      "geometry": {
        "coordinates": [
          -60.661357,
          -47.354942
        ],
        "type": "Point"
      },
      "properties": {
        "mmsi": "412420382",
        "observationStatus": "observed",
        "role": "off",
        "time": "2019-03-17T18:03:28Z",
        "vessel": "A"
      },
      "type": "Feature"
    },
    {
      "geometry": {
        "coordinates": [
          -60.707838,
          -47.298603
        ],
        "type": "Point"
      },
      "properties": {
        "mmsi": "412420801",
        "observationStatus": "observed",
        "role": "off",
        "time": "2019-03-17T19:00:42Z",
        "vessel": "B"
      },
      "type": "Feature"
    },
    {
      "geometry": {
        "coordinates": [
          -60.744888,
          -47.245575
        ],
        "type": "Point"
      },
      "properties": {
        "mmsi": "412420801",
        "observationStatus": "observed",
        "role": "on",
        "time": "2019-03-18T09:35:00Z",
        "vessel": "B"
      },
      "type": "Feature"
    },
    {
      "geometry": {
        "coordinates": [
          -60.694867,
          -47.189362
        ],
        "type": "Point"
      },
      "properties": {
        "mmsi": "412420382",
        "observationStatus": "observed",
        "role": "on",
        "time": "2019-03-18T09:35:19Z",
        "vessel": "A"
      },
      "type": "Feature"
    },
    {
      "geometry": {
        "coordinates": [
          [
            -60.661357,
            -47.354942
          ],
          [
            -60.703122,
            -47.2597
          ],
          [
            -60.694867,
            -47.189362
          ]
        ],
        "type": "LineString"
      },
      "properties": {
        "confidence": "low",
        "lineStyle": "dashed",
        "observationStatus": "estimated",
        "source": "reachable-set heuristic",
        "vessel": "A"
      },
      "type": "Feature"
    },
    {
      "geometry": {
        "coordinates": [
          [
            -60.707838,
            -47.298603
          ],
          [
            -60.703122,
            -47.2597
          ],
          [
            -60.744888,
            -47.245575
          ]
        ],
        "type": "LineString"
      },
      "properties": {
        "confidence": "low",
        "lineStyle": "dashed",
        "observationStatus": "estimated",
        "source": "reachable-set heuristic",
        "vessel": "B"
      },
      "type": "Feature"
    },
    {
      "geometry": {
        "coordinates": [
          -60.703122,
          -47.2597
        ],
        "type": "Point"
      },
      "properties": {
        "kind": "meetingPoint",
        "observationStatus": "estimated"
      },
      "type": "Feature"
    },
    {
      "geometry": {
        "coordinates": [
          [
            [
              -60.970864,
              -45.825599
            ],
            [
              -61.176673,
              -45.852134
            ],
            [
              -61.377679,
              -45.892345
            ],
            [
              -61.571949,
              -45.945844
            ],
            [
              -61.757611,
              -46.012117
            ],
            [
              -61.932876,
              -46.090524
            ],
            [
              -62.096057,
              -46.180311
            ],
            [
              -62.245583,
              -46.280612
            ],
            [
              -62.380013,
              -46.390463
            ],
            [
              -62.498053,
              -46.508805
            ],
            [
              -62.598566,
              -46.634499
            ],
            [
              -62.680583,
              -46.766333
            ],
            [
              -62.743316,
              -46.903039
            ],
            [
              -62.78616,
              -47.0433
            ],
            [
              -62.808702,
              -47.185764
            ],
            [
              -62.810726,
              -47.32906
            ],
            [
              -62.792211,
              -47.471809
            ],
            [
              -62.753336,
              -47.612634
            ],
            [
              -62.694476,
              -47.750181
            ],
            [
              -62.616197,
              -47.883124
            ],
            [
              -62.519253,
              -48.010183
            ],
            [
              -62.404578,
              -48.130134
            ],
            [
              -62.273276,
              -48.241822
            ],
            [
              -62.126612,
              -48.344172
            ],
            [
              -61.965998,
              -48.436198
            ],
            [
              -61.792981,
              -48.517013
            ],
            [
              -61.609227,
              -48.58584
            ],
            [
              -61.416506,
              -48.642015
            ],
            [
              -61.216674,
              -48.684998
            ],
            [
              -61.011655,
              -48.714374
            ],
            [
              -60.803424,
              -48.729861
            ],
            [
              -60.593987,
              -48.731309
            ],
            [
              -60.385359,
              -48.718704
            ],
            [
              -60.179551,
              -48.692169
            ],
            [
              -59.978544,
              -48.651958
            ],
            [
              -59.784274,
              -48.598459
            ],
            [
              -59.598613,
              -48.532187
            ],
            [
              -59.423347,
              -48.45378
            ],
            [
              -59.260166,
              -48.363993
            ],
            [
              -59.11064,
              -48.263691
            ],
            [
              -58.97621,
              -48.15384
            ],
            [
              -58.858171,
              -48.035498
            ],
            [
              -58.757658,
              -47.909804
            ],
            [
              -58.67564,
              -47.77797
            ],
            [
              -58.612907,
              -47.641264
            ],
            [
              -58.570063,
              -47.501004
            ],
            [
              -58.547521,
              -47.358539
            ],
            [
              -58.545498,
              -47.215243
            ],
            [
              -58.564012,
              -47.072495
            ],
            [
              -58.602887,
              -46.931669
            ],
            [
              -58.661747,
              -46.794122
            ],
            [
              -58.740026,
              -46.66118
            ],
            [
              -58.83697,
              -46.534121
            ],
            [
              -58.951645,
              -46.414169
            ],
            [
              -59.082947,
              -46.302481
            ],
            [
              -59.229611,
              -46.200131
            ],
            [
              -59.390225,
              -46.108105
            ],
            [
              -59.563242,
              -46.02729
            ],
            [
              -59.746996,
              -45.958463
            ],
            [
              -59.939717,
              -45.902288
            ],
            [
              -60.139549,
              -45.859306
            ],
            [
              -60.344568,
              -45.829929
            ],
            [
              -60.552799,
              -45.814443
            ],
            [
              -60.762237,
              -45.812995
            ],
            [
              -60.970864,
              -45.825599
            ]
          ]
        ],
        "type": "Polygon"
      },
      "properties": {
        "kind": "reachableSet",
        "observationStatus": "estimated",
        "vessel": "A"
      },
      "type": "Feature"
    },
    {
      "geometry": {
        "coordinates": [
          [
            [
              -61.586375,
              -46.041185
            ],
            [
              -61.758809,
              -46.104683
            ],
            [
              -61.921299,
              -46.179424
            ],
            [
              -62.072282,
              -46.264688
            ],
            [
              -62.210303,
              -46.359653
            ],
            [
              -62.334032,
              -46.463406
            ],
            [
              -62.442279,
              -46.574947
            ],
            [
              -62.534,
              -46.693201
            ],
            [
              -62.608314,
              -46.817031
            ],
            [
              -62.664502,
              -46.945243
            ],
            [
              -62.702026,
              -47.076603
            ],
            [
              -62.720523,
              -47.209846
            ],
            [
              -62.719815,
              -47.343688
            ],
            [
              -62.699909,
              -47.47684
            ],
            [
              -62.660996,
              -47.608021
            ],
            [
              -62.603452,
              -47.735966
            ],
            [
              -62.527831,
              -47.859444
            ],
            [
              -62.43486,
              -47.977266
            ],
            [
              -62.325436,
              -48.088296
            ],
            [
              -62.200612,
              -48.191465
            ],
            [
              -62.06159,
              -48.285781
            ],
            [
              -61.909709,
              -48.370334
            ],
            [
              -61.746432,
              -48.444311
            ],
            [
              -61.573331,
              -48.506998
            ],
            [
              -61.392073,
              -48.557793
            ],
            [
              -61.204404,
              -48.596205
            ],
            [
              -61.012131,
              -48.621865
            ],
            [
              -60.817106,
              -48.634527
            ],
            [
              -60.621208,
              -48.634067
            ],
            [
              -60.426322,
              -48.620491
            ],
            [
              -60.234325,
              -48.593929
            ],
            [
              -60.047067,
              -48.554637
            ],
            [
              -59.866351,
              -48.502993
            ],
            [
              -59.693918,
              -48.439495
            ],
            [
              -59.531427,
              -48.364755
            ],
            [
              -59.380445,
              -48.279491
            ],
            [
              -59.242424,
              -48.184525
            ],
            [
              -59.118695,
              -48.080772
            ],
            [
              -59.010448,
              -47.969232
            ],
            [
              -58.918726,
              -47.850977
            ],
            [
              -58.844413,
              -47.727147
            ],
            [
              -58.788224,
              -47.598935
            ],
            [
              -58.750701,
              -47.467575
            ],
            [
              -58.732204,
              -47.334332
            ],
            [
              -58.732912,
              -47.200491
            ],
            [
              -58.752818,
              -47.067338
            ],
            [
              -58.79173,
              -46.936157
            ],
            [
              -58.849274,
              -46.808212
            ],
            [
              -58.924896,
              -46.684734
            ],
            [
              -59.017866,
              -46.566913
            ],
            [
              -59.12729,
              -46.455883
            ],
            [
              -59.252115,
              -46.352713
            ],
            [
              -59.391137,
              -46.258397
            ],
            [
              -59.543018,
              -46.173844
            ],
            [
              -59.706295,
              -46.099868
            ],
            [
              -59.879396,
              -46.03718
            ],
            [
              -60.060654,
              -45.986386
            ],
            [
              -60.248323,
              -45.947973
            ],
            [
              -60.440595,
              -45.922313
            ],
            [
              -60.63562,
              -45.909651
            ],
            [
              -60.831519,
              -45.910111
            ],
            [
              -61.026405,
              -45.923687
            ],
            [
              -61.218401,
              -45.950249
            ],
            [
              -61.405659,
              -45.989541
            ],
            [
              -61.586375,
              -46.041185
            ]
          ]
        ],
        "type": "Polygon"
      },
      "properties": {
        "kind": "reachableSet",
        "observationStatus": "estimated",
        "vessel": "B"
      },
      "type": "Feature"
    }
  ],
  "properties": {
    "dateline": false
  },
  "type": "FeatureCollection"
}
