{
  "features": [
    {
      "geometry": {
        "coordinates": [
          -60.601782,
          -45.600437
        ],
        "type": "Point"
      },
      "properties": {
        "mmsi": "412280935",
        "observationStatus": "observed",
        "role": "off",
        "time": "2018-02-03T17:17:26Z",
        "vessel": "A"
      },
      "type": "Feature"
    },
    {
      "geometry": {
        "coordinates": [
          -60.511922,
          -45.645575
        ],
        "type": "Point"
      },
      "properties": {
        "mmsi": "412326884",
        "observationStatus": "observed",
        "role": "off",
        "time": "2018-02-03T18:02:35Z",
        "vessel": "B"
      },
      "type": "Feature"
    },
    {
      "geometry": {
        "coordinates": [
          -60.622587,
          -45.665047
        ],
        "type": "Point"
      },
      "properties": {
        "mmsi": "412280935",
        "observationStatus": "observed",
        "role": "on",
        "time": "2018-02-04T09:49:53Z",
        "vessel": "A"
      },
      "type": "Feature"
    },
    {
      "geometry": {
        "coordinates": [
          -60.593282,
          -45.577572
        ],
        "type": "Point"
      },
      "properties": {
        "mmsi": "412326884",
        "observationStatus": "observed",
        "role": "on",
        "time": "2018-02-04T09:52:44Z",
        "vessel": "B"
      },
      "type": "Feature"
    },
    {
      "geometry": {
        "coordinates": [
          [
            -60.601782,
            -45.600437
          ],
          [
            -60.511209,
            -45.646461
          ],
          [
            -60.622587,
            -45.665047
          ]
        ],
        "type": "LineString"
      },
      "properties": {
        "confidence": "low",
        "lineStyle": "dashed",
        "observationStatus": "estimated",
        "source": "reachable-set heuristic",
        "vessel": "A"
      },
      "type": "Feature"
    },
    {
      "geometry": {
        "coordinates": [
          [
            -60.511922,
            -45.645575
          ],
          [
            -60.511209,
            -45.646461
          ],
          [
            -60.593282,
            -45.577572
          ]
        ],
        "type": "LineString"
      },
      "properties": {
        "confidence": "low",
        "lineStyle": "dashed",
        "observationStatus": "estimated",
        "source": "reachable-set heuristic",
        "vessel": "B"
      },
      "type": "Feature"
    },
    {
      "geometry": {
        "coordinates": [
          -60.511209,
          -45.646461
        ],
        "type": "Point"
      },
      "properties": {
        "kind": "meetingPoint",
        "observationStatus": "estimated"
      },
      "type": "Feature"
    },
    {
      "geometry": {
        "coordinates": [
          [
            [
              -61.102657,
              -47.155908
            ],
            [
              -60.888274,
              -47.18241
            ],
            [
              -60.671232,
              -47.193989
            ],
            [
              -60.453621,
              -47.190531
            ],
            [
              -60.237537,
              -47.172072
            ],
            [
              -60.025061,
              -47.138787
            ],
            [
              -59.818239,
              -47.090999
            ],
            [
              -59.619064,
              -47.029167
            ],
            [
              -59.429453,
              -46.953886
            ],
            [
              -59.251232,
              -46.865882
            ],
            [
              -59.086118,
              -46.766003
            ],
            [
              -58.935701,
              -46.655209
            ],
            [
              -58.801429,
              -46.534569
            ],
            [
              -58.684596,
              -46.405243
            ],
            [
              -58.586326,
              -46.268478
            ],
            [
              -58.507567,
              -46.12559
            ],
            [
              -58.449076,
              -45.977956
            ],
            [
              -58.411418,
              -45.826997
            ],
            [
              -58.394953,
              -45.674168
            ],
            [
              -58.399842,
              -45.52094
            ],
            [
              -58.426037,
              -45.368788
            ],
            [
              -58.473286,
              -45.219178
            ],
            [
              -58.541133,
              -45.073551
            ],
            [
              -58.628926,
              -44.93331
            ],
            [
              -58.735819,
              -44.799804
            ],
            [
              -58.860782,
              -44.67432
            ],
            [
              -59.002612,
              -44.558066
            ],
            [
              -59.159943,
              -44.452162
            ],
            [
              -59.33126,
              -44.357627
            ],
            [
              -59.514914,
              -44.275373
            ],
            [
              -59.709134,
              -44.206191
            ],
            [
              -59.912051,
              -44.150747
            ],
            [
              -60.121711,
              -44.109575
            ],
            [
              -60.336094,
              -44.083073
            ],
            [
              -60.553137,
              -44.071495
            ],
            [
              -60.770748,
              -44.074952
            ],
            [
              -60.986832,
              -44.093412
            ],
            [
              -61.199307,
              -44.126696
            ],
            [
              -61.406129,
              -44.174484
            ],
            [
              -61.605304,
              -44.236317
            ],
            [
              -61.794915,
              -44.311597
            ],
            [
              -61.973136,
              -44.399601
            ],
            [
              -62.13825,
              -44.49948
            ],
            [
              -62.288667,
              -44.610274
            ],
            [
              -62.422939,
              -44.730915
            ],
            [
              -62.539772,
              -44.86024
            ],
            [
              -62.638042,
              -44.997005
            ],
            [
              -62.716801,
              -45.139893
            ],
            [
              -62.775292,
              -45.287527
            ],
            [
              -62.812951,
              -45.438486
            ],
            [
              -62.829415,
              -45.591315
            ],
            [
              -62.824526,
              -45.744544
            ],
            [
              -62.798331,
              -45.896696
            ],
            [
              -62.751082,
              -46.046305
            ],
            [
              -62.683235,
              -46.191932
            ],
            [
              -62.595442,
              -46.332174
            ],
            [
              -62.488549,
              -46.465679
            ],
            [
              -62.363586,
              -46.591163
            ],
            [
              -62.221756,
              -46.707417
            ],
            [
              -62.064425,
              -46.813321
            ],
            [
              -61.893108,
              -46.907856
            ],
            [
              -61.709455,
              -46.99011
            ],
            [
              -61.515234,
              -47.059293
            ],
            [
              -61.312317,
              -47.114736
            ],
            [
              -61.102657,
              -47.155908
            ]
          ]
        ],
        "type": "Polygon"
      },
      "properties": {
        "kind": "reachableSet",
        "observationStatus": "estimated",
        "vessel": "A"
      },
      "type": "Feature"
    },
    {
      "geometry": {
        "coordinates": [
          [
            [
              -61.916729,
              -44.471391
            ],
            [
              -62.068777,
              -44.571005
            ],
            [
              -62.206223,
              -44.680641
            ],
            [
              -62.327743,
              -44.799241
            ],
            [
              -62.432169,
              -44.925665
            ],
            [
              -62.518492,
              -45.058695
            ],
            [
              -62.585884,
              -45.197049
            ],
            [
              -62.633693,
              -45.339395
            ],
            [
              -62.661461,
              -45.484362
            ],
            [
              -62.668919,
              -45.630555
            ],
            [
              -62.655996,
              -45.776564
            ],
            [
              -62.622816,
              -45.920985
            ],
            [
              -62.569699,
              -46.062426
            ],
            [
              -62.497156,
              -46.199525
            ],
            [
              -62.405886,
              -46.330962
            ],
            [
              -62.296767,
              -46.45547
            ],
            [
              -62.170852,
              -46.571852
            ],
            [
              -62.029351,
              -46.678985
            ],
            [
              -61.873629,
              -46.775839
            ],
            [
              -61.705185,
              -46.86148
            ],
            [
              -61.525641,
              -46.935084
            ],
            [
              -61.336726,
              -46.995941
            ],
            [
              -61.140259,
              -47.043467
            ],
            [
              -60.938133,
              -47.077202
            ],
            [
              -60.732293,
              -47.096823
            ],
            [
              -60.524724,
              -47.10214
            ],
            [
              -60.317423,
              -47.093102
            ],
            [
              -60.112386,
              -47.069796
            ],
            [
              -59.91159,
              -47.032447
            ],
            [
              -59.716966,
              -46.981414
            ],
            [
              -59.53039,
              -46.917188
            ],
            [
              -59.353659,
              -46.840389
            ],
            [
              -59.188474,
              -46.751755
            ],
            [
              -59.036427,
              -46.652141
            ],
            [
              -58.898981,
              -46.542506
            ],
            [
              -58.77746,
              -46.423905
            ],
            [
              -58.673035,
              -46.297482
            ],
            [
              -58.586711,
              -46.164452
            ],
            [
              -58.51932,
              -46.026098
            ],
            [
              -58.47151,
              -45.883752
            ],
            [
              -58.443742,
              -45.738784
            ],
            [
              -58.436284,
              -45.592592
            ],
            [
              -58.449207,
              -45.446582
            ],
            [
              -58.482387,
              -45.302161
            ],
            [
              -58.535505,
              -45.160721
            ],
            [
              -58.608048,
              -45.023622
            ],
            [
              -58.699318,
              -44.892185
            ],
            [
              -58.808436,
              -44.767676
            ],
            [
              -58.934352,
              -44.651295
            ],
            [
              -59.075852,
              -44.544162
            ],
            [
              -59.231574,
              -44.447308
            ],
            [
              -59.400018,
              -44.361667
            ],
            [
              -59.579563,
              -44.288063
            ],
            [
              -59.768478,
              -44.227205
            ],
            [
              -59.964945,
              -44.17968
            ],
            [
              -60.167071,
              -44.145944
            ],
            [
              -60.37291,
              -44.126323
            ],
            [
              -60.58048,
              -44.121006
            ],
            [
              -60.787781,
              -44.130044
            ],
            [
              -60.992817,
              -44.15335
            ],
            [
              -61.193614,
              -44.1907
            ],
            [
              -61.388237,
              -44.241733
            ],
            [
              -61.574813,
              -44.305958
            ],
            [
              -61.751544,
              -44.382758
            ],
            [
              -61.916729,
              -44.471391
            ]
          ]
        ],
        "type": "Polygon"
      },
      "properties": {
        "kind": "reachableSet",
        "observationStatus": "estimated",
        "vessel": "B"
      },
      "type": "Feature"
    }
  ],
  "properties": {
    "dateline": false
  },
  "type": "FeatureCollection"
}
