{
  "features": [
    {
      "geometry": {
        "coordinates": [
          -57.860148,
          -42.048858
        ],
        "type": "Point"
      },
      "properties": {
        "mmsi": "412328763",
        "observationStatus": "observed",
        "role": "off",
        "time": "2018-12-21T19:02:38Z",
        "vessel": "A"
      },
      "type": "Feature"
    },
    {
      "geometry": {
        "coordinates": [
          -57.853427,
          -42.090283
        ],
        "type": "Point"
      },
      "properties": {
        "mmsi": "412328785",
        "observationStatus": "observed",
        "role": "off",
        "time": "2018-12-21T19:47:41Z",
        "vessel": "B"
      },
      "type": "Feature"
    },
    {
      "geometry": {
        "coordinates": [
          -57.97316,
          -42.080963
        ],
        "type": "Point"
      },
      "properties": {
        "mmsi": "412328763",
        "observationStatus": "observed",
        "role": "on",
        "time": "2018-12-22T08:48:15Z",
        "vessel": "A"
      },
      "type": "Feature"
    },
    {
      "geometry": {
        "coordinates": [
          -57.998773,
          -42.090107
        ],
        "type": "Point"
      },
      "properties": {
        "mmsi": "412328785",
        "observationStatus": "observed",
        "role": "on",
        "time": "2018-12-22T08:59:17Z",
        "vessel": "B"
      },
      "type": "Feature"
    },
    {
      "geometry": {
        "coordinates": [
          [
            -57.860148,
            -42.048858
          ],
          [
            -57.940429,
            -42.083576
          ],
          [
            -57.97316,
            -42.080963
          ]
        ],
        "type": "LineString"
      },
      "properties": {
        "confidence": "low",
        "lineStyle": "dashed",
        "observationStatus": "estimated",
        "source": "reachable-set heuristic",
        "vessel": "A"
      },
      "type": "Feature"
    },
    {
      "geometry": {
        "coordinates": [
          [
            -57.853427,
            -42.090283
          ],
          [
            -57.940429,
            -42.083576
          ],
          [
            -57.998773,
            -42.090107
          ]
        ],
        "type": "LineString"
      },
      "properties": {
        "confidence": "low",
        "lineStyle": "dashed",
        "observationStatus": "estimated",
        "source": "reachable-set heuristic",
        "vessel": "B"
      },
      "type": "Feature"
    },
    {
      "geometry": {
        "coordinates": [
          -57.940429,
          -42.083576
        ],
        "type": "Point"
      },
      "properties": {
        "kind": "meetingPoint",
        "observationStatus": "estimated"
      },
      "type": "Feature"
    },
    {
      "geometry": {
        "coordinates": [
          [
            [
              -59.520445,
              -42.520525
            ],
            [
              -59.45301,
              -42.635752
            ],
            [
              -59.370779,
              -42.745482
            ],
            [
              -59.274544,
              -42.848657
            ],
            [
              -59.165232,
              -42.944284
            ],
            [
              -59.043895,
              -43.031443
            ],
            [
              -58.911703,
              -43.109293
            ],
            [
              -58.769927,
              -43.177086
            ],
            [
              -58.619934,
              -43.234167
            ],
            [
              -58.463168,
              -43.279988
            ],
            [
              -58.301139,
              -43.314107
            ],
            [
              -58.135407,
              -43.336196
            ],
            [
              -57.967569,
              -43.346041
            ],
            [
              -57.79924,
              -43.343549
            ],
            [
              -57.632042,
              -43.328742
            ],
            [
              -57.467584,
              -43.301764
            ],
            [
              -57.307452,
              -43.262875
            ],
            [
              -57.153186,
              -43.212448
            ],
            [
              -57.006273,
              -43.15097
            ],
            [
              -56.868128,
              -43.079033
            ],
            [
              -56.740081,
              -42.997329
            ],
            [
              -56.623364,
              -42.906646
            ],
            [
              -56.519103,
              -42.807856
            ],
            [
              -56.4283,
              -42.701911
            ],
            [
              -56.351832,
              -42.589832
            ],
            [
              -56.290433,
              -42.472697
            ],
            [
              -56.244696,
              -42.351635
            ],
            [
              -56.215061,
              -42.227811
            ],
            [
              -56.201813,
              -42.102419
            ],
            [
              -56.20508,
              -41.976666
            ],
            [
              -56.22483,
              -41.851763
            ],
            [
              -56.260874,
              -41.728912
            ],
            [
              -56.312863,
              -41.609297
            ],
            [
              -56.380298,
              -41.49407
            ],
            [
              -56.462529,
              -41.38434
            ],
            [
              -56.558764,
              -41.281165
            ],
            [
              -56.668076,
              -41.185537
            ],
            [
              -56.789413,
              -41.098379
            ],
            [
              -56.921606,
              -41.020528
            ],
            [
              -57.063381,
              -40.952736
            ],
            [
              -57.213374,
              -40.895655
            ],
            [
              -57.37014,
              -40.849834
            ],
            [
              -57.532169,
              -40.815715
            ],
            [
              -57.697901,
              -40.793626
            ],
            [
              -57.86574,
              -40.78378
            ],
            [
              -58.034069,
              -40.786273
            ],
            [
              -58.201267,
              -40.801079
            ],
            [
              -58.365724,
              -40.828057
            ],
            [
              -58.525856,
              -40.866947
            ],
            [
              -58.680122,
              -40.917373
            ],
            [
              -58.827035,
              -40.978851
            ],
            [
              -58.96518,
              -41.050788
            ],
            [
              -59.093228,
              -41.132492
            ],
            [
              -59.209944,
              -41.223176
            ],
            [
              -59.314206,
              -41.321966
            ],
            [
              -59.405008,
              -41.427911
            ],
            [
              -59.481476,
              -41.53999
            ],
            [
              -59.542875,
              -41.657125
            ],
            [
              -59.588612,
              -41.778187
            ],
            [
              -59.618247,
              -41.90201
            ],
            [
              -59.631495,
              -42.027402
            ],
            [
              -59.628228,
              -42.153156
            ],
            [
              -59.608478,
              -42.278059
            ],
            [
              -59.572434,
              -42.40091
            ],
            [
              -59.520445,
              -42.520525
            ]
          ]
        ],
        "type": "Polygon"
      },
      "properties": {
        "kind": "reachableSet",
        "observationStatus": "estimated",
        "vessel": "A"
      },
      "type": "Feature"
    },
    {
      "geometry": {
        "coordinates": [
          [
            [
              -59.566252,
              -42.088201
            ],
            [
              -59.558615,
              -42.208203
            ],
            [
              -59.535257,
              -42.327068
            ],
            [
              -59.496401,
              -42.443652
            ],
            [
              -59.442423,
              -42.556832
            ],
            [
              -59.373841,
              -42.665518
            ],
            [
              -59.291317,
              -42.768663
            ],
            [
              -59.195645,
              -42.865274
            ],
            [
              -59.087747,
              -42.954421
            ],
            [
              -58.968662,
              -43.035245
            ],
            [
              -58.839536,
              -43.106967
            ],
            [
              -58.701613,
              -43.168897
            ],
            [
              -58.556222,
              -43.220439
            ],
            [
              -58.404762,
              -43.261096
            ],
            [
              -58.248692,
              -43.290477
            ],
            [
              -58.089516,
              -43.308298
            ],
            [
              -57.928766,
              -43.314388
            ],
            [
              -57.76799,
              -43.308689
            ],
            [
              -57.608737,
              -43.291255
            ],
            [
              -57.45254,
              -43.262254
            ],
            [
              -57.300904,
              -43.221965
            ],
            [
              -57.155289,
              -43.170777
            ],
            [
              -57.017097,
              -43.109182
            ],
            [
              -56.887659,
              -43.037774
            ],
            [
              -56.768223,
              -42.95724
            ],
            [
              -56.659937,
              -42.868356
            ],
            [
              -56.563845,
              -42.771978
            ],
            [
              -56.480872,
              -42.669034
            ],
            [
              -56.411818,
              -42.560515
            ],
            [
              -56.357347,
              -42.447467
            ],
            [
              -56.317983,
              -42.330979
            ],
            [
              -56.294107,
              -42.212171
            ],
            [
              -56.285948,
              -42.092189
            ],
            [
              -56.293585,
              -41.972187
            ],
            [
              -56.316943,
              -41.853322
            ],
            [
              -56.355799,
              -41.736738
            ],
            [
              -56.409777,
              -41.623558
            ],
            [
              -56.478359,
              -41.514872
            ],
            [
              -56.560883,
              -41.411727
            ],
            [
              -56.656555,
              -41.315116
            ],
            [
              -56.764453,
              -41.225969
            ],
            [
              -56.883538,
              -41.145145
            ],
            [
              -57.012664,
              -41.073423
            ],
            [
              -57.150587,
              -41.011493
            ],
            [
              -57.295978,
              -40.959951
            ],
            [
              -57.447438,
              -40.919294
            ],
            [
              -57.603508,
              -40.889913
            ],
            [
              -57.762684,
              -40.872092
            ],
            [
              -57.923434,
              -40.866002
            ],
            [
              -58.08421,
              -40.871701
            ],
            [
              -58.243463,
              -40.889135
            ],
            [
              -58.39966,
              -40.918136
            ],
            [
              -58.551296,
              -40.958425
            ],
            [
              -58.696911,
              -41.009613
            ],
            [
              -58.835103,
              -41.071208
            ],
            [
              -58.964541,
              -41.142616
            ],
            [
              -59.083977,
              -41.22315
            ],
            [
              -59.192263,
              -41.312034
            ],
            [
              -59.288355,
              -41.408412
            ],
            [
              -59.371328,
              -41.511356
            ],
            [
              -59.440382,
              -41.619875
            ],
            [
              -59.494853,
              -41.732923
            ],
            [
              -59.534217,
              -41.849411
            ],
            [
              -59.558093,
              -41.968219
            ],
            [
              -59.566252,
              -42.088201
            ]
          ]
        ],
        "type": "Polygon"
      },
      "properties": {
        "kind": "reachableSet",
        "observationStatus": "estimated",
        "vessel": "B"
      },
      "type": "Feature"
    }
  ],
  "properties": {
    "dateline": false
  },
  "type": "FeatureCollection"
}
