{
  "features": [
    {
      "geometry": {
        "coordinates": [
          152.101598,
          42.21657
        ],
        "type": "Point"
      },
      "properties": {
        "mmsi": "416004857",
        "observationStatus": "observed",
        "role": "off",
        "time": "2017-09-21T03:59:41Z",
        "vessel": "A"
      },
      "type": "Feature"
    },
    {
      "geometry": {
        "coordinates": [
          152.070445,
          42.25784
        ],
        "type": "Point"
      },
      "properties": {
        "mmsi": "416233800",
        "observationStatus": "observed",
        "role": "off",
        "time": "2017-09-21T04:33:28Z",
        "vessel": "B"
      },
      "type": "Feature"
    },
    {
      "geometry": {
        "coordinates": [
          152.127052,
          42.537108
        ],
        "type": "Point"
      },
      "properties": {
        "mmsi": "416004857",
        "observationStatus": "observed",
        "role": "on",
        "time": "2017-09-21T19:36:31Z",
        "vessel": "A"
      },
      "type": "Feature"
    },
    {
      "geometry": {
        "coordinates": [
          152.192737,
          42.60529
        ],
        "type": "Point"
      },
      "properties": {
        "mmsi": "416233800",
        "observationStatus": "observed",
        "role": "on",
        "time": "2017-09-21T20:22:37Z",
        "vessel": "B"
      },
      "type": "Feature"
    },
    {
      "geometry": {
        "coordinates": [
          [
            152.101598,
            42.21657
          ],
          [
            152.078304,
            42.295235
          ],
          [
            152.127052,
            42.537108
          ]
        ],
        "type": "LineString"
      },
      "properties": {
        "confidence": "low",
        "lineStyle": "dashed",
        "observationStatus": "estimated",
        "source": "reachable-set heuristic",
        "vessel": "A"
      },
      "type": "Feature"
    },
    {
      "geometry": {
        "coordinates": [
          [
            152.070445,
            42.25784
          ],
          [
            152.078304,
            42.295235
          ],
          [
            152.192737,
            42.60529
          ]
        ],
        "type": "LineString"
      },
      "properties": {
        "confidence": "low",
        "lineStyle": "dashed",
        "observationStatus": "estimated",
        "source": "reachable-set heuristic",
        "vessel": "B"
      },
      "type": "Feature"
    },
    {
      "geometry": {
        "coordinates": [
          152.078304,
          42.295235
        ],
        "type": "Point"
      },
      "properties": {
        "kind": "meetingPoint",
        "observationStatus": "estimated"
      },
      "type": "Feature"
    },
    {
      "geometry": {
        "coordinates": [
          [
            [
              152.230745,
              43.842943
            ],
            [
              152.038125,
              43.844319
            ],
            [
              151.846239,
              43.831563
            ],
            [
              151.656935,
              43.804797
            ],
            [
              151.472035,
              43.764279
            ],
            [
              151.293321,
              43.710399
            ],
            [
              151.122514,
              43.643676
            ],
            [
              150.961259,
              43.564753
            ],
            [
              150.811108,
              43.47439
            ],
            [
              150.673508,
              43.373456
            ],
            [
              150.549783,
              43.262925
            ],
            [
              150.441126,
              43.14386
            ],
            [
              150.348583,
              43.017409
            ],
            [
              150.273045,
              42.884788
            ],
            [
              150.21524,
              42.747276
            ],
            [
              150.175724,
              42.606195
            ],
            [
              150.154877,
              42.462907
            ],
            [
              150.152901,
              42.318789
            ],
            [
              150.169815,
              42.17523
            ],
            [
              150.205455,
              42.033613
            ],
            [
              150.259479,
              41.895302
            ],
            [
              150.331366,
              41.761627
            ],
            [
              150.420424,
              41.633878
            ],
            [
              150.525795,
              41.513284
            ],
            [
              150.646464,
              41.401006
            ],
            [
              150.78127,
              41.298126
            ],
            [
              150.928914,
              41.205635
            ],
            [
              151.087974,
              41.124423
            ],
            [
              151.256918,
              41.055273
            ],
            [
              151.43412,
              40.99885
            ],
            [
              151.617872,
              40.955697
            ],
            [
              151.806406,
              40.926231
            ],
            [
              151.997905,
              40.910736
            ],
            [
              152.190525,
              40.909359
            ],
            [
              152.382411,
              40.922115
            ],
            [
              152.571715,
              40.948881
            ],
            [
              152.756615,
              40.9894
            ],
            [
              152.935329,
              41.043279
            ],
            [
              153.106136,
              41.110002
            ],
            [
              153.267391,
              41.188925
            ],
            [
              153.417542,
              41.279289
            ],
            [
              153.555142,
              41.380222
            ],
            [
              153.678867,
              41.490753
            ],
            [
              153.787524,
              41.609818
            ],
            [
              153.880067,
              41.73627
            ],
            [
              153.955605,
              41.86889
            ],
            [
              154.01341,
              42.006403
            ],
            [
              154.052926,
              42.147483
            ],
            [
              154.073773,
              42.290772
            ],
            [
              154.075749,
              42.434889
            ],
            [
              154.058835,
              42.578448
            ],
            [
              154.023195,
              42.720065
            ],
            [
              153.969171,
              42.858377
            ],
            [
              153.897284,
              42.992051
            ],
            [
              153.808226,
              43.1198
            ],
            [
              153.702855,
              43.240394
            ],
            [
              153.582186,
              43.352672
            ],
            [
              153.44738,
              43.455552
            ],
            [
              153.299736,
              43.548043
            ],
            [
              153.140676,
              43.629255
            ],
            [
              152.971732,
              43.698406
            ],
            [
              152.79453,
              43.754829
            ],
            [
              152.610778,
              43.797981
            ],
            [
              152.422244,
              43.827447
            ],
            [
              152.230745,
              43.842943
            ]
          ]
        ],
        "type": "Polygon"
      },
      "properties": {
        "kind": "reachableSet",
        "observationStatus": "estimated",
        "vessel": "A"
      },
      "type": "Feature"
    },
    {
      "geometry": {
        "coordinates": [
          [
            [
              152.638716,
              43.872388
            ],
            [
              152.447609,
              43.902117
            ],
            [
              152.253459,
              43.917684
            ],
            [
              152.058135,
              43.918939
            ],
            [
              151.863519,
              43.90587
            ],
            [
              151.671484,
              43.878602
            ],
            [
              151.48388,
              43.837399
            ],
            [
              151.302514,
              43.782657
            ],
            [
              151.129133,
              43.714903
            ],
            [
              150.965405,
              43.634789
            ],
            [
              150.812909,
              43.543088
            ],
            [
              150.673113,
              43.440683
            ],
            [
              150.547362,
              43.328559
            ],
            [
              150.436868,
              43.207796
            ],
            [
              150.342696,
              43.079558
            ],
            [
              150.265751,
              42.945079
            ],
            [
              150.206776,
              42.805655
            ],
            [
              150.166337,
              42.662629
            ],
            [
              150.144825,
              42.517377
            ],
            [
              150.142447,
              42.371298
            ],
            [
              150.159225,
              42.2258
            ],
            [
              150.194998,
              42.082284
            ],
            [
              150.249422,
              41.942132
            ],
            [
              150.321972,
              41.806692
            ],
            [
              150.411949,
              41.677271
            ],
            [
              150.518488,
              41.555114
            ],
            [
              150.640562,
              41.441398
            ],
            [
              150.776995,
              41.337218
            ],
            [
              150.926473,
              41.243576
            ],
            [
              151.087558,
              41.161376
            ],
            [
              151.258697,
              41.091409
            ],
            [
              151.438243,
              41.034347
            ],
            [
              151.624466,
              40.990742
            ],
            [
              151.815572,
              40.961013
            ],
            [
              152.009723,
              40.945446
            ],
            [
              152.205047,
              40.944191
            ],
            [
              152.399663,
              40.95726
            ],
            [
              152.591698,
              40.984528
            ],
            [
              152.779302,
              41.025731
            ],
            [
              152.960668,
              41.080473
            ],
            [
              153.134049,
              41.148227
            ],
            [
              153.297776,
              41.228341
            ],
            [
              153.450273,
              41.320042
            ],
            [
              153.590069,
              41.422447
            ],
            [
              153.71582,
              41.534571
            ],
            [
              153.826313,
              41.655334
            ],
            [
              153.920486,
              41.783572
            ],
            [
              153.997431,
              41.918051
            ],
            [
              154.056406,
              42.057475
            ],
            [
              154.096844,
              42.200501
            ],
            [
              154.118356,
              42.345753
            ],
            [
              154.120735,
              42.491832
            ],
            [
              154.103957,
              42.63733
            ],
            [
              154.068183,
              42.780846
            ],
            [
              154.01376,
              42.920998
            ],
            [
              153.94121,
              43.056438
            ],
            [
              153.851232,
              43.185859
            ],
            [
              153.744694,
              43.308016
            ],
            [
              153.62262,
              43.421732
            ],
            [
              153.486187,
              43.525912
            ],
            [
              153.336708,
              43.619554
            ],
            [
              153.175624,
              43.701754
            ],
            [
              153.004485,
              43.771721
            ],
            [
              152.824939,
              43.828783
            ],
            [
              152.638716,
              43.872388
            ]
          ]
        ],
        "type": "Polygon"
      },
      "properties": {
        "kind": "reachableSet",
        "observationStatus": "estimated",
        "vessel": "B"
      },
      "type": "Feature"
    }
  ],
  "properties": {
    "dateline": false
  },
  "type": "FeatureCollection"
}
