{
  "features": [
    {
      "geometry": {
        "coordinates": [
          158.686967,
          46.8963
        ],
        "type": "Point"
      },
      "properties": {
        "mmsi": "416312000",
        "observationStatus": "observed",
        "role": "off",
        "time": "2017-08-05T04:49:34Z",
        "vessel": "A"
      },
      "type": "Feature"
    },
    {
      "geometry": {
        "coordinates": [
          158.68535,
          46.890998
        ],
        "type": "Point"
      },
      "properties": {
        "mmsi": "416233800",
        "observationStatus": "observed",
        "role": "off",
        "time": "2017-08-05T05:40:24Z",
        "vessel": "B"
      },
      "type": "Feature"
    },
    {
      "geometry": {
        "coordinates": [
          159.020505,
          47.183508
        ],
        "type": "Point"
      },
      "properties": {
        "mmsi": "416233800",
        "observationStatus": "observed",
        "role": "on",
        "time": "2017-08-05T18:02:07Z",
        "vessel": "B"
      },
      "type": "Feature"
    },
    {
      "geometry": {
        "coordinates": [
          158.976167,
          47.131882
        ],
        "type": "Point"
      },
      "properties": {
        "mmsi": "416312000",
        "observationStatus": "observed",
        "role": "on",
        "time": "2017-08-05T18:02:17Z",
        "vessel": "A"
      },
      "type": "Feature"
    },
    {
      "geometry": {
        "coordinates": [
          [
            158.686967,
            46.8963
          ],
          [
            158.852927,
            47.037253
          ],
          [
            158.976167,
            47.131882
          ]
        ],
        "type": "LineString"
      },
      "properties": {
        "confidence": "low",
        "lineStyle": "dashed",
        "observationStatus": "estimated",
        "source": "reachable-set heuristic",
        "vessel": "A"
      },
      "type": "Feature"
    },
    {
      "geometry": {
        "coordinates": [
          [
            158.68535,
            46.890998
          ],
          [
            158.852927,
            47.037253
          ],
          [
            159.020505,
            47.183508
          ]
        ],
        "type": "LineString"
      },
      "properties": {
        "confidence": "low",
        "lineStyle": "dashed",
        "observationStatus": "estimated",
        "source": "reachable-set heuristic",
        "vessel": "B"
      },
      "type": "Feature"
    },
    {
      "geometry": {
        "coordinates": [
          158.852927,
          47.037253
        ],
        "type": "Point"
      },
      "properties": {
        "kind": "meetingPoint",
        "observationStatus": "estimated"
      },
      "type": "Feature"
    },
    {
      "geometry": {
        "coordinates": [
          [
            [
              159.983653,
              47.952578
            ],
            [
              159.845159,
              48.024962
            ],
            [
              159.696903,
              48.087611
            ],
            [
              159.540314,
              48.139921
            ],
            [
              159.376898,
              48.181389
            ],
            [
              159.208232,
              48.211615
            ],
            [
              159.035937,
              48.230308
            ],
            [
              158.861675,
              48.237289
            ],
            [
              158.687122,
              48.232489
            ],
            [
              158.51396,
              48.215956
            ],
            [
              158.343858,
              48.187848
            ],
            [
              158.178452,
              48.148436
            ],
            [
              158.019336,
              48.098099
            ],
            [
              157.868042,
              48.037323
            ],
            [
              157.726028,
              47.966693
            ],
            [
              157.59466,
              47.886889
            ],
            [
              157.475205,
              47.798679
            ],
            [
              157.368812,
              47.702913
            ],
            [
              157.276506,
              47.600514
            ],
            [
              157.199176,
              47.492467
            ],
            [
              157.137567,
              47.379812
            ],
            [
              157.092272,
              47.263636
            ],
            [
              157.063728,
              47.145057
            ],
            [
              157.052209,
              47.025216
            ],
            [
              157.057826,
              46.905268
            ],
            [
              157.080525,
              46.786368
            ],
            [
              157.120087,
              46.669661
            ],
            [
              157.176132,
              46.556271
            ],
            [
              157.24812,
              46.447291
            ],
            [
              157.335357,
              46.343769
            ],
            [
              157.437004,
              46.246702
            ],
            [
              157.552081,
              46.157026
            ],
            [
              157.67948,
              46.075604
            ],
            [
              157.817975,
              46.00322
            ],
            [
              157.96623,
              45.940571
            ],
            [
              158.12282,
              45.888261
            ],
            [
              158.286235,
              45.846793
            ],
            [
              158.454902,
              45.816567
            ],
            [
              158.627196,
              45.797874
            ],
            [
              158.801459,
              45.790893
            ],
            [
              158.976011,
              45.795693
            ],
            [
              159.149173,
              45.812226
            ],
            [
              159.319276,
              45.840334
            ],
            [
              159.484681,
              45.879746
            ],
            [
              159.643797,
              45.930082
            ],
            [
              159.795091,
              45.990858
            ],
            [
              159.937106,
              46.061489
            ],
            [
              160.068473,
              46.141293
            ],
            [
              160.187929,
              46.229503
            ],
            [
              160.294322,
              46.325268
            ],
            [
              160.386628,
              46.427668
            ],
            [
              160.463957,
              46.535715
            ],
            [
              160.525566,
              46.648369
            ],
            [
              160.570861,
              46.764546
            ],
            [
              160.599406,
              46.883125
            ],
            [
              160.610925,
              47.002966
            ],
            [
              160.605308,
              47.122914
            ],
            [
              160.582609,
              47.241814
            ],
            [
              160.543046,
              47.35852
            ],
            [
              160.487001,
              47.47191
            ],
            [
              160.415013,
              47.580891
            ],
            [
              160.327776,
              47.684413
            ],
            [
              160.226129,
              47.78148
            ],
            [
              160.111052,
              47.871156
            ],
            [
              159.983653,
              47.952578
            ]
          ]
        ],
        "type": "Polygon"
      },
      "properties": {
        "kind": "reachableSet",
        "observationStatus": "estimated",
        "vessel": "A"
      },
      "type": "Feature"
    },
    {
      "geometry": {
        "coordinates": [
          [
            [
              159.881448,
              47.934905
            ],
            [
              159.749978,
              47.998831
            ],
            [
              159.609868,
              48.053496
            ],
            [
              159.462469,
              48.098374
            ],
            [
              159.3092,
              48.133032
            ],
            [
              159.151536,
              48.157138
            ],
            [
              158.990997,
              48.170459
            ],
            [
              158.829128,
              48.172866
            ],
            [
              158.667488,
              48.164337
            ],
            [
              158.507634,
              48.144953
            ],
            [
              158.351105,
              48.114902
            ],
            [
              158.19941,
              48.074472
            ],
            [
              158.054008,
              48.024053
            ],
            [
              157.9163,
              47.964131
            ],
            [
              157.787612,
              47.895282
            ],
            [
              157.669184,
              47.818171
            ],
            [
              157.562156,
              47.733538
            ],
            [
              157.467559,
              47.6422
            ],
            [
              157.386303,
              47.545036
            ],
            [
              157.319172,
              47.442982
            ],
            [
              157.266812,
              47.33702
            ],
            [
              157.229727,
              47.228171
            ],
            [
              157.208275,
              47.117484
            ],
            [
              157.202661,
              47.006024
            ],
            [
              157.21294,
              46.894865
            ],
            [
              157.239013,
              46.785077
            ],
            [
              157.280629,
              46.677718
            ],
            [
              157.337388,
              46.573821
            ],
            [
              157.408741,
              46.474388
            ],
            [
              157.494003,
              46.380375
            ],
            [
              157.592353,
              46.292688
            ],
            [
              157.702842,
              46.212172
            ],
            [
              157.824407,
              46.139601
            ],
            [
              157.955877,
              46.075676
            ],
            [
              158.095987,
              46.021011
            ],
            [
              158.243386,
              45.976133
            ],
            [
              158.396655,
              45.941474
            ],
            [
              158.554319,
              45.917369
            ],
            [
              158.714858,
              45.904048
            ],
            [
              158.876727,
              45.901641
            ],
            [
              159.038367,
              45.91017
            ],
            [
              159.198221,
              45.929554
            ],
            [
              159.35475,
              45.959605
            ],
            [
              159.506445,
              46.000035
            ],
            [
              159.651847,
              46.050454
            ],
            [
              159.789555,
              46.110376
            ],
            [
              159.918243,
              46.179224
            ],
            [
              160.036671,
              46.256336
            ],
            [
              160.143699,
              46.340969
            ],
            [
              160.238296,
              46.432307
            ],
            [
              160.319552,
              46.529471
            ],
            [
              160.386683,
              46.631525
            ],
            [
              160.439043,
              46.737487
            ],
            [
              160.476128,
              46.846335
            ],
            [
              160.49758,
              46.957023
            ],
            [
              160.503194,
              47.068482
            ],
            [
              160.492915,
              47.179642
            ],
            [
              160.466842,
              47.289429
            ],
            [
              160.425226,
              47.396789
            ],
            [
              160.368467,
              47.500685
            ],
            [
              160.297114,
              47.600119
            ],
            [
              160.211852,
              47.694132
            ],
            [
              160.113502,
              47.781819
            ],
            [
              160.003013,
              47.862335
            ],
            [
              159.881448,
              47.934905
            ]
          ]
        ],
        "type": "Polygon"
      },
      "properties": {
        "kind": "reachableSet",
        "observationStatus": "estimated",
        "vessel": "B"
      },
      "type": "Feature"
    }
  ],
  "properties": {
    "dateline": false
  },
  "type": "FeatureCollection"
}
