{
  "features": [
    {
      "geometry": {
        "coordinates": [
          -62.711653,
          -43.303307
        ],
        "type": "Point"
      },
      "properties": {
        "mmsi": "701000651",
        "observationStatus": "observed",
        "role": "off",
        "time": "2017-09-15T20:04:49Z",
        "vessel": "A"
      },
      "type": "Feature"
    },
    {
      "geometry": {
        "coordinates": [
          -62.702713,
          -43.31719
        ],
        "type": "Point"
      },
      "properties": {
        "mmsi": "701000708",
        "observationStatus": "observed",
        "role": "off",
        "time": "2017-09-15T20:16:20Z",
        "vessel": "B"
      },
      "type": "Feature"
    },
    {
      "geometry": {
        "coordinates": [
          -62.561867,
          -43.33672
        ],
        "type": "Point"
      },
      "properties": {
        "mmsi": "701000708",
        "observationStatus": "observed",
        "role": "on",
        "time": "2017-09-16T17:41:02Z",
        "vessel": "B"
      },
      "type": "Feature"
    },
    {
      "geometry": {
        "coordinates": [
          -62.649467,
          -43.33784
        ],
        "type": "Point"
      },
      "properties": {
        "mmsi": "701000651",
        "observationStatus": "observed",
        "role": "on",
        "time": "2017-09-16T17:57:10Z",
        "vessel": "A"
      },
      "type": "Feature"
    },
    {
      "geometry": {
        "coordinates": [
          [
            -62.711653,
            -43.303307
          ],
          [
            -62.644093,
            -43.325177
          ],
          [
            -62.649467,
            -43.33784
          ]
        ],
        "type": "LineString"
      },
      "properties": {
        "confidence": "low",
        "lineStyle": "dashed",
        "observationStatus": "estimated",
        "source": "reachable-set heuristic",
        "vessel": "A"
      },
      "type": "Feature"
    },
    {
      "geometry": {
        "coordinates": [
          [
            -62.702713,
            -43.31719
          ],
          [
            -62.644093,
            -43.325177
          ],
          [
            -62.561867,
            -43.33672
          ]
        ],
        "type": "LineString"
      },
      "properties": {
        "confidence": "low",
        "lineStyle": "dashed",
        "observationStatus": "estimated",
        "source": "reachable-set heuristic",
        "vessel": "B"
      },
      "type": "Feature"
    },
    {
      "geometry": {
        "coordinates": [
          -62.644093,
          -43.325177
        ],
        "type": "Point"
      },
      "properties": {
        "kind": "meetingPoint",
        "observationStatus": "estimated"
      },
      "type": "Feature"
    },
    {
      "geometry": {
        "coordinates": [
          [
            [
              -60.208296,
              -44.693464
            ],
            [
              -60.036497,
              -44.509374
            ],
            [
              -59.890161,
              -44.313836
            ],
            [
              -59.770698,
              -44.108731
            ],
            [
              -59.679259,
              -43.896036
            ],
            [
              -59.616724,
              -43.6778
            ],
            [
              -59.583696,
              -43.456123
            ],
            [
              -59.580492,
              -43.23314
            ],
            [
              -59.607143,
              -43.011
            ],
            [
              -59.663393,
              -42.791841
            ],
            [
              -59.7487,
              -42.577773
            ],
            [
              -59.862242,
              -42.37086
            ],
            [
              -60.002926,
              -42.173093
            ],
            [
              -60.169398,
              -41.986376
            ],
            [
              -60.360053,
              -41.812509
            ],
            [
              -60.573056,
              -41.653165
            ],
            [
              -60.806355,
              -41.509879
            ],
            [
              -61.057704,
              -41.384031
            ],
            [
              -61.324682,
              -41.276833
            ],
            [
              -61.604718,
              -41.189318
            ],
            [
              -61.895115,
              -41.122327
            ],
            [
              -62.193076,
              -41.076507
            ],
            [
              -62.495732,
              -41.052299
            ],
            [
              -62.800168,
              -41.049935
            ],
            [
              -63.103452,
              -41.069439
            ],
            [
              -63.402663,
              -41.110622
            ],
            [
              -63.69492,
              -41.173088
            ],
            [
              -63.977408,
              -41.256236
            ],
            [
              -64.247407,
              -41.359265
            ],
            [
              -64.502316,
              -41.481182
            ],
            [
              -64.739681,
              -41.620813
            ],
            [
              -64.957215,
              -41.776814
            ],
            [
              -65.152824,
              -41.947682
            ],
            [
              -65.324623,
              -42.131772
            ],
            [
              -65.470959,
              -42.327311
            ],
            [
              -65.590422,
              -42.532415
            ],
            [
              -65.681861,
              -42.74511
            ],
            [
              -65.744396,
              -42.963347
            ],
            [
              -65.777424,
              -43.185024
            ],
            [
              -65.780628,
              -43.408007
            ],
            [
              -65.753977,
              -43.630147
            ],
            [
              -65.697727,
              -43.849306
            ],
            [
              -65.61242,
              -44.063373
            ],
            [
              -65.498878,
              -44.270287
            ],
            [
              -65.358194,
              -44.468054
            ],
            [
              -65.191722,
              -44.65477
            ],
            [
              -65.001067,
              -44.828638
            ],
            [
              -64.788064,
              -44.987982
            ],
            [
              -64.554765,
              -45.131268
            ],
            [
              -64.303416,
              -45.257115
            ],
            [
              -64.036438,
              -45.364313
            ],
            [
              -63.756402,
              -45.451829
            ],
            [
              -63.466005,
              -45.518819
            ],
            [
              -63.168044,
              -45.564639
            ],
            [
              -62.865388,
              -45.588848
            ],
            [
              -62.560952,
              -45.591212
            ],
            [
              -62.257668,
              -45.571708
            ],
            [
              -61.958457,
              -45.530525
            ],
            [
              -61.6662,
              -45.468058
            ],
            [
              -61.383712,
              -45.38491
            ],
            [
              -61.113713,
              -45.281882
            ],
            [
              -60.858804,
              -45.159965
            ],
            [
              -60.621439,
              -45.020333
            ],
            [
              -60.403905,
              -44.864332
            ],
            [
              -60.208296,
              -44.693464
            ]
          ]
        ],
        "type": "Polygon"
      },
      "properties": {
        "kind": "reachableSet",
        "observationStatus": "estimated",
        "vessel": "A"
      },
      "type": "Feature"
    },
    {
      "geometry": {
        "coordinates": [
          [
            [
              -59.650967,
              -43.740349
            ],
            [
              -59.610013,
              -43.524401
            ],
            [
              -59.598165,
              -43.30655
            ],
            [
              -59.615537,
              -43.088897
            ],
            [
              -59.661962,
              -42.873535
            ],
            [
              -59.736992,
              -42.662541
            ],
            [
              -59.839907,
              -42.457945
            ],
            [
              -59.969713,
              -42.261718
            ],
            [
              -60.125161,
              -42.075751
            ],
            [
              -60.304755,
              -41.901832
            ],
            [
              -60.506764,
              -41.741639
            ],
            [
              -60.729243,
              -41.596713
            ],
            [
              -60.970049,
              -41.46845
            ],
            [
              -61.226863,
              -41.358086
            ],
            [
              -61.497213,
              -41.266683
            ],
            [
              -61.778494,
              -41.195121
            ],
            [
              -62.067997,
              -41.14409
            ],
            [
              -62.362935,
              -41.114082
            ],
            [
              -62.660467,
              -41.105384
            ],
            [
              -62.957728,
              -41.118082
            ],
            [
              -63.251854,
              -41.152052
            ],
            [
              -63.540014,
              -41.206967
            ],
            [
              -63.819432,
              -41.2823
            ],
            [
              -64.087417,
              -41.377323
            ],
            [
              -64.341388,
              -41.491122
            ],
            [
              -64.5789,
              -41.622602
            ],
            [
              -64.797665,
              -41.770495
            ],
            [
              -64.995576,
              -41.933378
            ],
            [
              -65.170727,
              -42.109682
            ],
            [
              -65.321432,
              -42.297709
            ],
            [
              -65.446239,
              -42.495648
            ],
            [
              -65.543946,
              -42.701593
            ],
            [
              -65.613613,
              -42.913561
            ],
            [
              -65.654567,
              -43.129509
            ],
            [
              -65.666415,
              -43.34736
            ],
            [
              -65.649043,
              -43.565013
            ],
            [
              -65.602618,
              -43.780375
            ],
            [
              -65.527588,
              -43.991369
            ],
            [
              -65.424673,
              -44.195965
            ],
            [
              -65.294867,
              -44.392192
            ],
            [
              -65.139419,
              -44.578159
            ],
            [
              -64.959825,
              -44.752078
            ],
            [
              -64.757816,
              -44.912271
            ],
            [
              -64.535337,
              -45.057197
            ],
            [
              -64.294531,
              -45.18546
            ],
            [
              -64.037717,
              -45.295824
            ],
            [
              -63.767367,
              -45.387227
            ],
            [
              -63.486086,
              -45.458789
            ],
            [
              -63.196583,
              -45.50982
            ],
            [
              -62.901645,
              -45.539828
            ],
            [
              -62.604113,
              -45.548526
            ],
            [
              -62.306852,
              -45.535828
            ],
            [
              -62.012726,
              -45.501858
            ],
            [
              -61.724566,
              -45.446943
            ],
            [
              -61.445148,
              -45.37161
            ],
            [
              -61.177163,
              -45.276587
            ],
            [
              -60.923192,
              -45.162788
            ],
            [
              -60.68568,
              -45.031308
            ],
            [
              -60.466915,
              -44.883415
            ],
            [
              -60.269004,
              -44.720532
            ],
            [
              -60.093853,
              -44.544228
            ],
            [
              -59.943148,
              -44.356201
            ],
            [
              -59.818341,
              -44.158262
            ],
            [
              -59.720634,
              -43.952317
            ],
            [
              -59.650967,
              -43.740349
            ]
          ]
        ],
        "type": "Polygon"
      },
      "properties": {
        "kind": "reachableSet",
        "observationStatus": "estimated",
        "vessel": "B"
      },
      "type": "Feature"
    }
  ],
  "properties": {
    "dateline": false
  },
  "type": "FeatureCollection"
}
