{
  "features": [
    {
      "geometry": {
        "coordinates": [
          -60.761413,
          -47.12064
        ],
        "type": "Point"
      },
      "properties": {
        "mmsi": "412420908",
        "observationStatus": "observed",
        "role": "off",
        "time": "2019-02-22T16:10:23Z",
        "vessel": "A"
      },
      "type": "Feature"
    },
    {
      "geometry": {
        "coordinates": [
          -60.726123,
          -47.054995
        ],
        "type": "Point"
      },
      "properties": {
        "mmsi": "412422732",
        "observationStatus": "observed",
        "role": "off",
        "time": "2019-02-22T17:04:07Z",
        "vessel": "B"
      },
      "type": "Feature"
    },
    {
      "geometry": {
        "coordinates": [
          -60.76728,
          -47.081093
        ],
        "type": "Point"
      },
      "properties": {
        "mmsi": "412420908",
        "observationStatus": "observed",
        "role": "on",
        "time": "2019-02-23T09:31:22Z",
        "vessel": "A"
      },
      "type": "Feature"
    },
    {
      "geometry": {
        "coordinates": [
          -60.75915,
          -47.117233
        ],
        "type": "Point"
      },
      "properties": {
        "mmsi": "412422732",
        "observationStatus": "observed",
        "role": "on",
        "time": "2019-02-23T09:48:52Z",
        "vessel": "B"
      },
      "type": "Feature"
    },
    {
      "geometry": {
        "coordinates": [
          [
            -60.761413,
            -47.12064
          ],
          [
            -60.740407,
            -47.064336
          ],
          [
            -60.76728,
            -47.081093
          ]
        ],
        "type": "LineString"
      },
      "properties": {
        "confidence": "low",
        "lineStyle": "dashed",
        "observationStatus": "estimated",
        "source": "reachable-set heuristic",
        "vessel": "A"
      },
      "type": "Feature"
    },
    {
      "geometry": {
        "coordinates": [
          [
            -60.726123,
            -47.054995
          ],
          [
            -60.740407,
            -47.064336
          ],
          [
            -60.75915,
            -47.117233
          ]
        ],
        "type": "LineString"
      },
      "properties": {
        "confidence": "low",
        "lineStyle": "dashed",
        "observationStatus": "estimated",
        "source": "reachable-set heuristic",
        "vessel": "B"
      },
      "type": "Feature"
    },
    {
      "geometry": {
        "coordinates": [
          -60.740407,
          -47.064336
        ],
        "type": "Point"
      },
      "properties": {
        "kind": "meetingPoint",
        "observationStatus": "estimated"
      },
      "type": "Feature"
    },
    {
      "geometry": {
        "coordinates": [
          [
            [
              -61.006848,
              -45.466188
            ],
            [
              -61.239459,
              -45.490348
            ],
            [
              -61.467494,
              -45.530018
            ],
            [
              -61.688758,
              -45.584817
            ],
            [
              -61.901119,
              -45.654215
            ],
            [
              -62.102532,
              -45.737546
            ],
            [
              -62.291058,
              -45.834006
            ],
            [
              -62.46488,
              -45.942667
            ],
            [
              -62.622326,
              -46.062482
            ],
            [
              -62.761878,
              -46.192297
            ],
            [
              -62.882193,
              -46.330862
            ],
            [
              -62.982112,
              -46.476843
            ],
            [
              -63.060673,
              -46.628833
            ],
            [
              -63.117119,
              -46.785369
            ],
            [
              -63.150906,
              -46.944944
            ],
            [
              -63.16171,
              -47.10602
            ],
            [
              -63.149425,
              -47.267047
            ],
            [
              -63.114171,
              -47.426473
            ],
            [
              -63.056287,
              -47.582764
            ],
            [
              -62.97633,
              -47.734414
            ],
            [
              -62.875071,
              -47.879962
            ],
            [
              -62.753484,
              -48.018007
            ],
            [
              -62.612741,
              -48.147219
            ],
            [
              -62.454196,
              -48.266355
            ],
            [
              -62.279378,
              -48.374266
            ],
            [
              -62.089969,
              -48.469914
            ],
            [
              -61.887793,
              -48.552377
            ],
            [
              -61.674798,
              -48.620861
            ],
            [
              -61.453035,
              -48.674707
            ],
            [
              -61.224639,
              -48.713396
            ],
            [
              -60.991811,
              -48.736555
            ],
            [
              -60.756792,
              -48.743962
            ],
            [
              -60.521845,
              -48.735545
            ],
            [
              -60.289235,
              -48.711385
            ],
            [
              -60.061199,
              -48.671715
            ],
            [
              -59.839936,
              -48.616917
            ],
            [
              -59.627575,
              -48.547518
            ],
            [
              -59.426161,
              -48.464187
            ],
            [
              -59.237636,
              -48.367727
            ],
            [
              -59.063813,
              -48.259066
            ],
            [
              -58.906367,
              -48.139252
            ],
            [
              -58.766815,
              -48.009436
            ],
            [
              -58.6465,
              -47.870871
            ],
            [
              -58.546581,
              -47.724891
            ],
            [
              -58.46802,
              -47.5729
            ],
            [
              -58.411574,
              -47.416364
            ],
            [
              -58.377787,
              -47.256789
            ],
            [
              -58.366984,
              -47.095713
            ],
            [
              -58.379268,
              -46.934686
            ],
            [
              -58.414522,
              -46.77526
            ],
            [
              -58.472406,
              -46.618969
            ],
            [
              -58.552363,
              -46.46732
            ],
            [
              -58.653623,
              -46.321772
            ],
            [
              -58.775209,
              -46.183726
            ],
            [
              -58.915953,
              -46.054514
            ],
            [
              -59.074497,
              -45.935378
            ],
            [
              -59.249316,
              -45.827467
            ],
            [
              -59.438725,
              -45.731819
            ],
            [
              -59.6409,
              -45.649356
            ],
            [
              -59.853895,
              -45.580872
            ],
            [
              -60.075658,
              -45.527026
            ],
            [
              -60.304054,
              -45.488337
            ],
            [
              -60.536883,
              -45.465178
            ],
            [
              -60.771902,
              -45.457771
            ],
            [
              -61.006848,
              -45.466188
            ]
          ]
        ],
        "type": "Polygon"
      },
      "properties": {
        "kind": "reachableSet",
        "observationStatus": "estimated",
        "vessel": "A"
      },
      "type": "Feature"
    },
    {
      "geometry": {
        "coordinates": [
          [
            [
              -61.531754,
              -48.573195
            ],
            [
              -61.315373,
              -48.619045
            ],
            [
              -61.093477,
              -48.650133
            ],
            [
              -60.868203,
              -48.666158
            ],
            [
              -60.641718,
              -48.666966
            ],
            [
              -60.416206,
              -48.65255
            ],
            [
              -60.193838,
              -48.623048
            ],
            [
              -59.976755,
              -48.578745
            ],
            [
              -59.767047,
              -48.520067
            ],
            [
              -59.566735,
              -48.447579
            ],
            [
              -59.377748,
              -48.361979
            ],
            [
              -59.201905,
              -48.264093
            ],
            [
              -59.040901,
              -48.154861
            ],
            [
              -58.896285,
              -48.035337
            ],
            [
              -58.76945,
              -47.906672
            ],
            [
              -58.661618,
              -47.770104
            ],
            [
              -58.573828,
              -47.626949
            ],
            [
              -58.506924,
              -47.478585
            ],
            [
              -58.461552,
              -47.326442
            ],
            [
              -58.438148,
              -47.171984
            ],
            [
              -58.436937,
              -47.016699
            ],
            [
              -58.457931,
              -46.862083
            ],
            [
              -58.500928,
              -46.709624
            ],
            [
              -58.565514,
              -46.560791
            ],
            [
              -58.651067,
              -46.417017
            ],
            [
              -58.756763,
              -46.279687
            ],
            [
              -58.881584,
              -46.150123
            ],
            [
              -59.024328,
              -46.029574
            ],
            [
              -59.183621,
              -45.919199
            ],
            [
              -59.357927,
              -45.820063
            ],
            [
              -59.545569,
              -45.733119
            ],
            [
              -59.744739,
              -45.659205
            ],
            [
              -59.95352,
              -45.599033
            ],
            [
              -60.1699,
              -45.553183
            ],
            [
              -60.391796,
              -45.522096
            ],
            [
              -60.617071,
              -45.506071
            ],
            [
              -60.843555,
              -45.505262
            ],
            [
              -61.069067,
              -45.519678
            ],
            [
              -61.291436,
              -45.54918
            ],
            [
              -61.508519,
              -45.593483
            ],
            [
              -61.718226,
              -45.652162
            ],
            [
              -61.918538,
              -45.724649
            ],
            [
              -62.107525,
              -45.810249
            ],
            [
              -62.283368,
              -45.908136
            ],
            [
              -62.444373,
              -46.017367
            ],
            [
              -62.588989,
              -46.136891
            ],
            [
              -62.715823,
              -46.265557
            ],
            [
              -62.823655,
              -46.402124
            ],
            [
              -62.911445,
              -46.54528
            ],
            [
              -62.978349,
              -46.693643
            ],
            [
              -63.023721,
              -46.845787
            ],
            [
              -63.047126,
              -47.000245
            ],
            [
              -63.048337,
              -47.155529
            ],
            [
              -63.027342,
              -47.310146
            ],
            [
              -62.984345,
              -47.462604
            ],
            [
              -62.919759,
              -47.611437
            ],
            [
              -62.834206,
              -47.755211
            ],
            [
              -62.72851,
              -47.892541
            ],
            [
              -62.603689,
              -48.022105
            ],
            [
              -62.460945,
              -48.142655
            ],
            [
              -62.301653,
              -48.253029
            ],
            [
              -62.127346,
              -48.352166
            ],
            [
              -61.939704,
              -48.43911
            ],
            [
              -61.740534,
              -48.513023
            ],
            [
              -61.531754,
              -48.573195
            ]
          ]
        ],
        "type": "Polygon"
      },
      "properties": {
        "kind": "reachableSet",
        "observationStatus": "estimated",
        "vessel": "B"
      },
      "type": "Feature"
    }
  ],
  "properties": {
    "dateline": false
  },
  "type": "FeatureCollection"
}
