{
  "features": [
    {
      "geometry": {
        "coordinates": [
          -57.616385,
          -42.01487
        ],
        "type": "Point"
      },
      "properties": {
        "mmsi": "412329686",
        "observationStatus": "observed",
        "role": "off",
        "time": "2019-07-02T04:16:34Z",
        "vessel": "A"
      },
      "type": "Feature"
    },
    {
      "geometry": {
        "coordinates": [
          -57.616747,
          -41.983973
        ],
        "type": "Point"
      },
      "properties": {
        "mmsi": "412329684",
        "observationStatus": "observed",
        "role": "off",
        "time": "2019-07-02T05:01:27Z",
        "vessel": "B"
      },
      "type": "Feature"
    },
    {
      "geometry": {
        "coordinates": [
          -57.67248,
          -41.942142
        ],
        "type": "Point"
      },
      "properties": {
        "mmsi": "412329686",
        "observationStatus": "observed",
        "role": "on",
        "time": "2019-07-02T22:03:39Z",
        "vessel": "A"
      },
      "type": "Feature"
    },
    {
      "geometry": {
        "coordinates": [
          -57.692,
          -41.949093
        ],
        "type": "Point"
      },
      "properties": {
        "mmsi": "412329684",
        "observationStatus": "observed",
        "role": "on",
        "time": "2019-07-02T22:20:31Z",
        "vessel": "B"
      },
      "type": "Feature"
    },
    {
      "geometry": {
        "coordinates": [
          [
            -57.616385,
            -42.01487
          ],
          [
            -57.629396,
            -41.973701
          ],
          [
            -57.67248,
            -41.942142
          ]
        ],
        "type": "LineString"
      },
      "properties": {
        "confidence": "low",
        "lineStyle": "dashed",
        "observationStatus": "estimated",
        "source": "reachable-set heuristic",
        "vessel": "A"
      },
      "type": "Feature"
    },
    {
      "geometry": {
        "coordinates": [
          [
            -57.616747,
            -41.983973
          ],
          [
            -57.629396,
            -41.973701
          ],
          [
            -57.692,
            -41.949093
          ]
        ],
        "type": "LineString"
      },
      "properties": {
        "confidence": "low",
        "lineStyle": "dashed",
        "observationStatus": "estimated",
        "source": "reachable-set heuristic",
        "vessel": "B"
      },
      "type": "Feature"
    },
    {
      "geometry": {
        "coordinates": [
          -57.629396,
          -41.973701
        ],
        "type": "Point"
      },
      "properties": {
        "kind": "meetingPoint",
        "observationStatus": "estimated"
      },
      "type": "Feature"
    },
    {
      "geometry": {
        "coordinates": [
          [
            [
              -58.865102,
              -40.395883
            ],
            [
              -59.066433,
              -40.493028
            ],
            [
              -59.25407,
              -40.604479
            ],
            [
              -59.426205,
              -40.729163
            ],
            [
              -59.58118,
              -40.865878
            ],
            [
              -59.717504,
              -41.013309
            ],
            [
              -59.833863,
              -41.170035
            ],
            [
              -59.929136,
              -41.334547
            ],
            [
              -60.002406,
              -41.505261
            ],
            [
              -60.052968,
              -41.680533
            ],
            [
              -60.080334,
              -41.858674
            ],
            [
              -60.084242,
              -42.037969
            ],
            [
              -60.064652,
              -42.216692
            ],
            [
              -60.021755,
              -42.39312
            ],
            [
              -59.955962,
              -42.565556
            ],
            [
              -59.867909,
              -42.732338
            ],
            [
              -59.758442,
              -42.89186
            ],
            [
              -59.628616,
              -43.042586
            ],
            [
              -59.479681,
              -43.183065
            ],
            [
              -59.313072,
              -43.311943
            ],
            [
              -59.130392,
              -43.427979
            ],
            [
              -58.933403,
              -43.530056
            ],
            [
              -58.723999,
              -43.617191
            ],
            [
              -58.504199,
              -43.688544
            ],
            [
              -58.276119,
              -43.743429
            ],
            [
              -58.041956,
              -43.781316
            ],
            [
              -57.803964,
              -43.801842
            ],
            [
              -57.564435,
              -43.804807
            ],
            [
              -57.325677,
              -43.790185
            ],
            [
              -57.089989,
              -43.758115
            ],
            [
              -56.859641,
              -43.708906
            ],
            [
              -56.63685,
              -43.643033
            ],
            [
              -56.423763,
              -43.561129
            ],
            [
              -56.222432,
              -43.463984
            ],
            [
              -56.034795,
              -43.352533
            ],
            [
              -55.86266,
              -43.227849
            ],
            [
              -55.707685,
              -43.091133
            ],
            [
              -55.571361,
              -42.943703
            ],
            [
              -55.455002,
              -42.786976
            ],
            [
              -55.359729,
              -42.622464
            ],
            [
              -55.286459,
              -42.45175
            ],
            [
              -55.235897,
              -42.276479
            ],
            [
              -55.208531,
              -42.098338
            ],
            [
              -55.204623,
              -41.919043
            ],
            [
              -55.224213,
              -41.74032
            ],
            [
              -55.26711,
              -41.563891
            ],
            [
              -55.332903,
              -41.391456
            ],
            [
              -55.420956,
              -41.224674
            ],
            [
              -55.530423,
              -41.065151
            ],
            [
              -55.660249,
              -40.914425
            ],
            [
              -55.809184,
              -40.773947
            ],
            [
              -55.975793,
              -40.645069
            ],
            [
              -56.158473,
              -40.529033
            ],
            [
              -56.355462,
              -40.426956
            ],
            [
              -56.564866,
              -40.339821
            ],
            [
              -56.784666,
              -40.268468
            ],
            [
              -57.012746,
              -40.213583
            ],
            [
              -57.246909,
              -40.175696
            ],
            [
              -57.484901,
              -40.15517
            ],
            [
              -57.72443,
              -40.152204
            ],
            [
              -57.963188,
              -40.166827
            ],
            [
              -58.198876,
              -40.198897
            ],
            [
              -58.429224,
              -40.248106
            ],
            [
              -58.652015,
              -40.313979
            ],
            [
              -58.865102,
              -40.395883
            ]
          ]
        ],
        "type": "Polygon"
      },
      "properties": {
        "kind": "reachableSet",
        "observationStatus": "estimated",
        "vessel": "A"
      },
      "type": "Feature"
    },
    {
      "geometry": {
        "coordinates": [
          [
            [
              -59.672136,
              -41.031298
            ],
            [
              -59.784856,
              -41.183826
            ],
            [
              -59.877059,
              -41.343892
            ],
            [
              -59.947855,
              -41.509955
            ],
            [
              -59.996565,
              -41.680414
            ],
            [
              -60.022717,
              -41.853629
            ],
            [
              -60.026061,
              -42.027931
            ],
            [
              -60.006565,
              -42.201643
            ],
            [
              -59.964416,
              -42.373089
            ],
            [
              -59.900019,
              -42.540621
            ],
            [
              -59.813996,
              -42.702623
            ],
            [
              -59.707175,
              -42.857537
            ],
            [
              -59.580584,
              -43.00387
            ],
            [
              -59.435442,
              -43.140213
            ],
            [
              -59.273148,
              -43.265252
            ],
            [
              -59.095264,
              -43.377784
            ],
            [
              -58.903504,
              -43.476726
            ],
            [
              -58.699713,
              -43.561123
            ],
            [
              -58.485856,
              -43.630163
            ],
            [
              -58.263991,
              -43.683182
            ],
            [
              -58.036255,
              -43.719668
            ],
            [
              -57.804841,
              -43.739271
            ],
            [
              -57.571978,
              -43.741801
            ],
            [
              -57.339909,
              -43.727235
            ],
            [
              -57.110868,
              -43.695712
            ],
            [
              -56.887061,
              -43.647536
            ],
            [
              -56.670644,
              -43.583171
            ],
            [
              -56.463701,
              -43.503237
            ],
            [
              -56.268225,
              -43.408504
            ],
            [
              -56.086098,
              -43.299883
            ],
            [
              -55.919074,
              -43.178422
            ],
            [
              -55.768763,
              -43.04529
            ],
            [
              -55.63661,
              -42.901769
            ],
            [
              -55.52389,
              -42.74924
            ],
            [
              -55.431688,
              -42.589174
            ],
            [
              -55.360891,
              -42.423112
            ],
            [
              -55.312182,
              -42.252652
            ],
            [
              -55.286029,
              -42.079437
            ],
            [
              -55.282685,
              -41.905135
            ],
            [
              -55.302182,
              -41.731424
            ],
            [
              -55.344331,
              -41.559977
            ],
            [
              -55.408727,
              -41.392446
            ],
            [
              -55.494751,
              -41.230443
            ],
            [
              -55.601572,
              -41.07553
            ],
            [
              -55.728163,
              -40.929197
            ],
            [
              -55.873305,
              -40.792854
            ],
            [
              -56.035599,
              -40.667814
            ],
            [
              -56.213483,
              -40.555282
            ],
            [
              -56.405243,
              -40.456341
            ],
            [
              -56.609033,
              -40.371944
            ],
            [
              -56.822891,
              -40.302904
            ],
            [
              -57.044756,
              -40.249885
            ],
            [
              -57.272492,
              -40.213399
            ],
            [
              -57.503906,
              -40.193796
            ],
            [
              -57.736768,
              -40.191266
            ],
            [
              -57.968838,
              -40.205832
            ],
            [
              -58.197879,
              -40.237355
            ],
            [
              -58.421685,
              -40.285531
            ],
            [
              -58.638102,
              -40.349896
            ],
            [
              -58.845045,
              -40.42983
            ],
            [
              -59.040522,
              -40.524563
            ],
            [
              -59.222649,
              -40.633183
            ],
            [
              -59.389672,
              -40.754645
            ],
            [
              -59.539984,
              -40.887777
            ],
            [
              -59.672136,
              -41.031298
            ]
          ]
        ],
        "type": "Polygon"
      },
      "properties": {
        "kind": "reachableSet",
        "observationStatus": "estimated",
        "vessel": "B"
      },
      "type": "Feature"
    }
  ],
  "properties": {
    "dateline": false
  },
  "type": "FeatureCollection"
}
