{
  "features": [
    {
      "geometry": {
        "coordinates": [
          160.404255,
          41.836352
        ],
        "type": "Point"
      },
      "properties": {
        "mmsi": "416252900",
        "observationStatus": "observed",
        "role": "off",
        "time": "2018-09-15T02:50:49Z",
        "vessel": "A"
      },
      "type": "Feature"
    },
    {
      "geometry": {
        "coordinates": [
          160.326337,
          41.78642
        ],
        "type": "Point"
      },
      "properties": {
        "mmsi": "416243900",
        "observationStatus": "observed",
        "role": "off",
        "time": "2018-09-15T02:51:34Z",
        "vessel": "B"
      },
      "type": "Feature"
    },
    {
      "geometry": {
        "coordinates": [
          160.120943,
          41.86795
        ],
        "type": "Point"
      },
      "properties": {
        "mmsi": "416252900",
        "observationStatus": "observed",
        "role": "on",
        "time": "2018-09-15T18:14:18Z",
        "vessel": "A"
      },
      "type": "Feature"
    },
    {
      "geometry": {
        "coordinates": [
          160.136667,
          41.811667
        ],
        "type": "Point"
      },
      "properties": {
        "mmsi": "416243900",
        "observationStatus": "observed",
        "role": "on",
        "time": "2018-09-15T18:29:24Z",
        "vessel": "B"
      },
      "type": "Feature"
    },
    {
      "geometry": {
        "coordinates": [
          [
            160.404255,
            41.836352
          ],
          [
            160.133004,
            41.86644
          ],
          [
            160.120943,
            41.86795
          ]
        ],
        "type": "LineString"
      },
      "properties": {
        "confidence": "low",
        "lineStyle": "dashed",
        "observationStatus": "estimated",
        "source": "reachable-set heuristic",
        "vessel": "A"
      },
      "type": "Feature"
    },
    {
      "geometry": {
        "coordinates": [
          [
            160.326337,
            41.78642
          ],
          [
            160.133004,
            41.86644
          ],
          [
            160.136667,
            41.811667
          ]
        ],
        "type": "LineString"
      },
      "properties": {
        "confidence": "low",
        "lineStyle": "dashed",
        "observationStatus": "estimated",
        "source": "reachable-set heuristic",
        "vessel": "B"
      },
      "type": "Feature"
    },
    {
      "geometry": {
        "coordinates": [
          160.133004,
          41.86644
        ],
        "type": "Point"
      },
      "properties": {
        "kind": "meetingPoint",
        "observationStatus": "estimated"
      },
      "type": "Feature"
    },
    {
      "geometry": {
        "coordinates": [
          [
            [
              158.354983,
              42.064911
            ],
            [
              158.336437,
              41.924054
            ],
            [
              158.336441,
              41.782505
            ],
            [
              158.354995,
              41.641626
            ],
            [
              158.39192,
              41.502775
            ],
            [
              158.446861,
              41.367288
            ],
            [
              158.519288,
              41.236471
            ],
            [
              158.608505,
              41.111583
            ],
            [
              158.713651,
              40.993827
            ],
            [
              158.833715,
              40.884338
            ],
            [
              158.967539,
              40.784169
            ],
            [
              159.113836,
              40.694285
            ],
            [
              159.271196,
              40.615552
            ],
            [
              159.438103,
              40.548728
            ],
            [
              159.612951,
              40.494457
            ],
            [
              159.794055,
              40.453262
            ],
            [
              159.979672,
              40.425538
            ],
            [
              160.168014,
              40.411553
            ],
            [
              160.357266,
              40.411442
            ],
            [
              160.545607,
              40.425206
            ],
            [
              160.731222,
              40.452712
            ],
            [
              160.912324,
              40.493696
            ],
            [
              161.087169,
              40.547762
            ],
            [
              161.254073,
              40.61439
            ],
            [
              161.411428,
              40.692939
            ],
            [
              161.55772,
              40.782651
            ],
            [
              161.691539,
              40.882663
            ],
            [
              161.811596,
              40.992012
            ],
            [
              161.916736,
              41.109645
            ],
            [
              162.005945,
              41.234428
            ],
            [
              162.078365,
              41.36516
            ],
            [
              162.133298,
              41.500582
            ],
            [
              162.170216,
              41.63939
            ],
            [
              162.188762,
              41.780247
            ],
            [
              162.188758,
              41.921797
            ],
            [
              162.170204,
              42.062676
            ],
            [
              162.133279,
              42.201527
            ],
            [
              162.078338,
              42.337014
            ],
            [
              162.00591,
              42.467831
            ],
            [
              161.916694,
              42.592718
            ],
            [
              161.811547,
              42.710474
            ],
            [
              161.691484,
              42.819964
            ],
            [
              161.557659,
              42.920133
            ],
            [
              161.411363,
              43.010017
            ],
            [
              161.254003,
              43.088749
            ],
            [
              161.087095,
              43.155573
            ],
            [
              160.912247,
              43.209844
            ],
            [
              160.731143,
              43.25104
            ],
            [
              160.545526,
              43.278764
            ],
            [
              160.357185,
              43.292748
            ],
            [
              160.167932,
              43.292859
            ],
            [
              159.979592,
              43.279095
            ],
            [
              159.793976,
              43.251589
            ],
            [
              159.612874,
              43.210606
            ],
            [
              159.438029,
              43.156539
            ],
            [
              159.271126,
              43.089911
            ],
            [
              159.11377,
              43.011363
            ],
            [
              158.967479,
              42.921651
            ],
            [
              158.83366,
              42.821638
            ],
            [
              158.713602,
              42.712289
            ],
            [
              158.608463,
              42.594657
            ],
            [
              158.519253,
              42.469874
            ],
            [
              158.446833,
              42.339141
            ],
            [
              158.3919,
              42.203719
            ],
            [
              158.354983,
              42.064911
            ]
          ]
        ],
        "type": "Polygon"
      },
      "properties": {
        "kind": "reachableSet",
        "observationStatus": "estimated",
        "vessel": "A"
      },
      "type": "Feature"
    },
    {
      "geometry": {
        "coordinates": [
          [
            [
              158.302578,
              42.055799
            ],
            [
              158.278376,
              41.912831
            ],
            [
              158.272983,
              41.768767
            ],
            [
              158.286453,
              41.624994
            ],
            [
              158.318654,
              41.482898
            ],
            [
              158.369276,
              41.343846
            ],
            [
              158.437833,
              41.209179
            ],
            [
              158.523664,
              41.080191
            ],
            [
              158.625943,
              40.958127
            ],
            [
              158.743684,
              40.844161
            ],
            [
              158.875753,
              40.739392
            ],
            [
              159.020879,
              40.644827
            ],
            [
              159.177664,
              40.561378
            ],
            [
              159.344598,
              40.489849
            ],
            [
              159.520073,
              40.430927
            ],
            [
              159.7024,
              40.385182
            ],
            [
              159.889822,
              40.353052
            ],
            [
              160.080535,
              40.334849
            ],
            [
              160.272702,
              40.330746
            ],
            [
              160.464472,
              40.340784
            ],
            [
              160.653998,
              40.364866
            ],
            [
              160.839456,
              40.402759
            ],
            [
              161.019058,
              40.4541
            ],
            [
              161.191076,
              40.518393
            ],
            [
              161.353853,
              40.59502
            ],
            [
              161.505821,
              40.683241
            ],
            [
              161.645516,
              40.782209
            ],
            [
              161.771594,
              40.890969
            ],
            [
              161.88284,
              41.008475
            ],
            [
              161.978182,
              41.133594
            ],
            [
              162.056703,
              41.265122
            ],
            [
              162.117647,
              41.401792
            ],
            [
              162.160425,
              41.542287
            ],
            [
              162.184627,
              41.685256
            ],
            [
              162.19002,
              41.82932
            ],
            [
              162.176551,
              41.973092
            ],
            [
              162.14435,
              42.115189
            ],
            [
              162.093727,
              42.25424
            ],
            [
              162.02517,
              42.388908
            ],
            [
              161.939339,
              42.517895
            ],
            [
              161.837061,
              42.639959
            ],
            [
              161.71932,
              42.753925
            ],
            [
              161.58725,
              42.858695
            ],
            [
              161.442124,
              42.95326
            ],
            [
              161.285339,
              43.036708
            ],
            [
              161.118406,
              43.108238
            ],
            [
              160.94293,
              43.167159
            ],
            [
              160.760603,
              43.212905
            ],
            [
              160.573181,
              43.245034
            ],
            [
              160.382468,
              43.263238
            ],
            [
              160.190302,
              43.26734
            ],
            [
              159.998532,
              43.257303
            ],
            [
              159.809005,
              43.233221
            ],
            [
              159.623548,
              43.195327
            ],
            [
              159.443945,
              43.143987
            ],
            [
              159.271927,
              43.079694
            ],
            [
              159.109151,
              43.003067
            ],
            [
              158.957183,
              42.914845
            ],
            [
              158.817487,
              42.815878
            ],
            [
              158.691409,
              42.707117
            ],
            [
              158.580164,
              42.589612
            ],
            [
              158.484821,
              42.464492
            ],
            [
              158.4063,
              42.332965
            ],
            [
              158.345357,
              42.196295
            ],
            [
              158.302578,
              42.055799
            ]
          ]
        ],
        "type": "Polygon"
      },
      "properties": {
        "kind": "reachableSet",
        "observationStatus": "estimated",
        "vessel": "B"
      },
      "type": "Feature"
    }
  ],
  "properties": {
    "dateline": false
  },
  "type": "FeatureCollection"
}
