{
  "features": [
    {
      "geometry": {
        "coordinates": [
          -60.313033,
          -45.353085
        ],
        "type": "Point"
      },
      "properties": {
        "mmsi": "412329686",
        "observationStatus": "observed",
        "role": "off",
        "time": "2018-02-12T06:34:27Z",
        "vessel": "A"
      },
      "type": "Feature"
    },
    {
      "geometry": {
        "coordinates": [
          -60.315813,
          -45.405307
        ],
        "type": "Point"
      },
      "properties": {
        "mmsi": "412329684",
        "observationStatus": "observed",
        "role": "off",
        "time": "2018-02-12T07:02:27Z",
        "vessel": "B"
      },
      "type": "Feature"
    },
    {
      "geometry": {
        "coordinates": [
          -60.595947,
          -45.837707
        ],
        "type": "Point"
      },
      "properties": {
        "mmsi": "412329686",
        "observationStatus": "observed",
        "role": "on",
        "time": "2018-02-12T23:45:05Z",
        "vessel": "A"
      },
      "type": "Feature"
    },
    {
      "geometry": {
        "coordinates": [
          -60.55728,
          -45.790943
        ],
        "type": "Point"
      },
      "properties": {
        "mmsi": "412329684",
        "observationStatus": "observed",
        "role": "on",
        "time": "2018-02-12T23:59:38Z",
        "vessel": "B"
      },
      "type": "Feature"
    },
    {
      "geometry": {
        "coordinates": [
          [
            -60.313033,
            -45.353085
          ],
          [
            -60.489401,
            -45.67316
          ],
          [
            -60.595947,
            -45.837707
          ]
        ],
        "type": "LineString"
      },
      "properties": {
        "confidence": "low",
        "lineStyle": "dashed",
        "observationStatus": "estimated",
        "source": "reachable-set heuristic",
        "vessel": "A"
      },
      "type": "Feature"
    },
    {
      "geometry": {
        "coordinates": [
          [
            -60.315813,
            -45.405307
          ],
          [
            -60.489401,
            -45.67316
          ],
          [
            -60.55728,
            -45.790943
          ]
        ],
        "type": "LineString"
      },
      "properties": {
        "confidence": "low",
        "lineStyle": "dashed",
        "observationStatus": "estimated",
        "source": "reachable-set heuristic",
        "vessel": "B"
      },
      "type": "Feature"
    },
    {
      "geometry": {
        "coordinates": [
          -60.489401,
          -45.67316
        ],
        "type": "Point"
      },
      "properties": {
        "kind": "meetingPoint",
        "observationStatus": "estimated"
      },
      "type": "Feature"
    },
    {
      "geometry": {
        "coordinates": [
          [
            [
              -61.405401,
              -47.224277
            ],
            [
              -61.176707,
              -47.281363
            ],
            [
              -60.941058,
              -47.322213
            ],
            [
              -60.700722,
              -47.346432
            ],
            [
              -60.458015,
              -47.353788
            ],
            [
              -60.215274,
              -47.344209
            ],
            [
              -59.974837,
              -47.317789
            ],
            [
              -59.73902,
              -47.274781
            ],
            [
              -59.510092,
              -47.215599
            ],
            [
              -59.29026,
              -47.140814
            ],
            [
              -59.08164,
              -47.051146
            ],
            [
              -58.886241,
              -46.947458
            ],
            [
              -58.705946,
              -46.830749
            ],
            [
              -58.542489,
              -46.702143
            ],
            [
              -58.397447,
              -46.562879
            ],
            [
              -58.272215,
              -46.414296
            ],
            [
              -58.167999,
              -46.257828
            ],
            [
              -58.085803,
              -46.09498
            ],
            [
              -58.026419,
              -45.927321
            ],
            [
              -57.990419,
              -45.756465
            ],
            [
              -57.97815,
              -45.584057
            ],
            [
              -57.989728,
              -45.411759
            ],
            [
              -58.025044,
              -45.24123
            ],
            [
              -58.083757,
              -45.074111
            ],
            [
              -58.165301,
              -44.912013
            ],
            [
              -58.268891,
              -44.756496
            ],
            [
              -58.39353,
              -44.609058
            ],
            [
              -58.538017,
              -44.471119
            ],
            [
              -58.70096,
              -44.344008
            ],
            [
              -58.880791,
              -44.228947
            ],
            [
              -59.075778,
              -44.127047
            ],
            [
              -59.284042,
              -44.039288
            ],
            [
              -59.503579,
              -43.966514
            ],
            [
              -59.732273,
              -43.909428
            ],
            [
              -59.967922,
              -43.868579
            ],
            [
              -60.208258,
              -43.84436
            ],
            [
              -60.450965,
              -43.837004
            ],
            [
              -60.693706,
              -43.846582
            ],
            [
              -60.934143,
              -43.873003
            ],
            [
              -61.16996,
              -43.916011
            ],
            [
              -61.398888,
              -43.975193
            ],
            [
              -61.61872,
              -44.049977
            ],
            [
              -61.82734,
              -44.139646
            ],
            [
              -62.022739,
              -44.243333
            ],
            [
              -62.203034,
              -44.360042
            ],
            [
              -62.366491,
              -44.488648
            ],
            [
              -62.511533,
              -44.627913
            ],
            [
              -62.636765,
              -44.776495
            ],
            [
              -62.740981,
              -44.932964
            ],
            [
              -62.823177,
              -45.095812
            ],
            [
              -62.882561,
              -45.263471
            ],
            [
              -62.918561,
              -45.434327
            ],
            [
              -62.93083,
              -45.606734
            ],
            [
              -62.919252,
              -45.779032
            ],
            [
              -62.883936,
              -45.949562
            ],
            [
              -62.825223,
              -46.11668
            ],
            [
              -62.743679,
              -46.278779
            ],
            [
              -62.640089,
              -46.434296
            ],
            [
              -62.51545,
              -46.581734
            ],
            [
              -62.370963,
              -46.719673
            ],
            [
              -62.20802,
              -46.846784
            ],
            [
              -62.028189,
              -46.961844
            ],
            [
              -61.833202,
              -47.063745
            ],
            [
              -61.624938,
              -47.151504
            ],
            [
              -61.405401,
              -47.224277
            ]
          ]
        ],
        "type": "Polygon"
      },
      "properties": {
        "kind": "reachableSet",
        "observationStatus": "estimated",
        "vessel": "A"
      },
      "type": "Feature"
    },
    {
      "geometry": {
        "coordinates": [
          [
            [
              -61.431579,
              -47.187251
            ],
            [
              -61.207305,
              -47.247795
            ],
            [
              -60.975608,
              -47.292451
            ],
            [
              -60.73872,
              -47.32079
            ],
            [
              -60.498922,
              -47.33254
            ],
            [
              -60.258523,
              -47.327585
            ],
            [
              -60.019838,
              -47.305975
            ],
            [
              -59.785167,
              -47.267918
            ],
            [
              -59.556768,
              -47.213779
            ],
            [
              -59.336843,
              -47.144081
            ],
            [
              -59.127508,
              -47.059495
            ],
            [
              -58.93078,
              -46.960834
            ],
            [
              -58.748553,
              -46.84905
            ],
            [
              -58.582583,
              -46.725219
            ],
            [
              -58.434467,
              -46.590534
            ],
            [
              -58.305633,
              -46.446291
            ],
            [
              -58.19732,
              -46.293879
            ],
            [
              -58.110572,
              -46.134768
            ],
            [
              -58.046225,
              -45.970488
            ],
            [
              -58.004898,
              -45.802622
            ],
            [
              -57.986989,
              -45.632786
            ],
            [
              -57.99267,
              -45.462617
            ],
            [
              -58.021887,
              -45.293753
            ],
            [
              -58.074359,
              -45.12782
            ],
            [
              -58.14958,
              -44.966416
            ],
            [
              -58.246826,
              -44.811096
            ],
            [
              -58.36516,
              -44.663356
            ],
            [
              -58.503442,
              -44.524617
            ],
            [
              -58.660342,
              -44.396218
            ],
            [
              -58.834347,
              -44.279393
            ],
            [
              -59.023782,
              -44.175269
            ],
            [
              -59.226823,
              -44.084847
            ],
            [
              -59.441514,
              -44.008999
            ],
            [
              -59.665788,
              -43.948455
            ],
            [
              -59.897485,
              -43.903799
            ],
            [
              -60.134373,
              -43.87546
            ],
            [
              -60.374172,
              -43.86371
            ],
            [
              -60.614571,
              -43.868665
            ],
            [
              -60.853255,
              -43.890275
            ],
            [
              -61.087927,
              -43.928332
            ],
            [
              -61.316325,
              -43.982471
            ],
            [
              -61.536251,
              -44.052169
            ],
            [
              -61.745585,
              -44.136755
            ],
            [
              -61.942313,
              -44.235416
            ],
            [
              -62.12454,
              -44.3472
            ],
            [
              -62.29051,
              -44.471031
            ],
            [
              -62.438626,
              -44.605716
            ],
            [
              -62.567461,
              -44.749959
            ],
            [
              -62.675773,
              -44.902371
            ],
            [
              -62.762521,
              -45.061482
            ],
            [
              -62.826868,
              -45.225762
            ],
            [
              -62.868196,
              -45.393628
            ],
            [
              -62.886105,
              -45.563464
            ],
            [
              -62.880423,
              -45.733633
            ],
            [
              -62.851206,
              -45.902497
            ],
            [
              -62.798734,
              -46.06843
            ],
            [
              -62.723513,
              -46.229834
            ],
            [
              -62.626267,
              -46.385154
            ],
            [
              -62.507933,
              -46.532894
            ],
            [
              -62.369651,
              -46.671633
            ],
            [
              -62.212752,
              -46.800032
            ],
            [
              -62.038746,
              -46.916857
            ],
            [
              -61.849311,
              -47.020981
            ],
            [
              -61.64627,
              -47.111403
            ],
            [
              -61.431579,
              -47.187251
            ]
          ]
        ],
        "type": "Polygon"
      },
      "properties": {
        "kind": "reachableSet",
        "observationStatus": "estimated",
        "vessel": "B"
      },
      "type": "Feature"
    }
  ],
  "properties": {
    "dateline": false
  },
  "type": "FeatureCollection"
}
