{
  "features": [
    {
      "geometry": {
        "coordinates": [
          -60.488427,
          -45.509893
        ],
        "type": "Point"
      },
      "properties": {
        "mmsi": "412331071",
        "observationStatus": "observed",
        "role": "off",
        "time": "2018-02-03T07:52:10Z",
        "vessel": "A"
      },
      "type": "Feature"
    },
    {
      "geometry": {
        "coordinates": [
          -60.533867,
          -45.426027
        ],
        "type": "Point"
      },
      "properties": {
        "mmsi": "412331067",
        "observationStatus": "observed",
        "role": "off",
        "time": "2018-02-03T08:41:49Z",
        "vessel": "B"
      },
      "type": "Feature"
    },
    {
      "geometry": {
        "coordinates": [
          -60.48872,
          -45.300547
        ],
        "type": "Point"
      },
      "properties": {
        "mmsi": "412331071",
        "observationStatus": "observed",
        "role": "on",
        "time": "2018-02-03T23:36:08Z",
        "vessel": "A"
      },
      "type": "Feature"
    },
    {
      "geometry": {
        "coordinates": [
          -60.443807,
          -45.293603
        ],
        "type": "Point"
      },
      "properties": {
        "mmsi": "412331067",
        "observationStatus": "observed",
        "role": "on",
        "time": "2018-02-03T23:42:08Z",
        "vessel": "B"
      },
      "type": "Feature"
    },
    {
      "geometry": {
        "coordinates": [
          [
            -60.488427,
            -45.509893
          ],
          [
            -60.488837,
            -45.359736
          ],
          [
            -60.48872,
            -45.300547
          ]
        ],
        "type": "LineString"
      },
      "properties": {
        "confidence": "low",
        "lineStyle": "dashed",
        "observationStatus": "estimated",
        "source": "reachable-set heuristic",
        "vessel": "A"
      },
      "type": "Feature"
    },
    {
      "geometry": {
        "coordinates": [
          [
            -60.533867,
            -45.426027
          ],
          [
            -60.488837,
            -45.359736
          ],
          [
            -60.443807,
            -45.293603
          ]
        ],
        "type": "LineString"
      },
      "properties": {
        "confidence": "low",
        "lineStyle": "dashed",
        "observationStatus": "estimated",
        "source": "reachable-set heuristic",
        "vessel": "B"
      },
      "type": "Feature"
    },
    {
      "geometry": {
        "coordinates": [
          -60.488837,
          -45.359736
        ],
        "type": "Point"
      },
      "properties": {
        "kind": "meetingPoint",
        "observationStatus": "estimated"
      },
      "type": "Feature"
    },
    {
      "geometry": {
        "coordinates": [
          [
            [
              -60.490994,
              -43.677847
            ],
            [
              -60.730072,
              -43.686332
            ],
            [
              -60.966825,
              -43.711371
            ],
            [
              -61.198972,
              -43.752723
            ],
            [
              -61.424277,
              -43.809989
            ],
            [
              -61.640572,
              -43.882618
            ],
            [
              -61.845771,
              -43.969911
            ],
            [
              -62.0379,
              -44.071026
            ],
            [
              -62.215109,
              -44.18499
            ],
            [
              -62.37569,
              -44.310706
            ],
            [
              -62.518096,
              -44.446963
            ],
            [
              -62.640958,
              -44.592448
            ],
            [
              -62.743091,
              -44.745761
            ],
            [
              -62.823511,
              -44.905424
            ],
            [
              -62.881445,
              -45.069901
            ],
            [
              -62.916334,
              -45.237607
            ],
            [
              -62.927843,
              -45.406928
            ],
            [
              -62.91586,
              -45.576232
            ],
            [
              -62.880501,
              -45.743889
            ],
            [
              -62.822106,
              -45.908284
            ],
            [
              -62.741238,
              -46.067835
            ],
            [
              -62.638676,
              -46.221004
            ],
            [
              -62.515407,
              -46.366317
            ],
            [
              -62.372619,
              -46.502374
            ],
            [
              -62.211686,
              -46.627865
            ],
            [
              -62.034158,
              -46.741581
            ],
            [
              -61.841746,
              -46.842427
            ],
            [
              -61.636302,
              -46.929432
            ],
            [
              -61.419805,
              -47.001758
            ],
            [
              -61.19434,
              -47.058709
            ],
            [
              -60.962077,
              -47.099735
            ],
            [
              -60.725255,
              -47.124443
            ],
            [
              -60.486153,
              -47.132593
            ],
            [
              -60.247074,
              -47.124108
            ],
            [
              -60.010322,
              -47.099069
            ],
            [
              -59.778175,
              -47.057717
            ],
            [
              -59.552869,
              -47.000451
            ],
            [
              -59.336575,
              -46.927822
            ],
            [
              -59.131375,
              -46.840529
            ],
            [
              -58.939246,
              -46.739414
            ],
            [
              -58.762038,
              -46.62545
            ],
            [
              -58.601457,
              -46.499734
            ],
            [
              -58.45905,
              -46.363477
            ],
            [
              -58.336189,
              -46.217992
            ],
            [
              -58.234056,
              -46.064679
            ],
            [
              -58.153635,
              -45.905016
            ],
            [
              -58.095702,
              -45.740539
            ],
            [
              -58.060812,
              -45.572833
            ],
            [
              -58.049304,
              -45.403512
            ],
            [
              -58.061287,
              -45.234208
            ],
            [
              -58.096646,
              -45.066551
            ],
            [
              -58.155041,
              -44.902156
            ],
            [
              -58.235909,
              -44.742605
            ],
            [
              -58.338471,
              -44.589436
            ],
            [
              -58.46174,
              -44.444123
            ],
            [
              -58.604528,
              -44.308066
            ],
            [
              -58.765461,
              -44.182575
            ],
            [
              -58.942988,
              -44.068859
            ],
            [
              -59.1354,
              -43.968013
            ],
            [
              -59.340844,
              -43.881008
            ],
            [
              -59.557341,
              -43.808682
            ],
            [
              -59.782807,
              -43.751731
            ],
            [
              -60.015069,
              -43.710705
            ],
            [
              -60.251892,
              -43.685997
            ],
            [
              -60.490994,
              -43.677847
            ]
          ]
        ],
        "type": "Polygon"
      },
      "properties": {
        "kind": "reachableSet",
        "observationStatus": "estimated",
        "vessel": "A"
      },
      "type": "Feature"
    },
    {
      "geometry": {
        "coordinates": [
          [
            [
              -59.62625,
              -44.091476
            ],
            [
              -59.8059,
              -44.037854
            ],
            [
              -59.992127,
              -43.996963
            ],
            [
              -60.183138,
              -43.969197
            ],
            [
              -60.377093,
              -43.954824
            ],
            [
              -60.572124,
              -43.953981
            ],
            [
              -60.766352,
              -43.966677
            ],
            [
              -60.957909,
              -43.99279
            ],
            [
              -61.144948,
              -44.032069
            ],
            [
              -61.325668,
              -44.084134
            ],
            [
              -61.498329,
              -44.148484
            ],
            [
              -61.661268,
              -44.224501
            ],
            [
              -61.812915,
              -44.311451
            ],
            [
              -61.951812,
              -44.408497
            ],
            [
              -62.076619,
              -44.514706
            ],
            [
              -62.186134,
              -44.629053
            ],
            [
              -62.279304,
              -44.750437
            ],
            [
              -62.355231,
              -44.877691
            ],
            [
              -62.413183,
              -45.009587
            ],
            [
              -62.452603,
              -45.144856
            ],
            [
              -62.473111,
              -45.282196
            ],
            [
              -62.474509,
              -45.420283
            ],
            [
              -62.456784,
              -45.557787
            ],
            [
              -62.420106,
              -45.693385
            ],
            [
              -62.36483,
              -45.825771
            ],
            [
              -62.291486,
              -45.953669
            ],
            [
              -62.200782,
              -46.075848
            ],
            [
              -62.093591,
              -46.191132
            ],
            [
              -61.970945,
              -46.298409
            ],
            [
              -61.834026,
              -46.396647
            ],
            [
              -61.684152,
              -46.4849
            ],
            [
              -61.522766,
              -46.562317
            ],
            [
              -61.351424,
              -46.628154
            ],
            [
              -61.171773,
              -46.681776
            ],
            [
              -60.985546,
              -46.722667
            ],
            [
              -60.794535,
              -46.750433
            ],
            [
              -60.600581,
              -46.764806
            ],
            [
              -60.40555,
              -46.765649
            ],
            [
              -60.211321,
              -46.752953
            ],
            [
              -60.019765,
              -46.72684
            ],
            [
              -59.832726,
              -46.687561
            ],
            [
              -59.652006,
              -46.635496
            ],
            [
              -59.479345,
              -46.571146
            ],
            [
              -59.316406,
              -46.495129
            ],
            [
              -59.164758,
              -46.408179
            ],
            [
              -59.025862,
              -46.311133
            ],
            [
              -58.901055,
              -46.204924
            ],
            [
              -58.791539,
              -46.090577
            ],
            [
              -58.698369,
              -45.969193
            ],
            [
              -58.622442,
              -45.841939
            ],
            [
              -58.56449,
              -45.710043
            ],
            [
              -58.52507,
              -45.574774
            ],
            [
              -58.504563,
              -45.437434
            ],
            [
              -58.503165,
              -45.299347
            ],
            [
              -58.52089,
              -45.161843
            ],
            [
              -58.557567,
              -45.026245
            ],
            [
              -58.612844,
              -44.893859
            ],
            [
              -58.686187,
              -44.765961
            ],
            [
              -58.776891,
              -44.643782
            ],
            [
              -58.884082,
              -44.528498
            ],
            [
              -59.006728,
              -44.421221
            ],
            [
              -59.143647,
              -44.322983
            ],
            [
              -59.293521,
              -44.23473
            ],
            [
              -59.454907,
              -44.157313
            ],
            [
              -59.62625,
              -44.091476
            ]
          ]
        ],
        "type": "Polygon"
      },
      "properties": {
        "kind": "reachableSet",
        "observationStatus": "estimated",
        "vessel": "B"
      },
      "type": "Feature"
    }
  ],
  "properties": {
    "dateline": false
  },
  "type": "FeatureCollection"
}
