{
  "features": [
    {
      "geometry": {
        "coordinates": [
          -60.381605,
          -45.246205
        ],
        "type": "Point"
      },
      "properties": {
        "mmsi": "412329686",
        "observationStatus": "observed",
        "role": "off",
        "time": "2017-02-16T07:17:46Z",
        "vessel": "A"
      },
      "type": "Feature"
    },
    {
      "geometry": {
        "coordinates": [
          -60.380993,
          -45.277318
        ],
        "type": "Point"
      },
      "properties": {
        "mmsi": "412329685",
        "observationStatus": "observed",
        "role": "off",
        "time": "2017-02-16T07:52:11Z",
        "vessel": "B"
      },
      "type": "Feature"
    },
    {
      "geometry": {
        "coordinates": [
          -60.343333,
          -45.166667
        ],
        "type": "Point"
      },
      "properties": {
        "mmsi": "412329686",
        "observationStatus": "observed",
        "role": "on",
        "time": "2017-02-16T23:37:50Z",
        "vessel": "A"
      },
      "type": "Feature"
    },
    {
      "geometry": {
        "coordinates": [
          -60.336892,
          -45.236497
        ],
        "type": "Point"
      },
      "properties": {
        "mmsi": "412329685",
        "observationStatus": "observed",
        "role": "on",
        "time": "2017-02-17T00:29:38Z",
        "vessel": "B"
      },
      "type": "Feature"
    },
    {
      "geometry": {
        "coordinates": [
          [
            -60.381605,
            -45.246205
          ],
          [
            -60.365707,
            -45.232763
          ],
          [
            -60.343333,
            -45.166667
          ]
        ],
        "type": "LineString"
      },
      "properties": {
        "confidence": "low",
        "lineStyle": "dashed",
        "observationStatus": "estimated",
        "source": "reachable-set heuristic",
        "vessel": "A"
      },
      "type": "Feature"
    },
    {
      "geometry": {
        "coordinates": [
          [
            -60.380993,
            -45.277318
          ],
          [
            -60.365707,
            -45.232763
          ],
          [
            -60.336892,
            -45.236497
          ]
        ],
        "type": "LineString"
      },
      "properties": {
        "confidence": "low",
        "lineStyle": "dashed",
        "observationStatus": "estimated",
        "source": "reachable-set heuristic",
        "vessel": "B"
      },
      "type": "Feature"
    },
    {
      "geometry": {
        "coordinates": [
          -60.365707,
          -45.232763
        ],
        "type": "Point"
      },
      "properties": {
        "kind": "meetingPoint",
        "observationStatus": "estimated"
      },
      "type": "Feature"
    },
    {
      "geometry": {
        "coordinates": [
          [
            [
              -59.602217,
              -43.626436
            ],
            [
              -59.824136,
              -43.581203
            ],
            [
              -60.05124,
              -43.551622
            ],
            [
              -60.28134,
              -43.537978
            ],
            [
              -60.512223,
              -43.540401
            ],
            [
              -60.741663,
              -43.55887
            ],
            [
              -60.967451,
              -43.593206
            ],
            [
              -61.187413,
              -43.643077
            ],
            [
              -61.39943,
              -43.708005
            ],
            [
              -61.601461,
              -43.787364
            ],
            [
              -61.791559,
              -43.880389
            ],
            [
              -61.967895,
              -43.986184
            ],
            [
              -62.128769,
              -44.103731
            ],
            [
              -62.272633,
              -44.231898
            ],
            [
              -62.398102,
              -44.36945
            ],
            [
              -62.503966,
              -44.515063
            ],
            [
              -62.589206,
              -44.667334
            ],
            [
              -62.653001,
              -44.824797
            ],
            [
              -62.694737,
              -44.985935
            ],
            [
              -62.714013,
              -45.149197
            ],
            [
              -62.710641,
              -45.31301
            ],
            [
              -62.684656,
              -45.475797
            ],
            [
              -62.636306,
              -45.63599
            ],
            [
              -62.566059,
              -45.792046
            ],
            [
              -62.474589,
              -45.942462
            ],
            [
              -62.362779,
              -46.085789
            ],
            [
              -62.231704,
              -46.220648
            ],
            [
              -62.082628,
              -46.34574
            ],
            [
              -61.916986,
              -46.45986
            ],
            [
              -61.736373,
              -46.561908
            ],
            [
              -61.542528,
              -46.650902
            ],
            [
              -61.337319,
              -46.725986
            ],
            [
              -61.122722,
              -46.786435
            ],
            [
              -60.900802,
              -46.831668
            ],
            [
              -60.673699,
              -46.86125
            ],
            [
              -60.443598,
              -46.874894
            ],
            [
              -60.212716,
              -46.87247
            ],
            [
              -59.983276,
              -46.854002
            ],
            [
              -59.757487,
              -46.819666
            ],
            [
              -59.537526,
              -46.769794
            ],
            [
              -59.325508,
              -46.704867
            ],
            [
              -59.123478,
              -46.625508
            ],
            [
              -58.933379,
              -46.532483
            ],
            [
              -58.757043,
              -46.426688
            ],
            [
              -58.596169,
              -46.30914
            ],
            [
              -58.452305,
              -46.180974
            ],
            [
              -58.326837,
              -46.043421
            ],
            [
              -58.220973,
              -45.897809
            ],
            [
              -58.135733,
              -45.745538
            ],
            [
              -58.071937,
              -45.588075
            ],
            [
              -58.030201,
              -45.426936
            ],
            [
              -58.010926,
              -45.263674
            ],
            [
              -58.014297,
              -45.099861
            ],
            [
              -58.040282,
              -44.937074
            ],
            [
              -58.088632,
              -44.776882
            ],
            [
              -58.15888,
              -44.620826
            ],
            [
              -58.250349,
              -44.47041
            ],
            [
              -58.362159,
              -44.327082
            ],
            [
              -58.493234,
              -44.192223
            ],
            [
              -58.64231,
              -44.067132
            ],
            [
              -58.807952,
              -43.953012
            ],
            [
              -58.988565,
              -43.850964
            ],
            [
              -59.18241,
              -43.761969
            ],
            [
              -59.387619,
              -43.686886
            ],
            [
              -59.602217,
              -43.626436
            ]
          ]
        ],
        "type": "Polygon"
      },
      "properties": {
        "kind": "reachableSet",
        "observationStatus": "estimated",
        "vessel": "A"
      },
      "type": "Feature"
    },
    {
      "geometry": {
        "coordinates": [
          [
            [
              -58.899803,
              -43.906289
            ],
            [
              -59.093604,
              -43.811445
            ],
            [
              -59.299592,
              -43.730521
            ],
            [
              -59.515782,
              -43.664298
            ],
            [
              -59.740092,
              -43.613412
            ],
            [
              -59.970362,
              -43.578354
            ],
            [
              -60.204374,
              -43.559461
            ],
            [
              -60.439874,
              -43.556915
            ],
            [
              -60.674596,
              -43.570742
            ],
            [
              -60.906277,
              -43.600807
            ],
            [
              -61.132687,
              -43.646821
            ],
            [
              -61.351646,
              -43.708342
            ],
            [
              -61.561044,
              -43.784775
            ],
            [
              -61.758865,
              -43.875387
            ],
            [
              -61.943205,
              -43.979303
            ],
            [
              -62.112287,
              -44.095523
            ],
            [
              -62.264483,
              -44.222928
            ],
            [
              -62.398328,
              -44.36029
            ],
            [
              -62.512533,
              -44.506288
            ],
            [
              -62.605997,
              -44.659514
            ],
            [
              -62.677821,
              -44.818494
            ],
            [
              -62.727313,
              -44.981696
            ],
            [
              -62.753996,
              -45.147548
            ],
            [
              -62.757614,
              -45.314453
            ],
            [
              -62.738131,
              -45.480805
            ],
            [
              -62.695735,
              -45.645
            ],
            [
              -62.630835,
              -45.805457
            ],
            [
              -62.544055,
              -45.960632
            ],
            [
              -62.436231,
              -46.109029
            ],
            [
              -62.308402,
              -46.24922
            ],
            [
              -62.161798,
              -46.379855
            ],
            [
              -61.997832,
              -46.499674
            ],
            [
              -61.818082,
              -46.607526
            ],
            [
              -61.624281,
              -46.70237
            ],
            [
              -61.418293,
              -46.783294
            ],
            [
              -61.202103,
              -46.849517
            ],
            [
              -60.977793,
              -46.900403
            ],
            [
              -60.747523,
              -46.935461
            ],
            [
              -60.513511,
              -46.954354
            ],
            [
              -60.278011,
              -46.9569
            ],
            [
              -60.043289,
              -46.943073
            ],
            [
              -59.811608,
              -46.913008
            ],
            [
              -59.585198,
              -46.866994
            ],
            [
              -59.366239,
              -46.805473
            ],
            [
              -59.156841,
              -46.72904
            ],
            [
              -58.95902,
              -46.638428
            ],
            [
              -58.77468,
              -46.534512
            ],
            [
              -58.605598,
              -46.418292
            ],
            [
              -58.453402,
              -46.290887
            ],
            [
              -58.319557,
              -46.153525
            ],
            [
              -58.205352,
              -46.007527
            ],
            [
              -58.111888,
              -45.854301
            ],
            [
              -58.040064,
              -45.695321
            ],
            [
              -57.990572,
              -45.532119
            ],
            [
              -57.963889,
              -45.366267
            ],
            [
              -57.960271,
              -45.199362
            ],
            [
              -57.979754,
              -45.03301
            ],
            [
              -58.02215,
              -44.868815
            ],
            [
              -58.08705,
              -44.708358
            ],
            [
              -58.17383,
              -44.553183
            ],
            [
              -58.281654,
              -44.404786
            ],
            [
              -58.409483,
              -44.264595
            ],
            [
              -58.556087,
              -44.13396
            ],
            [
              -58.720053,
              -44.014141
            ],
            [
              -58.899803,
              -43.906289
            ]
          ]
        ],
        "type": "Polygon"
      },
      "properties": {
        "kind": "reachableSet",
        "observationStatus": "estimated",
        "vessel": "B"
      },
      "type": "Feature"
    }
  ],
  "properties": {
    "dateline": false
  },
  "type": "FeatureCollection"
}
