{
  "features": [
    {
      "geometry": {
        "coordinates": [
          -111.213367,
          1.031408
        ],
        "type": "Point"
      },
      "properties": {
        "mmsi": "412420965",
        "observationStatus": "observed",
        "role": "off",
        "time": "2018-04-01T02:29:05Z",
        "vessel": "A"
      },
      "type": "Feature"
    },
    {
      "geometry": {
        "coordinates": [
          -111.190258,
          0.991723
        ],
        "type": "Point"
      },
      "properties": {
        "mmsi": "412420964",
        "observationStatus": "observed",
        "role": "off",
        "time": "2018-04-01T02:31:07Z",
        "vessel": "B"
      },
      "type": "Feature"
    },
    {
      "geometry": {
        "coordinates": [
          -111.155033,
          1.214947
        ],
        "type": "Point"
      },
      "properties": {
        "mmsi": "412420965",
        "observationStatus": "observed",
        "role": "on",
        "time": "2018-04-01T16:04:27Z",
        "vessel": "A"
      },
      "type": "Feature"
    },
    {
      "geometry": {
        "coordinates": [
          -111.105047,
          1.192988
        ],
        "type": "Point"
      },
      "properties": {
        "mmsi": "412420964",
        "observationStatus": "observed",
        "role": "on",
        "time": "2018-04-01T16:06:42Z",
        "vessel": "B"
      },
      "type": "Feature"
    },
    {
      "geometry": {
        "coordinates": [
          [
            -111.213367,
            1.031408
          ],
          [
            -111.171015,
            1.110443
          ],
          [
            -111.155033,
            1.214947
          ]
        ],
        "type": "LineString"
      },
      "properties": {
        "confidence": "low",
        "lineStyle": "dashed",
        "observationStatus": "estimated",
        "source": "reachable-set heuristic",
        "vessel": "A"
      },
      "type": "Feature"
    },
    {
      "geometry": {
        "coordinates": [
          [
            -111.190258,
            0.991723
          ],
          [
            -111.171015,
            1.110443
          ],
          [
            -111.105047,
            1.192988
          ]
        ],
        "type": "LineString"
      },
      "properties": {
        "confidence": "low",
        "lineStyle": "dashed",
        "observationStatus": "estimated",
        "source": "reachable-set heuristic",
        "vessel": "B"
      },
      "type": "Feature"
    },
    {
      "geometry": {
        "coordinates": [
          -111.171015,
          1.110443
        ],
        "type": "Point"
      },
      "properties": {
        "kind": "meetingPoint",
        "observationStatus": "estimated"
      },
      "type": "Feature"
    },
    {
      "geometry": {
        "coordinates": [
          [
            [
              -110.801206,
              2.328219
            ],
            [
              -110.920051,
              2.360094
            ],
            [
              -111.04144,
              2.380056
            ],
            [
              -111.164203,
              2.387915
            ],
            [
              -111.28716,
              2.383593
            ],
            [
              -111.409124,
              2.367133
            ],
            [
              -111.528923,
              2.338693
            ],
            [
              -111.645402,
              2.298547
            ],
            [
              -111.757439,
              2.247081
            ],
            [
              -111.863955,
              2.184791
            ],
            [
              -111.963925,
              2.112278
            ],
            [
              -112.056386,
              2.030239
            ],
            [
              -112.140447,
              1.939464
            ],
            [
              -112.215299,
              1.840829
            ],
            [
              -112.280221,
              1.735281
            ],
            [
              -112.334588,
              1.623839
            ],
            [
              -112.377876,
              1.507576
            ],
            [
              -112.409668,
              1.38761
            ],
            [
              -112.429658,
              1.265098
            ],
            [
              -112.437654,
              1.141219
            ],
            [
              -112.433578,
              1.017166
            ],
            [
              -112.41747,
              0.894134
            ],
            [
              -112.389485,
              0.773308
            ],
            [
              -112.349893,
              0.655851
            ],
            [
              -112.299074,
              0.542895
            ],
            [
              -112.237518,
              0.435528
            ],
            [
              -112.165819,
              0.334783
            ],
            [
              -112.084665,
              0.24163
            ],
            [
              -111.99484,
              0.156967
            ],
            [
              -111.897208,
              0.08161
            ],
            [
              -111.792709,
              0.016283
            ],
            [
              -111.68235,
              -0.038383
            ],
            [
              -111.567194,
              -0.081864
            ],
            [
              -111.448349,
              -0.113739
            ],
            [
              -111.32696,
              -0.133701
            ],
            [
              -111.204197,
              -0.14156
            ],
            [
              -111.08124,
              -0.137238
            ],
            [
              -110.959276,
              -0.120778
            ],
            [
              -110.839477,
              -0.092338
            ],
            [
              -110.722998,
              -0.052192
            ],
            [
              -110.610961,
              -0.000726
            ],
            [
              -110.504445,
              0.061564
            ],
            [
              -110.404475,
              0.134077
            ],
            [
              -110.312014,
              0.216116
            ],
            [
              -110.227953,
              0.306891
            ],
            [
              -110.153101,
              0.405526
            ],
            [
              -110.088179,
              0.511074
            ],
            [
              -110.033812,
              0.622516
            ],
            [
              -109.990524,
              0.738779
            ],
            [
              -109.958732,
              0.858745
            ],
            [
              -109.938742,
              0.981257
            ],
            [
              -109.930746,
              1.105136
            ],
            [
              -109.934822,
              1.229189
            ],
            [
              -109.95093,
              1.352221
            ],
            [
              -109.978915,
              1.473047
            ],
            [
              -110.018507,
              1.590504
            ],
            [
              -110.069326,
              1.70346
            ],
            [
              -110.130882,
              1.810827
            ],
            [
              -110.202581,
              1.911572
            ],
            [
              -110.283735,
              2.004725
            ],
            [
              -110.37356,
              2.089388
            ],
            [
              -110.471192,
              2.164745
            ],
            [
              -110.575691,
              2.230072
            ],
            [
              -110.68605,
              2.284738
            ],
            [
              -110.801206,
              2.328219
            ]
          ]
        ],
        "type": "Polygon"
      },
      "properties": {
        "kind": "reachableSet",
        "observationStatus": "estimated",
        "vessel": "A"
      },
      "type": "Feature"
    },
    {
      "geometry": {
        "coordinates": [
          [
            [
              -110.654732,
              2.256606
            ],
            [
              -110.770049,
              2.299451
            ],
            [
              -110.889003,
              2.330671
            ],
            [
              -111.010448,
              2.349966
            ],
            [
              -111.133215,
              2.357149
            ],
            [
              -111.25612,
              2.352152
            ],
            [
              -111.377981,
              2.335022
            ],
            [
              -111.497623,
              2.305925
            ],
            [
              -111.613895,
              2.26514
            ],
            [
              -111.725677,
              2.21306
            ],
            [
              -111.831892,
              2.150188
            ],
            [
              -111.931518,
              2.077128
            ],
            [
              -112.023595,
              1.994584
            ],
            [
              -112.107236,
              1.903352
            ],
            [
              -112.181635,
              1.804309
            ],
            [
              -112.246077,
              1.698409
            ],
            [
              -112.29994,
              1.586673
            ],
            [
              -112.342706,
              1.470176
            ],
            [
              -112.373963,
              1.350041
            ],
            [
              -112.39341,
              1.227424
            ],
            [
              -112.40086,
              1.103506
            ],
            [
              -112.396241,
              0.979481
            ],
            [
              -112.379597,
              0.856543
            ],
            [
              -112.351088,
              0.735876
            ],
            [
              -112.31099,
              0.618642
            ],
            [
              -112.259689,
              0.50597
            ],
            [
              -112.197678,
              0.398945
            ],
            [
              -112.125554,
              0.298598
            ],
            [
              -112.044013,
              0.205896
            ],
            [
              -111.95384,
              0.121731
            ],
            [
              -111.855902,
              0.046913
            ],
            [
              -111.751144,
              -0.017836
            ],
            [
              -111.640573,
              -0.071894
            ],
            [
              -111.525256,
              -0.114739
            ],
            [
              -111.406302,
              -0.14596
            ],
            [
              -111.284857,
              -0.165255
            ],
            [
              -111.16209,
              -0.172438
            ],
            [
              -111.039185,
              -0.16744
            ],
            [
              -110.917324,
              -0.15031
            ],
            [
              -110.797682,
              -0.121213
            ],
            [
              -110.68141,
              -0.080428
            ],
            [
              -110.569628,
              -0.028349
            ],
            [
              -110.463413,
              0.034524
            ],
            [
              -110.363787,
              0.107584
            ],
            [
              -110.27171,
              0.190127
            ],
            [
              -110.188069,
              0.28136
            ],
            [
              -110.11367,
              0.380403
            ],
            [
              -110.049228,
              0.486303
            ],
            [
              -109.995365,
              0.598039
            ],
            [
              -109.952599,
              0.714536
            ],
            [
              -109.921342,
              0.834671
            ],
            [
              -109.901895,
              0.957288
            ],
            [
              -109.894445,
              1.081206
            ],
            [
              -109.899064,
              1.205231
            ],
            [
              -109.915708,
              1.328169
            ],
            [
              -109.944217,
              1.448836
            ],
            [
              -109.984315,
              1.56607
            ],
            [
              -110.035616,
              1.678742
            ],
            [
              -110.097627,
              1.785766
            ],
            [
              -110.169751,
              1.886113
            ],
            [
              -110.251292,
              1.978816
            ],
            [
              -110.341465,
              2.062981
            ],
            [
              -110.439403,
              2.137799
            ],
            [
              -110.544161,
              2.202548
            ],
            [
              -110.654732,
              2.256606
            ]
          ]
        ],
        "type": "Polygon"
      },
      "properties": {
        "kind": "reachableSet",
        "observationStatus": "estimated",
        "vessel": "B"
      },
      "type": "Feature"
    }
  ],
  "properties": {
    "dateline": false
  },
  "type": "FeatureCollection"
}
