{
  "features": [
    {
      "geometry": {
        "coordinates": [
          -60.639092,
          -47.173677
        ],
        "type": "Point"
      },
      "properties": {
        "mmsi": "412420666",
        "observationStatus": "observed",
        "role": "off",
        "time": "2018-03-17T16:32:17Z",
        "vessel": "A"
      },
      "type": "Feature"
    },
    {
      "geometry": {
        "coordinates": [
          -60.683253,
          -47.199013
        ],
        "type": "Point"
      },
      "properties": {
        "mmsi": "412420315",
        "observationStatus": "observed",
        "role": "off",
        "time": "2018-03-17T16:37:04Z",
        "vessel": "B"
      },
      "type": "Feature"
    },
    {
      "geometry": {
        "coordinates": [
          -60.747283,
          -47.230883
        ],
        "type": "Point"
      },
      "properties": {
        "mmsi": "412420315",
        "observationStatus": "observed",
        "role": "on",
        "time": "2018-03-18T10:22:36Z",
        "vessel": "B"
      },
      "type": "Feature"
    },
    {
      "geometry": {
        "coordinates": [
          -60.7571,
          -47.18465
        ],
        "type": "Point"
      },
      "properties": {
        "mmsi": "412420666",
        "observationStatus": "observed",
        "role": "on",
        "time": "2018-03-18T10:25:45Z",
        "vessel": "A"
      },
      "type": "Feature"
    },
    {
      "geometry": {
        "coordinates": [
          [
            -60.639092,
            -47.173677
          ],
          [
            -60.719703,
            -47.216341
          ],
          [
            -60.7571,
            -47.18465
          ]
        ],
        "type": "LineString"
      },
      "properties": {
        "confidence": "low",
        "lineStyle": "dashed",
        "observationStatus": "estimated",
        "source": "reachable-set heuristic",
        "vessel": "A"
      },
      "type": "Feature"
    },
    {
      "geometry": {
        "coordinates": [
          [
            -60.683253,
            -47.199013
          ],
          [
            -60.719703,
            -47.216341
          ],
          [
            -60.747283,
            -47.230883
          ]
        ],
        "type": "LineString"
      },
      "properties": {
        "confidence": "low",
        "lineStyle": "dashed",
        "observationStatus": "estimated",
        "source": "reachable-set heuristic",
        "vessel": "B"
      },
      "type": "Feature"
    },
    {
      "geometry": {
        "coordinates": [
          -60.719703,
          -47.216341
        ],
        "type": "Point"
      },
      "properties": {
        "kind": "meetingPoint",
        "observationStatus": "estimated"
      },
      "type": "Feature"
    },
    {
      "geometry": {
        "coordinates": [
          [
            [
              -63.565763,
              -47.445821
            ],
            [
              -63.513768,
              -47.636845
            ],
            [
              -63.434657,
              -47.823461
            ],
            [
              -63.329191,
              -48.003872
            ],
            [
              -63.198386,
              -48.176341
            ],
            [
              -63.043502,
              -48.339207
            ],
            [
              -62.866031,
              -48.4909
            ],
            [
              -62.667681,
              -48.629961
            ],
            [
              -62.450363,
              -48.75505
            ],
            [
              -62.21617,
              -48.864962
            ],
            [
              -61.967356,
              -48.958639
            ],
            [
              -61.70632,
              -49.035179
            ],
            [
              -61.435573,
              -49.093844
            ],
            [
              -61.157724,
              -49.13407
            ],
            [
              -60.875449,
              -49.155469
            ],
            [
              -60.591465,
              -49.157835
            ],
            [
              -60.308509,
              -49.141145
            ],
            [
              -60.029304,
              -49.105561
            ],
            [
              -59.756541,
              -49.051424
            ],
            [
              -59.492845,
              -48.979256
            ],
            [
              -59.240756,
              -48.889753
            ],
            [
              -59.002702,
              -48.783775
            ],
            [
              -58.780976,
              -48.662345
            ],
            [
              -58.577713,
              -48.52663
            ],
            [
              -58.39487,
              -48.377939
            ],
            [
              -58.234208,
              -48.217702
            ],
            [
              -58.097275,
              -48.047464
            ],
            [
              -57.98539,
              -47.868864
            ],
            [
              -57.899629,
              -47.683622
            ],
            [
              -57.840819,
              -47.493521
            ],
            [
              -57.809526,
              -47.300393
            ],
            [
              -57.806052,
              -47.106097
            ],
            [
              -57.830429,
              -46.912505
            ],
            [
              -57.882424,
              -46.721482
            ],
            [
              -57.961535,
              -46.534865
            ],
            [
              -58.067001,
              -46.354454
            ],
            [
              -58.197806,
              -46.181985
            ],
            [
              -58.35269,
              -46.01912
            ],
            [
              -58.530161,
              -45.867426
            ],
            [
              -58.728511,
              -45.728366
            ],
            [
              -58.945829,
              -45.603277
            ],
            [
              -59.180022,
              -45.493365
            ],
            [
              -59.428835,
              -45.399688
            ],
            [
              -59.689872,
              -45.323148
            ],
            [
              -59.960619,
              -45.264483
            ],
            [
              -60.238467,
              -45.224257
            ],
            [
              -60.520743,
              -45.202858
            ],
            [
              -60.804726,
              -45.200492
            ],
            [
              -61.087683,
              -45.217181
            ],
            [
              -61.366887,
              -45.252766
            ],
            [
              -61.639651,
              -45.306902
            ],
            [
              -61.903347,
              -45.37907
            ],
            [
              -62.155436,
              -45.468574
            ],
            [
              -62.393489,
              -45.574551
            ],
            [
              -62.615216,
              -45.695982
            ],
            [
              -62.818479,
              -45.831697
            ],
            [
              -63.001322,
              -45.980388
            ],
            [
              -63.161983,
              -46.140624
            ],
            [
              -63.298916,
              -46.310862
            ],
            [
              -63.410802,
              -46.489463
            ],
            [
              -63.496563,
              -46.674705
            ],
            [
              -63.555373,
              -46.864806
            ],
            [
              -63.586666,
              -47.057934
            ],
            [
              -63.59014,
              -47.252229
            ],
            [
              -63.565763,
              -47.445821
            ]
          ]
        ],
        "type": "Polygon"
      },
      "properties": {
        "kind": "reachableSet",
        "observationStatus": "estimated",
        "vessel": "A"
      },
      "type": "Feature"
    },
    {
      "geometry": {
        "coordinates": [
          [
            [
              -62.706516,
              -48.206063
            ],
            [
              -62.55489,
              -48.334746
            ],
            [
              -62.385547,
              -48.452645
            ],
            [
              -62.200118,
              -48.558624
            ],
            [
              -62.00039,
              -48.651663
            ],
            [
              -61.788285,
              -48.730865
            ],
            [
              -61.565846,
              -48.795468
            ],
            [
              -61.335216,
              -48.84485
            ],
            [
              -61.098615,
              -48.878536
            ],
            [
              -60.858323,
              -48.8962
            ],
            [
              -60.616653,
              -48.897672
            ],
            [
              -60.375932,
              -48.882939
            ],
            [
              -60.13848,
              -48.852143
            ],
            [
              -59.906582,
              -48.805579
            ],
            [
              -59.682473,
              -48.743696
            ],
            [
              -59.46831,
              -48.667091
            ],
            [
              -59.266155,
              -48.576501
            ],
            [
              -59.077957,
              -48.472799
            ],
            [
              -58.905526,
              -48.356983
            ],
            [
              -58.750525,
              -48.230168
            ],
            [
              -58.614445,
              -48.093576
            ],
            [
              -58.498597,
              -47.948523
            ],
            [
              -58.404097,
              -47.796405
            ],
            [
              -58.331855,
              -47.638687
            ],
            [
              -58.282566,
              -47.476888
            ],
            [
              -58.256705,
              -47.312567
            ],
            [
              -58.254522,
              -47.147305
            ],
            [
              -58.276037,
              -46.982695
            ],
            [
              -58.321044,
              -46.820322
            ],
            [
              -58.389108,
              -46.661749
            ],
            [
              -58.479574,
              -46.508504
            ],
            [
              -58.591571,
              -46.362062
            ],
            [
              -58.724021,
              -46.223834
            ],
            [
              -58.875647,
              -46.095151
            ],
            [
              -59.04499,
              -45.977252
            ],
            [
              -59.230418,
              -45.871273
            ],
            [
              -59.430147,
              -45.778234
            ],
            [
              -59.642252,
              -45.699032
            ],
            [
              -59.86469,
              -45.634428
            ],
            [
              -60.095321,
              -45.585046
            ],
            [
              -60.331921,
              -45.551361
            ],
            [
              -60.572214,
              -45.533697
            ],
            [
              -60.813884,
              -45.532225
            ],
            [
              -61.054604,
              -45.546958
            ],
            [
              -61.292057,
              -45.577754
            ],
            [
              -61.523954,
              -45.624318
            ],
            [
              -61.748064,
              -45.6862
            ],
            [
              -61.962227,
              -45.762805
            ],
            [
              -62.164381,
              -45.853395
            ],
            [
              -62.35258,
              -45.957098
            ],
            [
              -62.52501,
              -46.072914
            ],
            [
              -62.680012,
              -46.199729
            ],
            [
              -62.816092,
              -46.33632
            ],
            [
              -62.93194,
              -46.481374
            ],
            [
              -63.02644,
              -46.633492
            ],
            [
              -63.098682,
              -46.79121
            ],
            [
              -63.147971,
              -46.953009
            ],
            [
              -63.173831,
              -47.11733
            ],
            [
              -63.176014,
              -47.282592
            ],
            [
              -63.154499,
              -47.447202
            ],
            [
              -63.109493,
              -47.609575
            ],
            [
              -63.041429,
              -47.768148
            ],
            [
              -62.950963,
              -47.921393
            ],
            [
              -62.838966,
              -48.067835
            ],
            [
              -62.706516,
              -48.206063
            ]
          ]
        ],
        "type": "Polygon"
      },
      "properties": {
        "kind": "reachableSet",
        "observationStatus": "estimated",
        "vessel": "B"
      },
      "type": "Feature"
    }
  ],
  "properties": {
    "dateline": false
  },
  "type": "FeatureCollection"
}
