{
  "features": [
    {
      "geometry": {
        "coordinates": [
          162.709842,
          48.637443
        ],
        "type": "Point"
      },
      "properties": {
        "mmsi": "412331061",
        "observationStatus": "observed",
        "role": "off",
        "time": "2018-08-02T01:27:01Z",
        "vessel": "A"
      },
      "type": "Feature"
    },
    {
      "geometry": {
        "coordinates": [
          162.786347,
          48.56993
        ],
        "type": "Point"
      },
      "properties": {
        "mmsi": "416253700",
        "observationStatus": "observed",
        "role": "off",
        "time": "2018-08-02T01:28:13Z",
        "vessel": "B"
      },
      "type": "Feature"
    },
    {
      "geometry": {
        "coordinates": [
          161.04391,
          47.985033
        ],
        "type": "Point"
      },
      "properties": {
        "mmsi": "412331061",
        "observationStatus": "observed",
        "role": "on",
        "time": "2018-08-02T18:46:50Z",
        "vessel": "A"
      },
      "type": "Feature"
    },
    {
      "geometry": {
        "coordinates": [
          161.125893,
          48.029137
        ],
        "type": "Point"
      },
      "properties": {
        "mmsi": "416253700",
        "observationStatus": "observed",
        "role": "on",
        "time": "2018-08-02T19:10:39Z",
        "vessel": "B"
      },
      "type": "Feature"
    },
    {
      "geometry": {
        "coordinates": [
          [
            162.709842,
            48.637443
          ],
          [
            162.204769,
            48.376447
          ],
          [
            161.04391,
            47.985033
          ]
        ],
        "type": "LineString"
      },
      "properties": {
        "confidence": "low",
        "lineStyle": "dashed",
        "observationStatus": "estimated",
        "source": "reachable-set heuristic",
        "vessel": "A"
      },
      "type": "Feature"
    },
    {
      "geometry": {
        "coordinates": [
          [
            162.786347,
            48.56993
          ],
          [
            162.204769,
            48.376447
          ],
          [
            161.125893,
            48.029137
          ]
        ],
        "type": "LineString"
      },
      "properties": {
        "confidence": "low",
        "lineStyle": "dashed",
        "observationStatus": "estimated",
        "source": "reachable-set heuristic",
        "vessel": "B"
      },
      "type": "Feature"
    },
    {
      "geometry": {
        "coordinates": [
          162.204769,
          48.376447
        ],
        "type": "Point"
      },
      "properties": {
        "kind": "meetingPoint",
        "observationStatus": "estimated"
      },
      "type": "Feature"
    },
    {
      "geometry": {
        "coordinates": [
          [
            [
              159.761195,
              47.482698
            ],
            [
              159.882871,
              47.359046
            ],
            [
              160.02375,
              47.244565
            ],
            [
              160.182476,
              47.140356
            ],
            [
              160.35752,
              47.047424
            ],
            [
              160.547196,
              46.966662
            ],
            [
              160.749678,
              46.89885
            ],
            [
              160.963015,
              46.84464
            ],
            [
              161.185153,
              46.804554
            ],
            [
              161.413953,
              46.778978
            ],
            [
              161.647211,
              46.768158
            ],
            [
              161.882681,
              46.7722
            ],
            [
              162.118095,
              46.791063
            ],
            [
              162.351186,
              46.824566
            ],
            [
              162.579709,
              46.872387
            ],
            [
              162.801464,
              46.934064
            ],
            [
              163.014314,
              47.009005
            ],
            [
              163.21621,
              47.096487
            ],
            [
              163.405207,
              47.195667
            ],
            [
              163.579486,
              47.305591
            ],
            [
              163.737367,
              47.4252
            ],
            [
              163.877332,
              47.553342
            ],
            [
              163.99803,
              47.688783
            ],
            [
              164.098301,
              47.830219
            ],
            [
              164.177178,
              47.976287
            ],
            [
              164.233902,
              48.12558
            ],
            [
              164.267927,
              48.276662
            ],
            [
              164.278924,
              48.428077
            ],
            [
              164.266789,
              48.578367
            ],
            [
              164.231637,
              48.726084
            ],
            [
              164.173808,
              48.869805
            ],
            [
              164.093858,
              49.008148
            ],
            [
              163.992557,
              49.139779
            ],
            [
              163.870881,
              49.26343
            ],
            [
              163.730002,
              49.377912
            ],
            [
              163.571276,
              49.48212
            ],
            [
              163.396232,
              49.575053
            ],
            [
              163.206556,
              49.655814
            ],
            [
              163.004074,
              49.723627
            ],
            [
              162.790737,
              49.777837
            ],
            [
              162.568598,
              49.817923
            ],
            [
              162.339798,
              49.843499
            ],
            [
              162.10654,
              49.854318
            ],
            [
              161.87107,
              49.850277
            ],
            [
              161.635656,
              49.831414
            ],
            [
              161.402566,
              49.797911
            ],
            [
              161.174043,
              49.75009
            ],
            [
              160.952288,
              49.688412
            ],
            [
              160.739438,
              49.613472
            ],
            [
              160.537542,
              49.52599
            ],
            [
              160.348545,
              49.42681
            ],
            [
              160.174266,
              49.316886
            ],
            [
              160.016384,
              49.197277
            ],
            [
              159.87642,
              49.069135
            ],
            [
              159.755721,
              48.933694
            ],
            [
              159.655451,
              48.792258
            ],
            [
              159.576573,
              48.64619
            ],
            [
              159.519849,
              48.496896
            ],
            [
              159.485825,
              48.345814
            ],
            [
              159.474827,
              48.1944
            ],
            [
              159.486963,
              48.04411
            ],
            [
              159.522114,
              47.896393
            ],
            [
              159.579944,
              47.752671
            ],
            [
              159.659894,
              47.614329
            ],
            [
              159.761195,
              47.482698
            ]
          ]
        ],
        "type": "Polygon"
      },
      "properties": {
        "kind": "reachableSet",
        "observationStatus": "estimated",
        "vessel": "A"
      },
      "type": "Feature"
    },
    {
      "geometry": {
        "coordinates": [
          [
            [
              159.701598,
              47.565258
            ],
            [
              159.812363,
              47.431192
            ],
            [
              159.943773,
              47.305488
            ],
            [
              160.094564,
              47.189358
            ],
            [
              160.263283,
              47.083919
            ],
            [
              160.448304,
              46.990188
            ],
            [
              160.647847,
              46.909066
            ],
            [
              160.859989,
              46.841335
            ],
            [
              161.082687,
              46.787647
            ],
            [
              161.313797,
              46.74852
            ],
            [
              161.551093,
              46.72433
            ],
            [
              161.792289,
              46.715309
            ],
            [
              162.035064,
              46.721546
            ],
            [
              162.277078,
              46.74298
            ],
            [
              162.516001,
              46.779404
            ],
            [
              162.749532,
              46.830468
            ],
            [
              162.975422,
              46.895679
            ],
            [
              163.191495,
              46.974411
            ],
            [
              163.395672,
              47.065904
            ],
            [
              163.585984,
              47.169278
            ],
            [
              163.7606,
              47.283537
            ],
            [
              163.917838,
              47.40758
            ],
            [
              164.056184,
              47.540213
            ],
            [
              164.174305,
              47.680159
            ],
            [
              164.271063,
              47.82607
            ],
            [
              164.345528,
              47.976541
            ],
            [
              164.396981,
              48.130122
            ],
            [
              164.424927,
              48.285335
            ],
            [
              164.429097,
              48.440684
            ],
            [
              164.409451,
              48.594674
            ],
            [
              164.366178,
              48.745822
            ],
            [
              164.299695,
              48.892672
            ],
            [
              164.210642,
              49.033809
            ],
            [
              164.099877,
              49.167875
            ],
            [
              163.968467,
              49.293579
            ],
            [
              163.817676,
              49.409709
            ],
            [
              163.648957,
              49.515147
            ],
            [
              163.463936,
              49.608879
            ],
            [
              163.264393,
              49.690001
            ],
            [
              163.052251,
              49.757732
            ],
            [
              162.829553,
              49.811419
            ],
            [
              162.598443,
              49.850547
            ],
            [
              162.361147,
              49.874737
            ],
            [
              162.119951,
              49.883757
            ],
            [
              161.877176,
              49.87752
            ],
            [
              161.635162,
              49.856087
            ],
            [
              161.396239,
              49.819663
            ],
            [
              161.162708,
              49.768599
            ],
            [
              160.936818,
              49.703387
            ],
            [
              160.720745,
              49.624656
            ],
            [
              160.516568,
              49.533163
            ],
            [
              160.326256,
              49.429789
            ],
            [
              160.15164,
              49.31553
            ],
            [
              159.994402,
              49.191487
            ],
            [
              159.856056,
              49.058853
            ],
            [
              159.737935,
              48.918907
            ],
            [
              159.641177,
              48.772997
            ],
            [
              159.566712,
              48.622526
            ],
            [
              159.515259,
              48.468945
            ],
            [
              159.487313,
              48.313732
            ],
            [
              159.483143,
              48.158383
            ],
            [
              159.502789,
              48.004392
            ],
            [
              159.546062,
              47.853245
            ],
            [
              159.612545,
              47.706395
            ],
            [
              159.701598,
              47.565258
            ]
          ]
        ],
        "type": "Polygon"
      },
      "properties": {
        "kind": "reachableSet",
        "observationStatus": "estimated",
        "vessel": "B"
      },
      "type": "Feature"
    }
  ],
  "properties": {
    "dateline": false
  },
  "type": "FeatureCollection"
}
