{
  "features": [
    {
      "geometry": {
        "coordinates": [
          158.568053,
          43.42472
        ],
        "type": "Point"
      },
      "properties": {
        "mmsi": "416191500",
        "observationStatus": "observed",
        "role": "off",
        "time": "2018-09-26T23:39:28Z",
        "vessel": "A"
      },
      "type": "Feature"
    },
    {
      "geometry": {
        "coordinates": [
          158.579513,
          43.440863
        ],
        "type": "Point"
      },
      "properties": {
        "mmsi": "416248500",
        "observationStatus": "observed",
        "role": "off",
        "time": "2018-09-27T00:29:42Z",
        "vessel": "B"
      },
      "type": "Feature"
    },
    {
      "geometry": {
        "coordinates": [
          158.455027,
          44.028205
        ],
        "type": "Point"
      },
      "properties": {
        "mmsi": "416248500",
        "observationStatus": "observed",
        "role": "on",
        "time": "2018-09-27T19:52:46Z",
        "vessel": "B"
      },
      "type": "Feature"
    },
    {
      "geometry": {
        "coordinates": [
          158.385348,
          44.057912
        ],
        "type": "Point"
      },
      "properties": {
        "mmsi": "416191500",
        "observationStatus": "observed",
        "role": "on",
        "time": "2018-09-27T20:20:47Z",
        "vessel": "A"
      },
      "type": "Feature"
    },
    {
      "geometry": {
        "coordinates": [
          [
            158.568053,
            43.42472
          ],
          [
            158.470934,
            43.955446
          ],
          [
            158.385348,
            44.057912
          ]
        ],
        "type": "LineString"
      },
      "properties": {
        "confidence": "low",
        "lineStyle": "dashed",
        "observationStatus": "estimated",
        "source": "reachable-set heuristic",
        "vessel": "A"
      },
      "type": "Feature"
    },
    {
      "geometry": {
        "coordinates": [
          [
            158.579513,
            43.440863
          ],
          [
            158.470934,
            43.955446
          ],
          [
            158.455027,
            44.028205
          ]
        ],
        "type": "LineString"
      },
      "properties": {
        "confidence": "low",
        "lineStyle": "dashed",
        "observationStatus": "estimated",
        "source": "reachable-set heuristic",
        "vessel": "B"
      },
      "type": "Feature"
    },
    {
      "geometry": {
        "coordinates": [
          158.470934,
          43.955446
        ],
        "type": "Point"
      },
      "properties": {
        "kind": "meetingPoint",
        "observationStatus": "estimated"
      },
      "type": "Feature"
    },
    {
      "geometry": {
        "coordinates": [
          [
            [
              157.917942,
              45.67778
            ],
            [
              157.663194,
              45.629155
            ],
            [
              157.41628,
              45.562349
            ],
            [
              157.17958,
              45.478005
            ],
            [
              156.955371,
              45.376936
            ],
            [
              156.745813,
              45.260116
            ],
            [
              156.552925,
              45.128668
            ],
            [
              156.378564,
              44.983859
            ],
            [
              156.224409,
              44.827084
            ],
            [
              156.091944,
              44.659853
            ],
            [
              155.982447,
              44.483775
            ],
            [
              155.89697,
              44.300547
            ],
            [
              155.836338,
              44.111934
            ],
            [
              155.801133,
              43.919751
            ],
            [
              155.791696,
              43.72585
            ],
            [
              155.808117,
              43.532097
            ],
            [
              155.850238,
              43.34036
            ],
            [
              155.917653,
              43.152484
            ],
            [
              156.009713,
              42.970279
            ],
            [
              156.125532,
              42.795499
            ],
            [
              156.263993,
              42.629828
            ],
            [
              156.423765,
              42.474862
            ],
            [
              156.603307,
              42.332091
            ],
            [
              156.800891,
              42.202893
            ],
            [
              157.014614,
              42.08851
            ],
            [
              157.242417,
              41.990045
            ],
            [
              157.482108,
              41.908446
            ],
            [
              157.731376,
              41.844498
            ],
            [
              157.987823,
              41.798817
            ],
            [
              158.248978,
              41.771844
            ],
            [
              158.512326,
              41.763838
            ],
            [
              158.775331,
              41.774876
            ],
            [
              159.03546,
              41.804852
            ],
            [
              159.290208,
              41.853477
            ],
            [
              159.537121,
              41.920283
            ],
            [
              159.773822,
              42.004626
            ],
            [
              159.998031,
              42.105695
            ],
            [
              160.207589,
              42.222516
            ],
            [
              160.400477,
              42.353964
            ],
            [
              160.574838,
              42.498772
            ],
            [
              160.728993,
              42.655547
            ],
            [
              160.861457,
              42.822779
            ],
            [
              160.970955,
              42.998856
            ],
            [
              161.056432,
              43.182084
            ],
            [
              161.117064,
              43.370698
            ],
            [
              161.152268,
              43.562881
            ],
            [
              161.161706,
              43.756782
            ],
            [
              161.145285,
              43.950534
            ],
            [
              161.103164,
              44.142272
            ],
            [
              161.035749,
              44.330148
            ],
            [
              160.943689,
              44.512353
            ],
            [
              160.82787,
              44.687132
            ],
            [
              160.689408,
              44.852803
            ],
            [
              160.529637,
              45.00777
            ],
            [
              160.350095,
              45.15054
            ],
            [
              160.152511,
              45.279739
            ],
            [
              159.938788,
              45.394121
            ],
            [
              159.710985,
              45.492587
            ],
            [
              159.471294,
              45.574186
            ],
            [
              159.222025,
              45.638134
            ],
            [
              158.965578,
              45.683815
            ],
            [
              158.704424,
              45.710788
            ],
            [
              158.441076,
              45.718794
            ],
            [
              158.178071,
              45.707756
            ],
            [
              157.917942,
              45.67778
            ]
          ]
        ],
        "type": "Polygon"
      },
      "properties": {
        "kind": "reachableSet",
        "observationStatus": "estimated",
        "vessel": "A"
      },
      "type": "Feature"
    },
    {
      "geometry": {
        "coordinates": [
          [
            [
              158.130248,
              45.560547
            ],
            [
              157.889277,
              45.524517
            ],
            [
              157.654353,
              45.47125
            ],
            [
              157.42774,
              45.401256
            ],
            [
              157.21162,
              45.315212
            ],
            [
              157.008074,
              45.213944
            ],
            [
              156.819062,
              45.098429
            ],
            [
              156.646405,
              44.969779
            ],
            [
              156.491765,
              44.829233
            ],
            [
              156.356632,
              44.678144
            ],
            [
              156.242308,
              44.517968
            ],
            [
              156.149892,
              44.350247
            ],
            [
              156.080275,
              44.176596
            ],
            [
              156.034128,
              43.998688
            ],
            [
              156.011896,
              43.818236
            ],
            [
              156.013791,
              43.636978
            ],
            [
              156.039796,
              43.456659
            ],
            [
              156.08966,
              43.279017
            ],
            [
              156.162904,
              43.105761
            ],
            [
              156.258822,
              42.938561
            ],
            [
              156.376489,
              42.779026
            ],
            [
              156.514774,
              42.628694
            ],
            [
              156.672343,
              42.489011
            ],
            [
              156.847681,
              42.361324
            ],
            [
              157.039097,
              42.246861
            ],
            [
              157.244749,
              42.146725
            ],
            [
              157.462656,
              42.061881
            ],
            [
              157.69072,
              41.993146
            ],
            [
              157.926743,
              41.94118
            ],
            [
              158.168454,
              41.906486
            ],
            [
              158.413524,
              41.889397
            ],
            [
              158.659594,
              41.890078
            ],
            [
              158.904292,
              41.908522
            ],
            [
              159.145263,
              41.944551
            ],
            [
              159.380187,
              41.997819
            ],
            [
              159.6068,
              42.067812
            ],
            [
              159.82292,
              42.153857
            ],
            [
              160.026466,
              42.255124
            ],
            [
              160.215478,
              42.370639
            ],
            [
              160.388135,
              42.499289
            ],
            [
              160.542775,
              42.639836
            ],
            [
              160.677908,
              42.790924
            ],
            [
              160.792232,
              42.951101
            ],
            [
              160.884648,
              43.118822
            ],
            [
              160.954265,
              43.292472
            ],
            [
              161.000412,
              43.470381
            ],
            [
              161.022644,
              43.650833
            ],
            [
              161.020749,
              43.832091
            ],
            [
              160.994744,
              44.012409
            ],
            [
              160.94488,
              44.190052
            ],
            [
              160.871636,
              44.363307
            ],
            [
              160.775718,
              44.530507
            ],
            [
              160.658051,
              44.690042
            ],
            [
              160.519766,
              44.840374
            ],
            [
              160.362197,
              44.980057
            ],
            [
              160.186859,
              45.107744
            ],
            [
              159.995443,
              45.222207
            ],
            [
              159.789791,
              45.322343
            ],
            [
              159.571884,
              45.407187
            ],
            [
              159.34382,
              45.475923
            ],
            [
              159.107797,
              45.527888
            ],
            [
              158.866086,
              45.562582
            ],
            [
              158.621016,
              45.579671
            ],
            [
              158.374946,
              45.57899
            ],
            [
              158.130248,
              45.560547
            ]
          ]
        ],
        "type": "Polygon"
      },
      "properties": {
        "kind": "reachableSet",
        "observationStatus": "estimated",
        "vessel": "B"
      },
      "type": "Feature"
    }
  ],
  "properties": {
    "dateline": false
  },
  "type": "FeatureCollection"
}
