{
  "features": [
    {
      "geometry": {
        "coordinates": [
          -60.302323,
          -45.105985
        ],
        "type": "Point"
      },
      "properties": {
        "mmsi": "441309000",
        "observationStatus": "observed",
        "role": "off",
        "time": "2017-02-17T08:22:57Z",
        "vessel": "A"
      },
      "type": "Feature"
    },
    {
      "geometry": {
        "coordinates": [
          -60.295718,
          -45.11651
        ],
        "type": "Point"
      },
      "properties": {
        "mmsi": "440191000",
        "observationStatus": "observed",
        "role": "off",
        "time": "2017-02-17T08:31:30Z",
        "vessel": "B"
      },
      "type": "Feature"
    },
    {
      "geometry": {
        "coordinates": [
          -60.037883,
          -44.947282
        ],
        "type": "Point"
      },
      "properties": {
        "mmsi": "441309000",
        "observationStatus": "observed",
        "role": "on",
        "time": "2017-02-18T23:06:56Z",
        "vessel": "A"
      },
      "type": "Feature"
    },
    {
      "geometry": {
        "coordinates": [
          -59.986278,
          -44.913625
        ],
        "type": "Point"
      },
      "properties": {
        "mmsi": "440191000",
        "observationStatus": "observed",
        "role": "on",
        "time": "2017-02-18T23:07:41Z",
        "vessel": "B"
      },
      "type": "Feature"
    },
    {
      "geometry": {
        "coordinates": [
          [
            -60.302323,
            -45.105985
          ],
          [
            -60.204449,
            -45.056523
          ],
          [
            -60.037883,
            -44.947282
          ]
        ],
        "type": "LineString"
      },
      "properties": {
        "confidence": "low",
        "lineStyle": "dashed",
        "observationStatus": "estimated",
        "source": "reachable-set heuristic",
        "vessel": "A"
      },
      "type": "Feature"
    },
    {
      "geometry": {
        "coordinates": [
          [
            -60.295718,
            -45.11651
          ],
          [
            -60.204449,
            -45.056523
          ],
          [
            -59.986278,
            -44.913625
          ]
        ],
        "type": "LineString"
      },
      "properties": {
        "confidence": "low",
        "lineStyle": "dashed",
        "observationStatus": "estimated",
        "source": "reachable-set heuristic",
        "vessel": "B"
      },
      "type": "Feature"
    },
    {
      "geometry": {
        "coordinates": [
          -60.204449,
          -45.056523
        ],
        "type": "Point"
      },
      "properties": {
        "kind": "meetingPoint",
        "observationStatus": "estimated"
      },
      "type": "Feature"
    },
    {
      "geometry": {
        "coordinates": [
          [
            [
              -55.756926,
              -42.378071
            ],
            [
              -56.142845,
              -42.08316
            ],
            [
              -56.567549,
              -41.816596
            ],
            [
              -57.026948,
              -41.580947
            ],
            [
              -57.516617,
              -41.378481
            ],
            [
              -58.03184,
              -41.21115
            ],
            [
              -58.567656,
              -41.080563
            ],
            [
              -59.118904,
              -40.98798
            ],
            [
              -59.680277,
              -40.93429
            ],
            [
              -60.246366,
              -40.920013
            ],
            [
              -60.811721,
              -40.945284
            ],
            [
              -61.370897,
              -41.009861
            ],
            [
              -61.918508,
              -41.113121
            ],
            [
              -62.449281,
              -41.254071
            ],
            [
              -62.958105,
              -41.431353
            ],
            [
              -63.440079,
              -41.643259
            ],
            [
              -63.890561,
              -41.887749
            ],
            [
              -64.305213,
              -42.162468
            ],
            [
              -64.680041,
              -42.464771
            ],
            [
              -65.011437,
              -42.791746
            ],
            [
              -65.296208,
              -43.140244
            ],
            [
              -65.531611,
              -43.506909
            ],
            [
              -65.715381,
              -43.888209
            ],
            [
              -65.845746,
              -44.280474
            ],
            [
              -65.921452,
              -44.679924
            ],
            [
              -65.941769,
              -45.082713
            ],
            [
              -65.906502,
              -45.484962
            ],
            [
              -65.81599,
              -45.882797
            ],
            [
              -65.671105,
              -46.272387
            ],
            [
              -65.473242,
              -46.64998
            ],
            [
              -65.224308,
              -47.011939
            ],
            [
              -64.926698,
              -47.354778
            ],
            [
              -64.583281,
              -47.675196
            ],
            [
              -64.197361,
              -47.970107
            ],
            [
              -63.772657,
              -48.236671
            ],
            [
              -63.313259,
              -48.47232
            ],
            [
              -62.82359,
              -48.674785
            ],
            [
              -62.308367,
              -48.842117
            ],
            [
              -61.772551,
              -48.972703
            ],
            [
              -61.221302,
              -49.065287
            ],
            [
              -60.65993,
              -49.118976
            ],
            [
              -60.093841,
              -49.133254
            ],
            [
              -59.528486,
              -49.107983
            ],
            [
              -58.96931,
              -49.043406
            ],
            [
              -58.421699,
              -48.940145
            ],
            [
              -57.890925,
              -48.799195
            ],
            [
              -57.382102,
              -48.621914
            ],
            [
              -56.900128,
              -48.410007
            ],
            [
              -56.449646,
              -48.165517
            ],
            [
              -56.034994,
              -47.890798
            ],
            [
              -55.660165,
              -47.588496
            ],
            [
              -55.32877,
              -47.261521
            ],
            [
              -55.043999,
              -46.913023
            ],
            [
              -54.808595,
              -46.546358
            ],
            [
              -54.624826,
              -46.165057
            ],
            [
              -54.494461,
              -45.772793
            ],
            [
              -54.418755,
              -45.373343
            ],
            [
              -54.398438,
              -44.970554
            ],
            [
              -54.433705,
              -44.568304
            ],
            [
              -54.524217,
              -44.170469
            ],
            [
              -54.669102,
              -43.780879
            ],
            [
              -54.866964,
              -43.403287
            ],
            [
              -55.115899,
              -43.041328
            ],
            [
              -55.413508,
              -42.698489
            ],
            [
              -55.756926,
              -42.378071
            ]
          ]
        ],
        "type": "Polygon"
      },
      "properties": {
        "kind": "reachableSet",
        "observationStatus": "estimated",
        "vessel": "A"
      },
      "type": "Feature"
    },
    {
      "geometry": {
        "coordinates": [
          [
            [
              -55.910369,
              -42.241246
            ],
            [
              -56.312494,
              -41.95967
            ],
            [
              -56.75149,
              -41.707519
            ],
            [
              -57.223129,
              -41.487222
            ],
            [
              -57.722868,
              -41.300899
            ],
            [
              -58.245895,
              -41.150346
            ],
            [
              -58.787174,
              -41.037013
            ],
            [
              -59.34149,
              -40.96199
            ],
            [
              -59.903506,
              -40.926001
            ],
            [
              -60.467809,
              -40.929392
            ],
            [
              -61.028965,
              -40.972129
            ],
            [
              -61.581569,
              -41.053803
            ],
            [
              -62.1203,
              -41.173626
            ],
            [
              -62.639969,
              -41.330444
            ],
            [
              -63.135571,
              -41.522747
            ],
            [
              -63.602334,
              -41.748683
            ],
            [
              -64.035763,
              -42.006075
            ],
            [
              -64.431683,
              -42.292447
            ],
            [
              -64.786281,
              -42.605038
            ],
            [
              -65.096143,
              -42.94084
            ],
            [
              -65.358284,
              -43.296617
            ],
            [
              -65.570179,
              -43.668944
            ],
            [
              -65.729789,
              -44.054235
            ],
            [
              -65.835575,
              -44.448779
            ],
            [
              -65.88652,
              -44.848777
            ],
            [
              -65.882132,
              -45.250376
            ],
            [
              -65.822454,
              -45.649709
            ],
            [
              -65.70806,
              -46.042931
            ],
            [
              -65.540052,
              -46.426253
            ],
            [
              -65.320049,
              -46.795985
            ],
            [
              -65.050168,
              -47.148565
            ],
            [
              -64.73301,
              -47.480599
            ],
            [
              -64.371628,
              -47.788889
            ],
            [
              -63.969503,
              -48.070465
            ],
            [
              -63.530507,
              -48.322616
            ],
            [
              -63.058868,
              -48.542913
            ],
            [
              -62.559129,
              -48.729236
            ],
            [
              -62.036101,
              -48.879789
            ],
            [
              -61.494823,
              -48.993122
            ],
            [
              -60.940507,
              -49.068145
            ],
            [
              -60.378491,
              -49.104134
            ],
            [
              -59.814188,
              -49.100743
            ],
            [
              -59.253032,
              -49.058006
            ],
            [
              -58.700428,
              -48.976332
            ],
            [
              -58.161697,
              -48.856509
            ],
            [
              -57.642028,
              -48.699691
            ],
            [
              -57.146425,
              -48.507388
            ],
            [
              -56.679662,
              -48.281452
            ],
            [
              -56.246234,
              -48.02406
            ],
            [
              -55.850314,
              -47.737688
            ],
            [
              -55.495716,
              -47.425097
            ],
            [
              -55.185854,
              -47.089295
            ],
            [
              -54.923713,
              -46.733518
            ],
            [
              -54.711818,
              -46.361191
            ],
            [
              -54.552208,
              -45.9759
            ],
            [
              -54.446422,
              -45.581356
            ],
            [
              -54.395477,
              -45.181358
            ],
            [
              -54.399865,
              -44.779759
            ],
            [
              -54.459543,
              -44.380426
            ],
            [
              -54.573937,
              -43.987204
            ],
            [
              -54.741944,
              -43.603882
            ],
            [
              -54.961948,
              -43.23415
            ],
            [
              -55.231828,
              -42.88157
            ],
            [
              -55.548987,
              -42.549536
            ],
            [
              -55.910369,
              -42.241246
            ]
          ]
        ],
        "type": "Polygon"
      },
      "properties": {
        "kind": "reachableSet",
        "observationStatus": "estimated",
        "vessel": "B"
      },
      "type": "Feature"
    }
  ],
  "properties": {
    "dateline": false
  },
  "type": "FeatureCollection"
}
