{
  "features": [
    {
      "geometry": {
        "coordinates": [
          -60.6809,
          -46.565983
        ],
        "type": "Point"
      },
      "properties": {
        "mmsi": "412271470",
        "observationStatus": "observed",
        "role": "off",
        "time": "2017-03-09T03:20:38Z",
        "vessel": "A"
      },
      "type": "Feature"
    },
    {
      "geometry": {
        "coordinates": [
          -60.690738,
          -46.60483
        ],
        "type": "Point"
      },
      "properties": {
        "mmsi": "416527000",
        "observationStatus": "observed",
        "role": "off",
        "time": "2017-03-09T03:22:02Z",
        "vessel": "B"
      },
      "type": "Feature"
    },
    {
      "geometry": {
        "coordinates": [
          -60.77133,
          -46.639603
        ],
        "type": "Point"
      },
      "properties": {
        "mmsi": "412271470",
        "observationStatus": "observed",
        "role": "on",
        "time": "2017-03-09T16:01:27Z",
        "vessel": "A"
      },
      "type": "Feature"
    },
    {
      "geometry": {
        "coordinates": [
          -60.694312,
          -46.588038
        ],
        "type": "Point"
      },
      "properties": {
        "mmsi": "416527000",
        "observationStatus": "observed",
        "role": "on",
        "time": "2017-03-09T16:01:32Z",
        "vessel": "B"
      },
      "type": "Feature"
    },
    {
      "geometry": {
        "coordinates": [
          [
            -60.6809,
            -46.565983
          ],
          [
            -60.726115,
            -46.602793
          ],
          [
            -60.77133,
            -46.639603
          ]
        ],
        "type": "LineString"
      },
      "properties": {
        "confidence": "low",
        "lineStyle": "dashed",
        "observationStatus": "estimated",
        "source": "reachable-set heuristic",
        "vessel": "A"
      },
      "type": "Feature"
    },
    {
      "geometry": {
        "coordinates": [
          [
            -60.690738,
            -46.60483
          ],
          [
            -60.726115,
            -46.602793
          ],
          [
            -60.694312,
            -46.588038
          ]
        ],
        "type": "LineString"
      },
      "properties": {
        "confidence": "low",
        "lineStyle": "dashed",
        "observationStatus": "estimated",
        "source": "reachable-set heuristic",
        "vessel": "B"
      },
      "type": "Feature"
    },
    {
      "geometry": {
        "coordinates": [
          -60.726115,
          -46.602793
        ],
        "type": "Point"
      },
      "properties": {
        "kind": "meetingPoint",
        "observationStatus": "estimated"
      },
      "type": "Feature"
    },
    {
      "geometry": {
        "coordinates": [
          [
            [
              -61.824917,
              -47.497339
            ],
            [
              -61.692974,
              -47.567467
            ],
            [
              -61.55172,
              -47.628304
            ],
            [
              -61.402515,
              -47.679266
            ],
            [
              -61.246795,
              -47.71986
            ],
            [
              -61.086062,
              -47.749696
            ],
            [
              -60.921862,
              -47.768487
            ],
            [
              -60.755776,
              -47.776052
            ],
            [
              -60.589405,
              -47.772317
            ],
            [
              -60.424351,
              -47.75732
            ],
            [
              -60.262203,
              -47.731203
            ],
            [
              -60.104522,
              -47.69422
            ],
            [
              -59.952828,
              -47.646725
            ],
            [
              -59.808581,
              -47.589177
            ],
            [
              -59.67317,
              -47.52213
            ],
            [
              -59.5479,
              -47.446228
            ],
            [
              -59.433977,
              -47.362204
            ],
            [
              -59.332497,
              -47.270867
            ],
            [
              -59.244439,
              -47.173095
            ],
            [
              -59.17065,
              -47.069831
            ],
            [
              -59.111842,
              -46.96207
            ],
            [
              -59.068579,
              -46.850848
            ],
            [
              -59.04128,
              -46.737237
            ],
            [
              -59.030206,
              -46.622332
            ],
            [
              -59.035465,
              -46.507239
            ],
            [
              -59.057006,
              -46.393065
            ],
            [
              -59.094621,
              -46.280912
            ],
            [
              -59.147949,
              -46.171858
            ],
            [
              -59.216475,
              -46.066955
            ],
            [
              -59.299539,
              -45.967212
            ],
            [
              -59.396343,
              -45.87359
            ],
            [
              -59.505953,
              -45.78699
            ],
            [
              -59.627313,
              -45.708248
            ],
            [
              -59.759256,
              -45.63812
            ],
            [
              -59.90051,
              -45.577282
            ],
            [
              -60.049715,
              -45.526321
            ],
            [
              -60.205435,
              -45.485727
            ],
            [
              -60.366168,
              -45.455891
            ],
            [
              -60.530368,
              -45.4371
            ],
            [
              -60.696454,
              -45.429535
            ],
            [
              -60.862825,
              -45.433269
            ],
            [
              -61.027879,
              -45.448267
            ],
            [
              -61.190027,
              -45.474383
            ],
            [
              -61.347708,
              -45.511367
            ],
            [
              -61.499402,
              -45.558861
            ],
            [
              -61.643649,
              -45.616409
            ],
            [
              -61.77906,
              -45.683457
            ],
            [
              -61.90433,
              -45.759358
            ],
            [
              -62.018253,
              -45.843382
            ],
            [
              -62.119733,
              -45.93472
            ],
            [
              -62.207791,
              -46.032492
            ],
            [
              -62.28158,
              -46.135755
            ],
            [
              -62.340388,
              -46.243517
            ],
            [
              -62.383651,
              -46.354739
            ],
            [
              -62.41095,
              -46.468349
            ],
            [
              -62.422024,
              -46.583255
            ],
            [
              -62.416765,
              -46.698348
            ],
            [
              -62.395224,
              -46.812521
            ],
            [
              -62.357609,
              -46.924675
            ],
            [
              -62.304281,
              -47.033728
            ],
            [
              -62.235755,
              -47.138632
            ],
            [
              -62.152691,
              -47.238375
            ],
            [
              -62.055887,
              -47.331997
            ],
            [
              -61.946277,
              -47.418596
            ],
            [
              -61.824917,
              -47.497339
            ]
          ]
        ],
        "type": "Polygon"
      },
      "properties": {
        "kind": "reachableSet",
        "observationStatus": "estimated",
        "vessel": "A"
      },
      "type": "Feature"
    },
    {
      "geometry": {
        "coordinates": [
          [
            [
              -60.939194,
              -45.437295
            ],
            [
              -61.102236,
              -45.459602
            ],
            [
              -61.261331,
              -45.492858
            ],
            [
              -61.414948,
              -45.536741
            ],
            [
              -61.561609,
              -45.59083
            ],
            [
              -61.699899,
              -45.654604
            ],
            [
              -61.828488,
              -45.727448
            ],
            [
              -61.946137,
              -45.80866
            ],
            [
              -62.051713,
              -45.89746
            ],
            [
              -62.144199,
              -45.992991
            ],
            [
              -62.222705,
              -46.094333
            ],
            [
              -62.286474,
              -46.200511
            ],
            [
              -62.334893,
              -46.310502
            ],
            [
              -62.367495,
              -46.423246
            ],
            [
              -62.383965,
              -46.537658
            ],
            [
              -62.384147,
              -46.652637
            ],
            [
              -62.368037,
              -46.767074
            ],
            [
              -62.335791,
              -46.879868
            ],
            [
              -62.28772,
              -46.989932
            ],
            [
              -62.224286,
              -47.096207
            ],
            [
              -62.1461,
              -47.197668
            ],
            [
              -62.053916,
              -47.293339
            ],
            [
              -61.94862,
              -47.382299
            ],
            [
              -61.831228,
              -47.46369
            ],
            [
              -61.702869,
              -47.53673
            ],
            [
              -61.564781,
              -47.600713
            ],
            [
              -61.418292,
              -47.655025
            ],
            [
              -61.264813,
              -47.699143
            ],
            [
              -61.105823,
              -47.73264
            ],
            [
              -60.942853,
              -47.755195
            ],
            [
              -60.777472,
              -47.766591
            ],
            [
              -60.611272,
              -47.766717
            ],
            [
              -60.445856,
              -47.755573
            ],
            [
              -60.282814,
              -47.733266
            ],
            [
              -60.123719,
              -47.70001
            ],
            [
              -59.970102,
              -47.656127
            ],
            [
              -59.823441,
              -47.602038
            ],
            [
              -59.685151,
              -47.538264
            ],
            [
              -59.556562,
              -47.465421
            ],
            [
              -59.438913,
              -47.384208
            ],
            [
              -59.333337,
              -47.295409
            ],
            [
              -59.240851,
              -47.199878
            ],
            [
              -59.162345,
              -47.098535
            ],
            [
              -59.098576,
              -46.992358
            ],
            [
              -59.050157,
              -46.882367
            ],
            [
              -59.017555,
              -46.769622
            ],
            [
              -59.001085,
              -46.65521
            ],
            [
              -59.000903,
              -46.540232
            ],
            [
              -59.017013,
              -46.425794
            ],
            [
              -59.049259,
              -46.313001
            ],
            [
              -59.09733,
              -46.202936
            ],
            [
              -59.160764,
              -46.096662
            ],
            [
              -59.23895,
              -45.9952
            ],
            [
              -59.331134,
              -45.899529
            ],
            [
              -59.43643,
              -45.810569
            ],
            [
              -59.553822,
              -45.729178
            ],
            [
              -59.682181,
              -45.656139
            ],
            [
              -59.820269,
              -45.592155
            ],
            [
              -59.966758,
              -45.537843
            ],
            [
              -60.120237,
              -45.493726
            ],
            [
              -60.279227,
              -45.460228
            ],
            [
              -60.442197,
              -45.437673
            ],
            [
              -60.607578,
              -45.426278
            ],
            [
              -60.773778,
              -45.426151
            ],
            [
              -60.939194,
              -45.437295
            ]
          ]
        ],
        "type": "Polygon"
      },
      "properties": {
        "kind": "reachableSet",
        "observationStatus": "estimated",
        "vessel": "B"
      },
      "type": "Feature"
    }
  ],
  "properties": {
    "dateline": false
  },
  "type": "FeatureCollection"
}
