{
  "features": [
    {
      "geometry": {
        "coordinates": [
          167.439733,
          47.153653
        ],
        "type": "Point"
      },
      "properties": {
        "mmsi": "577100000",
        "observationStatus": "observed",
        "role": "off",
        "time": "2019-07-24T02:51:11Z",
        "vessel": "A"
      },
      "type": "Feature"
    },
    {
      "geometry": {
        "coordinates": [
          167.406373,
          47.1836
        ],
        "type": "Point"
      },
      "properties": {
        "mmsi": "577101000",
        "observationStatus": "observed",
        "role": "off",
        "time": "2019-07-24T02:53:08Z",
        "vessel": "B"
      },
      "type": "Feature"
    },
    {
      "geometry": {
        "coordinates": [
          167.80176,
          47.648802
        ],
        "type": "Point"
      },
      "properties": {
        "mmsi": "577101000",
        "observationStatus": "observed",
        "role": "on",
        "time": "2019-07-24T16:35:08Z",
        "vessel": "B"
      },
      "type": "Feature"
    },
    {
      "geometry": {
        "coordinates": [
          167.796347,
          47.569733
        ],
        "type": "Point"
      },
      "properties": {
        "mmsi": "577100000",
        "observationStatus": "observed",
        "role": "on",
        "time": "2019-07-24T17:08:51Z",
        "vessel": "A"
      },
      "type": "Feature"
    },
    {
      "geometry": {
        "coordinates": [
          [
            167.439733,
            47.153653
          ],
          [
            167.538283,
            47.288525
          ],
          [
            167.796347,
            47.569733
          ]
        ],
        "type": "LineString"
      },
      "properties": {
        "confidence": "low",
        "lineStyle": "dashed",
        "observationStatus": "estimated",
        "source": "reachable-set heuristic",
        "vessel": "A"
      },
      "type": "Feature"
    },
    {
      "geometry": {
        "coordinates": [
          [
            167.406373,
            47.1836
          ],
          [
            167.538283,
            47.288525
          ],
          [
            167.80176,
            47.648802
          ]
        ],
        "type": "LineString"
      },
      "properties": {
        "confidence": "low",
        "lineStyle": "dashed",
        "observationStatus": "estimated",
        "source": "reachable-set heuristic",
        "vessel": "B"
      },
      "type": "Feature"
    },
    {
      "geometry": {
        "coordinates": [
          167.538283,
          47.288525
        ],
        "type": "Point"
      },
      "properties": {
        "kind": "meetingPoint",
        "observationStatus": "estimated"
      },
      "type": "Feature"
    },
    {
      "geometry": {
        "coordinates": [
          [
            [
              168.606658,
              48.515168
            ],
            [
              168.43883,
              48.574613
            ],
            [
              168.263097,
              48.622377
            ],
            [
              168.081152,
              48.658
            ],
            [
              167.894747,
              48.681139
            ],
            [
              167.705677,
              48.691571
            ],
            [
              167.515763,
              48.689195
            ],
            [
              167.326834,
              48.674035
            ],
            [
              167.140709,
              48.646237
            ],
            [
              166.959181,
              48.606067
            ],
            [
              166.783999,
              48.553914
            ],
            [
              166.616849,
              48.490278
            ],
            [
              166.459341,
              48.415774
            ],
            [
              166.312991,
              48.331119
            ],
            [
              166.17921,
              48.237127
            ],
            [
              166.059286,
              48.134705
            ],
            [
              165.954374,
              48.024838
            ],
            [
              165.865483,
              47.908584
            ],
            [
              165.793471,
              47.787064
            ],
            [
              165.73903,
              47.661447
            ],
            [
              165.702685,
              47.532943
            ],
            [
              165.684786,
              47.40279
            ],
            [
              165.685505,
              47.272242
            ],
            [
              165.704836,
              47.142554
            ],
            [
              165.742592,
              47.014978
            ],
            [
              165.798409,
              46.89074
            ],
            [
              165.87175,
              46.771038
            ],
            [
              165.96191,
              46.657024
            ],
            [
              166.068018,
              46.549796
            ],
            [
              166.189054,
              46.450388
            ],
            [
              166.323853,
              46.359756
            ],
            [
              166.471114,
              46.278773
            ],
            [
              166.629422,
              46.208219
            ],
            [
              166.79725,
              46.148774
            ],
            [
              166.972983,
              46.10101
            ],
            [
              167.154928,
              46.065387
            ],
            [
              167.341333,
              46.042248
            ],
            [
              167.530403,
              46.031816
            ],
            [
              167.720317,
              46.034191
            ],
            [
              167.909246,
              46.049351
            ],
            [
              168.095371,
              46.07715
            ],
            [
              168.276899,
              46.11732
            ],
            [
              168.452081,
              46.169473
            ],
            [
              168.619231,
              46.233108
            ],
            [
              168.776739,
              46.307612
            ],
            [
              168.923089,
              46.392268
            ],
            [
              169.05687,
              46.48626
            ],
            [
              169.176794,
              46.588682
            ],
            [
              169.281706,
              46.698549
            ],
            [
              169.370597,
              46.814803
            ],
            [
              169.442609,
              46.936323
            ],
            [
              169.49705,
              47.06194
            ],
            [
              169.533395,
              47.190443
            ],
            [
              169.551294,
              47.320596
            ],
            [
              169.550575,
              47.451145
            ],
            [
              169.531244,
              47.580832
            ],
            [
              169.493488,
              47.708409
            ],
            [
              169.437671,
              47.832647
            ],
            [
              169.36433,
              47.952349
            ],
            [
              169.27417,
              48.066363
            ],
            [
              169.168062,
              48.17359
            ],
            [
              169.047026,
              48.272999
            ],
            [
              168.912227,
              48.363631
            ],
            [
              168.764966,
              48.444614
            ],
            [
              168.606658,
              48.515168
            ]
          ]
        ],
        "type": "Polygon"
      },
      "properties": {
        "kind": "reachableSet",
        "observationStatus": "estimated",
        "vessel": "A"
      },
      "type": "Feature"
    },
    {
      "geometry": {
        "coordinates": [
          [
            [
              168.54283,
              48.520725
            ],
            [
              168.382958,
              48.576687
            ],
            [
              168.215585,
              48.621472
            ],
            [
              168.042322,
              48.65465
            ],
            [
              167.864839,
              48.675901
            ],
            [
              167.684845,
              48.685021
            ],
            [
              167.504072,
              48.681921
            ],
            [
              167.324263,
              48.666631
            ],
            [
              167.147148,
              48.639299
            ],
            [
              166.974434,
              48.600188
            ],
            [
              166.807783,
              48.549675
            ],
            [
              166.648801,
              48.488245
            ],
            [
              166.499018,
              48.416492
            ],
            [
              166.359878,
              48.335104
            ],
            [
              166.232721,
              48.244868
            ],
            [
              166.118769,
              48.146651
            ],
            [
              166.019123,
              48.041399
            ],
            [
              165.93474,
              47.930126
            ],
            [
              165.866433,
              47.813904
            ],
            [
              165.814861,
              47.693851
            ],
            [
              165.78052,
              47.571125
            ],
            [
              165.763741,
              47.446907
            ],
            [
              165.764685,
              47.322393
            ],
            [
              165.783343,
              47.198782
            ],
            [
              165.819536,
              47.077266
            ],
            [
              165.872915,
              46.959013
            ],
            [
              165.942966,
              46.845164
            ],
            [
              166.029014,
              46.736813
            ],
            [
              166.130231,
              46.635006
            ],
            [
              166.245641,
              46.540722
            ],
            [
              166.374134,
              46.454869
            ],
            [
              166.514472,
              46.378275
            ],
            [
              166.665303,
              46.311676
            ],
            [
              166.825175,
              46.255715
            ],
            [
              166.992549,
              46.210929
            ],
            [
              167.165811,
              46.177751
            ],
            [
              167.343294,
              46.1565
            ],
            [
              167.523289,
              46.147381
            ],
            [
              167.704061,
              46.150481
            ],
            [
              167.883871,
              46.16577
            ],
            [
              168.060985,
              46.193102
            ],
            [
              168.2337,
              46.232213
            ],
            [
              168.40035,
              46.282727
            ],
            [
              168.559333,
              46.344156
            ],
            [
              168.709115,
              46.41591
            ],
            [
              168.848255,
              46.497297
            ],
            [
              168.975413,
              46.587534
            ],
            [
              169.089364,
              46.685751
            ],
            [
              169.189011,
              46.791003
            ],
            [
              169.273394,
              46.902276
            ],
            [
              169.3417,
              47.018498
            ],
            [
              169.393272,
              47.13855
            ],
            [
              169.427613,
              47.261277
            ],
            [
              169.444393,
              47.385495
            ],
            [
              169.443449,
              47.510009
            ],
            [
              169.42479,
              47.633619
            ],
            [
              169.388597,
              47.755136
            ],
            [
              169.335218,
              47.873389
            ],
            [
              169.265168,
              47.987238
            ],
            [
              169.17912,
              48.095588
            ],
            [
              169.077903,
              48.197396
            ],
            [
              168.962492,
              48.29168
            ],
            [
              168.833999,
              48.377532
            ],
            [
              168.693661,
              48.454127
            ],
            [
              168.54283,
              48.520725
            ]
          ]
        ],
        "type": "Polygon"
      },
      "properties": {
        "kind": "reachableSet",
        "observationStatus": "estimated",
        "vessel": "B"
      },
      "type": "Feature"
    }
  ],
  "properties": {
    "dateline": false
  },
  "type": "FeatureCollection"
}
