{
  "features": [
    {
      "geometry": {
        "coordinates": [
          -60.309473,
          -45.20132
        ],
        "type": "Point"
      },
      "properties": {
        "mmsi": "412329693",
        "observationStatus": "observed",
        "role": "off",
        "time": "2017-01-22T07:16:24Z",
        "vessel": "A"
      },
      "type": "Feature"
    },
    {
      "geometry": {
        "coordinates": [
          -60.341793,
          -45.215477
        ],
        "type": "Point"
      },
      "properties": {
        "mmsi": "412329685",
        "observationStatus": "observed",
        "role": "off",
        "time": "2017-01-22T07:30:01Z",
        "vessel": "B"
      },
      "type": "Feature"
    },
    {
      "geometry": {
        "coordinates": [
          -60.61058,
          -45.55922
        ],
        "type": "Point"
      },
      "properties": {
        "mmsi": "412329693",
        "observationStatus": "observed",
        "role": "on",
        "time": "2017-01-22T23:50:30Z",
        "vessel": "A"
      },
      "type": "Feature"
    },
    {
      "geometry": {
        "coordinates": [
          -60.560037,
          -45.53701
        ],
        "type": "Point"
      },
      "properties": {
        "mmsi": "412329685",
        "observationStatus": "observed",
        "role": "on",
        "time": "2017-01-23T00:24:32Z",
        "vessel": "B"
      },
      "type": "Feature"
    },
    {
      "geometry": {
        "coordinates": [
          [
            -60.309473,
            -45.20132
          ],
          [
            -60.449152,
            -45.352761
          ],
          [
            -60.61058,
            -45.55922
          ]
        ],
        "type": "LineString"
      },
      "properties": {
        "confidence": "low",
        "lineStyle": "dashed",
        "observationStatus": "estimated",
        "source": "reachable-set heuristic",
        "vessel": "A"
      },
      "type": "Feature"
    },
    {
      "geometry": {
        "coordinates": [
          [
            -60.341793,
            -45.215477
          ],
          [
            -60.449152,
            -45.352761
          ],
          [
            -60.560037,
            -45.53701
          ]
        ],
        "type": "LineString"
      },
      "properties": {
        "confidence": "low",
        "lineStyle": "dashed",
        "observationStatus": "estimated",
        "source": "reachable-set heuristic",
        "vessel": "B"
      },
      "type": "Feature"
    },
    {
      "geometry": {
        "coordinates": [
          -60.449152,
          -45.352761
        ],
        "type": "Point"
      },
      "properties": {
        "kind": "meetingPoint",
        "observationStatus": "estimated"
      },
      "type": "Feature"
    },
    {
      "geometry": {
        "coordinates": [
          [
            [
              -61.685531,
              -46.836923
            ],
            [
              -61.479258,
              -46.91421
            ],
            [
              -61.263169,
              -46.976724
            ],
            [
              -61.039346,
              -47.023864
            ],
            [
              -60.809943,
              -47.055175
            ],
            [
              -60.577171,
              -47.070355
            ],
            [
              -60.34327,
              -47.069259
            ],
            [
              -60.110494,
              -47.051898
            ],
            [
              -59.881084,
              -47.018437
            ],
            [
              -59.65725,
              -46.969201
            ],
            [
              -59.441146,
              -46.904662
            ],
            [
              -59.234855,
              -46.825442
            ],
            [
              -59.040364,
              -46.732304
            ],
            [
              -58.859544,
              -46.626146
            ],
            [
              -58.694138,
              -46.507989
            ],
            [
              -58.545738,
              -46.378971
            ],
            [
              -58.415774,
              -46.240336
            ],
            [
              -58.305497,
              -46.093418
            ],
            [
              -58.21597,
              -45.939631
            ],
            [
              -58.148054,
              -45.780458
            ],
            [
              -58.102404,
              -45.61743
            ],
            [
              -58.079458,
              -45.452119
            ],
            [
              -58.079439,
              -45.286116
            ],
            [
              -58.102347,
              -45.121019
            ],
            [
              -58.14796,
              -44.958419
            ],
            [
              -58.215839,
              -44.799882
            ],
            [
              -58.305332,
              -44.646935
            ],
            [
              -58.415575,
              -44.501049
            ],
            [
              -58.545507,
              -44.363631
            ],
            [
              -58.693877,
              -44.236004
            ],
            [
              -58.859257,
              -44.119397
            ],
            [
              -59.040052,
              -44.014933
            ],
            [
              -59.234523,
              -43.923617
            ],
            [
              -59.440796,
              -43.84633
            ],
            [
              -59.656884,
              -43.783816
            ],
            [
              -59.880708,
              -43.736676
            ],
            [
              -60.11011,
              -43.705365
            ],
            [
              -60.342883,
              -43.690185
            ],
            [
              -60.576783,
              -43.691281
            ],
            [
              -60.809559,
              -43.708642
            ],
            [
              -61.038969,
              -43.742103
            ],
            [
              -61.262804,
              -43.791339
            ],
            [
              -61.478907,
              -43.855878
            ],
            [
              -61.685198,
              -43.935098
            ],
            [
              -61.87969,
              -44.028236
            ],
            [
              -62.060509,
              -44.134394
            ],
            [
              -62.225915,
              -44.252551
            ],
            [
              -62.374315,
              -44.381569
            ],
            [
              -62.504279,
              -44.520204
            ],
            [
              -62.614556,
              -44.667122
            ],
            [
              -62.704083,
              -44.820909
            ],
            [
              -62.771999,
              -44.980082
            ],
            [
              -62.81765,
              -45.14311
            ],
            [
              -62.840595,
              -45.308421
            ],
            [
              -62.840614,
              -45.474424
            ],
            [
              -62.817707,
              -45.639521
            ],
            [
              -62.772094,
              -45.802121
            ],
            [
              -62.704214,
              -45.960658
            ],
            [
              -62.614722,
              -46.113605
            ],
            [
              -62.504479,
              -46.259491
            ],
            [
              -62.374546,
              -46.396909
            ],
            [
              -62.226176,
              -46.524536
            ],
            [
              -62.060797,
              -46.641143
            ],
            [
              -61.880001,
              -46.745607
            ],
            [
              -61.685531,
              -46.836923
            ]
          ]
        ],
        "type": "Polygon"
      },
      "properties": {
        "kind": "reachableSet",
        "observationStatus": "estimated",
        "vessel": "A"
      },
      "type": "Feature"
    },
    {
      "geometry": {
        "coordinates": [
          [
            [
              -61.510746,
              -46.93767
            ],
            [
              -61.290385,
              -47.003227
            ],
            [
              -61.061939,
              -47.053116
            ],
            [
              -60.827608,
              -47.086855
            ],
            [
              -60.58965,
              -47.104121
            ],
            [
              -60.350356,
              -47.104745
            ],
            [
              -60.11203,
              -47.088724
            ],
            [
              -59.876968,
              -47.05621
            ],
            [
              -59.647433,
              -47.007517
            ],
            [
              -59.425637,
              -46.943114
            ],
            [
              -59.213714,
              -46.863622
            ],
            [
              -59.013706,
              -46.769805
            ],
            [
              -58.827539,
              -46.662567
            ],
            [
              -58.657007,
              -46.542942
            ],
            [
              -58.50375,
              -46.41208
            ],
            [
              -58.369246,
              -46.271243
            ],
            [
              -58.254789,
              -46.121786
            ],
            [
              -58.161483,
              -45.96515
            ],
            [
              -58.090225,
              -45.802841
            ],
            [
              -58.041701,
              -45.636425
            ],
            [
              -58.01638,
              -45.467503
            ],
            [
              -58.014504,
              -45.297702
            ],
            [
              -58.036093,
              -45.128657
            ],
            [
              -58.080937,
              -44.961997
            ],
            [
              -58.148606,
              -44.799326
            ],
            [
              -58.238447,
              -44.642211
            ],
            [
              -58.349596,
              -44.492166
            ],
            [
              -58.480981,
              -44.350634
            ],
            [
              -58.631338,
              -44.21898
            ],
            [
              -58.799218,
              -44.098471
            ],
            [
              -58.983005,
              -43.990267
            ],
            [
              -59.180929,
              -43.895411
            ],
            [
              -59.391084,
              -43.814816
            ],
            [
              -59.611445,
              -43.749259
            ],
            [
              -59.839891,
              -43.699371
            ],
            [
              -60.074222,
              -43.665631
            ],
            [
              -60.31218,
              -43.648366
            ],
            [
              -60.551474,
              -43.647741
            ],
            [
              -60.7898,
              -43.663763
            ],
            [
              -61.024862,
              -43.696277
            ],
            [
              -61.254397,
              -43.744969
            ],
            [
              -61.476193,
              -43.809372
            ],
            [
              -61.688116,
              -43.888865
            ],
            [
              -61.888124,
              -43.982682
            ],
            [
              -62.074291,
              -44.089919
            ],
            [
              -62.244823,
              -44.209545
            ],
            [
              -62.39808,
              -44.340407
            ],
            [
              -62.532584,
              -44.481244
            ],
            [
              -62.647041,
              -44.630701
            ],
            [
              -62.740347,
              -44.787337
            ],
            [
              -62.811605,
              -44.949645
            ],
            [
              -62.860129,
              -45.116062
            ],
            [
              -62.88545,
              -45.284984
            ],
            [
              -62.887326,
              -45.454785
            ],
            [
              -62.865737,
              -45.623829
            ],
            [
              -62.820893,
              -45.79049
            ],
            [
              -62.753224,
              -45.953161
            ],
            [
              -62.663383,
              -46.110275
            ],
            [
              -62.552234,
              -46.260321
            ],
            [
              -62.420849,
              -46.401852
            ],
            [
              -62.270492,
              -46.533507
            ],
            [
              -62.102612,
              -46.654016
            ],
            [
              -61.918825,
              -46.76222
            ],
            [
              -61.720901,
              -46.857076
            ],
            [
              -61.510746,
              -46.93767
            ]
          ]
        ],
        "type": "Polygon"
      },
      "properties": {
        "kind": "reachableSet",
        "observationStatus": "estimated",
        "vessel": "B"
      },
      "type": "Feature"
    }
  ],
  "properties": {
    "dateline": false
  },
  "type": "FeatureCollection"
}
