{
  "features": [
    {
      "geometry": {
        "coordinates": [
          158.712557,
          46.87716
        ],
        "type": "Point"
      },
      "properties": {
        "mmsi": "416233800",
        "observationStatus": "observed",
        "role": "off",
        "time": "2017-08-02T03:53:16Z",
        "vessel": "A"
      },
      "type": "Feature"
    },
    {
      "geometry": {
        "coordinates": [
          158.723748,
          46.81425
        ],
        "type": "Point"
      },
      "properties": {
        "mmsi": "416706000",
        "observationStatus": "observed",
        "role": "off",
        "time": "2017-08-02T04:44:42Z",
        "vessel": "B"
      },
      "type": "Feature"
    },
    {
      "geometry": {
        "coordinates": [
          158.449368,
          46.534277
        ],
        "type": "Point"
      },
      "properties": {
        "mmsi": "416706000",
        "observationStatus": "observed",
        "role": "on",
        "time": "2017-08-02T17:30:02Z",
        "vessel": "B"
      },
      "type": "Feature"
    },
    {
      "geometry": {
        "coordinates": [
          158.39731,
          46.592233
        ],
        "type": "Point"
      },
      "properties": {
        "mmsi": "416233800",
        "observationStatus": "observed",
        "role": "on",
        "time": "2017-08-02T17:30:09Z",
        "vessel": "A"
      },
      "type": "Feature"
    },
    {
      "geometry": {
        "coordinates": [
          [
            158.712557,
            46.87716
          ],
          [
            158.538106,
            46.625261
          ],
          [
            158.39731,
            46.592233
          ]
        ],
        "type": "LineString"
      },
      "properties": {
        "confidence": "low",
        "lineStyle": "dashed",
        "observationStatus": "estimated",
        "source": "reachable-set heuristic",
        "vessel": "A"
      },
      "type": "Feature"
    },
    {
      "geometry": {
        "coordinates": [
          [
            158.723748,
            46.81425
          ],
          [
            158.538106,
            46.625261
          ],
          [
            158.449368,
            46.534277
          ]
        ],
        "type": "LineString"
      },
      "properties": {
        "confidence": "low",
        "lineStyle": "dashed",
        "observationStatus": "estimated",
        "source": "reachable-set heuristic",
        "vessel": "B"
      },
      "type": "Feature"
    },
    {
      "geometry": {
        "coordinates": [
          158.538106,
          46.625261
        ],
        "type": "Point"
      },
      "properties": {
        "kind": "meetingPoint",
        "observationStatus": "estimated"
      },
      "type": "Feature"
    },
    {
      "geometry": {
        "coordinates": [
          [
            [
              157.440053,
              45.727044
            ],
            [
              157.587119,
              45.657249
            ],
            [
              157.743506,
              45.597831
            ],
            [
              157.907707,
              45.549361
            ],
            [
              158.078141,
              45.512307
            ],
            [
              158.253167,
              45.487025
            ],
            [
              158.4311,
              45.473758
            ],
            [
              158.610225,
              45.472636
            ],
            [
              158.788817,
              45.483667
            ],
            [
              158.965157,
              45.506747
            ],
            [
              159.137546,
              45.541653
            ],
            [
              159.304325,
              45.588048
            ],
            [
              159.463886,
              45.645486
            ],
            [
              159.614694,
              45.713414
            ],
            [
              159.755295,
              45.791177
            ],
            [
              159.884337,
              45.878027
            ],
            [
              160.000575,
              45.973127
            ],
            [
              160.102892,
              46.075561
            ],
            [
              160.1903,
              46.184344
            ],
            [
              160.261959,
              46.298426
            ],
            [
              160.317179,
              46.41671
            ],
            [
              160.355427,
              46.538056
            ],
            [
              160.376335,
              46.661297
            ],
            [
              160.379703,
              46.785244
            ],
            [
              160.365496,
              46.908704
            ],
            [
              160.333853,
              47.030488
            ],
            [
              160.285078,
              47.149424
            ],
            [
              160.219641,
              47.264366
            ],
            [
              160.138172,
              47.374206
            ],
            [
              160.041455,
              47.477888
            ],
            [
              159.930423,
              47.574413
            ],
            [
              159.806143,
              47.662851
            ],
            [
              159.669814,
              47.74235
            ],
            [
              159.522748,
              47.812144
            ],
            [
              159.366361,
              47.871563
            ],
            [
              159.20216,
              47.920032
            ],
            [
              159.031725,
              47.957087
            ],
            [
              158.856699,
              47.982369
            ],
            [
              158.678767,
              47.995635
            ],
            [
              158.499642,
              47.996758
            ],
            [
              158.32105,
              47.985726
            ],
            [
              158.14471,
              47.962646
            ],
            [
              157.97232,
              47.927741
            ],
            [
              157.805542,
              47.881346
            ],
            [
              157.645981,
              47.823907
            ],
            [
              157.495173,
              47.75598
            ],
            [
              157.354571,
              47.678216
            ],
            [
              157.22553,
              47.591366
            ],
            [
              157.109291,
              47.496266
            ],
            [
              157.006975,
              47.393832
            ],
            [
              156.919566,
              47.28505
            ],
            [
              156.847907,
              47.170967
            ],
            [
              156.792688,
              47.052683
            ],
            [
              156.75444,
              46.931337
            ],
            [
              156.733531,
              46.808097
            ],
            [
              156.730164,
              46.68415
            ],
            [
              156.74437,
              46.56069
            ],
            [
              156.776013,
              46.438905
            ],
            [
              156.824788,
              46.319969
            ],
            [
              156.890225,
              46.205028
            ],
            [
              156.971695,
              46.095187
            ],
            [
              157.068411,
              45.991505
            ],
            [
              157.179444,
              45.89498
            ],
            [
              157.303723,
              45.806543
            ],
            [
              157.440053,
              45.727044
            ]
          ]
        ],
        "type": "Polygon"
      },
      "properties": {
        "kind": "reachableSet",
        "observationStatus": "estimated",
        "vessel": "A"
      },
      "type": "Feature"
    },
    {
      "geometry": {
        "coordinates": [
          [
            [
              157.627806,
              45.695967
            ],
            [
              157.769804,
              45.636428
            ],
            [
              157.919668,
              45.586885
            ],
            [
              158.075955,
              45.547813
            ],
            [
              158.237159,
              45.51959
            ],
            [
              158.401727,
              45.502487
            ],
            [
              158.568076,
              45.496669
            ],
            [
              158.734603,
              45.502191
            ],
            [
              158.899704,
              45.519002
            ],
            [
              159.06179,
              45.546938
            ],
            [
              159.219298,
              45.585731
            ],
            [
              159.370713,
              45.635007
            ],
            [
              159.514576,
              45.694292
            ],
            [
              159.649502,
              45.763014
            ],
            [
              159.774191,
              45.840512
            ],
            [
              159.887442,
              45.92604
            ],
            [
              159.988166,
              46.018773
            ],
            [
              160.075391,
              46.11782
            ],
            [
              160.148278,
              46.222225
            ],
            [
              160.206124,
              46.330983
            ],
            [
              160.248373,
              46.443048
            ],
            [
              160.274618,
              46.557339
            ],
            [
              160.284607,
              46.672756
            ],
            [
              160.278242,
              46.788188
            ],
            [
              160.255585,
              46.902522
            ],
            [
              160.216854,
              47.014659
            ],
            [
              160.162423,
              47.123517
            ],
            [
              160.092816,
              47.228048
            ],
            [
              160.008702,
              47.327247
            ],
            [
              159.910892,
              47.420156
            ],
            [
              159.800329,
              47.505883
            ],
            [
              159.678076,
              47.5836
            ],
            [
              159.545311,
              47.65256
            ],
            [
              159.403312,
              47.712099
            ],
            [
              159.253448,
              47.761642
            ],
            [
              159.097162,
              47.800714
            ],
            [
              158.935958,
              47.828937
            ],
            [
              158.771389,
              47.84604
            ],
            [
              158.60504,
              47.851858
            ],
            [
              158.438514,
              47.846335
            ],
            [
              158.273412,
              47.829525
            ],
            [
              158.111327,
              47.801589
            ],
            [
              157.953819,
              47.762796
            ],
            [
              157.802404,
              47.71352
            ],
            [
              157.658541,
              47.654235
            ],
            [
              157.523615,
              47.585513
            ],
            [
              157.398926,
              47.508014
            ],
            [
              157.285674,
              47.422487
            ],
            [
              157.184951,
              47.329753
            ],
            [
              157.097726,
              47.230707
            ],
            [
              157.024839,
              47.126302
            ],
            [
              156.966993,
              47.017543
            ],
            [
              156.924743,
              46.905479
            ],
            [
              156.898498,
              46.791188
            ],
            [
              156.88851,
              46.675771
            ],
            [
              156.894875,
              46.560339
            ],
            [
              156.917532,
              46.446004
            ],
            [
              156.956262,
              46.333868
            ],
            [
              157.010694,
              46.22501
            ],
            [
              157.080301,
              46.120478
            ],
            [
              157.164415,
              46.02128
            ],
            [
              157.262224,
              45.92837
            ],
            [
              157.372788,
              45.842644
            ],
            [
              157.495041,
              45.764927
            ],
            [
              157.627806,
              45.695967
            ]
          ]
        ],
        "type": "Polygon"
      },
      "properties": {
        "kind": "reachableSet",
        "observationStatus": "estimated",
        "vessel": "B"
      },
      "type": "Feature"
    }
  ],
  "properties": {
    "dateline": false
  },
  "type": "FeatureCollection"
}
