{
  "features": [
    {
      "geometry": {
        "coordinates": [
          161.90864,
          48.8268
        ],
        "type": "Point"
      },
      "properties": {
        "mmsi": "416201700",
        "observationStatus": "observed",
        "role": "off",
        "time": "2018-08-11T04:19:30Z",
        "vessel": "A"
      },
      "type": "Feature"
    },
    {
      "geometry": {
        "coordinates": [
          161.970423,
          48.810902
        ],
        "type": "Point"
      },
      "properties": {
        "mmsi": "416229800",
        "observationStatus": "observed",
        "role": "off",
        "time": "2018-08-11T04:43:26Z",
        "vessel": "B"
      },
      "type": "Feature"
    },
    {
      "geometry": {
        "coordinates": [
          162.446725,
          48.690142
        ],
        "type": "Point"
      },
      "properties": {
        "mmsi": "416229800",
        "observationStatus": "observed",
        "role": "on",
        "time": "2018-08-11T18:18:02Z",
        "vessel": "B"
      },
      "type": "Feature"
    },
    {
      "geometry": {
        "coordinates": [
          162.435145,
          48.619772
        ],
        "type": "Point"
      },
      "properties": {
        "mmsi": "416201700",
        "observationStatus": "observed",
        "role": "on",
        "time": "2018-08-11T19:17:29Z",
        "vessel": "A"
      },
      "type": "Feature"
    },
    {
      "geometry": {
        "coordinates": [
          [
            161.90864,
            48.8268
          ],
          [
            162.136296,
            48.769047
          ],
          [
            162.435145,
            48.619772
          ]
        ],
        "type": "LineString"
      },
      "properties": {
        "confidence": "low",
        "lineStyle": "dashed",
        "observationStatus": "estimated",
        "source": "reachable-set heuristic",
        "vessel": "A"
      },
      "type": "Feature"
    },
    {
      "geometry": {
        "coordinates": [
          [
            161.970423,
            48.810902
          ],
          [
            162.136296,
            48.769047
          ],
          [
            162.446725,
            48.690142
          ]
        ],
        "type": "LineString"
      },
      "properties": {
        "confidence": "low",
        "lineStyle": "dashed",
        "observationStatus": "estimated",
        "source": "reachable-set heuristic",
        "vessel": "B"
      },
      "type": "Feature"
    },
    {
      "geometry": {
        "coordinates": [
          162.136296,
          48.769047
        ],
        "type": "Point"
      },
      "properties": {
        "kind": "meetingPoint",
        "observationStatus": "estimated"
      },
      "type": "Feature"
    },
    {
      "geometry": {
        "coordinates": [
          [
            [
              163.990383,
              48.008233
            ],
            [
              164.086041,
              48.128813
            ],
            [
              164.163265,
              48.255118
            ],
            [
              164.22131,
              48.385932
            ],
            [
              164.259619,
              48.519995
            ],
            [
              164.277822,
              48.656016
            ],
            [
              164.275744,
              48.792684
            ],
            [
              164.253404,
              48.928684
            ],
            [
              164.211018,
              49.062706
            ],
            [
              164.148994,
              49.193459
            ],
            [
              164.06793,
              49.319685
            ],
            [
              163.968606,
              49.440166
            ],
            [
              163.851979,
              49.553744
            ],
            [
              163.719171,
              49.659324
            ],
            [
              163.571462,
              49.755889
            ],
            [
              163.410275,
              49.84251
            ],
            [
              163.237161,
              49.918352
            ],
            [
              163.053789,
              49.982685
            ],
            [
              162.861923,
              50.034889
            ],
            [
              162.663411,
              50.074461
            ],
            [
              162.460167,
              50.101022
            ],
            [
              162.254145,
              50.114313
            ],
            [
              162.047332,
              50.114209
            ],
            [
              161.841719,
              50.100709
            ],
            [
              161.639285,
              50.073944
            ],
            [
              161.44198,
              50.034171
            ],
            [
              161.251705,
              49.981774
            ],
            [
              161.070292,
              49.917256
            ],
            [
              160.899487,
              49.841241
            ],
            [
              160.740937,
              49.754458
            ],
            [
              160.596168,
              49.657745
            ],
            [
              160.466573,
              49.552033
            ],
            [
              160.353402,
              49.438339
            ],
            [
              160.257744,
              49.317759
            ],
            [
              160.18052,
              49.191454
            ],
            [
              160.122475,
              49.06064
            ],
            [
              160.084166,
              48.926577
            ],
            [
              160.065963,
              48.790556
            ],
            [
              160.068041,
              48.653888
            ],
            [
              160.090381,
              48.517888
            ],
            [
              160.132767,
              48.383866
            ],
            [
              160.194791,
              48.253112
            ],
            [
              160.275855,
              48.126887
            ],
            [
              160.375179,
              48.006406
            ],
            [
              160.491806,
              47.892828
            ],
            [
              160.624614,
              47.787248
            ],
            [
              160.772323,
              47.690683
            ],
            [
              160.93351,
              47.604062
            ],
            [
              161.106624,
              47.52822
            ],
            [
              161.289996,
              47.463887
            ],
            [
              161.481862,
              47.411683
            ],
            [
              161.680374,
              47.37211
            ],
            [
              161.883618,
              47.34555
            ],
            [
              162.08964,
              47.332258
            ],
            [
              162.296453,
              47.332363
            ],
            [
              162.502066,
              47.345863
            ],
            [
              162.7045,
              47.372628
            ],
            [
              162.901805,
              47.412401
            ],
            [
              163.09208,
              47.464798
            ],
            [
              163.273493,
              47.529315
            ],
            [
              163.444298,
              47.605331
            ],
            [
              163.602848,
              47.692113
            ],
            [
              163.747617,
              47.788827
            ],
            [
              163.877212,
              47.894539
            ],
            [
              163.990383,
              48.008233
            ]
          ]
        ],
        "type": "Polygon"
      },
      "properties": {
        "kind": "reachableSet",
        "observationStatus": "estimated",
        "vessel": "A"
      },
      "type": "Feature"
    },
    {
      "geometry": {
        "coordinates": [
          [
            [
              163.98729,
              48.299552
            ],
            [
              164.044714,
              48.416413
            ],
            [
              164.084456,
              48.536492
            ],
            [
              164.106132,
              48.658633
            ],
            [
              164.109534,
              48.781658
            ],
            [
              164.094628,
              48.904383
            ],
            [
              164.061558,
              49.025627
            ],
            [
              164.010644,
              49.144221
            ],
            [
              163.942374,
              49.259024
            ],
            [
              163.857407,
              49.368929
            ],
            [
              163.75656,
              49.472879
            ],
            [
              163.640806,
              49.569872
            ],
            [
              163.511259,
              49.658975
            ],
            [
              163.369166,
              49.739328
            ],
            [
              163.215896,
              49.810159
            ],
            [
              163.052925,
              49.870785
            ],
            [
              162.881822,
              49.920622
            ],
            [
              162.704235,
              49.95919
            ],
            [
              162.521875,
              49.986119
            ],
            [
              162.336498,
              50.001148
            ],
            [
              162.149889,
              50.004132
            ],
            [
              161.963845,
              49.995044
            ],
            [
              161.780158,
              49.97397
            ],
            [
              161.600597,
              49.941114
            ],
            [
              161.42689,
              49.896791
            ],
            [
              161.260712,
              49.84143
            ],
            [
              161.103663,
              49.775562
            ],
            [
              160.957254,
              49.699823
            ],
            [
              160.822896,
              49.614941
            ],
            [
              160.701883,
              49.521735
            ],
            [
              160.59538,
              49.421101
            ],
            [
              160.504414,
              49.31401
            ],
            [
              160.429859,
              49.201491
            ],
            [
              160.372434,
              49.08463
            ],
            [
              160.332692,
              48.964551
            ],
            [
              160.311016,
              48.842411
            ],
            [
              160.307615,
              48.719385
            ],
            [
              160.32252,
              48.59666
            ],
            [
              160.35559,
              48.475416
            ],
            [
              160.406505,
              48.356822
            ],
            [
              160.474774,
              48.24202
            ],
            [
              160.559742,
              48.132114
            ],
            [
              160.660588,
              48.028164
            ],
            [
              160.776342,
              47.931171
            ],
            [
              160.90589,
              47.842069
            ],
            [
              161.047982,
              47.761715
            ],
            [
              161.201253,
              47.690884
            ],
            [
              161.364224,
              47.630258
            ],
            [
              161.535326,
              47.580421
            ],
            [
              161.712913,
              47.541853
            ],
            [
              161.895273,
              47.514925
            ],
            [
              162.08065,
              47.499896
            ],
            [
              162.267259,
              47.496911
            ],
            [
              162.453303,
              47.506
            ],
            [
              162.636991,
              47.527073
            ],
            [
              162.816552,
              47.55993
            ],
            [
              162.990258,
              47.604252
            ],
            [
              163.156436,
              47.659613
            ],
            [
              163.313486,
              47.725481
            ],
            [
              163.459894,
              47.80122
            ],
            [
              163.594252,
              47.886102
            ],
            [
              163.715265,
              47.979308
            ],
            [
              163.821768,
              48.079942
            ],
            [
              163.912735,
              48.187034
            ],
            [
              163.98729,
              48.299552
            ]
          ]
        ],
        "type": "Polygon"
      },
      "properties": {
        "kind": "reachableSet",
        "observationStatus": "estimated",
        "vessel": "B"
      },
      "type": "Feature"
    }
  ],
  "properties": {
    "dateline": false
  },
  "type": "FeatureCollection"
}
