{
  "features": [
    {
      "geometry": {
        "coordinates": [
          -79.09534,
          -18.446442
        ],
        "type": "Point"
      },
      "properties": {
        "mmsi": "412421108",
        "observationStatus": "observed",
        "role": "off",
        "time": "2019-11-22T09:16:41Z",
        "vessel": "A"
      },
      "type": "Feature"
    },
    {
      "geometry": {
        "coordinates": [
          -79.134975,
          -18.528015
        ],
        "type": "Point"
      },
      "properties": {
        "mmsi": "412420801",
        "observationStatus": "observed",
        "role": "off",
        "time": "2019-11-22T09:25:55Z",
        "vessel": "B"
      },
      "type": "Feature"
    },
    {
      "geometry": {
        "coordinates": [
          -79.069112,
          -18.135927
        ],
        "type": "Point"
      },
      "properties": {
        "mmsi": "412420801",
        "observationStatus": "observed",
        "role": "on",
        "time": "2019-11-23T00:21:32Z",
        "vessel": "B"
      },
      "type": "Feature"
    },
    {
      "geometry": {
        "coordinates": [
          -79.0861,
          -18.180072
        ],
        "type": "Point"
      },
      "properties": {
        "mmsi": "412421108",
        "observationStatus": "observed",
        "role": "on",
        "time": "2019-11-23T00:21:52Z",
        "vessel": "A"
      },
      "type": "Feature"
    },
    {
      "geometry": {
        "coordinates": [
          [
            -79.09534,
            -18.446442
          ],
          [
            -79.102043,
            -18.331971
          ],
          [
            -79.0861,
            -18.180072
          ]
        ],
        "type": "LineString"
      },
      "properties": {
        "confidence": "low",
        "lineStyle": "dashed",
        "observationStatus": "estimated",
        "source": "reachable-set heuristic",
        "vessel": "A"
      },
      "type": "Feature"
    },
    {
      "geometry": {
        "coordinates": [
          [
            -79.134975,
            -18.528015
          ],
          [
            -79.102043,
            -18.331971
          ],
          [
            -79.069112,
            -18.135927
          ]
        ],
        "type": "LineString"
      },
      "properties": {
        "confidence": "low",
        "lineStyle": "dashed",
        "observationStatus": "estimated",
        "source": "reachable-set heuristic",
        "vessel": "B"
      },
      "type": "Feature"
    },
    {
      "geometry": {
        "coordinates": [
          -79.102043,
          -18.331971
        ],
        "type": "Point"
      },
      "properties": {
        "kind": "meetingPoint",
        "observationStatus": "estimated"
      },
      "type": "Feature"
    },
    {
      "geometry": {
        "coordinates": [
          [
            [
              -79.04164,
              -16.898388
            ],
            [
              -79.186328,
              -16.900624
            ],
            [
              -79.330095,
              -16.916464
            ],
            [
              -79.471557,
              -16.945755
            ],
            [
              -79.609351,
              -16.988217
            ],
            [
              -79.74215,
              -17.043439
            ],
            [
              -79.868676,
              -17.110891
            ],
            [
              -79.987709,
              -17.189921
            ],
            [
              -80.098104,
              -17.279771
            ],
            [
              -80.198798,
              -17.379573
            ],
            [
              -80.28882,
              -17.488367
            ],
            [
              -80.367303,
              -17.605105
            ],
            [
              -80.433493,
              -17.728663
            ],
            [
              -80.486751,
              -17.857851
            ],
            [
              -80.526564,
              -17.991425
            ],
            [
              -80.552549,
              -18.128098
            ],
            [
              -80.564456,
              -18.266555
            ],
            [
              -80.562171,
              -18.405461
            ],
            [
              -80.545714,
              -18.543479
            ],
            [
              -80.515245,
              -18.67928
            ],
            [
              -80.471057,
              -18.811557
            ],
            [
              -80.413576,
              -18.939034
            ],
            [
              -80.343354,
              -19.060484
            ],
            [
              -80.26107,
              -19.174739
            ],
            [
              -80.167514,
              -19.280697
            ],
            [
              -80.063588,
              -19.377337
            ],
            [
              -79.950292,
              -19.463731
            ],
            [
              -79.828719,
              -19.539044
            ],
            [
              -79.700038,
              -19.602553
            ],
            [
              -79.56549,
              -19.653644
            ],
            [
              -79.426368,
              -19.691828
            ],
            [
              -79.284015,
              -19.716734
            ],
            [
              -79.1398,
              -19.728125
            ],
            [
              -78.995112,
              -19.72589
            ],
            [
              -78.851345,
              -19.71005
            ],
            [
              -78.709883,
              -19.680758
            ],
            [
              -78.572089,
              -19.638297
            ],
            [
              -78.43929,
              -19.583074
            ],
            [
              -78.312764,
              -19.515623
            ],
            [
              -78.193731,
              -19.436592
            ],
            [
              -78.083336,
              -19.346743
            ],
            [
              -77.982642,
              -19.246941
            ],
            [
              -77.89262,
              -19.138147
            ],
            [
              -77.814137,
              -19.021408
            ],
            [
              -77.747947,
              -18.89785
            ],
            [
              -77.694689,
              -18.768662
            ],
            [
              -77.654876,
              -18.635088
            ],
            [
              -77.628891,
              -18.498415
            ],
            [
              -77.616984,
              -18.359958
            ],
            [
              -77.619269,
              -18.221052
            ],
            [
              -77.635726,
              -18.083034
            ],
            [
              -77.666195,
              -17.947233
            ],
            [
              -77.710383,
              -17.814957
            ],
            [
              -77.767864,
              -17.68748
            ],
            [
              -77.838086,
              -17.566029
            ],
            [
              -77.92037,
              -17.451775
            ],
            [
              -78.013926,
              -17.345817
            ],
            [
              -78.117852,
              -17.249176
            ],
            [
              -78.231148,
              -17.162783
            ],
            [
              -78.352721,
              -17.087469
            ],
            [
              -78.481402,
              -17.023961
            ],
            [
              -78.61595,
              -16.972869
            ],
            [
              -78.755072,
              -16.934686
            ],
            [
              -78.897425,
              -16.909779
            ],
            [
              -79.04164,
              -16.898388
            ]
          ]
        ],
        "type": "Polygon"
      },
      "properties": {
        "kind": "reachableSet",
        "observationStatus": "estimated",
        "vessel": "A"
      },
      "type": "Feature"
    },
    {
      "geometry": {
        "coordinates": [
          [
            [
              -78.869906,
              -16.950043
            ],
            [
              -79.011323,
              -16.935172
            ],
            [
              -79.153614,
              -16.933753
            ],
            [
              -79.295409,
              -16.9458
            ],
            [
              -79.435341,
              -16.971196
            ],
            [
              -79.572063,
              -17.009697
            ],
            [
              -79.704259,
              -17.060933
            ],
            [
              -79.830655,
              -17.124409
            ],
            [
              -79.950034,
              -17.199515
            ],
            [
              -80.061246,
              -17.285526
            ],
            [
              -80.163221,
              -17.381616
            ],
            [
              -80.254976,
              -17.486858
            ],
            [
              -80.335628,
              -17.600239
            ],
            [
              -80.4044,
              -17.720667
            ],
            [
              -80.460629,
              -17.846982
            ],
            [
              -80.503775,
              -17.977968
            ],
            [
              -80.53342,
              -18.112363
            ],
            [
              -80.549281,
              -18.248874
            ],
            [
              -80.551205,
              -18.386184
            ],
            [
              -80.539172,
              -18.522972
            ],
            [
              -80.513298,
              -18.657921
            ],
            [
              -80.473834,
              -18.789731
            ],
            [
              -80.421159,
              -18.917132
            ],
            [
              -80.355779,
              -19.038898
            ],
            [
              -80.278326,
              -19.153855
            ],
            [
              -80.189544,
              -19.260898
            ],
            [
              -80.090289,
              -19.358994
            ],
            [
              -79.981517,
              -19.4472
            ],
            [
              -79.864275,
              -19.524665
            ],
            [
              -79.739692,
              -19.590644
            ],
            [
              -79.608968,
              -19.644502
            ],
            [
              -79.473362,
              -19.685719
            ],
            [
              -79.334181,
              -19.713898
            ],
            [
              -79.192763,
              -19.728769
            ],
            [
              -79.050472,
              -19.730188
            ],
            [
              -78.908678,
              -19.718142
            ],
            [
              -78.768746,
              -19.692746
            ],
            [
              -78.632024,
              -19.654244
            ],
            [
              -78.499828,
              -19.603009
            ],
            [
              -78.373432,
              -19.539533
            ],
            [
              -78.254053,
              -19.464427
            ],
            [
              -78.14284,
              -19.378415
            ],
            [
              -78.040865,
              -19.282326
            ],
            [
              -77.94911,
              -19.177083
            ],
            [
              -77.868458,
              -19.063702
            ],
            [
              -77.799687,
              -18.943274
            ],
            [
              -77.743458,
              -18.816959
            ],
            [
              -77.700312,
              -18.685973
            ],
            [
              -77.670666,
              -18.551578
            ],
            [
              -77.654805,
              -18.415068
            ],
            [
              -77.652882,
              -18.277758
            ],
            [
              -77.664915,
              -18.14097
            ],
            [
              -77.690788,
              -18.006021
            ],
            [
              -77.730253,
              -17.874211
            ],
            [
              -77.782928,
              -17.74681
            ],
            [
              -77.848307,
              -17.625044
            ],
            [
              -77.925761,
              -17.510086
            ],
            [
              -78.014543,
              -17.403044
            ],
            [
              -78.113798,
              -17.304947
            ],
            [
              -78.22257,
              -17.216742
            ],
            [
              -78.339812,
              -17.139276
            ],
            [
              -78.464395,
              -17.073297
            ],
            [
              -78.595119,
              -17.01944
            ],
            [
              -78.730724,
              -16.978223
            ],
            [
              -78.869906,
              -16.950043
            ]
          ]
        ],
        "type": "Polygon"
      },
      "properties": {
        "kind": "reachableSet",
        "observationStatus": "estimated",
        "vessel": "B"
      },
      "type": "Feature"
    }
  ],
  "properties": {
    "dateline": false
  },
  "type": "FeatureCollection"
}
