{
  "features": [
    {
      "geometry": {
        "coordinates": [
          -60.694602,
          -46.34929
        ],
        "type": "Point"
      },
      "properties": {
        "mmsi": "412422732",
        "observationStatus": "observed",
        "role": "off",
        "time": "2019-02-15T18:54:30Z",
        "vessel": "A"
      },
      "type": "Feature"
    },
    {
      "geometry": {
        "coordinates": [
          -60.697155,
          -46.385148
        ],
        "type": "Point"
      },
      "properties": {
        "mmsi": "412421041",
        "observationStatus": "observed",
        "role": "off",
        "time": "2019-02-15T18:55:49Z",
        "vessel": "B"
      },
      "type": "Feature"
    },
    {
      "geometry": {
        "coordinates": [
          -60.823958,
          -46.483065
        ],
        "type": "Point"
      },
      "properties": {
        "mmsi": "412422732",
        "observationStatus": "observed",
        "role": "on",
        "time": "2019-02-16T08:24:40Z",
        "vessel": "A"
      },
      "type": "Feature"
    },
    {
      "geometry": {
        "coordinates": [
          -60.861572,
          -46.446107
        ],
        "type": "Point"
      },
      "properties": {
        "mmsi": "412421041",
        "observationStatus": "observed",
        "role": "on",
        "time": "2019-02-16T08:47:41Z",
        "vessel": "B"
      },
      "type": "Feature"
    },
    {
      "geometry": {
        "coordinates": [
          [
            -60.694602,
            -46.34929
          ],
          [
            -60.75407,
            -46.410438
          ],
          [
            -60.823958,
            -46.483065
          ]
        ],
        "type": "LineString"
      },
      "properties": {
        "confidence": "low",
        "lineStyle": "dashed",
        "observationStatus": "estimated",
        "source": "reachable-set heuristic",
        "vessel": "A"
      },
      "type": "Feature"
    },
    {
      "geometry": {
        "coordinates": [
          [
            -60.697155,
            -46.385148
          ],
          [
            -60.75407,
            -46.410438
          ],
          [
            -60.861572,
            -46.446107
          ]
        ],
        "type": "LineString"
      },
      "properties": {
        "confidence": "low",
        "lineStyle": "dashed",
        "observationStatus": "estimated",
        "source": "reachable-set heuristic",
        "vessel": "B"
      },
      "type": "Feature"
    },
    {
      "geometry": {
        "coordinates": [
          -60.75407,
          -46.410438
        ],
        "type": "Point"
      },
      "properties": {
        "kind": "meetingPoint",
        "observationStatus": "estimated"
      },
      "type": "Feature"
    },
    {
      "geometry": {
        "coordinates": [
          [
            [
              -61.768119,
              -47.459474
            ],
            [
              -61.616233,
              -47.522943
            ],
            [
              -61.456095,
              -47.575754
            ],
            [
              -61.289246,
              -47.617397
            ],
            [
              -61.117293,
              -47.647472
            ],
            [
              -60.941892,
              -47.665688
            ],
            [
              -60.764733,
              -47.671871
            ],
            [
              -60.587521,
              -47.665962
            ],
            [
              -60.411963,
              -47.648016
            ],
            [
              -60.23975,
              -47.618206
            ],
            [
              -60.07254,
              -47.576821
            ],
            [
              -59.911944,
              -47.524258
            ],
            [
              -59.759509,
              -47.461024
            ],
            [
              -59.616702,
              -47.387727
            ],
            [
              -59.484898,
              -47.305073
            ],
            [
              -59.365367,
              -47.213859
            ],
            [
              -59.259261,
              -47.114963
            ],
            [
              -59.1676,
              -47.009337
            ],
            [
              -59.091269,
              -46.897999
            ],
            [
              -59.031001,
              -46.782021
            ],
            [
              -58.987377,
              -46.662519
            ],
            [
              -58.960818,
              -46.540645
            ],
            [
              -58.951579,
              -46.417572
            ],
            [
              -58.959749,
              -46.294486
            ],
            [
              -58.98525,
              -46.172571
            ],
            [
              -59.027835,
              -46.053003
            ],
            [
              -59.087095,
              -45.936933
            ],
            [
              -59.16246,
              -45.825477
            ],
            [
              -59.253202,
              -45.719711
            ],
            [
              -59.358449,
              -45.620652
            ],
            [
              -59.477187,
              -45.529254
            ],
            [
              -59.608272,
              -45.446398
            ],
            [
              -59.750441,
              -45.372881
            ],
            [
              -59.902327,
              -45.309412
            ],
            [
              -60.062465,
              -45.256601
            ],
            [
              -60.229314,
              -45.214958
            ],
            [
              -60.401267,
              -45.184883
            ],
            [
              -60.576668,
              -45.166667
            ],
            [
              -60.753827,
              -45.160484
            ],
            [
              -60.931039,
              -45.166393
            ],
            [
              -61.106597,
              -45.184339
            ],
            [
              -61.27881,
              -45.214149
            ],
            [
              -61.44602,
              -45.255534
            ],
            [
              -61.606616,
              -45.308097
            ],
            [
              -61.759051,
              -45.371331
            ],
            [
              -61.901858,
              -45.444628
            ],
            [
              -62.033662,
              -45.527282
            ],
            [
              -62.153193,
              -45.618496
            ],
            [
              -62.259299,
              -45.717392
            ],
            [
              -62.35096,
              -45.823018
            ],
            [
              -62.427291,
              -45.934356
            ],
            [
              -62.487559,
              -46.050334
            ],
            [
              -62.531183,
              -46.169836
            ],
            [
              -62.557742,
              -46.29171
            ],
            [
              -62.566981,
              -46.414783
            ],
            [
              -62.558811,
              -46.537869
            ],
            [
              -62.53331,
              -46.659784
            ],
            [
              -62.490725,
              -46.779352
            ],
            [
              -62.431465,
              -46.895422
            ],
            [
              -62.3561,
              -47.006878
            ],
            [
              -62.265358,
              -47.112644
            ],
            [
              -62.160111,
              -47.211703
            ],
            [
              -62.041373,
              -47.303101
            ],
            [
              -61.910288,
              -47.385957
            ],
            [
              -61.768119,
              -47.459474
            ]
          ]
        ],
        "type": "Polygon"
      },
      "properties": {
        "kind": "reachableSet",
        "observationStatus": "estimated",
        "vessel": "A"
      },
      "type": "Feature"
    },
    {
      "geometry": {
        "coordinates": [
          [
            [
              -62.422294,
              -47.024753
            ],
            [
              -62.328473,
              -47.133454
            ],
            [
              -62.219733,
              -47.235242
            ],
            [
              -62.097122,
              -47.329137
            ],
            [
              -61.96182,
              -47.414234
            ],
            [
              -61.81513,
              -47.489714
            ],
            [
              -61.658465,
              -47.554851
            ],
            [
              -61.493334,
              -47.609015
            ],
            [
              -61.321327,
              -47.651687
            ],
            [
              -61.144101,
              -47.682455
            ],
            [
              -60.963362,
              -47.701023
            ],
            [
              -60.780851,
              -47.707211
            ],
            [
              -60.598325,
              -47.700961
            ],
            [
              -60.417544,
              -47.682332
            ],
            [
              -60.240246,
              -47.651505
            ],
            [
              -60.068141,
              -47.608775
            ],
            [
              -59.902885,
              -47.554555
            ],
            [
              -59.74607,
              -47.489366
            ],
            [
              -59.599206,
              -47.413836
            ],
            [
              -59.463708,
              -47.328693
            ],
            [
              -59.340881,
              -47.234757
            ],
            [
              -59.231906,
              -47.132932
            ],
            [
              -59.137835,
              -47.024199
            ],
            [
              -59.059572,
              -46.909605
            ],
            [
              -58.997872,
              -46.790254
            ],
            [
              -58.953329,
              -46.667295
            ],
            [
              -58.926371,
              -46.541912
            ],
            [
              -58.917259,
              -46.415314
            ],
            [
              -58.926079,
              -46.288718
            ],
            [
              -58.952748,
              -46.163344
            ],
            [
              -58.997009,
              -46.0404
            ],
            [
              -59.058434,
              -45.92107
            ],
            [
              -59.136433,
              -45.806502
            ],
            [
              -59.230254,
              -45.697801
            ],
            [
              -59.338993,
              -45.596013
            ],
            [
              -59.461605,
              -45.502118
            ],
            [
              -59.596907,
              -45.417021
            ],
            [
              -59.743597,
              -45.341541
            ],
            [
              -59.900261,
              -45.276404
            ],
            [
              -60.065393,
              -45.22224
            ],
            [
              -60.2374,
              -45.179568
            ],
            [
              -60.414626,
              -45.1488
            ],
            [
              -60.595365,
              -45.130232
            ],
            [
              -60.777876,
              -45.124044
            ],
            [
              -60.960401,
              -45.130294
            ],
            [
              -61.141183,
              -45.148923
            ],
            [
              -61.31848,
              -45.17975
            ],
            [
              -61.490586,
              -45.22248
            ],
            [
              -61.655842,
              -45.2767
            ],
            [
              -61.812656,
              -45.341889
            ],
            [
              -61.95952,
              -45.417419
            ],
            [
              -62.095018,
              -45.502562
            ],
            [
              -62.217846,
              -45.596498
            ],
            [
              -62.32682,
              -45.698323
            ],
            [
              -62.420892,
              -45.807056
            ],
            [
              -62.499154,
              -45.92165
            ],
            [
              -62.560855,
              -46.041001
            ],
            [
              -62.605398,
              -46.16396
            ],
            [
              -62.632356,
              -46.289343
            ],
            [
              -62.641468,
              -46.415941
            ],
            [
              -62.632647,
              -46.542537
            ],
            [
              -62.605978,
              -46.667911
            ],
            [
              -62.561718,
              -46.790855
            ],
            [
              -62.500293,
              -46.910185
            ],
            [
              -62.422294,
              -47.024753
            ]
          ]
        ],
        "type": "Polygon"
      },
      "properties": {
        "kind": "reachableSet",
        "observationStatus": "estimated",
        "vessel": "B"
      },
      "type": "Feature"
    }
  ],
  "properties": {
    "dateline": false
  },
  "type": "FeatureCollection"
}
