{
  "features": [
    {
      "geometry": {
        "coordinates": [
          161.983067,
          42.748933
        ],
        "type": "Point"
      },
      "properties": {
        "mmsi": "412331147",
        "observationStatus": "observed",
        "role": "off",
        "time": "2017-07-01T18:33:00Z",
        "vessel": "A"
      },
      "type": "Feature"
    },
    {
      "geometry": {
        "coordinates": [
          162.033947,
          42.79504
        ],
        "type": "Point"
      },
      "properties": {
        "mmsi": "416004105",
        "observationStatus": "observed",
        "role": "off",
        "time": "2017-07-01T18:33:05Z",
        "vessel": "B"
      },
      "type": "Feature"
    },
    {
      "geometry": {
        "coordinates": [
          161.423197,
          42.34015
        ],
        "type": "Point"
      },
      "properties": {
        "mmsi": "416004105",
        "observationStatus": "observed",
        "role": "on",
        "time": "2017-07-03T12:18:49Z",
        "vessel": "B"
      },
      "type": "Feature"
    },
    {
      "geometry": {
        "coordinates": [
          161.347395,
          42.39851
        ],
        "type": "Point"
      },
      "properties": {
        "mmsi": "412331147",
        "observationStatus": "observed",
        "role": "on",
        "time": "2017-07-03T12:19:32Z",
        "vessel": "A"
      },
      "type": "Feature"
    },
    {
      "geometry": {
        "coordinates": [
          [
            161.983067,
            42.748933
          ],
          [
            162.000415,
            42.775271
          ],
          [
            161.347395,
            42.39851
          ]
        ],
        "type": "LineString"
      },
      "properties": {
        "confidence": "low",
        "lineStyle": "dashed",
        "observationStatus": "estimated",
        "source": "reachable-set heuristic",
        "vessel": "A"
      },
      "type": "Feature"
    },
    {
      "geometry": {
        "coordinates": [
          [
            162.033947,
            42.79504
          ],
          [
            162.000415,
            42.775271
          ],
          [
            161.423197,
            42.34015
          ]
        ],
        "type": "LineString"
      },
      "properties": {
        "confidence": "low",
        "lineStyle": "dashed",
        "observationStatus": "estimated",
        "source": "reachable-set heuristic",
        "vessel": "B"
      },
      "type": "Feature"
    },
    {
      "geometry": {
        "coordinates": [
          162.000415,
          42.775271
        ],
        "type": "Point"
      },
      "properties": {
        "kind": "meetingPoint",
        "observationStatus": "estimated"
      },
      "type": "Feature"
    },
    {
      "geometry": {
        "coordinates": [
          [
            [
              157.229807,
              40.128629
            ],
            [
              157.573587,
              39.818909
            ],
            [
              157.956772,
              39.535719
            ],
            [
              158.375672,
              39.281786
            ],
            [
              158.826252,
              39.059557
            ],
            [
              159.304172,
              38.87117
            ],
            [
              159.804831,
              38.718442
            ],
            [
              160.323407,
              38.602842
            ],
            [
              160.854905,
              38.525484
            ],
            [
              161.394207,
              38.487112
            ],
            [
              161.936119,
              38.488097
            ],
            [
              162.475423,
              38.528428
            ],
            [
              163.006923,
              38.607718
            ],
            [
              163.525503,
              38.725203
            ],
            [
              164.026167,
              38.879751
            ],
            [
              164.504094,
              39.069874
            ],
            [
              164.954681,
              39.293741
            ],
            [
              165.373589,
              39.549196
            ],
            [
              165.756783,
              39.833779
            ],
            [
              166.100574,
              40.144749
            ],
            [
              166.40165,
              40.479111
            ],
            [
              166.657111,
              40.833646
            ],
            [
              166.864498,
              41.204938
            ],
            [
              167.021813,
              41.589413
            ],
            [
              167.127542,
              41.983367
            ],
            [
              167.180665,
              42.383006
            ],
            [
              167.180672,
              42.784482
            ],
            [
              167.127561,
              43.183929
            ],
            [
              167.021846,
              43.577498
            ],
            [
              166.864544,
              43.961401
            ],
            [
              166.657169,
              44.33194
            ],
            [
              166.401719,
              44.685546
            ],
            [
              166.100655,
              45.018814
            ],
            [
              165.756874,
              45.328535
            ],
            [
              165.373689,
              45.611725
            ],
            [
              164.95479,
              45.865657
            ],
            [
              164.50421,
              46.087887
            ],
            [
              164.026289,
              46.276273
            ],
            [
              163.52563,
              46.429001
            ],
            [
              163.007055,
              46.544601
            ],
            [
              162.475557,
              46.62196
            ],
            [
              161.936255,
              46.660331
            ],
            [
              161.394342,
              46.659346
            ],
            [
              160.855039,
              46.619015
            ],
            [
              160.323538,
              46.539725
            ],
            [
              159.804959,
              46.42224
            ],
            [
              159.304295,
              46.267692
            ],
            [
              158.826368,
              46.077569
            ],
            [
              158.375781,
              45.853702
            ],
            [
              157.956873,
              45.598247
            ],
            [
              157.573678,
              45.313664
            ],
            [
              157.229888,
              45.002695
            ],
            [
              156.928812,
              44.668332
            ],
            [
              156.67335,
              44.313798
            ],
            [
              156.465964,
              43.942505
            ],
            [
              156.308648,
              43.558031
            ],
            [
              156.20292,
              43.164077
            ],
            [
              156.149797,
              42.764437
            ],
            [
              156.14979,
              42.362961
            ],
            [
              156.2029,
              41.963515
            ],
            [
              156.308615,
              41.569945
            ],
            [
              156.465918,
              41.186042
            ],
            [
              156.673293,
              40.815503
            ],
            [
              156.928742,
              40.461897
            ],
            [
              157.229807,
              40.128629
            ]
          ]
        ],
        "type": "Polygon"
      },
      "properties": {
        "kind": "reachableSet",
        "observationStatus": "estimated",
        "vessel": "A"
      },
      "type": "Feature"
    },
    {
      "geometry": {
        "coordinates": [
          [
            [
              157.830716,
              39.66445
            ],
            [
              158.232078,
              39.396015
            ],
            [
              158.667114,
              39.158123
            ],
            [
              159.131632,
              38.953067
            ],
            [
              159.621161,
              38.782821
            ],
            [
              160.130986,
              38.649024
            ],
            [
              160.656196,
              38.552965
            ],
            [
              161.191733,
              38.495569
            ],
            [
              161.732441,
              38.477388
            ],
            [
              162.273111,
              38.498599
            ],
            [
              162.808538,
              38.558997
            ],
            [
              163.333563,
              38.657999
            ],
            [
              163.843132,
              38.794653
            ],
            [
              164.332336,
              38.967643
            ],
            [
              164.796464,
              39.175302
            ],
            [
              165.231047,
              39.41563
            ],
            [
              165.6319,
              39.686314
            ],
            [
              165.995161,
              39.984746
            ],
            [
              166.317332,
              40.308053
            ],
            [
              166.595312,
              40.65312
            ],
            [
              166.826421,
              41.016624
            ],
            [
              167.008436,
              41.395065
            ],
            [
              167.139603,
              41.784798
            ],
            [
              167.218659,
              42.18207
            ],
            [
              167.244842,
              42.583055
            ],
            [
              167.2179,
              42.983891
            ],
            [
              167.138093,
              43.380718
            ],
            [
              167.00619,
              43.769714
            ],
            [
              166.82346,
              44.147133
            ],
            [
              166.591664,
              44.50934
            ],
            [
              166.313033,
              44.852847
            ],
            [
              165.990251,
              45.174345
            ],
            [
              165.626428,
              45.47074
            ],
            [
              165.225065,
              45.739175
            ],
            [
              164.79003,
              45.977067
            ],
            [
              164.325511,
              46.182123
            ],
            [
              163.835982,
              46.352369
            ],
            [
              163.326158,
              46.486166
            ],
            [
              162.800948,
              46.582225
            ],
            [
              162.26541,
              46.639621
            ],
            [
              161.724702,
              46.657802
            ],
            [
              161.184032,
              46.636591
            ],
            [
              160.648606,
              46.576193
            ],
            [
              160.12358,
              46.477191
            ],
            [
              159.614012,
              46.340537
            ],
            [
              159.124807,
              46.167547
            ],
            [
              158.660679,
              45.959888
            ],
            [
              158.226096,
              45.71956
            ],
            [
              157.825244,
              45.448876
            ],
            [
              157.461983,
              45.150444
            ],
            [
              157.139811,
              44.827137
            ],
            [
              156.861832,
              44.48207
            ],
            [
              156.630722,
              44.118566
            ],
            [
              156.448707,
              43.740125
            ],
            [
              156.31754,
              43.350392
            ],
            [
              156.238485,
              42.95312
            ],
            [
              156.212302,
              42.552135
            ],
            [
              156.239243,
              42.151299
            ],
            [
              156.31905,
              41.754472
            ],
            [
              156.450954,
              41.365476
            ],
            [
              156.633683,
              40.988057
            ],
            [
              156.86548,
              40.62585
            ],
            [
              157.14411,
              40.282343
            ],
            [
              157.466892,
              39.960845
            ],
            [
              157.830716,
              39.66445
            ]
          ]
        ],
        "type": "Polygon"
      },
      "properties": {
        "kind": "reachableSet",
        "observationStatus": "estimated",
        "vessel": "B"
      },
      "type": "Feature"
    }
  ],
  "properties": {
    "dateline": false
  },
  "type": "FeatureCollection"
}
