{
  "features": [
    {
      "geometry": {
        "coordinates": [
          -62.85296,
          -44.331707
        ],
        "type": "Point"
      },
      "properties": {
        "mmsi": "701000626",
        "observationStatus": "observed",
        "role": "off",
        "time": "2018-09-07T21:29:42Z",
        "vessel": "A"
      },
      "type": "Feature"
    },
    {
      "geometry": {
        "coordinates": [
          -62.827343,
          -44.312128
        ],
        "type": "Point"
      },
      "properties": {
        "mmsi": "701000662",
        "observationStatus": "observed",
        "role": "off",
        "time": "2018-09-07T22:22:46Z",
        "vessel": "B"
      },
      "type": "Feature"
    },
    {
      "geometry": {
        "coordinates": [
          -62.78136,
          -44.28336
        ],
        "type": "Point"
      },
      "properties": {
        "mmsi": "701000626",
        "observationStatus": "observed",
        "role": "on",
        "time": "2018-09-08T11:16:14Z",
        "vessel": "A"
      },
      "type": "Feature"
    },
    {
      "geometry": {
        "coordinates": [
          -62.798027,
          -44.262853
        ],
        "type": "Point"
      },
      "properties": {
        "mmsi": "701000662",
        "observationStatus": "observed",
        "role": "on",
        "time": "2018-09-08T11:25:49Z",
        "vessel": "B"
      },
      "type": "Feature"
    },
    {
      "geometry": {
        "coordinates": [
          [
            -62.85296,
            -44.331707
          ],
          [
            -62.810819,
            -44.302025
          ],
          [
            -62.78136,
            -44.28336
          ]
        ],
        "type": "LineString"
      },
      "properties": {
        "confidence": "low",
        "lineStyle": "dashed",
        "observationStatus": "estimated",
        "source": "reachable-set heuristic",
        "vessel": "A"
      },
      "type": "Feature"
    },
    {
      "geometry": {
        "coordinates": [
          [
            -62.827343,
            -44.312128
          ],
          [
            -62.810819,
            -44.302025
          ],
          [
            -62.798027,
            -44.262853
          ]
        ],
        "type": "LineString"
      },
      "properties": {
        "confidence": "low",
        "lineStyle": "dashed",
        "observationStatus": "estimated",
        "source": "reachable-set heuristic",
        "vessel": "B"
      },
      "type": "Feature"
    },
    {
      "geometry": {
        "coordinates": [
          -62.810819,
          -44.302025
        ],
        "type": "Point"
      },
      "properties": {
        "kind": "meetingPoint",
        "observationStatus": "estimated"
      },
      "type": "Feature"
    },
    {
      "geometry": {
        "coordinates": [
          [
            [
              -61.408534,
              -43.356383
            ],
            [
              -61.544678,
              -43.261522
            ],
            [
              -61.693077,
              -43.176735
            ],
            [
              -61.852301,
              -43.102838
            ],
            [
              -62.020818,
              -43.040543
            ],
            [
              -62.197004,
              -42.99045
            ],
            [
              -62.379162,
              -42.953041
            ],
            [
              -62.565538,
              -42.928677
            ],
            [
              -62.754338,
              -42.917592
            ],
            [
              -62.943742,
              -42.919892
            ],
            [
              -63.131928,
              -42.935557
            ],
            [
              -63.317082,
              -42.964434
            ],
            [
              -63.497422,
              -43.006246
            ],
            [
              -63.67121,
              -43.06059
            ],
            [
              -63.836773,
              -43.126943
            ],
            [
              -63.992517,
              -43.204666
            ],
            [
              -64.136942,
              -43.29301
            ],
            [
              -64.268656,
              -43.391124
            ],
            [
              -64.386392,
              -43.498064
            ],
            [
              -64.489015,
              -43.612799
            ],
            [
              -64.575537,
              -43.734225
            ],
            [
              -64.645126,
              -43.861173
            ],
            [
              -64.697109,
              -43.992419
            ],
            [
              -64.730988,
              -44.126699
            ],
            [
              -64.746436,
              -44.262722
            ],
            [
              -64.743304,
              -44.399176
            ],
            [
              -64.721621,
              -44.534747
            ],
            [
              -64.681598,
              -44.66813
            ],
            [
              -64.62362,
              -44.79804
            ],
            [
              -64.548244,
              -44.923227
            ],
            [
              -64.456196,
              -45.042484
            ],
            [
              -64.348364,
              -45.154663
            ],
            [
              -64.225786,
              -45.258684
            ],
            [
              -64.089642,
              -45.353545
            ],
            [
              -63.941243,
              -45.438332
            ],
            [
              -63.782019,
              -45.512228
            ],
            [
              -63.613502,
              -45.574523
            ],
            [
              -63.437316,
              -45.624616
            ],
            [
              -63.255158,
              -45.662025
            ],
            [
              -63.068782,
              -45.68639
            ],
            [
              -62.879982,
              -45.697475
            ],
            [
              -62.690578,
              -45.695174
            ],
            [
              -62.502392,
              -45.67951
            ],
            [
              -62.317238,
              -45.650633
            ],
            [
              -62.136898,
              -45.608821
            ],
            [
              -61.96311,
              -45.554476
            ],
            [
              -61.797547,
              -45.488124
            ],
            [
              -61.641803,
              -45.410401
            ],
            [
              -61.497378,
              -45.322057
            ],
            [
              -61.365664,
              -45.223943
            ],
            [
              -61.247928,
              -45.117003
            ],
            [
              -61.145305,
              -45.002268
            ],
            [
              -61.058783,
              -44.880841
            ],
            [
              -60.989194,
              -44.753894
            ],
            [
              -60.937211,
              -44.622648
            ],
            [
              -60.903332,
              -44.488367
            ],
            [
              -60.887884,
              -44.352345
            ],
            [
              -60.891016,
              -44.215891
            ],
            [
              -60.912699,
              -44.08032
            ],
            [
              -60.952722,
              -43.946937
            ],
            [
              -61.0107,
              -43.817026
            ],
            [
              -61.086076,
              -43.69184
            ],
            [
              -61.178124,
              -43.572583
            ],
            [
              -61.285956,
              -43.460404
            ],
            [
              -61.408534,
              -43.356383
            ]
          ]
        ],
        "type": "Polygon"
      },
      "properties": {
        "kind": "reachableSet",
        "observationStatus": "estimated",
        "vessel": "A"
      },
      "type": "Feature"
    },
    {
      "geometry": {
        "coordinates": [
          [
            [
              -62.095267,
              -43.081667
            ],
            [
              -62.262683,
              -43.036804
            ],
            [
              -62.435395,
              -43.003987
            ],
            [
              -62.611741,
              -42.98353
            ],
            [
              -62.790022,
              -42.975632
            ],
            [
              -62.968521,
              -42.980367
            ],
            [
              -63.14552,
              -42.997691
            ],
            [
              -63.319313,
              -43.027436
            ],
            [
              -63.488227,
              -43.069316
            ],
            [
              -63.650635,
              -43.122927
            ],
            [
              -63.804973,
              -43.187755
            ],
            [
              -63.949755,
              -43.263173
            ],
            [
              -64.083587,
              -43.348456
            ],
            [
              -64.205179,
              -43.442782
            ],
            [
              -64.31336,
              -43.545243
            ],
            [
              -64.407089,
              -43.654853
            ],
            [
              -64.485463,
              -43.770555
            ],
            [
              -64.547728,
              -43.891236
            ],
            [
              -64.593282,
              -44.015733
            ],
            [
              -64.621689,
              -44.142847
            ],
            [
              -64.632674,
              -44.271354
            ],
            [
              -64.626132,
              -44.400016
            ],
            [
              -64.602125,
              -44.527595
            ],
            [
              -64.560885,
              -44.652861
            ],
            [
              -64.502809,
              -44.774609
            ],
            [
              -64.428456,
              -44.891665
            ],
            [
              -64.338542,
              -45.002903
            ],
            [
              -64.233933,
              -45.107251
            ],
            [
              -64.115637,
              -45.203705
            ],
            [
              -63.984793,
              -45.291334
            ],
            [
              -63.84266,
              -45.369296
            ],
            [
              -63.690609,
              -45.43684
            ],
            [
              -63.530103,
              -45.493315
            ],
            [
              -63.362687,
              -45.538177
            ],
            [
              -63.189975,
              -45.570995
            ],
            [
              -63.013629,
              -45.591451
            ],
            [
              -62.835348,
              -45.59935
            ],
            [
              -62.656849,
              -45.594615
            ],
            [
              -62.47985,
              -45.577291
            ],
            [
              -62.306057,
              -45.547546
            ],
            [
              -62.137143,
              -45.505666
            ],
            [
              -61.974735,
              -45.452054
            ],
            [
              -61.820397,
              -45.387227
            ],
            [
              -61.675615,
              -45.311809
            ],
            [
              -61.541783,
              -45.226526
            ],
            [
              -61.420191,
              -45.1322
            ],
            [
              -61.31201,
              -45.029738
            ],
            [
              -61.218281,
              -44.920129
            ],
            [
              -61.139907,
              -44.804426
            ],
            [
              -61.077642,
              -44.683746
            ],
            [
              -61.032088,
              -44.559249
            ],
            [
              -61.003681,
              -44.432135
            ],
            [
              -60.992696,
              -44.303628
            ],
            [
              -60.999238,
              -44.174966
            ],
            [
              -61.023245,
              -44.047387
            ],
            [
              -61.064485,
              -43.92212
            ],
            [
              -61.122561,
              -43.800373
            ],
            [
              -61.196914,
              -43.683316
            ],
            [
              -61.286828,
              -43.572079
            ],
            [
              -61.391437,
              -43.46773
            ],
            [
              -61.509733,
              -43.371277
            ],
            [
              -61.640577,
              -43.283647
            ],
            [
              -61.78271,
              -43.205685
            ],
            [
              -61.934761,
              -43.138141
            ],
            [
              -62.095267,
              -43.081667
            ]
          ]
        ],
        "type": "Polygon"
      },
      "properties": {
        "kind": "reachableSet",
        "observationStatus": "estimated",
        "vessel": "B"
      },
      "type": "Feature"
    }
  ],
  "properties": {
    "dateline": false
  },
  "type": "FeatureCollection"
}
