{
  "features": [
    {
      "geometry": {
        "coordinates": [
          -57.72192,
          -42.032533
        ],
        "type": "Point"
      },
      "properties": {
        "mmsi": "412329693",
        "observationStatus": "observed",
        "role": "off",
        "time": "2019-05-18T05:34:26Z",
        "vessel": "A"
      },
      "type": "Feature"
    },
    {
      "geometry": {
        "coordinates": [
          -57.759988,
          -42.073723
        ],
        "type": "Point"
      },
      "properties": {
        "mmsi": "412329684",
        "observationStatus": "observed",
        "role": "off",
        "time": "2019-05-18T05:35:34Z",
        "vessel": "B"
      },
      "type": "Feature"
    },
    {
      "geometry": {
        "coordinates": [
          -57.917547,
          -42.009227
        ],
        "type": "Point"
      },
      "properties": {
        "mmsi": "412329693",
        "observationStatus": "observed",
        "role": "on",
        "time": "2019-05-18T22:35:30Z",
        "vessel": "A"
      },
      "type": "Feature"
    },
    {
      "geometry": {
        "coordinates": [
          -57.943423,
          -42.08539
        ],
        "type": "Point"
      },
      "properties": {
        "mmsi": "412329684",
        "observationStatus": "observed",
        "role": "on",
        "time": "2019-05-18T22:55:19Z",
        "vessel": "B"
      },
      "type": "Feature"
    },
    {
      "geometry": {
        "coordinates": [
          [
            -57.72192,
            -42.032533
          ],
          [
            -57.865984,
            -42.015427
          ],
          [
            -57.917547,
            -42.009227
          ]
        ],
        "type": "LineString"
      },
      "properties": {
        "confidence": "low",
        "lineStyle": "dashed",
        "observationStatus": "estimated",
        "source": "reachable-set heuristic",
        "vessel": "A"
      },
      "type": "Feature"
    },
    {
      "geometry": {
        "coordinates": [
          [
            -57.759988,
            -42.073723
          ],
          [
            -57.865984,
            -42.015427
          ],
          [
            -57.943423,
            -42.08539
          ]
        ],
        "type": "LineString"
      },
      "properties": {
        "confidence": "low",
        "lineStyle": "dashed",
        "observationStatus": "estimated",
        "source": "reachable-set heuristic",
        "vessel": "B"
      },
      "type": "Feature"
    },
    {
      "geometry": {
        "coordinates": [
          -57.865984,
          -42.015427
        ],
        "type": "Point"
      },
      "properties": {
        "kind": "meetingPoint",
        "observationStatus": "estimated"
      },
      "type": "Feature"
    },
    {
      "geometry": {
        "coordinates": [
          [
            [
              -60.122297,
              -41.746556
            ],
            [
              -60.147127,
              -41.916528
            ],
            [
              -60.149543,
              -42.087504
            ],
            [
              -60.129521,
              -42.257839
            ],
            [
              -60.087256,
              -42.425892
            ],
            [
              -60.023152,
              -42.590045
            ],
            [
              -59.937829,
              -42.748716
            ],
            [
              -59.832107,
              -42.900378
            ],
            [
              -59.707005,
              -43.043569
            ],
            [
              -59.563727,
              -43.176912
            ],
            [
              -59.403654,
              -43.299121
            ],
            [
              -59.228327,
              -43.40902
            ],
            [
              -59.039434,
              -43.505551
            ],
            [
              -58.838795,
              -43.587783
            ],
            [
              -58.628342,
              -43.654925
            ],
            [
              -58.410101,
              -43.706331
            ],
            [
              -58.186175,
              -43.741505
            ],
            [
              -57.95872,
              -43.760108
            ],
            [
              -57.729926,
              -43.761961
            ],
            [
              -57.501997,
              -43.747047
            ],
            [
              -57.277128,
              -43.715509
            ],
            [
              -57.057485,
              -43.667651
            ],
            [
              -56.845183,
              -43.603933
            ],
            [
              -56.642266,
              -43.52497
            ],
            [
              -56.450688,
              -43.431522
            ],
            [
              -56.272296,
              -43.324488
            ],
            [
              -56.108806,
              -43.2049
            ],
            [
              -55.961793,
              -43.073909
            ],
            [
              -55.832673,
              -42.932777
            ],
            [
              -55.72269,
              -42.782863
            ],
            [
              -55.632902,
              -42.62561
            ],
            [
              -55.564175,
              -42.462534
            ],
            [
              -55.51717,
              -42.295204
            ],
            [
              -55.49234,
              -42.125232
            ],
            [
              -55.489924,
              -41.954256
            ],
            [
              -55.509945,
              -41.783921
            ],
            [
              -55.552211,
              -41.615868
            ],
            [
              -55.616314,
              -41.451715
            ],
            [
              -55.701638,
              -41.293044
            ],
            [
              -55.80736,
              -41.141382
            ],
            [
              -55.932462,
              -40.998191
            ],
            [
              -56.075739,
              -40.864848
            ],
            [
              -56.235813,
              -40.742639
            ],
            [
              -56.41114,
              -40.63274
            ],
            [
              -56.600033,
              -40.536209
            ],
            [
              -56.800672,
              -40.453977
            ],
            [
              -57.011125,
              -40.386835
            ],
            [
              -57.229366,
              -40.335429
            ],
            [
              -57.453292,
              -40.300255
            ],
            [
              -57.680747,
              -40.281652
            ],
            [
              -57.909541,
              -40.279799
            ],
            [
              -58.137469,
              -40.294713
            ],
            [
              -58.362338,
              -40.326251
            ],
            [
              -58.581982,
              -40.374109
            ],
            [
              -58.794284,
              -40.437827
            ],
            [
              -58.997201,
              -40.51679
            ],
            [
              -59.188778,
              -40.610238
            ],
            [
              -59.367171,
              -40.717272
            ],
            [
              -59.530661,
              -40.83686
            ],
            [
              -59.677674,
              -40.967851
            ],
            [
              -59.806793,
              -41.108983
            ],
            [
              -59.916777,
              -41.258897
            ],
            [
              -60.006564,
              -41.41615
            ],
            [
              -60.075292,
              -41.579226
            ],
            [
              -60.122297,
              -41.746556
            ]
          ]
        ],
        "type": "Polygon"
      },
      "properties": {
        "kind": "reachableSet",
        "observationStatus": "estimated",
        "vessel": "A"
      },
      "type": "Feature"
    },
    {
      "geometry": {
        "coordinates": [
          [
            [
              -60.22225,
              -42.230326
            ],
            [
              -60.191073,
              -42.403096
            ],
            [
              -60.137367,
              -42.572751
            ],
            [
              -60.061649,
              -42.737655
            ],
            [
              -59.964648,
              -42.896222
            ],
            [
              -59.847299,
              -43.046924
            ],
            [
              -59.71073,
              -43.18831
            ],
            [
              -59.556258,
              -43.319018
            ],
            [
              -59.385371,
              -43.437789
            ],
            [
              -59.199713,
              -43.54348
            ],
            [
              -59.001073,
              -43.635072
            ],
            [
              -58.791364,
              -43.711684
            ],
            [
              -58.572606,
              -43.772577
            ],
            [
              -58.346905,
              -43.817166
            ],
            [
              -58.116436,
              -43.84502
            ],
            [
              -57.883416,
              -43.855873
            ],
            [
              -57.650091,
              -43.849618
            ],
            [
              -57.418708,
              -43.826317
            ],
            [
              -57.191495,
              -43.786193
            ],
            [
              -56.97064,
              -43.729634
            ],
            [
              -56.75827,
              -43.657183
            ],
            [
              -56.556431,
              -43.569539
            ],
            [
              -56.367066,
              -43.467546
            ],
            [
              -56.191999,
              -43.352186
            ],
            [
              -56.032915,
              -43.224569
            ],
            [
              -55.891348,
              -43.085926
            ],
            [
              -55.76866,
              -42.93759
            ],
            [
              -55.666032,
              -42.780991
            ],
            [
              -55.584454,
              -42.617637
            ],
            [
              -55.524711,
              -42.449101
            ],
            [
              -55.487378,
              -42.277006
            ],
            [
              -55.472815,
              -42.10301
            ],
            [
              -55.481162,
              -41.928787
            ],
            [
              -55.512338,
              -41.756017
            ],
            [
              -55.566044,
              -41.586363
            ],
            [
              -55.641762,
              -41.421458
            ],
            [
              -55.738763,
              -41.262891
            ],
            [
              -55.856113,
              -41.112189
            ],
            [
              -55.992682,
              -40.970803
            ],
            [
              -56.147153,
              -40.840095
            ],
            [
              -56.318041,
              -40.721324
            ],
            [
              -56.503699,
              -40.615634
            ],
            [
              -56.702338,
              -40.524042
            ],
            [
              -56.912047,
              -40.44743
            ],
            [
              -57.130805,
              -40.386536
            ],
            [
              -57.356506,
              -40.341948
            ],
            [
              -57.586976,
              -40.314093
            ],
            [
              -57.819996,
              -40.303241
            ],
            [
              -58.05332,
              -40.309495
            ],
            [
              -58.284703,
              -40.332797
            ],
            [
              -58.511917,
              -40.37292
            ],
            [
              -58.732771,
              -40.429479
            ],
            [
              -58.945141,
              -40.50193
            ],
            [
              -59.146981,
              -40.589574
            ],
            [
              -59.336346,
              -40.691567
            ],
            [
              -59.511413,
              -40.806928
            ],
            [
              -59.670497,
              -40.934544
            ],
            [
              -59.812064,
              -41.073188
            ],
            [
              -59.934752,
              -41.221523
            ],
            [
              -60.037379,
              -41.378122
            ],
            [
              -60.118957,
              -41.541476
            ],
            [
              -60.178701,
              -41.710012
            ],
            [
              -60.216034,
              -41.882107
            ],
            [
              -60.230597,
              -42.056104
            ],
            [
              -60.22225,
              -42.230326
            ]
          ]
        ],
        "type": "Polygon"
      },
      "properties": {
        "kind": "reachableSet",
        "observationStatus": "estimated",
        "vessel": "B"
      },
      "type": "Feature"
    }
  ],
  "properties": {
    "dateline": false
  },
  "type": "FeatureCollection"
}
