{
  "features": [
    {
      "geometry": {
        "coordinates": [
          -60.095222,
          -45.157653
        ],
        "type": "Point"
      },
      "properties": {
        "mmsi": "412329686",
        "observationStatus": "observed",
        "role": "off",
        "time": "2019-12-30T06:37:02Z",
        "vessel": "A"
      },
      "type": "Feature"
    },
    {
      "geometry": {
        "coordinates": [
          -60.094987,
          -45.226593
        ],
        "type": "Point"
      },
      "properties": {
        "mmsi": "412329684",
        "observationStatus": "observed",
        "role": "off",
        "time": "2019-12-30T06:41:16Z",
        "vessel": "B"
      },
      "type": "Feature"
    },
    {
      "geometry": {
        "coordinates": [
          -60.417067,
          -45.294213
        ],
        "type": "Point"
      },
      "properties": {
        "mmsi": "412329686",
        "observationStatus": "observed",
        "role": "on",
        "time": "2019-12-30T19:52:00Z",
        "vessel": "A"
      },
      "type": "Feature"
    },
    {
      "geometry": {
        "coordinates": [
          -60.461253,
          -45.338347
        ],
        "type": "Point"
      },
      "properties": {
        "mmsi": "412329684",
        "observationStatus": "observed",
        "role": "on",
        "time": "2019-12-30T20:17:10Z",
        "vessel": "B"
      },
      "type": "Feature"
    },
    {
      "geometry": {
        "coordinates": [
          [
            -60.095222,
            -45.157653
          ],
          [
            -60.245676,
            -45.220561
          ],
          [
            -60.417067,
            -45.294213
          ]
        ],
        "type": "LineString"
      },
      "properties": {
        "confidence": "low",
        "lineStyle": "dashed",
        "observationStatus": "estimated",
        "source": "reachable-set heuristic",
        "vessel": "A"
      },
      "type": "Feature"
    },
    {
      "geometry": {
        "coordinates": [
          [
            -60.094987,
            -45.226593
          ],
          [
            -60.245676,
            -45.220561
          ],
          [
            -60.461253,
            -45.338347
          ]
        ],
        "type": "LineString"
      },
      "properties": {
        "confidence": "low",
        "lineStyle": "dashed",
        "observationStatus": "estimated",
        "source": "reachable-set heuristic",
        "vessel": "B"
      },
      "type": "Feature"
    },
    {
      "geometry": {
        "coordinates": [
          -60.245676,
          -45.220561
        ],
        "type": "Point"
      },
      "properties": {
        "kind": "meetingPoint",
        "observationStatus": "estimated"
      },
      "type": "Feature"
    },
    {
      "geometry": {
        "coordinates": [
          [
            [
              -61.870031,
              -45.910711
            ],
            [
              -61.768075,
              -46.019025
            ],
            [
              -61.651558,
              -46.119701
            ],
            [
              -61.521603,
              -46.211769
            ],
            [
              -61.37946,
              -46.294343
            ],
            [
              -61.2265,
              -46.366628
            ],
            [
              -61.064194,
              -46.427927
            ],
            [
              -60.894107,
              -46.47765
            ],
            [
              -60.717875,
              -46.515319
            ],
            [
              -60.537197,
              -46.54057
            ],
            [
              -60.353812,
              -46.55316
            ],
            [
              -60.169486,
              -46.552969
            ],
            [
              -59.985995,
              -46.539997
            ],
            [
              -59.805106,
              -46.514371
            ],
            [
              -59.628561,
              -46.476336
            ],
            [
              -59.458059,
              -46.426259
            ],
            [
              -59.295243,
              -46.364622
            ],
            [
              -59.141682,
              -46.292019
            ],
            [
              -58.998853,
              -46.209149
            ],
            [
              -58.868133,
              -46.11681
            ],
            [
              -58.75078,
              -46.015891
            ],
            [
              -58.647924,
              -45.907365
            ],
            [
              -58.560557,
              -45.792276
            ],
            [
              -58.489519,
              -45.671733
            ],
            [
              -58.435494,
              -45.546896
            ],
            [
              -58.399004,
              -45.418969
            ],
            [
              -58.380398,
              -45.289183
            ],
            [
              -58.379858,
              -45.158787
            ],
            [
              -58.397386,
              -45.029038
            ],
            [
              -58.432816,
              -44.901185
            ],
            [
              -58.485805,
              -44.77646
            ],
            [
              -58.555844,
              -44.656064
            ],
            [
              -58.642257,
              -44.541155
            ],
            [
              -58.744213,
              -44.432842
            ],
            [
              -58.86073,
              -44.332166
            ],
            [
              -58.990685,
              -44.240098
            ],
            [
              -59.132828,
              -44.157524
            ],
            [
              -59.285788,
              -44.085239
            ],
            [
              -59.448094,
              -44.02394
            ],
            [
              -59.618182,
              -43.974216
            ],
            [
              -59.794413,
              -43.936548
            ],
            [
              -59.975091,
              -43.911297
            ],
            [
              -60.158476,
              -43.898706
            ],
            [
              -60.342802,
              -43.898898
            ],
            [
              -60.526293,
              -43.911869
            ],
            [
              -60.707182,
              -43.937496
            ],
            [
              -60.883728,
              -43.975531
            ],
            [
              -61.054229,
              -44.025608
            ],
            [
              -61.217045,
              -44.087245
            ],
            [
              -61.370606,
              -44.159848
            ],
            [
              -61.513435,
              -44.242718
            ],
            [
              -61.644155,
              -44.335057
            ],
            [
              -61.761508,
              -44.435976
            ],
            [
              -61.864364,
              -44.544502
            ],
            [
              -61.951731,
              -44.659591
            ],
            [
              -62.022769,
              -44.780134
            ],
            [
              -62.076794,
              -44.90497
            ],
            [
              -62.113285,
              -45.032898
            ],
            [
              -62.13189,
              -45.162684
            ],
            [
              -62.132431,
              -45.29308
            ],
            [
              -62.114902,
              -45.422829
            ],
            [
              -62.079472,
              -45.550681
            ],
            [
              -62.026483,
              -45.675406
            ],
            [
              -61.956444,
              -45.795803
            ],
            [
              -61.870031,
              -45.910711
            ]
          ]
        ],
        "type": "Polygon"
      },
      "properties": {
        "kind": "reachableSet",
        "observationStatus": "estimated",
        "vessel": "A"
      },
      "type": "Feature"
    },
    {
      "geometry": {
        "coordinates": [
          [
            [
              -62.056427,
              -45.825058
            ],
            [
              -61.973187,
              -45.945263
            ],
            [
              -61.873622,
              -46.059085
            ],
            [
              -61.758692,
              -46.165429
            ],
            [
              -61.629503,
              -46.263268
            ],
            [
              -61.4873,
              -46.351663
            ],
            [
              -61.333451,
              -46.42976
            ],
            [
              -61.16944,
              -46.496808
            ],
            [
              -60.996844,
              -46.552162
            ],
            [
              -60.817326,
              -46.595287
            ],
            [
              -60.632616,
              -46.62577
            ],
            [
              -60.444492,
              -46.643316
            ],
            [
              -60.254765,
              -46.647756
            ],
            [
              -60.065264,
              -46.639048
            ],
            [
              -59.877812,
              -46.617275
            ],
            [
              -59.694215,
              -46.582647
            ],
            [
              -59.516242,
              -46.535498
            ],
            [
              -59.345606,
              -46.476281
            ],
            [
              -59.183951,
              -46.405568
            ],
            [
              -59.032833,
              -46.324038
            ],
            [
              -58.893708,
              -46.232478
            ],
            [
              -58.767916,
              -46.131768
            ],
            [
              -58.656667,
              -46.022879
            ],
            [
              -58.561034,
              -45.90686
            ],
            [
              -58.481938,
              -45.784827
            ],
            [
              -58.42014,
              -45.657957
            ],
            [
              -58.376235,
              -45.52747
            ],
            [
              -58.350647,
              -45.394624
            ],
            [
              -58.343621,
              -45.260697
            ],
            [
              -58.355225,
              -45.126981
            ],
            [
              -58.385348,
              -44.994762
            ],
            [
              -58.433699,
              -44.865313
            ],
            [
              -58.499813,
              -44.739882
            ],
            [
              -58.583053,
              -44.619677
            ],
            [
              -58.682618,
              -44.505855
            ],
            [
              -58.797548,
              -44.399511
            ],
            [
              -58.926737,
              -44.301672
            ],
            [
              -59.06894,
              -44.213277
            ],
            [
              -59.222789,
              -44.13518
            ],
            [
              -59.3868,
              -44.068132
            ],
            [
              -59.559396,
              -44.012778
            ],
            [
              -59.738914,
              -43.969653
            ],
            [
              -59.923624,
              -43.93917
            ],
            [
              -60.111748,
              -43.921624
            ],
            [
              -60.301475,
              -43.917184
            ],
            [
              -60.490976,
              -43.925892
            ],
            [
              -60.678428,
              -43.947665
            ],
            [
              -60.862025,
              -43.982293
            ],
            [
              -61.039998,
              -44.029442
            ],
            [
              -61.210634,
              -44.088659
            ],
            [
              -61.372289,
              -44.159372
            ],
            [
              -61.523407,
              -44.240902
            ],
            [
              -61.662532,
              -44.332462
            ],
            [
              -61.788324,
              -44.433172
            ],
            [
              -61.899573,
              -44.542061
            ],
            [
              -61.995206,
              -44.65808
            ],
            [
              -62.074302,
              -44.780113
            ],
            [
              -62.1361,
              -44.906983
            ],
            [
              -62.180005,
              -45.03747
            ],
            [
              -62.205593,
              -45.170316
            ],
            [
              -62.212619,
              -45.304243
            ],
            [
              -62.201015,
              -45.437959
            ],
            [
              -62.170892,
              -45.570178
            ],
            [
              -62.122541,
              -45.699627
            ],
            [
              -62.056427,
              -45.825058
            ]
          ]
        ],
        "type": "Polygon"
      },
      "properties": {
        "kind": "reachableSet",
        "observationStatus": "estimated",
        "vessel": "B"
      },
      "type": "Feature"
    }
  ],
  "properties": {
    "dateline": false
  },
  "type": "FeatureCollection"
}
