{
  "features": [
    {
      "geometry": {
        "coordinates": [
          158.83579,
          47.009337
        ],
        "type": "Point"
      },
      "properties": {
        "mmsi": "412329634",
        "observationStatus": "observed",
        "role": "off",
        "time": "2017-07-31T04:28:08Z",
        "vessel": "A"
      },
      "type": "Feature"
    },
    {
      "geometry": {
        "coordinates": [
          158.819173,
          47.040182
        ],
        "type": "Point"
      },
      "properties": {
        "mmsi": "416244800",
        "observationStatus": "observed",
        "role": "off",
        "time": "2017-07-31T05:24:31Z",
        "vessel": "B"
      },
      "type": "Feature"
    },
    {
      "geometry": {
        "coordinates": [
          158.84331,
          47.052358
        ],
        "type": "Point"
      },
      "properties": {
        "mmsi": "412329634",
        "observationStatus": "observed",
        "role": "on",
        "time": "2017-07-31T17:13:12Z",
        "vessel": "A"
      },
      "type": "Feature"
    },
    {
      "geometry": {
        "coordinates": [
          158.900445,
          47.038103
        ],
        "type": "Point"
      },
      "properties": {
        "mmsi": "416244800",
        "observationStatus": "observed",
        "role": "on",
        "time": "2017-07-31T17:39:02Z",
        "vessel": "B"
      },
      "type": "Feature"
    },
    {
      "geometry": {
        "coordinates": [
          [
            158.83579,
            47.009337
          ],
          [
            158.826691,
            47.044092
          ],
          [
            158.84331,
            47.052358
          ]
        ],
        "type": "LineString"
      },
      "properties": {
        "confidence": "low",
        "lineStyle": "dashed",
        "observationStatus": "estimated",
        "source": "reachable-set heuristic",
        "vessel": "A"
      },
      "type": "Feature"
    },
    {
      "geometry": {
        "coordinates": [
          [
            158.819173,
            47.040182
          ],
          [
            158.826691,
            47.044092
          ],
          [
            158.900445,
            47.038103
          ]
        ],
        "type": "LineString"
      },
      "properties": {
        "confidence": "low",
        "lineStyle": "dashed",
        "observationStatus": "estimated",
        "source": "reachable-set heuristic",
        "vessel": "B"
      },
      "type": "Feature"
    },
    {
      "geometry": {
        "coordinates": [
          158.826691,
          47.044092
        ],
        "type": "Point"
      },
      "properties": {
        "kind": "meetingPoint",
        "observationStatus": "estimated"
      },
      "type": "Feature"
    },
    {
      "geometry": {
        "coordinates": [
          [
            [
              159.044507,
              48.203399
            ],
            [
              158.876067,
              48.211536
            ],
            [
              158.707276,
              48.208303
            ],
            [
              158.539758,
              48.19373
            ],
            [
              158.375128,
              48.167958
            ],
            [
              158.21497,
              48.131235
            ],
            [
              158.060827,
              48.083914
            ],
            [
              157.914184,
              48.026452
            ],
            [
              157.776453,
              47.959402
            ],
            [
              157.64896,
              47.883409
            ],
            [
              157.532933,
              47.799206
            ],
            [
              157.429489,
              47.707603
            ],
            [
              157.339625,
              47.609483
            ],
            [
              157.264206,
              47.505789
            ],
            [
              157.203958,
              47.397522
            ],
            [
              157.159462,
              47.285724
            ],
            [
              157.131147,
              47.171471
            ],
            [
              157.119284,
              47.055864
            ],
            [
              157.123988,
              46.940015
            ],
            [
              157.145214,
              46.825042
            ],
            [
              157.182758,
              46.712051
            ],
            [
              157.236257,
              46.602129
            ],
            [
              157.305197,
              46.496337
            ],
            [
              157.388913,
              46.395692
            ],
            [
              157.4866,
              46.301164
            ],
            [
              157.597317,
              46.213664
            ],
            [
              157.719997,
              46.134033
            ],
            [
              157.853458,
              46.063039
            ],
            [
              157.996417,
              46.001366
            ],
            [
              158.147495,
              45.949607
            ],
            [
              158.305238,
              45.908261
            ],
            [
              158.468127,
              45.877726
            ],
            [
              158.634593,
              45.858296
            ],
            [
              158.803033,
              45.850159
            ],
            [
              158.971824,
              45.853392
            ],
            [
              159.139342,
              45.867965
            ],
            [
              159.303972,
              45.893737
            ],
            [
              159.46413,
              45.93046
            ],
            [
              159.618273,
              45.977781
            ],
            [
              159.764916,
              46.035243
            ],
            [
              159.902647,
              46.102293
            ],
            [
              160.03014,
              46.178286
            ],
            [
              160.146167,
              46.262489
            ],
            [
              160.249611,
              46.354092
            ],
            [
              160.339475,
              46.452212
            ],
            [
              160.414894,
              46.555906
            ],
            [
              160.475142,
              46.664173
            ],
            [
              160.519638,
              46.775971
            ],
            [
              160.547953,
              46.890224
            ],
            [
              160.559816,
              47.005831
            ],
            [
              160.555112,
              47.12168
            ],
            [
              160.533886,
              47.236653
            ],
            [
              160.496342,
              47.349644
            ],
            [
              160.442843,
              47.459566
            ],
            [
              160.373903,
              47.565358
            ],
            [
              160.290187,
              47.666003
            ],
            [
              160.1925,
              47.760531
            ],
            [
              160.081783,
              47.848031
            ],
            [
              159.959103,
              47.927662
            ],
            [
              159.825642,
              47.998656
            ],
            [
              159.682683,
              48.060329
            ],
            [
              159.531605,
              48.112088
            ],
            [
              159.373862,
              48.153434
            ],
            [
              159.210973,
              48.183969
            ],
            [
              159.044507,
              48.203399
            ]
          ]
        ],
        "type": "Polygon"
      },
      "properties": {
        "kind": "reachableSet",
        "observationStatus": "estimated",
        "vessel": "A"
      },
      "type": "Feature"
    },
    {
      "geometry": {
        "coordinates": [
          [
            [
              160.505295,
              46.997063
            ],
            [
              160.503381,
              47.107894
            ],
            [
              160.485638,
              47.218062
            ],
            [
              160.452238,
              47.326507
            ],
            [
              160.403502,
              47.432185
            ],
            [
              160.3399,
              47.534078
            ],
            [
              160.262043,
              47.631204
            ],
            [
              160.170682,
              47.722628
            ],
            [
              160.066696,
              47.80747
            ],
            [
              159.951088,
              47.884912
            ],
            [
              159.82497,
              47.954209
            ],
            [
              159.689557,
              48.014694
            ],
            [
              159.546153,
              48.065784
            ],
            [
              159.396139,
              48.106986
            ],
            [
              159.24096,
              48.137905
            ],
            [
              159.082111,
              48.158241
            ],
            [
              158.92112,
              48.167801
            ],
            [
              158.759539,
              48.16649
            ],
            [
              158.598924,
              48.154323
            ],
            [
              158.440821,
              48.131416
            ],
            [
              158.286753,
              48.09799
            ],
            [
              158.138204,
              48.054366
            ],
            [
              157.996604,
              48.000966
            ],
            [
              157.863318,
              47.938302
            ],
            [
              157.739628,
              47.866979
            ],
            [
              157.626727,
              47.787684
            ],
            [
              157.5257,
              47.701179
            ],
            [
              157.437522,
              47.608299
            ],
            [
              157.363041,
              47.509938
            ],
            [
              157.302975,
              47.407042
            ],
            [
              157.257902,
              47.300604
            ],
            [
              157.228257,
              47.191647
            ],
            [
              157.214324,
              47.081222
            ],
            [
              157.216238,
              46.970391
            ],
            [
              157.23398,
              46.860223
            ],
            [
              157.26738,
              46.751778
            ],
            [
              157.316116,
              46.6461
            ],
            [
              157.379719,
              46.544207
            ],
            [
              157.457575,
              46.447081
            ],
            [
              157.548936,
              46.355657
            ],
            [
              157.652922,
              46.270815
            ],
            [
              157.76853,
              46.193373
            ],
            [
              157.894648,
              46.124076
            ],
            [
              158.030061,
              46.063591
            ],
            [
              158.173465,
              46.012501
            ],
            [
              158.323479,
              45.971299
            ],
            [
              158.478658,
              45.94038
            ],
            [
              158.637508,
              45.920044
            ],
            [
              158.798498,
              45.910484
            ],
            [
              158.960079,
              45.911795
            ],
            [
              159.120695,
              45.923962
            ],
            [
              159.278798,
              45.946869
            ],
            [
              159.432865,
              45.980295
            ],
            [
              159.581414,
              46.023919
            ],
            [
              159.723014,
              46.077319
            ],
            [
              159.8563,
              46.139983
            ],
            [
              159.97999,
              46.211306
            ],
            [
              160.092892,
              46.290601
            ],
            [
              160.193918,
              46.377106
            ],
            [
              160.282096,
              46.469986
            ],
            [
              160.356577,
              46.568347
            ],
            [
              160.416643,
              46.671243
            ],
            [
              160.461716,
              46.777681
            ],
            [
              160.491362,
              46.886638
            ],
            [
              160.505295,
              46.997063
            ]
          ]
        ],
        "type": "Polygon"
      },
      "properties": {
        "kind": "reachableSet",
        "observationStatus": "estimated",
        "vessel": "B"
      },
      "type": "Feature"
    }
  ],
  "properties": {
    "dateline": false
  },
  "type": "FeatureCollection"
}
