{
  "features": [
    {
      "geometry": {
        "coordinates": [
          -57.750903,
          -42.00843
        ],
        "type": "Point"
      },
      "properties": {
        "mmsi": "412329694",
        "observationStatus": "observed",
        "role": "off",
        "time": "2019-05-31T04:31:55Z",
        "vessel": "A"
      },
      "type": "Feature"
    },
    {
      "geometry": {
        "coordinates": [
          -57.769858,
          -42.07006
        ],
        "type": "Point"
      },
      "properties": {
        "mmsi": "412329684",
        "observationStatus": "observed",
        "role": "off",
        "time": "2019-05-31T04:33:21Z",
        "vessel": "B"
      },
      "type": "Feature"
    },
    {
      "geometry": {
        "coordinates": [
          -57.88346,
          -42.019085
        ],
        "type": "Point"
      },
      "properties": {
        "mmsi": "412329694",
        "observationStatus": "observed",
        "role": "on",
        "time": "2019-05-31T22:08:03Z",
        "vessel": "A"
      },
      "type": "Feature"
    },
    {
      "geometry": {
        "coordinates": [
          -57.926258,
          -42.064547
        ],
        "type": "Point"
      },
      "properties": {
        "mmsi": "412329684",
        "observationStatus": "observed",
        "role": "on",
        "time": "2019-05-31T22:09:21Z",
        "vessel": "B"
      },
      "type": "Feature"
    },
    {
      "geometry": {
        "coordinates": [
          [
            -57.750903,
            -42.00843
          ],
          [
            -57.83096,
            -42.034256
          ],
          [
            -57.88346,
            -42.019085
          ]
        ],
        "type": "LineString"
      },
      "properties": {
        "confidence": "low",
        "lineStyle": "dashed",
        "observationStatus": "estimated",
        "source": "reachable-set heuristic",
        "vessel": "A"
      },
      "type": "Feature"
    },
    {
      "geometry": {
        "coordinates": [
          [
            -57.769858,
            -42.07006
          ],
          [
            -57.83096,
            -42.034256
          ],
          [
            -57.926258,
            -42.064547
          ]
        ],
        "type": "LineString"
      },
      "properties": {
        "confidence": "low",
        "lineStyle": "dashed",
        "observationStatus": "estimated",
        "source": "reachable-set heuristic",
        "vessel": "B"
      },
      "type": "Feature"
    },
    {
      "geometry": {
        "coordinates": [
          -57.83096,
          -42.034256
        ],
        "type": "Point"
      },
      "properties": {
        "kind": "meetingPoint",
        "observationStatus": "estimated"
      },
      "type": "Feature"
    },
    {
      "geometry": {
        "coordinates": [
          [
            [
              -60.219745,
              -42.206877
            ],
            [
              -60.18288,
              -42.382034
            ],
            [
              -60.123232,
              -42.553644
            ],
            [
              -60.041376,
              -42.720055
            ],
            [
              -59.938099,
              -42.879664
            ],
            [
              -59.814397,
              -43.030934
            ],
            [
              -59.671461,
              -43.172407
            ],
            [
              -59.510667,
              -43.302722
            ],
            [
              -59.333564,
              -43.420624
            ],
            [
              -59.141857,
              -43.524977
            ],
            [
              -58.937393,
              -43.614776
            ],
            [
              -58.72214,
              -43.689157
            ],
            [
              -58.498172,
              -43.747402
            ],
            [
              -58.267647,
              -43.788951
            ],
            [
              -58.032782,
              -43.813405
            ],
            [
              -57.795842,
              -43.820526
            ],
            [
              -57.559107,
              -43.810248
            ],
            [
              -57.324857,
              -43.782668
            ],
            [
              -57.095349,
              -43.738053
            ],
            [
              -56.872792,
              -43.676832
            ],
            [
              -56.65933,
              -43.599594
            ],
            [
              -56.45702,
              -43.507085
            ],
            [
              -56.267808,
              -43.400193
            ],
            [
              -56.093517,
              -43.279949
            ],
            [
              -55.935827,
              -43.147512
            ],
            [
              -55.796254,
              -43.004155
            ],
            [
              -55.676145,
              -42.851261
            ],
            [
              -55.576655,
              -42.690301
            ],
            [
              -55.498742,
              -42.522825
            ],
            [
              -55.443157,
              -42.350447
            ],
            [
              -55.410435,
              -42.174826
            ],
            [
              -55.400892,
              -41.997655
            ],
            [
              -55.414619,
              -41.820638
            ],
            [
              -55.451484,
              -41.645481
            ],
            [
              -55.511131,
              -41.473871
            ],
            [
              -55.592988,
              -41.30746
            ],
            [
              -55.696264,
              -41.147851
            ],
            [
              -55.819966,
              -40.996581
            ],
            [
              -55.962902,
              -40.855108
            ],
            [
              -56.123696,
              -40.724793
            ],
            [
              -56.3008,
              -40.606891
            ],
            [
              -56.492507,
              -40.502538
            ],
            [
              -56.696971,
              -40.412739
            ],
            [
              -56.912223,
              -40.338358
            ],
            [
              -57.136191,
              -40.280113
            ],
            [
              -57.366717,
              -40.238564
            ],
            [
              -57.601581,
              -40.21411
            ],
            [
              -57.838522,
              -40.206989
            ],
            [
              -58.075257,
              -40.217267
            ],
            [
              -58.309506,
              -40.244847
            ],
            [
              -58.539015,
              -40.289462
            ],
            [
              -58.761571,
              -40.350683
            ],
            [
              -58.975033,
              -40.427921
            ],
            [
              -59.177344,
              -40.52043
            ],
            [
              -59.366556,
              -40.627322
            ],
            [
              -59.540846,
              -40.747566
            ],
            [
              -59.698537,
              -40.880003
            ],
            [
              -59.838109,
              -41.02336
            ],
            [
              -59.958218,
              -41.176254
            ],
            [
              -60.057709,
              -41.337214
            ],
            [
              -60.135621,
              -41.50469
            ],
            [
              -60.191206,
              -41.677068
            ],
            [
              -60.223928,
              -41.852689
            ],
            [
              -60.233471,
              -42.02986
            ],
            [
              -60.219745,
              -42.206877
            ]
          ]
        ],
        "type": "Polygon"
      },
      "properties": {
        "kind": "reachableSet",
        "observationStatus": "estimated",
        "vessel": "A"
      },
      "type": "Feature"
    },
    {
      "geometry": {
        "coordinates": [
          [
            [
              -60.263481,
              -41.982156
            ],
            [
              -60.263011,
              -42.159421
            ],
            [
              -60.239283,
              -42.335799
            ],
            [
              -60.192527,
              -42.509591
            ],
            [
              -60.123192,
              -42.679123
            ],
            [
              -60.031947,
              -42.842763
            ],
            [
              -59.919669,
              -42.998935
            ],
            [
              -59.787441,
              -43.146136
            ],
            [
              -59.636535,
              -43.282946
            ],
            [
              -59.468406,
              -43.408049
            ],
            [
              -59.284671,
              -43.52024
            ],
            [
              -59.087101,
              -43.618438
            ],
            [
              -58.877599,
              -43.701698
            ],
            [
              -58.658181,
              -43.769218
            ],
            [
              -58.430962,
              -43.820348
            ],
            [
              -58.198129,
              -43.854595
            ],
            [
              -57.961924,
              -43.871629
            ],
            [
              -57.724623,
              -43.871286
            ],
            [
              -57.488511,
              -43.853571
            ],
            [
              -57.255861,
              -43.818652
            ],
            [
              -57.028914,
              -43.766867
            ],
            [
              -56.809857,
              -43.698714
            ],
            [
              -56.600797,
              -43.61485
            ],
            [
              -56.40375,
              -43.516083
            ],
            [
              -56.220612,
              -43.403362
            ],
            [
              -56.053147,
              -43.277775
            ],
            [
              -55.902968,
              -43.14053
            ],
            [
              -55.771522,
              -42.99295
            ],
            [
              -55.660073,
              -42.836455
            ],
            [
              -55.569697,
              -42.672552
            ],
            [
              -55.501262,
              -42.502821
            ],
            [
              -55.455427,
              -42.328895
            ],
            [
              -55.432636,
              -42.152451
            ],
            [
              -55.433106,
              -41.975186
            ],
            [
              -55.456833,
              -41.798808
            ],
            [
              -55.50359,
              -41.625016
            ],
            [
              -55.572924,
              -41.455484
            ],
            [
              -55.66417,
              -41.291843
            ],
            [
              -55.776447,
              -41.135671
            ],
            [
              -55.908676,
              -40.988471
            ],
            [
              -56.059581,
              -40.851661
            ],
            [
              -56.227711,
              -40.726558
            ],
            [
              -56.411445,
              -40.614367
            ],
            [
              -56.609015,
              -40.516169
            ],
            [
              -56.818518,
              -40.432908
            ],
            [
              -57.037935,
              -40.365389
            ],
            [
              -57.265155,
              -40.314259
            ],
            [
              -57.497988,
              -40.280012
            ],
            [
              -57.734192,
              -40.262978
            ],
            [
              -57.971494,
              -40.26332
            ],
            [
              -58.207606,
              -40.281036
            ],
            [
              -58.440256,
              -40.315955
            ],
            [
              -58.667202,
              -40.36774
            ],
            [
              -58.88626,
              -40.435892
            ],
            [
              -59.095319,
              -40.519756
            ],
            [
              -59.292367,
              -40.618524
            ],
            [
              -59.475505,
              -40.731244
            ],
            [
              -59.64297,
              -40.856832
            ],
            [
              -59.793148,
              -40.994077
            ],
            [
              -59.924595,
              -41.141657
            ],
            [
              -60.036043,
              -41.298152
            ],
            [
              -60.12642,
              -41.462054
            ],
            [
              -60.194855,
              -41.631786
            ],
            [
              -60.240689,
              -41.805711
            ],
            [
              -60.263481,
              -41.982156
            ]
          ]
        ],
        "type": "Polygon"
      },
      "properties": {
        "kind": "reachableSet",
        "observationStatus": "estimated",
        "vessel": "B"
      },
      "type": "Feature"
    }
  ],
  "properties": {
    "dateline": false
  },
  "type": "FeatureCollection"
}
