{
  "features": [
    {
      "geometry": {
        "coordinates": [
          -57.82179,
          -42.084555
        ],
        "type": "Point"
      },
      "properties": {
        "mmsi": "412329684",
        "observationStatus": "observed",
        "role": "off",
        "time": "2019-05-05T04:44:11Z",
        "vessel": "A"
      },
      "type": "Feature"
    },
    {
      "geometry": {
        "coordinates": [
          -57.79246,
          -42.05714
        ],
        "type": "Point"
      },
      "properties": {
        "mmsi": "412329691",
        "observationStatus": "observed",
        "role": "off",
        "time": "2019-05-05T05:33:13Z",
        "vessel": "B"
      },
      "type": "Feature"
    },
    {
      "geometry": {
        "coordinates": [
          -57.84819,
          -42.033185
        ],
        "type": "Point"
      },
      "properties": {
        "mmsi": "412329691",
        "observationStatus": "observed",
        "role": "on",
        "time": "2019-05-05T23:01:57Z",
        "vessel": "B"
      },
      "type": "Feature"
    },
    {
      "geometry": {
        "coordinates": [
          -57.883417,
          -42.00316
        ],
        "type": "Point"
      },
      "properties": {
        "mmsi": "412329684",
        "observationStatus": "observed",
        "role": "on",
        "time": "2019-05-05T23:29:20Z",
        "vessel": "A"
      },
      "type": "Feature"
    },
    {
      "geometry": {
        "coordinates": [
          [
            -57.82179,
            -42.084555
          ],
          [
            -57.812255,
            -42.048795
          ],
          [
            -57.883417,
            -42.00316
          ]
        ],
        "type": "LineString"
      },
      "properties": {
        "confidence": "low",
        "lineStyle": "dashed",
        "observationStatus": "estimated",
        "source": "reachable-set heuristic",
        "vessel": "A"
      },
      "type": "Feature"
    },
    {
      "geometry": {
        "coordinates": [
          [
            -57.79246,
            -42.05714
          ],
          [
            -57.812255,
            -42.048795
          ],
          [
            -57.84819,
            -42.033185
          ]
        ],
        "type": "LineString"
      },
      "properties": {
        "confidence": "low",
        "lineStyle": "dashed",
        "observationStatus": "estimated",
        "source": "reachable-set heuristic",
        "vessel": "B"
      },
      "type": "Feature"
    },
    {
      "geometry": {
        "coordinates": [
          -57.812255,
          -42.048795
        ],
        "type": "Point"
      },
      "properties": {
        "kind": "meetingPoint",
        "observationStatus": "estimated"
      },
      "type": "Feature"
    },
    {
      "geometry": {
        "coordinates": [
          [
            [
              -59.126066,
              -40.361898
            ],
            [
              -59.340369,
              -40.463295
            ],
            [
              -59.540344,
              -40.579914
            ],
            [
              -59.724065,
              -40.710631
            ],
            [
              -59.889763,
              -40.854188
            ],
            [
              -60.035842,
              -41.009202
            ],
            [
              -60.160895,
              -41.17418
            ],
            [
              -60.263718,
              -41.347533
            ],
            [
              -60.343321,
              -41.527593
            ],
            [
              -60.398936,
              -41.712625
            ],
            [
              -60.430029,
              -41.900846
            ],
            [
              -60.4363,
              -42.090445
            ],
            [
              -60.417689,
              -42.279595
            ],
            [
              -60.374375,
              -42.466475
            ],
            [
              -60.306774,
              -42.649285
            ],
            [
              -60.215538,
              -42.826264
            ],
            [
              -60.101546,
              -42.995709
            ],
            [
              -59.965896,
              -43.155986
            ],
            [
              -59.809893,
              -43.305553
            ],
            [
              -59.635041,
              -43.442969
            ],
            [
              -59.443023,
              -43.566911
            ],
            [
              -59.235688,
              -43.676185
            ],
            [
              -59.015033,
              -43.769739
            ],
            [
              -58.783183,
              -43.846672
            ],
            [
              -58.542372,
              -43.906243
            ],
            [
              -58.294917,
              -43.947877
            ],
            [
              -58.043203,
              -43.971175
            ],
            [
              -57.789654,
              -43.975912
            ],
            [
              -57.53671,
              -43.962043
            ],
            [
              -57.286809,
              -43.9297
            ],
            [
              -57.042356,
              -43.879195
            ],
            [
              -56.805707,
              -43.811015
            ],
            [
              -56.57914,
              -43.725817
            ],
            [
              -56.364837,
              -43.62442
            ],
            [
              -56.164862,
              -43.507801
            ],
            [
              -55.981141,
              -43.377084
            ],
            [
              -55.815444,
              -43.233527
            ],
            [
              -55.669365,
              -43.078513
            ],
            [
              -55.544312,
              -42.913535
            ],
            [
              -55.441489,
              -42.740182
            ],
            [
              -55.361886,
              -42.560122
            ],
            [
              -55.30627,
              -42.37509
            ],
            [
              -55.275177,
              -42.186869
            ],
            [
              -55.268906,
              -41.99727
            ],
            [
              -55.287518,
              -41.80812
            ],
            [
              -55.330832,
              -41.62124
            ],
            [
              -55.398433,
              -41.43843
            ],
            [
              -55.489668,
              -41.261451
            ],
            [
              -55.60366,
              -41.092006
            ],
            [
              -55.739311,
              -40.931729
            ],
            [
              -55.895313,
              -40.782162
            ],
            [
              -56.070166,
              -40.644746
            ],
            [
              -56.262184,
              -40.520804
            ],
            [
              -56.469519,
              -40.41153
            ],
            [
              -56.690174,
              -40.317976
            ],
            [
              -56.922023,
              -40.241043
            ],
            [
              -57.162835,
              -40.181472
            ],
            [
              -57.410289,
              -40.139838
            ],
            [
              -57.662003,
              -40.11654
            ],
            [
              -57.915553,
              -40.111803
            ],
            [
              -58.168497,
              -40.125672
            ],
            [
              -58.418398,
              -40.158015
            ],
            [
              -58.66285,
              -40.20852
            ],
            [
              -58.899499,
              -40.2767
            ],
            [
              -59.126066,
              -40.361898
            ]
          ]
        ],
        "type": "Polygon"
      },
      "properties": {
        "kind": "reachableSet",
        "observationStatus": "estimated",
        "vessel": "A"
      },
      "type": "Feature"
    },
    {
      "geometry": {
        "coordinates": [
          [
            [
              -59.900652,
              -41.150954
            ],
            [
              -60.007854,
              -41.307699
            ],
            [
              -60.093989,
              -41.471546
            ],
            [
              -60.158228,
              -41.640917
            ],
            [
              -60.199952,
              -41.814181
            ],
            [
              -60.218758,
              -41.98967
            ],
            [
              -60.214466,
              -42.165693
            ],
            [
              -60.187117,
              -42.340555
            ],
            [
              -60.136975,
              -42.512572
            ],
            [
              -60.064522,
              -42.680089
            ],
            [
              -59.970456,
              -42.84149
            ],
            [
              -59.855684,
              -42.995222
            ],
            [
              -59.721309,
              -43.139805
            ],
            [
              -59.568627,
              -43.273846
            ],
            [
              -59.399108,
              -43.396054
            ],
            [
              -59.214385,
              -43.505252
            ],
            [
              -59.016236,
              -43.600388
            ],
            [
              -58.80657,
              -43.680547
            ],
            [
              -58.587405,
              -43.744956
            ],
            [
              -58.360853,
              -43.792996
            ],
            [
              -58.129096,
              -43.824202
            ],
            [
              -57.894365,
              -43.838276
            ],
            [
              -57.658921,
              -43.835081
            ],
            [
              -57.425031,
              -43.814648
            ],
            [
              -57.194949,
              -43.777174
            ],
            [
              -56.970889,
              -43.72302
            ],
            [
              -56.755009,
              -43.652707
            ],
            [
              -56.549389,
              -43.566912
            ],
            [
              -56.356009,
              -43.466462
            ],
            [
              -56.176731,
              -43.352325
            ],
            [
              -56.013282,
              -43.225598
            ],
            [
              -55.867235,
              -43.087504
            ],
            [
              -55.739998,
              -42.939371
            ],
            [
              -55.632796,
              -42.782626
            ],
            [
              -55.546661,
              -42.618779
            ],
            [
              -55.482422,
              -42.449408
            ],
            [
              -55.440698,
              -42.276144
            ],
            [
              -55.421892,
              -42.100655
            ],
            [
              -55.426184,
              -41.924632
            ],
            [
              -55.453533,
              -41.74977
            ],
            [
              -55.503675,
              -41.577753
            ],
            [
              -55.576128,
              -41.410236
            ],
            [
              -55.670194,
              -41.248835
            ],
            [
              -55.784966,
              -41.095103
            ],
            [
              -55.919341,
              -40.95052
            ],
            [
              -56.072023,
              -40.816479
            ],
            [
              -56.241542,
              -40.694271
            ],
            [
              -56.426265,
              -40.585073
            ],
            [
              -56.624414,
              -40.489937
            ],
            [
              -56.83408,
              -40.409778
            ],
            [
              -57.053245,
              -40.345369
            ],
            [
              -57.279797,
              -40.297329
            ],
            [
              -57.511554,
              -40.266123
            ],
            [
              -57.746285,
              -40.252049
            ],
            [
              -57.981729,
              -40.255244
            ],
            [
              -58.215619,
              -40.275677
            ],
            [
              -58.445701,
              -40.313151
            ],
            [
              -58.669761,
              -40.367305
            ],
            [
              -58.885641,
              -40.437618
            ],
            [
              -59.091261,
              -40.523413
            ],
            [
              -59.284641,
              -40.623863
            ],
            [
              -59.463919,
              -40.738
            ],
            [
              -59.627368,
              -40.864727
            ],
            [
              -59.773415,
              -41.002821
            ],
            [
              -59.900652,
              -41.150954
            ]
          ]
        ],
        "type": "Polygon"
      },
      "properties": {
        "kind": "reachableSet",
        "observationStatus": "estimated",
        "vessel": "B"
      },
      "type": "Feature"
    }
  ],
  "properties": {
    "dateline": false
  },
  "type": "FeatureCollection"
}
