{
  "features": [
    {
      "geometry": {
        "coordinates": [
          158.94209,
          42.989492
        ],
        "type": "Point"
      },
      "properties": {
        "mmsi": "416253500",
        "observationStatus": "observed",
        "role": "off",
        "time": "2018-09-26T04:28:38Z",
        "vessel": "A"
      },
      "type": "Feature"
    },
    {
      "geometry": {
        "coordinates": [
          159.005748,
          42.977738
        ],
        "type": "Point"
      },
      "properties": {
        "mmsi": "416239600",
        "observationStatus": "observed",
        "role": "off",
        "time": "2018-09-26T04:31:10Z",
        "vessel": "B"
      },
      "type": "Feature"
    },
    {
      "geometry": {
        "coordinates": [
          158.508747,
          43.50424
        ],
        "type": "Point"
      },
      "properties": {
        "mmsi": "416239600",
        "observationStatus": "observed",
        "role": "on",
        "time": "2018-09-26T18:44:39Z",
        "vessel": "B"
      },
      "type": "Feature"
    },
    {
      "geometry": {
        "coordinates": [
          158.49,
          43.456667
        ],
        "type": "Point"
      },
      "properties": {
        "mmsi": "416253500",
        "observationStatus": "observed",
        "role": "on",
        "time": "2018-09-26T19:02:52Z",
        "vessel": "A"
      },
      "type": "Feature"
    },
    {
      "geometry": {
        "coordinates": [
          [
            158.94209,
            42.989492
          ],
          [
            158.789746,
            43.205739
          ],
          [
            158.49,
            43.456667
          ]
        ],
        "type": "LineString"
      },
      "properties": {
        "confidence": "low",
        "lineStyle": "dashed",
        "observationStatus": "estimated",
        "source": "reachable-set heuristic",
        "vessel": "A"
      },
      "type": "Feature"
    },
    {
      "geometry": {
        "coordinates": [
          [
            159.005748,
            42.977738
          ],
          [
            158.789746,
            43.205739
          ],
          [
            158.508747,
            43.50424
          ]
        ],
        "type": "LineString"
      },
      "properties": {
        "confidence": "low",
        "lineStyle": "dashed",
        "observationStatus": "estimated",
        "source": "reachable-set heuristic",
        "vessel": "B"
      },
      "type": "Feature"
    },
    {
      "geometry": {
        "coordinates": [
          158.789746,
          43.205739
        ],
        "type": "Point"
      },
      "properties": {
        "kind": "meetingPoint",
        "observationStatus": "estimated"
      },
      "type": "Feature"
    },
    {
      "geometry": {
        "coordinates": [
          [
            [
              157.639901,
              44.335131
            ],
            [
              157.499822,
              44.254119
            ],
            [
              157.371456,
              44.163176
            ],
            [
              157.256039,
              44.063181
            ],
            [
              157.154683,
              43.955094
            ],
            [
              157.068364,
              43.839958
            ],
            [
              156.997913,
              43.718881
            ],
            [
              156.944008,
              43.593029
            ],
            [
              156.907169,
              43.463614
            ],
            [
              156.88775,
              43.331883
            ],
            [
              156.885939,
              43.199104
            ],
            [
              156.901753,
              43.066556
            ],
            [
              156.93504,
              42.935515
            ],
            [
              156.985478,
              42.807244
            ],
            [
              157.052583,
              42.682977
            ],
            [
              157.135708,
              42.563912
            ],
            [
              157.234052,
              42.451195
            ],
            [
              157.346669,
              42.345912
            ],
            [
              157.472473,
              42.249076
            ],
            [
              157.610254,
              42.16162
            ],
            [
              157.758685,
              42.084387
            ],
            [
              157.916335,
              42.01812
            ],
            [
              158.081687,
              41.963458
            ],
            [
              158.253148,
              41.920926
            ],
            [
              158.429067,
              41.890935
            ],
            [
              158.607749,
              41.873773
            ],
            [
              158.787475,
              41.869606
            ],
            [
              158.966513,
              41.878473
            ],
            [
              159.143138,
              41.90029
            ],
            [
              159.315651,
              41.934845
            ],
            [
              159.482389,
              41.981808
            ],
            [
              159.641747,
              42.040724
            ],
            [
              159.792189,
              42.111027
            ],
            [
              159.932268,
              42.19204
            ],
            [
              160.060634,
              42.282982
            ],
            [
              160.176051,
              42.382978
            ],
            [
              160.277407,
              42.491064
            ],
            [
              160.363726,
              42.606201
            ],
            [
              160.434177,
              42.727278
            ],
            [
              160.488082,
              42.853129
            ],
            [
              160.524921,
              42.982544
            ],
            [
              160.54434,
              43.114275
            ],
            [
              160.546151,
              43.247054
            ],
            [
              160.530337,
              43.379603
            ],
            [
              160.49705,
              43.510643
            ],
            [
              160.446612,
              43.638915
            ],
            [
              160.379507,
              43.763181
            ],
            [
              160.296382,
              43.882246
            ],
            [
              160.198038,
              43.994963
            ],
            [
              160.085421,
              44.100247
            ],
            [
              159.959617,
              44.197083
            ],
            [
              159.821836,
              44.284538
            ],
            [
              159.673405,
              44.361771
            ],
            [
              159.515755,
              44.428038
            ],
            [
              159.350403,
              44.482701
            ],
            [
              159.178942,
              44.525232
            ],
            [
              159.003023,
              44.555223
            ],
            [
              158.824341,
              44.572385
            ],
            [
              158.644615,
              44.576553
            ],
            [
              158.465577,
              44.567685
            ],
            [
              158.288952,
              44.545869
            ],
            [
              158.116439,
              44.511313
            ],
            [
              157.949701,
              44.464351
            ],
            [
              157.790343,
              44.405434
            ],
            [
              157.639901,
              44.335131
            ]
          ]
        ],
        "type": "Polygon"
      },
      "properties": {
        "kind": "reachableSet",
        "observationStatus": "estimated",
        "vessel": "A"
      },
      "type": "Feature"
    },
    {
      "geometry": {
        "coordinates": [
          [
            [
              157.725748,
              44.333715
            ],
            [
              157.58898,
              44.256485
            ],
            [
              157.463463,
              44.169475
            ],
            [
              157.350406,
              44.073523
            ],
            [
              157.250897,
              43.969554
            ],
            [
              157.165896,
              43.858568
            ],
            [
              157.09622,
              43.741635
            ],
            [
              157.042541,
              43.61988
            ],
            [
              157.005375,
              43.494476
            ],
            [
              156.985081,
              43.366631
            ],
            [
              156.981854,
              43.237576
            ],
            [
              156.995725,
              43.108554
            ],
            [
              157.02656,
              42.980807
            ],
            [
              157.074062,
              42.855566
            ],
            [
              157.137775,
              42.734037
            ],
            [
              157.217084,
              42.61739
            ],
            [
              157.311226,
              42.506749
            ],
            [
              157.419293,
              42.403178
            ],
            [
              157.540246,
              42.307677
            ],
            [
              157.67292,
              42.221163
            ],
            [
              157.816035,
              42.144471
            ],
            [
              157.968216,
              42.07834
            ],
            [
              158.127995,
              42.023405
            ],
            [
              158.293834,
              41.980196
            ],
            [
              158.464136,
              41.949129
            ],
            [
              158.637261,
              41.930504
            ],
            [
              158.811542,
              41.924499
            ],
            [
              158.985299,
              41.931173
            ],
            [
              159.15686,
              41.950461
            ],
            [
              159.324573,
              41.982177
            ],
            [
              159.486822,
              42.026017
            ],
            [
              159.642045,
              42.081557
            ],
            [
              159.788747,
              42.148264
            ],
            [
              159.925515,
              42.225494
            ],
            [
              160.051032,
              42.312503
            ],
            [
              160.164089,
              42.408455
            ],
            [
              160.263598,
              42.512424
            ],
            [
              160.348599,
              42.62341
            ],
            [
              160.418275,
              42.740343
            ],
            [
              160.471954,
              42.862098
            ],
            [
              160.50912,
              42.987502
            ],
            [
              160.529414,
              43.115347
            ],
            [
              160.532641,
              43.244402
            ],
            [
              160.51877,
              43.373424
            ],
            [
              160.487935,
              43.501171
            ],
            [
              160.440433,
              43.626412
            ],
            [
              160.37672,
              43.747941
            ],
            [
              160.297411,
              43.864588
            ],
            [
              160.203269,
              43.97523
            ],
            [
              160.095202,
              44.0788
            ],
            [
              159.974249,
              44.174302
            ],
            [
              159.841575,
              44.260815
            ],
            [
              159.69846,
              44.337507
            ],
            [
              159.546279,
              44.403639
            ],
            [
              159.3865,
              44.458574
            ],
            [
              159.220661,
              44.501783
            ],
            [
              159.050359,
              44.532849
            ],
            [
              158.877234,
              44.551475
            ],
            [
              158.702953,
              44.557479
            ],
            [
              158.529196,
              44.550806
            ],
            [
              158.357635,
              44.531518
            ],
            [
              158.189922,
              44.499801
            ],
            [
              158.027673,
              44.455961
            ],
            [
              157.87245,
              44.400421
            ],
            [
              157.725748,
              44.333715
            ]
          ]
        ],
        "type": "Polygon"
      },
      "properties": {
        "kind": "reachableSet",
        "observationStatus": "estimated",
        "vessel": "B"
      },
      "type": "Feature"
    }
  ],
  "properties": {
    "dateline": false
  },
  "type": "FeatureCollection"
}
