{
  "features": [
    {
      "geometry": {
        "coordinates": [
          -60.70782,
          -46.032102
        ],
        "type": "Point"
      },
      "properties": {
        "mmsi": "412329691",
        "observationStatus": "observed",
        "role": "off",
        "time": "2017-01-23T07:17:07Z",
        "vessel": "A"
      },
      "type": "Feature"
    },
    {
      "geometry": {
        "coordinates": [
          -60.693042,
          -46.072603
        ],
        "type": "Point"
      },
      "properties": {
        "mmsi": "412329692",
        "observationStatus": "observed",
        "role": "off",
        "time": "2017-01-23T07:48:03Z",
        "vessel": "B"
      },
      "type": "Feature"
    },
    {
      "geometry": {
        "coordinates": [
          -60.679672,
          -46.011713
        ],
        "type": "Point"
      },
      "properties": {
        "mmsi": "412329691",
        "observationStatus": "observed",
        "role": "on",
        "time": "2017-01-24T00:01:05Z",
        "vessel": "A"
      },
      "type": "Feature"
    },
    {
      "geometry": {
        "coordinates": [
          -60.681635,
          -46.036007
        ],
        "type": "Point"
      },
      "properties": {
        "mmsi": "412329692",
        "observationStatus": "observed",
        "role": "on",
        "time": "2017-01-24T00:01:26Z",
        "vessel": "B"
      },
      "type": "Feature"
    },
    {
      "geometry": {
        "coordinates": [
          [
            -60.70782,
            -46.032102
          ],
          [
            -60.687732,
            -46.046782
          ],
          [
            -60.679672,
            -46.011713
          ]
        ],
        "type": "LineString"
      },
      "properties": {
        "confidence": "low",
        "lineStyle": "dashed",
        "observationStatus": "estimated",
        "source": "reachable-set heuristic",
        "vessel": "A"
      },
      "type": "Feature"
    },
    {
      "geometry": {
        "coordinates": [
          [
            -60.693042,
            -46.072603
          ],
          [
            -60.687732,
            -46.046782
          ],
          [
            -60.681635,
            -46.036007
          ]
        ],
        "type": "LineString"
      },
      "properties": {
        "confidence": "low",
        "lineStyle": "dashed",
        "observationStatus": "estimated",
        "source": "reachable-set heuristic",
        "vessel": "B"
      },
      "type": "Feature"
    },
    {
      "geometry": {
        "coordinates": [
          -60.687732,
          -46.046782
        ],
        "type": "Point"
      },
      "properties": {
        "kind": "meetingPoint",
        "observationStatus": "estimated"
      },
      "type": "Feature"
    },
    {
      "geometry": {
        "coordinates": [
          [
            [
              -58.992218,
              -44.789461
            ],
            [
              -59.173202,
              -44.678806
            ],
            [
              -59.36883,
              -44.581085
            ],
            [
              -59.577217,
              -44.49724
            ],
            [
              -59.796357,
              -44.428079
            ],
            [
              -60.024139,
              -44.374267
            ],
            [
              -60.25837,
              -44.336323
            ],
            [
              -60.496794,
              -44.314612
            ],
            [
              -60.737115,
              -44.309343
            ],
            [
              -60.977018,
              -44.320567
            ],
            [
              -61.214193,
              -44.348176
            ],
            [
              -61.446356,
              -44.391904
            ],
            [
              -61.67127,
              -44.451329
            ],
            [
              -61.886771,
              -44.52588
            ],
            [
              -62.090782,
              -44.614839
            ],
            [
              -62.281339,
              -44.717349
            ],
            [
              -62.456607,
              -44.832422
            ],
            [
              -62.614897,
              -44.95895
            ],
            [
              -62.754685,
              -45.095716
            ],
            [
              -62.874626,
              -45.241401
            ],
            [
              -62.973563,
              -45.394603
            ],
            [
              -63.050545,
              -45.553846
            ],
            [
              -63.104829,
              -45.717597
            ],
            [
              -63.135893,
              -45.884278
            ],
            [
              -63.143438,
              -46.052285
            ],
            [
              -63.127391,
              -46.22
            ],
            [
              -63.087907,
              -46.385806
            ],
            [
              -63.025366,
              -46.548108
            ],
            [
              -62.94037,
              -46.705343
            ],
            [
              -62.833738,
              -46.855996
            ],
            [
              -62.706496,
              -46.998616
            ],
            [
              -62.559871,
              -47.131829
            ],
            [
              -62.395273,
              -47.254354
            ],
            [
              -62.214289,
              -47.365009
            ],
            [
              -62.018662,
              -47.46273
            ],
            [
              -61.810275,
              -47.546575
            ],
            [
              -61.591135,
              -47.615736
            ],
            [
              -61.363352,
              -47.669548
            ],
            [
              -61.129121,
              -47.707492
            ],
            [
              -60.890697,
              -47.729203
            ],
            [
              -60.650377,
              -47.734472
            ],
            [
              -60.410474,
              -47.723248
            ],
            [
              -60.173299,
              -47.695639
            ],
            [
              -59.941136,
              -47.651911
            ],
            [
              -59.716221,
              -47.592486
            ],
            [
              -59.500721,
              -47.517935
            ],
            [
              -59.296709,
              -47.428976
            ],
            [
              -59.106153,
              -47.326466
            ],
            [
              -58.930885,
              -47.211393
            ],
            [
              -58.772595,
              -47.084865
            ],
            [
              -58.632806,
              -46.948099
            ],
            [
              -58.512866,
              -46.802414
            ],
            [
              -58.413928,
              -46.649212
            ],
            [
              -58.336947,
              -46.489969
            ],
            [
              -58.282663,
              -46.326218
            ],
            [
              -58.251598,
              -46.159537
            ],
            [
              -58.244053,
              -45.99153
            ],
            [
              -58.2601,
              -45.823815
            ],
            [
              -58.299584,
              -45.658009
            ],
            [
              -58.362126,
              -45.495707
            ],
            [
              -58.447122,
              -45.338472
            ],
            [
              -58.553754,
              -45.187819
            ],
            [
              -58.680996,
              -45.045199
            ],
            [
              -58.827621,
              -44.911986
            ],
            [
              -58.992218,
              -44.789461
            ]
          ]
        ],
        "type": "Polygon"
      },
      "properties": {
        "kind": "reachableSet",
        "observationStatus": "estimated",
        "vessel": "A"
      },
      "type": "Feature"
    },
    {
      "geometry": {
        "coordinates": [
          [
            [
              -60.18259,
              -44.434892
            ],
            [
              -60.412191,
              -44.408125
            ],
            [
              -60.644441,
              -44.397212
            ],
            [
              -60.877105,
              -44.402258
            ],
            [
              -61.107941,
              -44.423214
            ],
            [
              -61.334727,
              -44.459878
            ],
            [
              -61.555277,
              -44.511898
            ],
            [
              -61.76747,
              -44.578771
            ],
            [
              -61.969259,
              -44.659855
            ],
            [
              -62.158704,
              -44.754368
            ],
            [
              -62.333978,
              -44.8614
            ],
            [
              -62.493394,
              -44.979921
            ],
            [
              -62.635417,
              -45.108788
            ],
            [
              -62.758678,
              -45.246762
            ],
            [
              -62.861992,
              -45.392512
            ],
            [
              -62.944363,
              -45.544636
            ],
            [
              -63.004997,
              -45.701668
            ],
            [
              -63.043311,
              -45.862096
            ],
            [
              -63.058935,
              -46.024376
            ],
            [
              -63.05172,
              -46.186943
            ],
            [
              -63.021734,
              -46.348234
            ],
            [
              -62.969267,
              -46.506693
            ],
            [
              -62.894824,
              -46.660796
            ],
            [
              -62.799121,
              -46.809058
            ],
            [
              -62.683081,
              -46.950051
            ],
            [
              -62.547821,
              -47.082418
            ],
            [
              -62.394643,
              -47.204883
            ],
            [
              -62.225023,
              -47.316268
            ],
            [
              -62.040594,
              -47.415499
            ],
            [
              -61.843133,
              -47.501622
            ],
            [
              -61.634541,
              -47.573806
            ],
            [
              -61.416826,
              -47.631356
            ],
            [
              -61.192087,
              -47.673718
            ],
            [
              -60.962486,
              -47.700485
            ],
            [
              -60.730235,
              -47.711398
            ],
            [
              -60.497572,
              -47.706352
            ],
            [
              -60.266735,
              -47.685396
            ],
            [
              -60.03995,
              -47.648732
            ],
            [
              -59.819399,
              -47.596712
            ],
            [
              -59.607207,
              -47.529839
            ],
            [
              -59.405417,
              -47.448755
            ],
            [
              -59.215973,
              -47.354242
            ],
            [
              -59.040699,
              -47.24721
            ],
            [
              -58.881283,
              -47.128689
            ],
            [
              -58.73926,
              -46.999822
            ],
            [
              -58.615998,
              -46.861848
            ],
            [
              -58.512685,
              -46.716098
            ],
            [
              -58.430314,
              -46.563974
            ],
            [
              -58.36968,
              -46.406942
            ],
            [
              -58.331366,
              -46.246514
            ],
            [
              -58.315742,
              -46.084234
            ],
            [
              -58.322957,
              -45.921667
            ],
            [
              -58.352942,
              -45.760376
            ],
            [
              -58.405409,
              -45.601917
            ],
            [
              -58.479853,
              -45.447814
            ],
            [
              -58.575555,
              -45.299552
            ],
            [
              -58.691595,
              -45.158559
            ],
            [
              -58.826856,
              -45.026192
            ],
            [
              -58.980033,
              -44.903727
            ],
            [
              -59.149653,
              -44.792342
            ],
            [
              -59.334082,
              -44.693111
            ],
            [
              -59.531544,
              -44.606988
            ],
            [
              -59.740136,
              -44.534804
            ],
            [
              -59.95785,
              -44.477254
            ],
            [
              -60.18259,
              -44.434892
            ]
          ]
        ],
        "type": "Polygon"
      },
      "properties": {
        "kind": "reachableSet",
        "observationStatus": "estimated",
        "vessel": "B"
      },
      "type": "Feature"
    }
  ],
  "properties": {
    "dateline": false
  },
  "type": "FeatureCollection"
}
