{
  "features": [
    {
      "geometry": {
        "coordinates": [
          -60.825868,
          -47.019258
        ],
        "type": "Point"
      },
      "properties": {
        "mmsi": "440201000",
        "observationStatus": "observed",
        "role": "off",
        "time": "2017-03-09T03:22:29Z",
        "vessel": "A"
      },
      "type": "Feature"
    },
    {
      "geometry": {
        "coordinates": [
          -60.857063,
          -46.991305
        ],
        "type": "Point"
      },
      "properties": {
        "mmsi": "441767000",
        "observationStatus": "observed",
        "role": "off",
        "time": "2017-03-09T03:22:58Z",
        "vessel": "B"
      },
      "type": "Feature"
    },
    {
      "geometry": {
        "coordinates": [
          -60.827677,
          -46.91814
        ],
        "type": "Point"
      },
      "properties": {
        "mmsi": "441767000",
        "observationStatus": "observed",
        "role": "on",
        "time": "2017-03-09T16:01:04Z",
        "vessel": "B"
      },
      "type": "Feature"
    },
    {
      "geometry": {
        "coordinates": [
          -60.811227,
          -46.933263
        ],
        "type": "Point"
      },
      "properties": {
        "mmsi": "440201000",
        "observationStatus": "observed",
        "role": "on",
        "time": "2017-03-09T16:01:05Z",
        "vessel": "A"
      },
      "type": "Feature"
    },
    {
      "geometry": {
        "coordinates": [
          [
            -60.825868,
            -47.019258
          ],
          [
            -60.827554,
            -46.932025
          ],
          [
            -60.811227,
            -46.933263
          ]
        ],
        "type": "LineString"
      },
      "properties": {
        "confidence": "low",
        "lineStyle": "dashed",
        "observationStatus": "estimated",
        "source": "reachable-set heuristic",
        "vessel": "A"
      },
      "type": "Feature"
    },
    {
      "geometry": {
        "coordinates": [
          [
            -60.857063,
            -46.991305
          ],
          [
            -60.827554,
            -46.932025
          ],
          [
            -60.827677,
            -46.91814
          ]
        ],
        "type": "LineString"
      },
      "properties": {
        "confidence": "low",
        "lineStyle": "dashed",
        "observationStatus": "estimated",
        "source": "reachable-set heuristic",
        "vessel": "B"
      },
      "type": "Feature"
    },
    {
      "geometry": {
        "coordinates": [
          -60.827554,
          -46.932025
        ],
        "type": "Point"
      },
      "properties": {
        "kind": "meetingPoint",
        "observationStatus": "estimated"
      },
      "type": "Feature"
    },
    {
      "geometry": {
        "coordinates": [
          [
            [
              -60.620669,
              -45.814058
            ],
            [
              -60.787341,
              -45.80634
            ],
            [
              -60.954315,
              -45.809889
            ],
            [
              -61.11998,
              -45.824671
            ],
            [
              -61.282743,
              -45.850543
            ],
            [
              -61.441035,
              -45.887257
            ],
            [
              -61.593333,
              -45.934458
            ],
            [
              -61.738168,
              -45.991692
            ],
            [
              -61.874148,
              -46.058409
            ],
            [
              -61.999961,
              -46.133965
            ],
            [
              -62.114397,
              -46.217632
            ],
            [
              -62.216353,
              -46.308606
            ],
            [
              -62.304847,
              -46.406009
            ],
            [
              -62.379027,
              -46.508904
            ],
            [
              -62.43818,
              -46.616301
            ],
            [
              -62.481734,
              -46.727163
            ],
            [
              -62.509271,
              -46.840425
            ],
            [
              -62.520525,
              -46.954995
            ],
            [
              -62.515388,
              -47.06977
            ],
            [
              -62.49391,
              -47.183644
            ],
            [
              -62.456297,
              -47.295521
            ],
            [
              -62.402912,
              -47.404323
            ],
            [
              -62.334268,
              -47.509003
            ],
            [
              -62.251027,
              -47.608552
            ],
            [
              -62.153991,
              -47.702012
            ],
            [
              -62.044093,
              -47.788483
            ],
            [
              -61.922393,
              -47.867131
            ],
            [
              -61.790062,
              -47.9372
            ],
            [
              -61.648375,
              -47.998014
            ],
            [
              -61.498697,
              -48.048989
            ],
            [
              -61.342468,
              -48.089632
            ],
            [
              -61.181193,
              -48.119553
            ],
            [
              -61.016426,
              -48.138464
            ],
            [
              -60.849754,
              -48.146182
            ],
            [
              -60.68278,
              -48.142633
            ],
            [
              -60.517115,
              -48.127851
            ],
            [
              -60.354352,
              -48.101978
            ],
            [
              -60.19606,
              -48.065265
            ],
            [
              -60.043762,
              -48.018064
            ],
            [
              -59.898927,
              -47.960829
            ],
            [
              -59.762947,
              -47.894113
            ],
            [
              -59.637134,
              -47.818557
            ],
            [
              -59.522698,
              -47.73489
            ],
            [
              -59.420742,
              -47.643916
            ],
            [
              -59.332248,
              -47.546513
            ],
            [
              -59.258068,
              -47.443617
            ],
            [
              -59.198915,
              -47.336221
            ],
            [
              -59.155361,
              -47.225358
            ],
            [
              -59.127824,
              -47.112097
            ],
            [
              -59.11657,
              -46.997527
            ],
            [
              -59.121707,
              -46.882752
            ],
            [
              -59.143185,
              -46.768878
            ],
            [
              -59.180798,
              -46.657001
            ],
            [
              -59.234183,
              -46.548199
            ],
            [
              -59.302827,
              -46.443519
            ],
            [
              -59.386068,
              -46.343969
            ],
            [
              -59.483104,
              -46.25051
            ],
            [
              -59.593002,
              -46.164039
            ],
            [
              -59.714702,
              -46.085391
            ],
            [
              -59.847033,
              -46.015322
            ],
            [
              -59.98872,
              -45.954507
            ],
            [
              -60.138398,
              -45.903533
            ],
            [
              -60.294627,
              -45.862889
            ],
            [
              -60.455902,
              -45.832968
            ],
            [
              -60.620669,
              -45.814058
            ]
          ]
        ],
        "type": "Polygon"
      },
      "properties": {
        "kind": "reachableSet",
        "observationStatus": "estimated",
        "vessel": "A"
      },
      "type": "Feature"
    },
    {
      "geometry": {
        "coordinates": [
          [
            [
              -60.389655,
              -45.827582
            ],
            [
              -60.552516,
              -45.802532
            ],
            [
              -60.718168,
              -45.788578
            ],
            [
              -60.885016,
              -45.785854
            ],
            [
              -61.051454,
              -45.794388
            ],
            [
              -61.215878,
              -45.814095
            ],
            [
              -61.376705,
              -45.844788
            ],
            [
              -61.532386,
              -45.88617
            ],
            [
              -61.681422,
              -45.937843
            ],
            [
              -61.822377,
              -45.999309
            ],
            [
              -61.953895,
              -46.069976
            ],
            [
              -62.074707,
              -46.149164
            ],
            [
              -62.183652,
              -46.236109
            ],
            [
              -62.279679,
              -46.329976
            ],
            [
              -62.361864,
              -46.429859
            ],
            [
              -62.429416,
              -46.534796
            ],
            [
              -62.481684,
              -46.643778
            ],
            [
              -62.518164,
              -46.755754
            ],
            [
              -62.538505,
              -46.869647
            ],
            [
              -62.542512,
              -46.984359
            ],
            [
              -62.530145,
              -47.098785
            ],
            [
              -62.501524,
              -47.211824
            ],
            [
              -62.456925,
              -47.322387
            ],
            [
              -62.396776,
              -47.429409
            ],
            [
              -62.321658,
              -47.53186
            ],
            [
              -62.232293,
              -47.628752
            ],
            [
              -62.129543,
              -47.719154
            ],
            [
              -62.014396,
              -47.802193
            ],
            [
              -61.887962,
              -47.877071
            ],
            [
              -61.751459,
              -47.943066
            ],
            [
              -61.6062,
              -47.999543
            ],
            [
              -61.453586,
              -48.045957
            ],
            [
              -61.295085,
              -48.081863
            ],
            [
              -61.132224,
              -48.106913
            ],
            [
              -60.966572,
              -48.120867
            ],
            [
              -60.799724,
              -48.123591
            ],
            [
              -60.633286,
              -48.115057
            ],
            [
              -60.468862,
              -48.09535
            ],
            [
              -60.308035,
              -48.064657
            ],
            [
              -60.152354,
              -48.023275
            ],
            [
              -60.003318,
              -47.971602
            ],
            [
              -59.862363,
              -47.910136
            ],
            [
              -59.730845,
              -47.839469
            ],
            [
              -59.610033,
              -47.760281
            ],
            [
              -59.501088,
              -47.673336
            ],
            [
              -59.405061,
              -47.579469
            ],
            [
              -59.322876,
              -47.479586
            ],
            [
              -59.255324,
              -47.374649
            ],
            [
              -59.203056,
              -47.265667
            ],
            [
              -59.166576,
              -47.153691
            ],
            [
              -59.146235,
              -47.039798
            ],
            [
              -59.142228,
              -46.925086
            ],
            [
              -59.154595,
              -46.81066
            ],
            [
              -59.183216,
              -46.697621
            ],
            [
              -59.227815,
              -46.587058
            ],
            [
              -59.287964,
              -46.480036
            ],
            [
              -59.363082,
              -46.377585
            ],
            [
              -59.452447,
              -46.280693
            ],
            [
              -59.555197,
              -46.190291
            ],
            [
              -59.670344,
              -46.107252
            ],
            [
              -59.796778,
              -46.032374
            ],
            [
              -59.933281,
              -45.966379
            ],
            [
              -60.07854,
              -45.909902
            ],
            [
              -60.231154,
              -45.863488
            ],
            [
              -60.389655,
              -45.827582
            ]
          ]
        ],
        "type": "Polygon"
      },
      "properties": {
        "kind": "reachableSet",
        "observationStatus": "estimated",
        "vessel": "B"
      },
      "type": "Feature"
    }
  ],
  "properties": {
    "dateline": false
  },
  "type": "FeatureCollection"
}
