{
  "features": [
    {
      "geometry": {
        "coordinates": [
          -60.848297,
          -46.721133
        ],
        "type": "Point"
      },
      "properties": {
        "mmsi": "441239687",
        "observationStatus": "observed",
        "role": "off",
        "time": "2017-03-12T08:31:05Z",
        "vessel": "A"
      },
      "type": "Feature"
    },
    {
      "geometry": {
        "coordinates": [
          -60.79416,
          -46.720715
        ],
        "type": "Point"
      },
      "properties": {
        "mmsi": "412329691",
        "observationStatus": "observed",
        "role": "off",
        "time": "2017-03-12T08:38:23Z",
        "vessel": "B"
      },
      "type": "Feature"
    },
    {
      "geometry": {
        "coordinates": [
          -60.835372,
          -46.730103
        ],
        "type": "Point"
      },
      "properties": {
        "mmsi": "441239687",
        "observationStatus": "observed",
        "role": "on",
        "time": "2017-03-12T22:17:57Z",
        "vessel": "A"
      },
      "type": "Feature"
    },
    {
      "geometry": {
        "coordinates": [
          -60.82495,
          -46.707377
        ],
        "type": "Point"
      },
      "properties": {
        "mmsi": "412329691",
        "observationStatus": "observed",
        "role": "on",
        "time": "2017-03-12T22:24:37Z",
        "vessel": "B"
      },
      "type": "Feature"
    },
    {
      "geometry": {
        "coordinates": [
          [
            -60.848297,
            -46.721133
          ],
          [
            -60.821228,
            -46.726968
          ],
          [
            -60.835372,
            -46.730103
          ]
        ],
        "type": "LineString"
      },
      "properties": {
        "confidence": "low",
        "lineStyle": "dashed",
        "observationStatus": "estimated",
        "source": "reachable-set heuristic",
        "vessel": "A"
      },
      "type": "Feature"
    },
    {
      "geometry": {
        "coordinates": [
          [
            -60.79416,
            -46.720715
          ],
          [
            -60.821228,
            -46.726968
          ],
          [
            -60.82495,
            -46.707377
          ]
        ],
        "type": "LineString"
      },
      "properties": {
        "confidence": "low",
        "lineStyle": "dashed",
        "observationStatus": "estimated",
        "source": "reachable-set heuristic",
        "vessel": "B"
      },
      "type": "Feature"
    },
    {
      "geometry": {
        "coordinates": [
          -60.821228,
          -46.726968
        ],
        "type": "Point"
      },
      "properties": {
        "kind": "meetingPoint",
        "observationStatus": "estimated"
      },
      "type": "Feature"
    },
    {
      "geometry": {
        "coordinates": [
          [
            [
              -59.420105,
              -47.712304
            ],
            [
              -59.286819,
              -47.61138
            ],
            [
              -59.168508,
              -47.501925
            ],
            [
              -59.066313,
              -47.384994
            ],
            [
              -58.981217,
              -47.261713
            ],
            [
              -58.91404,
              -47.13327
            ],
            [
              -58.865428,
              -47.0009
            ],
            [
              -58.83585,
              -46.865879
            ],
            [
              -58.825591,
              -46.729507
            ],
            [
              -58.83475,
              -46.593098
            ],
            [
              -58.863237,
              -46.457965
            ],
            [
              -58.91078,
              -46.32541
            ],
            [
              -58.97692,
              -46.196709
            ],
            [
              -59.06102,
              -46.073102
            ],
            [
              -59.16227,
              -45.955779
            ],
            [
              -59.279696,
              -45.845869
            ],
            [
              -59.412165,
              -45.744433
            ],
            [
              -59.558403,
              -45.652445
            ],
            [
              -59.717002,
              -45.570793
            ],
            [
              -59.886433,
              -45.500262
            ],
            [
              -60.065065,
              -45.441533
            ],
            [
              -60.251177,
              -45.395169
            ],
            [
              -60.442978,
              -45.361619
            ],
            [
              -60.638621,
              -45.341205
            ],
            [
              -60.83622,
              -45.334123
            ],
            [
              -61.033873,
              -45.340442
            ],
            [
              -61.229677,
              -45.360102
            ],
            [
              -61.421746,
              -45.392912
            ],
            [
              -61.60823,
              -45.438556
            ],
            [
              -61.787333,
              -45.496596
            ],
            [
              -61.957331,
              -45.566472
            ],
            [
              -62.116585,
              -45.647511
            ],
            [
              -62.263563,
              -45.738933
            ],
            [
              -62.396849,
              -45.839857
            ],
            [
              -62.51516,
              -45.949311
            ],
            [
              -62.617355,
              -46.066242
            ],
            [
              -62.702451,
              -46.189523
            ],
            [
              -62.769629,
              -46.317967
            ],
            [
              -62.81824,
              -46.450337
            ],
            [
              -62.847818,
              -46.585358
            ],
            [
              -62.858077,
              -46.721729
            ],
            [
              -62.848919,
              -46.858138
            ],
            [
              -62.820431,
              -46.993271
            ],
            [
              -62.772888,
              -47.125827
            ],
            [
              -62.706748,
              -47.254528
            ],
            [
              -62.622648,
              -47.378135
            ],
            [
              -62.521398,
              -47.495458
            ],
            [
              -62.403973,
              -47.605367
            ],
            [
              -62.271503,
              -47.706804
            ],
            [
              -62.125265,
              -47.798792
            ],
            [
              -61.966667,
              -47.880444
            ],
            [
              -61.797236,
              -47.950974
            ],
            [
              -61.618604,
              -48.009704
            ],
            [
              -61.432491,
              -48.056067
            ],
            [
              -61.24069,
              -48.089618
            ],
            [
              -61.045048,
              -48.110032
            ],
            [
              -60.847448,
              -48.117114
            ],
            [
              -60.649795,
              -48.110794
            ],
            [
              -60.453991,
              -48.091135
            ],
            [
              -60.261922,
              -48.058325
            ],
            [
              -60.075438,
              -48.012681
            ],
            [
              -59.896335,
              -47.954641
            ],
            [
              -59.726338,
              -47.884765
            ],
            [
              -59.567083,
              -47.803726
            ],
            [
              -59.420105,
              -47.712304
            ]
          ]
        ],
        "type": "Polygon"
      },
      "properties": {
        "kind": "reachableSet",
        "observationStatus": "estimated",
        "vessel": "A"
      },
      "type": "Feature"
    },
    {
      "geometry": {
        "coordinates": [
          [
            [
              -62.515592,
              -45.974985
            ],
            [
              -62.612315,
              -46.09397
            ],
            [
              -62.691676,
              -46.218927
            ],
            [
              -62.752912,
              -46.348652
            ],
            [
              -62.795431,
              -46.481896
            ],
            [
              -62.818826,
              -46.617375
            ],
            [
              -62.822871,
              -46.753786
            ],
            [
              -62.807526,
              -46.889814
            ],
            [
              -62.77294,
              -47.024149
            ],
            [
              -62.719445,
              -47.155498
            ],
            [
              -62.647556,
              -47.282595
            ],
            [
              -62.557967,
              -47.404217
            ],
            [
              -62.45154,
              -47.519192
            ],
            [
              -62.3293,
              -47.626413
            ],
            [
              -62.192423,
              -47.724848
            ],
            [
              -62.042229,
              -47.813548
            ],
            [
              -61.880163,
              -47.891659
            ],
            [
              -61.707787,
              -47.958429
            ],
            [
              -61.526761,
              -48.013215
            ],
            [
              -61.338827,
              -48.05549
            ],
            [
              -61.145796,
              -48.084845
            ],
            [
              -60.949527,
              -48.100999
            ],
            [
              -60.75191,
              -48.103796
            ],
            [
              -60.554848,
              -48.093208
            ],
            [
              -60.360239,
              -48.069339
            ],
            [
              -60.169957,
              -48.032418
            ],
            [
              -59.985835,
              -47.982799
            ],
            [
              -59.809646,
              -47.920962
            ],
            [
              -59.643087,
              -47.847502
            ],
            [
              -59.487761,
              -47.763126
            ],
            [
              -59.345165,
              -47.668647
            ],
            [
              -59.216671,
              -47.564974
            ],
            [
              -59.103518,
              -47.453107
            ],
            [
              -59.006795,
              -47.334122
            ],
            [
              -58.927434,
              -47.209165
            ],
            [
              -58.866198,
              -47.07944
            ],
            [
              -58.823679,
              -46.946196
            ],
            [
              -58.800284,
              -46.810716
            ],
            [
              -58.796239,
              -46.674306
            ],
            [
              -58.811584,
              -46.538278
            ],
            [
              -58.84617,
              -46.403943
            ],
            [
              -58.899665,
              -46.272594
            ],
            [
              -58.971554,
              -46.145496
            ],
            [
              -59.061143,
              -46.023875
            ],
            [
              -59.16757,
              -45.908899
            ],
            [
              -59.28981,
              -45.801678
            ],
            [
              -59.426687,
              -45.703244
            ],
            [
              -59.576881,
              -45.614544
            ],
            [
              -59.738947,
              -45.536433
            ],
            [
              -59.911323,
              -45.469662
            ],
            [
              -60.092349,
              -45.414876
            ],
            [
              -60.280283,
              -45.372602
            ],
            [
              -60.473314,
              -45.343247
            ],
            [
              -60.669583,
              -45.327093
            ],
            [
              -60.8672,
              -45.324296
            ],
            [
              -61.064262,
              -45.334883
            ],
            [
              -61.258871,
              -45.358753
            ],
            [
              -61.449153,
              -45.395674
            ],
            [
              -61.633275,
              -45.445292
            ],
            [
              -61.809464,
              -45.507129
            ],
            [
              -61.976023,
              -45.580589
            ],
            [
              -62.131349,
              -45.664966
            ],
            [
              -62.273945,
              -45.759445
            ],
            [
              -62.402439,
              -45.863117
            ],
            [
              -62.515592,
              -45.974985
            ]
          ]
        ],
        "type": "Polygon"
      },
      "properties": {
        "kind": "reachableSet",
        "observationStatus": "estimated",
        "vessel": "B"
      },
      "type": "Feature"
    }
  ],
  "properties": {
    "dateline": false
  },
  "type": "FeatureCollection"
}
