{
  "features": [
    {
      "geometry": {
        "coordinates": [
          -57.700292,
          -41.984383
        ],
        "type": "Point"
      },
      "properties": {
        "mmsi": "412329686",
        "observationStatus": "observed",
        "role": "off",
        "time": "2019-05-18T05:02:32Z",
        "vessel": "A"
      },
      "type": "Feature"
    },
    {
      "geometry": {
        "coordinates": [
          -57.72823,
          -41.988742
        ],
        "type": "Point"
      },
      "properties": {
        "mmsi": "412329689",
        "observationStatus": "observed",
        "role": "off",
        "time": "2019-05-18T05:16:04Z",
        "vessel": "B"
      },
      "type": "Feature"
    },
    {
      "geometry": {
        "coordinates": [
          -57.945003,
          -42.061235
        ],
        "type": "Point"
      },
      "properties": {
        "mmsi": "412329689",
        "observationStatus": "observed",
        "role": "on",
        "time": "2019-05-18T22:55:25Z",
        "vessel": "B"
      },
      "type": "Feature"
    },
    {
      "geometry": {
        "coordinates": [
          -57.92105,
          -42.066722
        ],
        "type": "Point"
      },
      "properties": {
        "mmsi": "412329686",
        "observationStatus": "observed",
        "role": "on",
        "time": "2019-05-18T23:49:42Z",
        "vessel": "A"
      },
      "type": "Feature"
    },
    {
      "geometry": {
        "coordinates": [
          [
            -57.700292,
            -41.984383
          ],
          [
            -57.805285,
            -42.014622
          ],
          [
            -57.92105,
            -42.066722
          ]
        ],
        "type": "LineString"
      },
      "properties": {
        "confidence": "low",
        "lineStyle": "dashed",
        "observationStatus": "estimated",
        "source": "reachable-set heuristic",
        "vessel": "A"
      },
      "type": "Feature"
    },
    {
      "geometry": {
        "coordinates": [
          [
            -57.72823,
            -41.988742
          ],
          [
            -57.805285,
            -42.014622
          ],
          [
            -57.945003,
            -42.061235
          ]
        ],
        "type": "LineString"
      },
      "properties": {
        "confidence": "low",
        "lineStyle": "dashed",
        "observationStatus": "estimated",
        "source": "reachable-set heuristic",
        "vessel": "B"
      },
      "type": "Feature"
    },
    {
      "geometry": {
        "coordinates": [
          -57.805285,
          -42.014622
        ],
        "type": "Point"
      },
      "properties": {
        "kind": "meetingPoint",
        "observationStatus": "estimated"
      },
      "type": "Feature"
    },
    {
      "geometry": {
        "coordinates": [
          [
            [
              -60.127701,
              -42.889757
            ],
            [
              -60.00341,
              -43.055254
            ],
            [
              -59.858003,
              -43.210835
            ],
            [
              -59.692878,
              -43.355
            ],
            [
              -59.509627,
              -43.486362
            ],
            [
              -59.310014,
              -43.603656
            ],
            [
              -59.095961,
              -43.705752
            ],
            [
              -58.86953,
              -43.791666
            ],
            [
              -58.632902,
              -43.860572
            ],
            [
              -58.388355,
              -43.911806
            ],
            [
              -58.138245,
              -43.944874
            ],
            [
              -57.884981,
              -43.959458
            ],
            [
              -57.631,
              -43.955417
            ],
            [
              -57.37875,
              -43.932791
            ],
            [
              -57.130659,
              -43.891796
            ],
            [
              -56.889118,
              -43.832829
            ],
            [
              -56.656451,
              -43.756457
            ],
            [
              -56.434901,
              -43.663416
            ],
            [
              -56.226599,
              -43.554601
            ],
            [
              -56.033553,
              -43.43106
            ],
            [
              -55.857622,
              -43.293983
            ],
            [
              -55.7005,
              -43.144691
            ],
            [
              -55.563699,
              -42.984621
            ],
            [
              -55.448539,
              -42.815314
            ],
            [
              -55.356127,
              -42.638402
            ],
            [
              -55.287353,
              -42.455588
            ],
            [
              -55.242881,
              -42.268632
            ],
            [
              -55.223137,
              -42.079335
            ],
            [
              -55.228313,
              -41.88952
            ],
            [
              -55.258359,
              -41.701015
            ],
            [
              -55.312985,
              -41.515636
            ],
            [
              -55.391665,
              -41.335167
            ],
            [
              -55.493641,
              -41.161348
            ],
            [
              -55.617931,
              -40.995851
            ],
            [
              -55.763339,
              -40.84027
            ],
            [
              -55.928464,
              -40.696105
            ],
            [
              -56.111715,
              -40.564743
            ],
            [
              -56.311328,
              -40.447449
            ],
            [
              -56.525381,
              -40.345353
            ],
            [
              -56.751811,
              -40.259439
            ],
            [
              -56.98844,
              -40.190533
            ],
            [
              -57.232986,
              -40.139299
            ],
            [
              -57.483096,
              -40.106231
            ],
            [
              -57.736361,
              -40.091647
            ],
            [
              -57.990342,
              -40.095688
            ],
            [
              -58.242592,
              -40.118314
            ],
            [
              -58.490682,
              -40.159309
            ],
            [
              -58.732224,
              -40.218276
            ],
            [
              -58.96489,
              -40.294648
            ],
            [
              -59.186441,
              -40.387689
            ],
            [
              -59.394742,
              -40.496504
            ],
            [
              -59.587788,
              -40.620045
            ],
            [
              -59.76372,
              -40.757122
            ],
            [
              -59.920842,
              -40.906414
            ],
            [
              -60.057642,
              -41.066484
            ],
            [
              -60.172803,
              -41.235791
            ],
            [
              -60.265215,
              -41.412703
            ],
            [
              -60.333988,
              -41.595517
            ],
            [
              -60.378461,
              -41.782473
            ],
            [
              -60.398204,
              -41.97177
            ],
            [
              -60.393028,
              -42.161585
            ],
            [
              -60.362983,
              -42.35009
            ],
            [
              -60.308357,
              -42.535469
            ],
            [
              -60.229677,
              -42.715938
            ],
            [
              -60.127701,
              -42.889757
            ]
          ]
        ],
        "type": "Polygon"
      },
      "properties": {
        "kind": "reachableSet",
        "observationStatus": "estimated",
        "vessel": "A"
      },
      "type": "Feature"
    },
    {
      "geometry": {
        "coordinates": [
          [
            [
              -60.050039,
              -42.765201
            ],
            [
              -59.942486,
              -42.9237
            ],
            [
              -59.814653,
              -43.073543
            ],
            [
              -59.66777,
              -43.213289
            ],
            [
              -59.503252,
              -43.34159
            ],
            [
              -59.322684,
              -43.457212
            ],
            [
              -59.127804,
              -43.55904
            ],
            [
              -58.920489,
              -43.646095
            ],
            [
              -58.702736,
              -43.717538
            ],
            [
              -58.476641,
              -43.772681
            ],
            [
              -58.244383,
              -43.810992
            ],
            [
              -58.008198,
              -43.832103
            ],
            [
              -57.77036,
              -43.835811
            ],
            [
              -57.533161,
              -43.82208
            ],
            [
              -57.298884,
              -43.791041
            ],
            [
              -57.069785,
              -43.742995
            ],
            [
              -56.848072,
              -43.678403
            ],
            [
              -56.635878,
              -43.597888
            ],
            [
              -56.435249,
              -43.502224
            ],
            [
              -56.248115,
              -43.392335
            ],
            [
              -56.07628,
              -43.269277
            ],
            [
              -55.921398,
              -43.134236
            ],
            [
              -55.78496,
              -42.988512
            ],
            [
              -55.668281,
              -42.833509
            ],
            [
              -55.572484,
              -42.670719
            ],
            [
              -55.498492,
              -42.501711
            ],
            [
              -55.447017,
              -42.328112
            ],
            [
              -55.418555,
              -42.151593
            ],
            [
              -55.413381,
              -41.973855
            ],
            [
              -55.431544,
              -41.79661
            ],
            [
              -55.472869,
              -41.621564
            ],
            [
              -55.536958,
              -41.450403
            ],
            [
              -55.623194,
              -41.284776
            ],
            [
              -55.730747,
              -41.126277
            ],
            [
              -55.85858,
              -40.976434
            ],
            [
              -56.005463,
              -40.836688
            ],
            [
              -56.169981,
              -40.708387
            ],
            [
              -56.350549,
              -40.592765
            ],
            [
              -56.545429,
              -40.490936
            ],
            [
              -56.752744,
              -40.403881
            ],
            [
              -56.970498,
              -40.332438
            ],
            [
              -57.196592,
              -40.277296
            ],
            [
              -57.42885,
              -40.238984
            ],
            [
              -57.665035,
              -40.217873
            ],
            [
              -57.902873,
              -40.214166
            ],
            [
              -58.140073,
              -40.227897
            ],
            [
              -58.37435,
              -40.258936
            ],
            [
              -58.603448,
              -40.306982
            ],
            [
              -58.825162,
              -40.371574
            ],
            [
              -59.037355,
              -40.452089
            ],
            [
              -59.237984,
              -40.547752
            ],
            [
              -59.425118,
              -40.657642
            ],
            [
              -59.596953,
              -40.7807
            ],
            [
              -59.751836,
              -40.915741
            ],
            [
              -59.888273,
              -41.061465
            ],
            [
              -60.004953,
              -41.216468
            ],
            [
              -60.10075,
              -41.379257
            ],
            [
              -60.174742,
              -41.548265
            ],
            [
              -60.226216,
              -41.721865
            ],
            [
              -60.254678,
              -41.898383
            ],
            [
              -60.259852,
              -42.076121
            ],
            [
              -60.241689,
              -42.253367
            ],
            [
              -60.200364,
              -42.428413
            ],
            [
              -60.136275,
              -42.599574
            ],
            [
              -60.050039,
              -42.765201
            ]
          ]
        ],
        "type": "Polygon"
      },
      "properties": {
        "kind": "reachableSet",
        "observationStatus": "estimated",
        "vessel": "B"
      },
      "type": "Feature"
    }
  ],
  "properties": {
    "dateline": false
  },
  "type": "FeatureCollection"
}
