{
  "features": [
    {
      "geometry": {
        "coordinates": [
          158.284697,
          46.596388
        ],
        "type": "Point"
      },
      "properties": {
        "mmsi": "416240600",
        "observationStatus": "observed",
        "role": "off",
        "time": "2017-08-03T05:50:06Z",
        "vessel": "A"
      },
      "type": "Feature"
    },
    {
      "geometry": {
        "coordinates": [
          158.285895,
          46.597403
        ],
        "type": "Point"
      },
      "properties": {
        "mmsi": "416005007",
        "observationStatus": "observed",
        "role": "off",
        "time": "2017-08-03T05:51:18Z",
        "vessel": "B"
      },
      "type": "Feature"
    },
    {
      "geometry": {
        "coordinates": [
          158.33175,
          46.497653
        ],
        "type": "Point"
      },
      "properties": {
        "mmsi": "416240600",
        "observationStatus": "observed",
        "role": "on",
        "time": "2017-08-03T18:49:43Z",
        "vessel": "A"
      },
      "type": "Feature"
    },
    {
      "geometry": {
        "coordinates": [
          158.350262,
          46.443582
        ],
        "type": "Point"
      },
      "properties": {
        "mmsi": "416005007",
        "observationStatus": "observed",
        "role": "on",
        "time": "2017-08-03T19:24:53Z",
        "vessel": "B"
      },
      "type": "Feature"
    },
    {
      "geometry": {
        "coordinates": [
          [
            158.284697,
            46.596388
          ],
          [
            158.310347,
            46.544676
          ],
          [
            158.33175,
            46.497653
          ]
        ],
        "type": "LineString"
      },
      "properties": {
        "confidence": "low",
        "lineStyle": "dashed",
        "observationStatus": "estimated",
        "source": "reachable-set heuristic",
        "vessel": "A"
      },
      "type": "Feature"
    },
    {
      "geometry": {
        "coordinates": [
          [
            158.285895,
            46.597403
          ],
          [
            158.310347,
            46.544676
          ],
          [
            158.350262,
            46.443582
          ]
        ],
        "type": "LineString"
      },
      "properties": {
        "confidence": "low",
        "lineStyle": "dashed",
        "observationStatus": "estimated",
        "source": "reachable-set heuristic",
        "vessel": "B"
      },
      "type": "Feature"
    },
    {
      "geometry": {
        "coordinates": [
          158.310347,
          46.544676
        ],
        "type": "Point"
      },
      "properties": {
        "kind": "meetingPoint",
        "observationStatus": "estimated"
      },
      "type": "Feature"
    },
    {
      "geometry": {
        "coordinates": [
          [
            [
              158.853705,
              45.402402
            ],
            [
              159.012956,
              45.444901
            ],
            [
              159.16542,
              45.498013
            ],
            [
              159.309628,
              45.561229
            ],
            [
              159.444193,
              45.633938
            ],
            [
              159.567817,
              45.71544
            ],
            [
              159.679311,
              45.804951
            ],
            [
              159.777601,
              45.901609
            ],
            [
              159.86174,
              46.004482
            ],
            [
              159.930917,
              46.11258
            ],
            [
              159.984467,
              46.224862
            ],
            [
              160.021874,
              46.340247
            ],
            [
              160.042778,
              46.457623
            ],
            [
              160.046976,
              46.57586
            ],
            [
              160.03443,
              46.693819
            ],
            [
              160.005259,
              46.810365
            ],
            [
              159.959745,
              46.924374
            ],
            [
              159.898326,
              47.034749
            ],
            [
              159.821594,
              47.140427
            ],
            [
              159.730286,
              47.240391
            ],
            [
              159.625284,
              47.333676
            ],
            [
              159.507597,
              47.419386
            ],
            [
              159.37836,
              47.496695
            ],
            [
              159.238817,
              47.564857
            ],
            [
              159.090312,
              47.623218
            ],
            [
              158.934275,
              47.671214
            ],
            [
              158.772208,
              47.708383
            ],
            [
              158.605674,
              47.734368
            ],
            [
              158.436274,
              47.748918
            ],
            [
              158.265641,
              47.751893
            ],
            [
              158.095419,
              47.743264
            ],
            [
              157.927246,
              47.723115
            ],
            [
              157.762742,
              47.69164
            ],
            [
              157.603491,
              47.649141
            ],
            [
              157.451027,
              47.596028
            ],
            [
              157.306818,
              47.532813
            ],
            [
              157.172254,
              47.460104
            ],
            [
              157.048629,
              47.378601
            ],
            [
              156.937135,
              47.28909
            ],
            [
              156.838846,
              47.192433
            ],
            [
              156.754707,
              47.08956
            ],
            [
              156.68553,
              46.981461
            ],
            [
              156.63198,
              46.869179
            ],
            [
              156.594573,
              46.753795
            ],
            [
              156.573669,
              46.636419
            ],
            [
              156.56947,
              46.518182
            ],
            [
              156.582017,
              46.400222
            ],
            [
              156.611187,
              46.283677
            ],
            [
              156.656701,
              46.169668
            ],
            [
              156.71812,
              46.059292
            ],
            [
              156.794853,
              45.953614
            ],
            [
              156.88616,
              45.853651
            ],
            [
              156.991163,
              45.760365
            ],
            [
              157.108849,
              45.674655
            ],
            [
              157.238086,
              45.597347
            ],
            [
              157.377629,
              45.529184
            ],
            [
              157.526135,
              45.470824
            ],
            [
              157.682172,
              45.422828
            ],
            [
              157.844238,
              45.385659
            ],
            [
              158.010773,
              45.359674
            ],
            [
              158.180173,
              45.345124
            ],
            [
              158.350805,
              45.342149
            ],
            [
              158.521028,
              45.350778
            ],
            [
              158.689201,
              45.370927
            ],
            [
              158.853705,
              45.402402
            ]
          ]
        ],
        "type": "Polygon"
      },
      "properties": {
        "kind": "reachableSet",
        "observationStatus": "estimated",
        "vessel": "A"
      },
      "type": "Feature"
    },
    {
      "geometry": {
        "coordinates": [
          [
            [
              158.825369,
              45.308183
            ],
            [
              158.994107,
              45.348398
            ],
            [
              159.156335,
              45.3999
            ],
            [
              159.31049,
              45.462195
            ],
            [
              159.455087,
              45.534681
            ],
            [
              159.588734,
              45.616661
            ],
            [
              159.710145,
              45.707346
            ],
            [
              159.818149,
              45.805862
            ],
            [
              159.911706,
              45.91126
            ],
            [
              159.989916,
              46.022525
            ],
            [
              160.052025,
              46.138586
            ],
            [
              160.097435,
              46.258325
            ],
            [
              160.125709,
              46.380589
            ],
            [
              160.136575,
              46.5042
            ],
            [
              160.129927,
              46.627968
            ],
            [
              160.105831,
              46.750701
            ],
            [
              160.064517,
              46.871217
            ],
            [
              160.006384,
              46.988355
            ],
            [
              159.931992,
              47.100987
            ],
            [
              159.842057,
              47.208029
            ],
            [
              159.737446,
              47.30845
            ],
            [
              159.619165,
              47.401282
            ],
            [
              159.488354,
              47.485632
            ],
            [
              159.346272,
              47.560687
            ],
            [
              159.194288,
              47.625724
            ],
            [
              159.033866,
              47.680117
            ],
            [
              158.866551,
              47.723343
            ],
            [
              158.693953,
              47.754984
            ],
            [
              158.517736,
              47.774737
            ],
            [
              158.339596,
              47.78241
            ],
            [
              158.161248,
              47.777931
            ],
            [
              157.984411,
              47.761341
            ],
            [
              157.810788,
              47.732802
            ],
            [
              157.642049,
              47.692587
            ],
            [
              157.479822,
              47.641085
            ],
            [
              157.325667,
              47.57879
            ],
            [
              157.18107,
              47.506304
            ],
            [
              157.047422,
              47.424324
            ],
            [
              156.926012,
              47.333639
            ],
            [
              156.818008,
              47.235123
            ],
            [
              156.724451,
              47.129725
            ],
            [
              156.646241,
              47.01846
            ],
            [
              156.584132,
              46.902399
            ],
            [
              156.538722,
              46.78266
            ],
            [
              156.510447,
              46.660396
            ],
            [
              156.499582,
              46.536785
            ],
            [
              156.506229,
              46.413017
            ],
            [
              156.530326,
              46.290284
            ],
            [
              156.571639,
              46.169768
            ],
            [
              156.629772,
              46.05263
            ],
            [
              156.704164,
              45.939998
            ],
            [
              156.794099,
              45.832956
            ],
            [
              156.898711,
              45.732535
            ],
            [
              157.016992,
              45.639703
            ],
            [
              157.147803,
              45.555353
            ],
            [
              157.289885,
              45.480298
            ],
            [
              157.441868,
              45.415261
            ],
            [
              157.60229,
              45.360868
            ],
            [
              157.769606,
              45.317642
            ],
            [
              157.942203,
              45.286001
            ],
            [
              158.118421,
              45.266248
            ],
            [
              158.296561,
              45.258575
            ],
            [
              158.474908,
              45.263054
            ],
            [
              158.651745,
              45.279644
            ],
            [
              158.825369,
              45.308183
            ]
          ]
        ],
        "type": "Polygon"
      },
      "properties": {
        "kind": "reachableSet",
        "observationStatus": "estimated",
        "vessel": "B"
      },
      "type": "Feature"
    }
  ],
  "properties": {
    "dateline": false
  },
  "type": "FeatureCollection"
}
