{
  "features": [
    {
      "geometry": {
        "coordinates": [
          -61.013138,
          -47.224698
        ],
        "type": "Point"
      },
      "properties": {
        "mmsi": "701006085",
        "observationStatus": "observed",
        "role": "off",
        "time": "2017-03-09T03:21:05Z",
        "vessel": "A"
      },
      "type": "Feature"
    },
    {
      "geometry": {
        "coordinates": [
          -61.109395,
          -47.215577
        ],
        "type": "Point"
      },
      "properties": {
        "mmsi": "701006056",
        "observationStatus": "observed",
        "role": "off",
        "time": "2017-03-09T03:22:40Z",
        "vessel": "B"
      },
      "type": "Feature"
    },
    {
      "geometry": {
        "coordinates": [
          -60.976827,
          -47.147183
        ],
        "type": "Point"
      },
      "properties": {
        "mmsi": "701006085",
        "observationStatus": "observed",
        "role": "on",
        "time": "2017-03-09T16:01:00Z",
        "vessel": "A"
      },
      "type": "Feature"
    },
    {
      "geometry": {
        "coordinates": [
          -61.069077,
          -47.18258
        ],
        "type": "Point"
      },
      "properties": {
        "mmsi": "701006056",
        "observationStatus": "observed",
        "role": "on",
        "time": "2017-03-09T16:01:02Z",
        "vessel": "B"
      },
      "type": "Feature"
    },
    {
      "geometry": {
        "coordinates": [
          [
            -61.013138,
            -47.224698
          ],
          [
            -61.043111,
            -47.180996
          ],
          [
            -60.976827,
            -47.147183
          ]
        ],
        "type": "LineString"
      },
      "properties": {
        "confidence": "low",
        "lineStyle": "dashed",
        "observationStatus": "estimated",
        "source": "reachable-set heuristic",
        "vessel": "A"
      },
      "type": "Feature"
    },
    {
      "geometry": {
        "coordinates": [
          [
            -61.109395,
            -47.215577
          ],
          [
            -61.043111,
            -47.180996
          ],
          [
            -61.069077,
            -47.18258
          ]
        ],
        "type": "LineString"
      },
      "properties": {
        "confidence": "low",
        "lineStyle": "dashed",
        "observationStatus": "estimated",
        "source": "reachable-set heuristic",
        "vessel": "B"
      },
      "type": "Feature"
    },
    {
      "geometry": {
        "coordinates": [
          -61.043111,
          -47.180996
        ],
        "type": "Point"
      },
      "properties": {
        "kind": "meetingPoint",
        "observationStatus": "estimated"
      },
      "type": "Feature"
    },
    {
      "geometry": {
        "coordinates": [
          [
            [
              -60.472015,
              -46.069556
            ],
            [
              -60.634361,
              -46.039879
            ],
            [
              -60.80018,
              -46.02124
            ],
            [
              -60.967874,
              -46.013817
            ],
            [
              -61.13583,
              -46.017682
            ],
            [
              -61.302429,
              -46.032799
            ],
            [
              -61.466068,
              -46.05902
            ],
            [
              -61.625169,
              -46.096095
            ],
            [
              -61.778202,
              -46.143665
            ],
            [
              -61.923692,
              -46.201274
            ],
            [
              -62.060238,
              -46.268365
            ],
            [
              -62.186524,
              -46.344292
            ],
            [
              -62.301336,
              -46.428326
            ],
            [
              -62.403567,
              -46.519655
            ],
            [
              -62.492232,
              -46.617402
            ],
            [
              -62.566478,
              -46.720623
            ],
            [
              -62.625589,
              -46.828326
            ],
            [
              -62.668997,
              -46.939473
            ],
            [
              -62.696284,
              -47.052993
            ],
            [
              -62.707185,
              -47.167794
            ],
            [
              -62.701598,
              -47.28277
            ],
            [
              -62.679574,
              -47.396813
            ],
            [
              -62.641328,
              -47.508825
            ],
            [
              -62.587226,
              -47.617728
            ],
            [
              -62.517789,
              -47.722472
            ],
            [
              -62.433688,
              -47.82205
            ],
            [
              -62.335731,
              -47.915501
            ],
            [
              -62.224861,
              -48.001926
            ],
            [
              -62.102147,
              -48.080493
            ],
            [
              -61.968771,
              -48.150445
            ],
            [
              -61.826017,
              -48.211108
            ],
            [
              -61.675259,
              -48.261898
            ],
            [
              -61.51795,
              -48.302326
            ],
            [
              -61.355604,
              -48.332003
            ],
            [
              -61.189785,
              -48.350642
            ],
            [
              -61.022091,
              -48.358065
            ],
            [
              -60.854135,
              -48.354199
            ],
            [
              -60.687536,
              -48.339083
            ],
            [
              -60.523897,
              -48.312861
            ],
            [
              -60.364796,
              -48.275787
            ],
            [
              -60.211763,
              -48.228216
            ],
            [
              -60.066273,
              -48.170608
            ],
            [
              -59.929727,
              -48.103517
            ],
            [
              -59.803441,
              -48.027589
            ],
            [
              -59.688629,
              -47.943556
            ],
            [
              -59.586398,
              -47.852226
            ],
            [
              -59.497733,
              -47.75448
            ],
            [
              -59.423487,
              -47.651258
            ],
            [
              -59.364376,
              -47.543556
            ],
            [
              -59.320968,
              -47.432409
            ],
            [
              -59.293681,
              -47.318888
            ],
            [
              -59.28278,
              -47.204087
            ],
            [
              -59.288367,
              -47.089112
            ],
            [
              -59.310391,
              -46.975069
            ],
            [
              -59.348637,
              -46.863056
            ],
            [
              -59.402739,
              -46.754154
            ],
            [
              -59.472176,
              -46.649409
            ],
            [
              -59.556277,
              -46.549832
            ],
            [
              -59.654234,
              -46.456381
            ],
            [
              -59.765104,
              -46.369955
            ],
            [
              -59.887818,
              -46.291389
            ],
            [
              -60.021194,
              -46.221437
            ],
            [
              -60.163948,
              -46.160774
            ],
            [
              -60.314706,
              -46.109984
            ],
            [
              -60.472015,
              -46.069556
            ]
          ]
        ],
        "type": "Polygon"
      },
      "properties": {
        "kind": "reachableSet",
        "observationStatus": "estimated",
        "vessel": "A"
      },
      "type": "Feature"
    },
    {
      "geometry": {
        "coordinates": [
          [
            [
              -59.992585,
              -46.301575
            ],
            [
              -60.126444,
              -46.232379
            ],
            [
              -60.269576,
              -46.172493
            ],
            [
              -60.420601,
              -46.122493
            ],
            [
              -60.578066,
              -46.082862
            ],
            [
              -60.740454,
              -46.05398
            ],
            [
              -60.9062,
              -46.036126
            ],
            [
              -61.073709,
              -46.029472
            ],
            [
              -61.241368,
              -46.034082
            ],
            [
              -61.407562,
              -46.049911
            ],
            [
              -61.57069,
              -46.076808
            ],
            [
              -61.729181,
              -46.114513
            ],
            [
              -61.88151,
              -46.162662
            ],
            [
              -62.026208,
              -46.220793
            ],
            [
              -62.161883,
              -46.288346
            ],
            [
              -62.287227,
              -46.364669
            ],
            [
              -62.401035,
              -46.449028
            ],
            [
              -62.502209,
              -46.54061
            ],
            [
              -62.589775,
              -46.638534
            ],
            [
              -62.66289,
              -46.741856
            ],
            [
              -62.72085,
              -46.849582
            ],
            [
              -62.763097,
              -46.960673
            ],
            [
              -62.789224,
              -47.07406
            ],
            [
              -62.798978,
              -47.188651
            ],
            [
              -62.792267,
              -47.303343
            ],
            [
              -62.769155,
              -47.417031
            ],
            [
              -62.729864,
              -47.528619
            ],
            [
              -62.674774,
              -47.637034
            ],
            [
              -62.604413,
              -47.741231
            ],
            [
              -62.519461,
              -47.840207
            ],
            [
              -62.420734,
              -47.933009
            ],
            [
              -62.309185,
              -48.018742
            ],
            [
              -62.185887,
              -48.096582
            ],
            [
              -62.052028,
              -48.165778
            ],
            [
              -61.908896,
              -48.225664
            ],
            [
              -61.757871,
              -48.275664
            ],
            [
              -61.600406,
              -48.315295
            ],
            [
              -61.438018,
              -48.344177
            ],
            [
              -61.272272,
              -48.362031
            ],
            [
              -61.104762,
              -48.368685
            ],
            [
              -60.937103,
              -48.364075
            ],
            [
              -60.77091,
              -48.348245
            ],
            [
              -60.607782,
              -48.321349
            ],
            [
              -60.44929,
              -48.283644
            ],
            [
              -60.296962,
              -48.235494
            ],
            [
              -60.152264,
              -48.177363
            ],
            [
              -60.016589,
              -48.109811
            ],
            [
              -59.891244,
              -48.033488
            ],
            [
              -59.777437,
              -47.949129
            ],
            [
              -59.676263,
              -47.857546
            ],
            [
              -59.588697,
              -47.759623
            ],
            [
              -59.515582,
              -47.6563
            ],
            [
              -59.457621,
              -47.548575
            ],
            [
              -59.415375,
              -47.437484
            ],
            [
              -59.389248,
              -47.324096
            ],
            [
              -59.379493,
              -47.209505
            ],
            [
              -59.386204,
              -47.094814
            ],
            [
              -59.409317,
              -46.981126
            ],
            [
              -59.448607,
              -46.869537
            ],
            [
              -59.503698,
              -46.761123
            ],
            [
              -59.574059,
              -46.656925
            ],
            [
              -59.659011,
              -46.557949
            ],
            [
              -59.757737,
              -46.465148
            ],
            [
              -59.869287,
              -46.379415
            ],
            [
              -59.992585,
              -46.301575
            ]
          ]
        ],
        "type": "Polygon"
      },
      "properties": {
        "kind": "reachableSet",
        "observationStatus": "estimated",
        "vessel": "B"
      },
      "type": "Feature"
    }
  ],
  "properties": {
    "dateline": false
  },
  "type": "FeatureCollection"
}
