{
  "features": [
    {
      "geometry": {
        "coordinates": [
          -60.238877,
          -45.176617
        ],
        "type": "Point"
      },
      "properties": {
        "mmsi": "412329689",
        "observationStatus": "observed",
        "role": "off",
        "time": "2017-02-14T07:36:13Z",
        "vessel": "A"
      },
      "type": "Feature"
    },
    {
      "geometry": {
        "coordinates": [
          -60.271772,
          -45.163668
        ],
        "type": "Point"
      },
      "properties": {
        "mmsi": "412329686",
        "observationStatus": "observed",
        "role": "off",
        "time": "2017-02-14T07:42:42Z",
        "vessel": "B"
      },
      "type": "Feature"
    },
    {
      "geometry": {
        "coordinates": [
          -60.310557,
          -45.140317
        ],
        "type": "Point"
      },
      "properties": {
        "mmsi": "412329689",
        "observationStatus": "observed",
        "role": "on",
        "time": "2017-02-14T20:55:10Z",
        "vessel": "A"
      },
      "type": "Feature"
    },
    {
      "geometry": {
        "coordinates": [
          -60.260005,
          -45.142957
        ],
        "type": "Point"
      },
      "properties": {
        "mmsi": "412329686",
        "observationStatus": "observed",
        "role": "on",
        "time": "2017-02-14T21:26:24Z",
        "vessel": "B"
      },
      "type": "Feature"
    },
    {
      "geometry": {
        "coordinates": [
          [
            -60.238877,
            -45.176617
          ],
          [
            -60.274717,
            -45.158467
          ],
          [
            -60.310557,
            -45.140317
          ]
        ],
        "type": "LineString"
      },
      "properties": {
        "confidence": "low",
        "lineStyle": "dashed",
        "observationStatus": "estimated",
        "source": "reachable-set heuristic",
        "vessel": "A"
      },
      "type": "Feature"
    },
    {
      "geometry": {
        "coordinates": [
          [
            -60.271772,
            -45.163668
          ],
          [
            -60.274717,
            -45.158467
          ],
          [
            -60.260005,
            -45.142957
          ]
        ],
        "type": "LineString"
      },
      "properties": {
        "confidence": "low",
        "lineStyle": "dashed",
        "observationStatus": "estimated",
        "source": "reachable-set heuristic",
        "vessel": "B"
      },
      "type": "Feature"
    },
    {
      "geometry": {
        "coordinates": [
          -60.274717,
          -45.158467
        ],
        "type": "Point"
      },
      "properties": {
        "kind": "meetingPoint",
        "observationStatus": "estimated"
      },
      "type": "Feature"
    },
    {
      "geometry": {
        "coordinates": [
          [
            [
              -61.812313,
              -44.379801
            ],
            [
              -61.912387,
              -44.490516
            ],
            [
              -61.996689,
              -44.607663
            ],
            [
              -62.064407,
              -44.730115
            ],
            [
              -62.11489,
              -44.856693
            ],
            [
              -62.147651,
              -44.986176
            ],
            [
              -62.162375,
              -45.117319
            ],
            [
              -62.158919,
              -45.248858
            ],
            [
              -62.137318,
              -45.379526
            ],
            [
              -62.097779,
              -45.508066
            ],
            [
              -62.040682,
              -45.633239
            ],
            [
              -61.966579,
              -45.753839
            ],
            [
              -61.876182,
              -45.868706
            ],
            [
              -61.770361,
              -45.976733
            ],
            [
              -61.650137,
              -46.076879
            ],
            [
              -61.516667,
              -46.168181
            ],
            [
              -61.371237,
              -46.249758
            ],
            [
              -61.215246,
              -46.320826
            ],
            [
              -61.050197,
              -46.380699
            ],
            [
              -60.87768,
              -46.428802
            ],
            [
              -60.699356,
              -46.464671
            ],
            [
              -60.516943,
              -46.48796
            ],
            [
              -60.332197,
              -46.498446
            ],
            [
              -60.146897,
              -46.496026
            ],
            [
              -59.962829,
              -46.480726
            ],
            [
              -59.781764,
              -46.452691
            ],
            [
              -59.605446,
              -46.412192
            ],
            [
              -59.435574,
              -46.359619
            ],
            [
              -59.273783,
              -46.295479
            ],
            [
              -59.121632,
              -46.220388
            ],
            [
              -58.980585,
              -46.135071
            ],
            [
              -58.852002,
              -46.040348
            ],
            [
              -58.73712,
              -45.937132
            ],
            [
              -58.637047,
              -45.826417
            ],
            [
              -58.552745,
              -45.70927
            ],
            [
              -58.485026,
              -45.586818
            ],
            [
              -58.434543,
              -45.460241
            ],
            [
              -58.401782,
              -45.330757
            ],
            [
              -58.387058,
              -45.199614
            ],
            [
              -58.390514,
              -45.068075
            ],
            [
              -58.412115,
              -44.937407
            ],
            [
              -58.451655,
              -44.808867
            ],
            [
              -58.508751,
              -44.683694
            ],
            [
              -58.582855,
              -44.563094
            ],
            [
              -58.673252,
              -44.448227
            ],
            [
              -58.779072,
              -44.340201
            ],
            [
              -58.899296,
              -44.240054
            ],
            [
              -59.032766,
              -44.148753
            ],
            [
              -59.178197,
              -44.067175
            ],
            [
              -59.334188,
              -43.996108
            ],
            [
              -59.499236,
              -43.936234
            ],
            [
              -59.671753,
              -43.888131
            ],
            [
              -59.850077,
              -43.852263
            ],
            [
              -60.03249,
              -43.828973
            ],
            [
              -60.217236,
              -43.818488
            ],
            [
              -60.402536,
              -43.820907
            ],
            [
              -60.586605,
              -43.836208
            ],
            [
              -60.76767,
              -43.864242
            ],
            [
              -60.943987,
              -43.904741
            ],
            [
              -61.11386,
              -43.957314
            ],
            [
              -61.27565,
              -44.021454
            ],
            [
              -61.427802,
              -44.096545
            ],
            [
              -61.568848,
              -44.181863
            ],
            [
              -61.697431,
              -44.276585
            ],
            [
              -61.812313,
              -44.379801
            ]
          ]
        ],
        "type": "Polygon"
      },
      "properties": {
        "kind": "reachableSet",
        "observationStatus": "estimated",
        "vessel": "A"
      },
      "type": "Feature"
    },
    {
      "geometry": {
        "coordinates": [
          [
            [
              -59.53577,
              -43.86816
            ],
            [
              -59.7167,
              -43.82354
            ],
            [
              -59.902918,
              -43.791726
            ],
            [
              -60.092632,
              -43.773025
            ],
            [
              -60.284014,
              -43.767617
            ],
            [
              -60.475222,
              -43.775554
            ],
            [
              -60.664414,
              -43.79676
            ],
            [
              -60.849768,
              -43.83103
            ],
            [
              -61.029499,
              -43.878034
            ],
            [
              -61.201876,
              -43.93732
            ],
            [
              -61.365238,
              -44.008316
            ],
            [
              -61.518014,
              -44.09034
            ],
            [
              -61.658731,
              -44.1826
            ],
            [
              -61.786033,
              -44.284209
            ],
            [
              -61.898697,
              -44.394188
            ],
            [
              -61.995635,
              -44.511478
            ],
            [
              -62.075915,
              -44.634949
            ],
            [
              -62.138763,
              -44.763412
            ],
            [
              -62.183575,
              -44.89563
            ],
            [
              -62.209918,
              -45.030329
            ],
            [
              -62.217539,
              -45.166213
            ],
            [
              -62.206364,
              -45.301973
            ],
            [
              -62.176502,
              -45.436301
            ],
            [
              -62.12824,
              -45.567904
            ],
            [
              -62.062042,
              -45.695514
            ],
            [
              -61.978546,
              -45.817902
            ],
            [
              -61.878556,
              -45.93389
            ],
            [
              -61.763036,
              -46.042361
            ],
            [
              -61.633097,
              -46.142269
            ],
            [
              -61.489991,
              -46.232654
            ],
            [
              -61.335096,
              -46.312643
            ],
            [
              -61.169904,
              -46.381468
            ],
            [
              -60.996006,
              -46.438465
            ],
            [
              -60.815077,
              -46.483085
            ],
            [
              -60.628859,
              -46.514899
            ],
            [
              -60.439145,
              -46.5336
            ],
            [
              -60.247762,
              -46.539008
            ],
            [
              -60.056554,
              -46.531071
            ],
            [
              -59.867363,
              -46.509865
            ],
            [
              -59.682009,
              -46.475595
            ],
            [
              -59.502278,
              -46.428591
            ],
            [
              -59.329901,
              -46.369305
            ],
            [
              -59.166538,
              -46.298309
            ],
            [
              -59.013763,
              -46.216285
            ],
            [
              -58.873046,
              -46.124025
            ],
            [
              -58.745743,
              -46.022416
            ],
            [
              -58.63308,
              -45.912437
            ],
            [
              -58.536142,
              -45.795147
            ],
            [
              -58.455862,
              -45.671676
            ],
            [
              -58.393014,
              -45.543213
            ],
            [
              -58.348202,
              -45.410995
            ],
            [
              -58.321859,
              -45.276296
            ],
            [
              -58.314238,
              -45.140412
            ],
            [
              -58.325412,
              -45.004652
            ],
            [
              -58.355275,
              -44.870324
            ],
            [
              -58.403537,
              -44.738721
            ],
            [
              -58.469735,
              -44.611111
            ],
            [
              -58.553231,
              -44.488723
            ],
            [
              -58.653221,
              -44.372735
            ],
            [
              -58.768741,
              -44.264264
            ],
            [
              -58.89868,
              -44.164356
            ],
            [
              -59.041786,
              -44.073971
            ],
            [
              -59.196681,
              -43.993982
            ],
            [
              -59.361872,
              -43.925157
            ],
            [
              -59.53577,
              -43.86816
            ]
          ]
        ],
        "type": "Polygon"
      },
      "properties": {
        "kind": "reachableSet",
        "observationStatus": "estimated",
        "vessel": "B"
      },
      "type": "Feature"
    }
  ],
  "properties": {
    "dateline": false
  },
  "type": "FeatureCollection"
}
