{
  "features": [
    {
      "geometry": {
        "coordinates": [
          -97.788833,
          -2.459733
        ],
        "type": "Point"
      },
      "properties": {
        "mmsi": "412421016",
        "observationStatus": "observed",
        "role": "off",
        "time": "2018-07-17T09:57:31Z",
        "vessel": "A"
      },
      "type": "Feature"
    },
    {
      "geometry": {
        "coordinates": [
          -97.769072,
          -2.497173
        ],
        "type": "Point"
      },
      "properties": {
        "mmsi": "412420987",
        "observationStatus": "observed",
        "role": "off",
        "time": "2018-07-17T10:55:51Z",
        "vessel": "B"
      },
      "type": "Feature"
    },
    {
      "geometry": {
        "coordinates": [
          -97.707167,
          -2.681433
        ],
        "type": "Point"
      },
      "properties": {
        "mmsi": "412421016",
        "observationStatus": "observed",
        "role": "on",
        "time": "2018-07-18T01:36:44Z",
        "vessel": "A"
      },
      "type": "Feature"
    },
    {
      "geometry": {
        "coordinates": [
          -97.655267,
          -2.666933
        ],
        "type": "Point"
      },
      "properties": {
        "mmsi": "412420987",
        "observationStatus": "observed",
        "role": "on",
        "time": "2018-07-18T01:37:51Z",
        "vessel": "B"
      },
      "type": "Feature"
    },
    {
      "geometry": {
        "coordinates": [
          [
            -97.788833,
            -2.459733
          ],
          [
            -97.734366,
            -2.549329
          ],
          [
            -97.707167,
            -2.681433
          ]
        ],
        "type": "LineString"
      },
      "properties": {
        "confidence": "low",
        "lineStyle": "dashed",
        "observationStatus": "estimated",
        "source": "reachable-set heuristic",
        "vessel": "A"
      },
      "type": "Feature"
    },
    {
      "geometry": {
        "coordinates": [
          [
            -97.769072,
            -2.497173
          ],
          [
            -97.734366,
            -2.549329
          ],
          [
            -97.655267,
            -2.666933
          ]
        ],
        "type": "LineString"
      },
      "properties": {
        "confidence": "low",
        "lineStyle": "dashed",
        "observationStatus": "estimated",
        "source": "reachable-set heuristic",
        "vessel": "B"
      },
      "type": "Feature"
    },
    {
      "geometry": {
        "coordinates": [
          -97.734366,
          -2.549329
        ],
        "type": "Point"
      },
      "properties": {
        "kind": "meetingPoint",
        "observationStatus": "estimated"
      },
      "type": "Feature"
    },
    {
      "geometry": {
        "coordinates": [
          [
            [
              -97.239316,
              -3.951505
            ],
            [
              -97.107622,
              -3.89487
            ],
            [
              -96.982096,
              -3.825481
            ],
            [
              -96.863945,
              -3.744007
            ],
            [
              -96.754309,
              -3.651232
            ],
            [
              -96.654242,
              -3.54805
            ],
            [
              -96.564709,
              -3.435455
            ],
            [
              -96.486571,
              -3.31453
            ],
            [
              -96.420582,
              -3.18644
            ],
            [
              -96.367376,
              -3.05242
            ],
            [
              -96.327467,
              -2.913759
            ],
            [
              -96.301238,
              -2.771794
            ],
            [
              -96.288942,
              -2.62789
            ],
            [
              -96.290698,
              -2.483435
            ],
            [
              -96.306489,
              -2.339819
            ],
            [
              -96.336162,
              -2.198425
            ],
            [
              -96.379431,
              -2.060615
            ],
            [
              -96.435881,
              -1.927717
            ],
            [
              -96.504967,
              -1.80101
            ],
            [
              -96.586025,
              -1.681714
            ],
            [
              -96.678272,
              -1.570978
            ],
            [
              -96.780822,
              -1.46987
            ],
            [
              -96.892686,
              -1.379361
            ],
            [
              -97.012788,
              -1.300325
            ],
            [
              -97.13997,
              -1.233522
            ],
            [
              -97.273007,
              -1.179596
            ],
            [
              -97.410619,
              -1.139066
            ],
            [
              -97.55148,
              -1.112322
            ],
            [
              -97.694234,
              -1.099622
            ],
            [
              -97.837506,
              -1.101088
            ],
            [
              -97.979915,
              -1.116706
            ],
            [
              -98.120091,
              -1.146326
            ],
            [
              -98.256684,
              -1.189662
            ],
            [
              -98.388378,
              -1.246297
            ],
            [
              -98.513904,
              -1.315686
            ],
            [
              -98.632055,
              -1.39716
            ],
            [
              -98.741691,
              -1.489935
            ],
            [
              -98.841758,
              -1.593117
            ],
            [
              -98.931291,
              -1.705712
            ],
            [
              -99.009429,
              -1.826637
            ],
            [
              -99.075418,
              -1.954726
            ],
            [
              -99.128624,
              -2.088747
            ],
            [
              -99.168533,
              -2.227407
            ],
            [
              -99.194762,
              -2.369373
            ],
            [
              -99.207058,
              -2.513277
            ],
            [
              -99.205302,
              -2.657732
            ],
            [
              -99.189511,
              -2.801348
            ],
            [
              -99.159838,
              -2.942742
            ],
            [
              -99.116569,
              -3.080551
            ],
            [
              -99.060119,
              -3.21345
            ],
            [
              -98.991033,
              -3.340157
            ],
            [
              -98.909975,
              -3.459453
            ],
            [
              -98.817728,
              -3.570188
            ],
            [
              -98.715178,
              -3.671297
            ],
            [
              -98.603314,
              -3.761805
            ],
            [
              -98.483212,
              -3.840841
            ],
            [
              -98.35603,
              -3.907644
            ],
            [
              -98.222993,
              -3.96157
            ],
            [
              -98.085381,
              -4.002101
            ],
            [
              -97.94452,
              -4.028845
            ],
            [
              -97.801766,
              -4.041545
            ],
            [
              -97.658494,
              -4.040079
            ],
            [
              -97.516085,
              -4.024461
            ],
            [
              -97.375909,
              -3.994841
            ],
            [
              -97.239316,
              -3.951505
            ]
          ]
        ],
        "type": "Polygon"
      },
      "properties": {
        "kind": "reachableSet",
        "observationStatus": "estimated",
        "vessel": "A"
      },
      "type": "Feature"
    },
    {
      "geometry": {
        "coordinates": [
          [
            [
              -96.946876,
              -3.723621
            ],
            [
              -96.839617,
              -3.642889
            ],
            [
              -96.740761,
              -3.551941
            ],
            [
              -96.65126,
              -3.451652
            ],
            [
              -96.571976,
              -3.342988
            ],
            [
              -96.503673,
              -3.226996
            ],
            [
              -96.447008,
              -3.104793
            ],
            [
              -96.402528,
              -2.977555
            ],
            [
              -96.37066,
              -2.846509
            ],
            [
              -96.351712,
              -2.712916
            ],
            [
              -96.345865,
              -2.578062
            ],
            [
              -96.353177,
              -2.443247
            ],
            [
              -96.373576,
              -2.309769
            ],
            [
              -96.406868,
              -2.178913
            ],
            [
              -96.452729,
              -2.05194
            ],
            [
              -96.51072,
              -1.930071
            ],
            [
              -96.580282,
              -1.814482
            ],
            [
              -96.660744,
              -1.706285
            ],
            [
              -96.751332,
              -1.606522
            ],
            [
              -96.851173,
              -1.516154
            ],
            [
              -96.959306,
              -1.436051
            ],
            [
              -97.07469,
              -1.366984
            ],
            [
              -97.196213,
              -1.30962
            ],
            [
              -97.322705,
              -1.26451
            ],
            [
              -97.452948,
              -1.232088
            ],
            [
              -97.585687,
              -1.212667
            ],
            [
              -97.719644,
              -1.206434
            ],
            [
              -97.853529,
              -1.21345
            ],
            [
              -97.986053,
              -1.233645
            ],
            [
              -98.115939,
              -1.266827
            ],
            [
              -98.241937,
              -1.312674
            ],
            [
              -98.362833,
              -1.370747
            ],
            [
              -98.477462,
              -1.440485
            ],
            [
              -98.584722,
              -1.521217
            ],
            [
              -98.683578,
              -1.612166
            ],
            [
              -98.773079,
              -1.712455
            ],
            [
              -98.852362,
              -1.821119
            ],
            [
              -98.920665,
              -1.937111
            ],
            [
              -98.97733,
              -2.059314
            ],
            [
              -99.021811,
              -2.186551
            ],
            [
              -99.053678,
              -2.317598
            ],
            [
              -99.072627,
              -2.451191
            ],
            [
              -99.078473,
              -2.586044
            ],
            [
              -99.071161,
              -2.720859
            ],
            [
              -99.050762,
              -2.854338
            ],
            [
              -99.017471,
              -2.985194
            ],
            [
              -98.971609,
              -3.112167
            ],
            [
              -98.913618,
              -3.234035
            ],
            [
              -98.844057,
              -3.349625
            ],
            [
              -98.763594,
              -3.457822
            ],
            [
              -98.673006,
              -3.557585
            ],
            [
              -98.573165,
              -3.647953
            ],
            [
              -98.465032,
              -3.728056
            ],
            [
              -98.349648,
              -3.797122
            ],
            [
              -98.228125,
              -3.854487
            ],
            [
              -98.101633,
              -3.899597
            ],
            [
              -97.971391,
              -3.932019
            ],
            [
              -97.838651,
              -3.951439
            ],
            [
              -97.704694,
              -3.957672
            ],
            [
              -97.570809,
              -3.950657
            ],
            [
              -97.438285,
              -3.930462
            ],
            [
              -97.308399,
              -3.89728
            ],
            [
              -97.182401,
              -3.851432
            ],
            [
              -97.061506,
              -3.79336
            ],
            [
              -96.946876,
              -3.723621
            ]
          ]
        ],
        "type": "Polygon"
      },
      "properties": {
        "kind": "reachableSet",
        "observationStatus": "estimated",
        "vessel": "B"
      },
      "type": "Feature"
    }
  ],
  "properties": {
    "dateline": false
  },
  "type": "FeatureCollection"
}
