{
  "features": [
    {
      "geometry": {
        "coordinates": [
          -60.51768,
          -45.91448
        ],
        "type": "Point"
      },
      "properties": {
        "mmsi": "412329689",
        "observationStatus": "observed",
        "role": "off",
        "time": "2017-12-24T06:46:03Z",
        "vessel": "A"
      },
      "type": "Feature"
    },
    {
      "geometry": {
        "coordinates": [
          -60.489202,
          -45.93917
        ],
        "type": "Point"
      },
      "properties": {
        "mmsi": "412329684",
        "observationStatus": "observed",
        "role": "off",
        "time": "2017-12-24T07:05:00Z",
        "vessel": "B"
      },
      "type": "Feature"
    },
    {
      "geometry": {
        "coordinates": [
          -60.619625,
          -45.953658
        ],
        "type": "Point"
      },
      "properties": {
        "mmsi": "412329684",
        "observationStatus": "observed",
        "role": "on",
        "time": "2017-12-25T00:22:35Z",
        "vessel": "B"
      },
      "type": "Feature"
    },
    {
      "geometry": {
        "coordinates": [
          -60.657113,
          -45.925103
        ],
        "type": "Point"
      },
      "properties": {
        "mmsi": "412329689",
        "observationStatus": "observed",
        "role": "on",
        "time": "2017-12-25T00:55:06Z",
        "vessel": "A"
      },
      "type": "Feature"
    },
    {
      "geometry": {
        "coordinates": [
          [
            -60.51768,
            -45.91448
          ],
          [
            -60.526106,
            -45.943451
          ],
          [
            -60.657113,
            -45.925103
          ]
        ],
        "type": "LineString"
      },
      "properties": {
        "confidence": "low",
        "lineStyle": "dashed",
        "observationStatus": "estimated",
        "source": "reachable-set heuristic",
        "vessel": "A"
      },
      "type": "Feature"
    },
    {
      "geometry": {
        "coordinates": [
          [
            -60.489202,
            -45.93917
          ],
          [
            -60.526106,
            -45.943451
          ],
          [
            -60.619625,
            -45.953658
          ]
        ],
        "type": "LineString"
      },
      "properties": {
        "confidence": "low",
        "lineStyle": "dashed",
        "observationStatus": "estimated",
        "source": "reachable-set heuristic",
        "vessel": "B"
      },
      "type": "Feature"
    },
    {
      "geometry": {
        "coordinates": [
          -60.526106,
          -45.943451
        ],
        "type": "Point"
      },
      "properties": {
        "kind": "meetingPoint",
        "observationStatus": "estimated"
      },
      "type": "Feature"
    },
    {
      "geometry": {
        "coordinates": [
          [
            [
              -63.237799,
              -46.121724
            ],
            [
              -63.196787,
              -46.302638
            ],
            [
              -63.130644,
              -46.479864
            ],
            [
              -63.040009,
              -46.651697
            ],
            [
              -62.925753,
              -46.816482
            ],
            [
              -62.788978,
              -46.97263
            ],
            [
              -62.631001,
              -47.118639
            ],
            [
              -62.453343,
              -47.253103
            ],
            [
              -62.257714,
              -47.374726
            ],
            [
              -62.045999,
              -47.482338
            ],
            [
              -61.820238,
              -47.574901
            ],
            [
              -61.582603,
              -47.651524
            ],
            [
              -61.335384,
              -47.71147
            ],
            [
              -61.080961,
              -47.754161
            ],
            [
              -60.821785,
              -47.779187
            ],
            [
              -60.560352,
              -47.786305
            ],
            [
              -60.299179,
              -47.775447
            ],
            [
              -60.040782,
              -47.746719
            ],
            [
              -59.78765,
              -47.700396
            ],
            [
              -59.542219,
              -47.636926
            ],
            [
              -59.306854,
              -47.556918
            ],
            [
              -59.083821,
              -47.461144
            ],
            [
              -58.875268,
              -47.350525
            ],
            [
              -58.683204,
              -47.226128
            ],
            [
              -58.509479,
              -47.089151
            ],
            [
              -58.355765,
              -46.940911
            ],
            [
              -58.223542,
              -46.782838
            ],
            [
              -58.114086,
              -46.616453
            ],
            [
              -58.028448,
              -46.443359
            ],
            [
              -57.967454,
              -46.265223
            ],
            [
              -57.931692,
              -46.08376
            ],
            [
              -57.921506,
              -45.900718
            ],
            [
              -57.936994,
              -45.717859
            ],
            [
              -57.978007,
              -45.536946
            ],
            [
              -58.044149,
              -45.359719
            ],
            [
              -58.134784,
              -45.187886
            ],
            [
              -58.24904,
              -45.023102
            ],
            [
              -58.385815,
              -44.866953
            ],
            [
              -58.543792,
              -44.720944
            ],
            [
              -58.721451,
              -44.58648
            ],
            [
              -58.917079,
              -44.464857
            ],
            [
              -59.128794,
              -44.357246
            ],
            [
              -59.354556,
              -44.264683
            ],
            [
              -59.59219,
              -44.188059
            ],
            [
              -59.839409,
              -44.128113
            ],
            [
              -60.093832,
              -44.085422
            ],
            [
              -60.353008,
              -44.060397
            ],
            [
              -60.614441,
              -44.053279
            ],
            [
              -60.875614,
              -44.064136
            ],
            [
              -61.134011,
              -44.092864
            ],
            [
              -61.387144,
              -44.139187
            ],
            [
              -61.632575,
              -44.202658
            ],
            [
              -61.86794,
              -44.282665
            ],
            [
              -62.090973,
              -44.37844
            ],
            [
              -62.299525,
              -44.489058
            ],
            [
              -62.491589,
              -44.613455
            ],
            [
              -62.665315,
              -44.750433
            ],
            [
              -62.819029,
              -44.898672
            ],
            [
              -62.951251,
              -45.056745
            ],
            [
              -63.060708,
              -45.22313
            ],
            [
              -63.146345,
              -45.396224
            ],
            [
              -63.207339,
              -45.574361
            ],
            [
              -63.243101,
              -45.755824
            ],
            [
              -63.253287,
              -45.938866
            ],
            [
              -63.237799,
              -46.121724
            ]
          ]
        ],
        "type": "Polygon"
      },
      "properties": {
        "kind": "reachableSet",
        "observationStatus": "estimated",
        "vessel": "A"
      },
      "type": "Feature"
    },
    {
      "geometry": {
        "coordinates": [
          [
            [
              -63.057016,
              -46.224421
            ],
            [
              -63.006054,
              -46.394744
            ],
            [
              -62.93148,
              -46.560749
            ],
            [
              -62.834015,
              -46.720839
            ],
            [
              -62.714595,
              -46.87347
            ],
            [
              -62.574372,
              -47.017173
            ],
            [
              -62.414695,
              -47.150564
            ],
            [
              -62.237103,
              -47.272358
            ],
            [
              -62.043306,
              -47.381383
            ],
            [
              -61.83517,
              -47.476588
            ],
            [
              -61.614699,
              -47.557057
            ],
            [
              -61.384018,
              -47.622014
            ],
            [
              -61.145347,
              -47.670835
            ],
            [
              -60.900984,
              -47.703048
            ],
            [
              -60.653284,
              -47.718344
            ],
            [
              -60.404632,
              -47.716576
            ],
            [
              -60.157423,
              -47.69776
            ],
            [
              -59.914036,
              -47.662077
            ],
            [
              -59.676817,
              -47.609872
            ],
            [
              -59.44805,
              -47.541646
            ],
            [
              -59.229937,
              -47.458058
            ],
            [
              -59.02458,
              -47.359912
            ],
            [
              -58.833956,
              -47.248153
            ],
            [
              -58.659901,
              -47.123857
            ],
            [
              -58.504091,
              -46.988222
            ],
            [
              -58.368027,
              -46.842554
            ],
            [
              -58.253019,
              -46.688256
            ],
            [
              -58.160175,
              -46.526813
            ],
            [
              -58.090388,
              -46.35978
            ],
            [
              -58.044331,
              -46.188767
            ],
            [
              -58.022448,
              -46.01542
            ],
            [
              -58.024949,
              -45.841408
            ],
            [
              -58.05181,
              -45.668408
            ],
            [
              -58.102773,
              -45.498084
            ],
            [
              -58.177346,
              -45.332079
            ],
            [
              -58.274812,
              -45.17199
            ],
            [
              -58.394231,
              -45.019359
            ],
            [
              -58.534455,
              -44.875656
            ],
            [
              -58.694131,
              -44.742265
            ],
            [
              -58.871723,
              -44.62047
            ],
            [
              -59.065521,
              -44.511446
            ],
            [
              -59.273657,
              -44.41624
            ],
            [
              -59.494127,
              -44.335771
            ],
            [
              -59.724809,
              -44.270814
            ],
            [
              -59.96348,
              -44.221993
            ],
            [
              -60.207842,
              -44.18978
            ],
            [
              -60.455542,
              -44.174484
            ],
            [
              -60.704194,
              -44.176253
            ],
            [
              -60.951404,
              -44.195069
            ],
            [
              -61.19479,
              -44.230751
            ],
            [
              -61.432009,
              -44.282957
            ],
            [
              -61.660777,
              -44.351182
            ],
            [
              -61.878889,
              -44.43477
            ],
            [
              -62.084247,
              -44.532917
            ],
            [
              -62.274871,
              -44.644676
            ],
            [
              -62.448926,
              -44.768971
            ],
            [
              -62.604736,
              -44.904606
            ],
            [
              -62.7408,
              -45.050274
            ],
            [
              -62.855808,
              -45.204573
            ],
            [
              -62.948652,
              -45.366016
            ],
            [
              -63.018439,
              -45.533048
            ],
            [
              -63.064495,
              -45.704061
            ],
            [
              -63.086378,
              -45.877408
            ],
            [
              -63.083877,
              -46.05142
            ],
            [
              -63.057016,
              -46.224421
            ]
          ]
        ],
        "type": "Polygon"
      },
      "properties": {
        "kind": "reachableSet",
        "observationStatus": "estimated",
        "vessel": "B"
      },
      "type": "Feature"
    }
  ],
  "properties": {
    "dateline": false
  },
  "type": "FeatureCollection"
}
