{
  "features": [
    {
      "geometry": {
        "coordinates": [
          -60.633365,
          -46.10591
        ],
        "type": "Point"
      },
      "properties": {
        "mmsi": "412329689",
        "observationStatus": "observed",
        "role": "off",
        "time": "2017-10-30T08:13:06Z",
        "vessel": "A"
      },
      "type": "Feature"
    },
    {
      "geometry": {
        "coordinates": [
          -60.621383,
          -46.067187
        ],
        "type": "Point"
      },
      "properties": {
        "mmsi": "412329693",
        "observationStatus": "observed",
        "role": "off",
        "time": "2017-10-30T08:13:49Z",
        "vessel": "B"
      },
      "type": "Feature"
    },
    {
      "geometry": {
        "coordinates": [
          -60.67058,
          -45.915423
        ],
        "type": "Point"
      },
      "properties": {
        "mmsi": "412329693",
        "observationStatus": "observed",
        "role": "on",
        "time": "2017-10-30T22:40:41Z",
        "vessel": "B"
      },
      "type": "Feature"
    },
    {
      "geometry": {
        "coordinates": [
          -60.68044,
          -45.98895
        ],
        "type": "Point"
      },
      "properties": {
        "mmsi": "412329689",
        "observationStatus": "observed",
        "role": "on",
        "time": "2017-10-30T22:50:49Z",
        "vessel": "A"
      },
      "type": "Feature"
    },
    {
      "geometry": {
        "coordinates": [
          [
            -60.633365,
            -46.10591
          ],
          [
            -60.650912,
            -46.017274
          ],
          [
            -60.68044,
            -45.98895
          ]
        ],
        "type": "LineString"
      },
      "properties": {
        "confidence": "low",
        "lineStyle": "dashed",
        "observationStatus": "estimated",
        "source": "reachable-set heuristic",
        "vessel": "A"
      },
      "type": "Feature"
    },
    {
      "geometry": {
        "coordinates": [
          [
            -60.621383,
            -46.067187
          ],
          [
            -60.650912,
            -46.017274
          ],
          [
            -60.67058,
            -45.915423
          ]
        ],
        "type": "LineString"
      },
      "properties": {
        "confidence": "low",
        "lineStyle": "dashed",
        "observationStatus": "estimated",
        "source": "reachable-set heuristic",
        "vessel": "B"
      },
      "type": "Feature"
    },
    {
      "geometry": {
        "coordinates": [
          -60.650912,
          -46.017274
        ],
        "type": "Point"
      },
      "properties": {
        "kind": "meetingPoint",
        "observationStatus": "estimated"
      },
      "type": "Feature"
    },
    {
      "geometry": {
        "coordinates": [
          [
            [
              -61.231801,
              -44.619069
            ],
            [
              -61.429222,
              -44.66529
            ],
            [
              -61.619205,
              -44.724821
            ],
            [
              -61.799921,
              -44.79709
            ],
            [
              -61.969628,
              -44.8814
            ],
            [
              -62.126694,
              -44.97694
            ],
            [
              -62.269605,
              -45.082789
            ],
            [
              -62.396984,
              -45.197928
            ],
            [
              -62.507606,
              -45.321249
            ],
            [
              -62.600404,
              -45.451562
            ],
            [
              -62.674485,
              -45.587615
            ],
            [
              -62.729136,
              -45.728095
            ],
            [
              -62.76383,
              -45.871651
            ],
            [
              -62.778233,
              -46.0169
            ],
            [
              -62.772207,
              -46.162443
            ],
            [
              -62.745809,
              -46.306878
            ],
            [
              -62.699294,
              -46.448815
            ],
            [
              -62.633109,
              -46.586886
            ],
            [
              -62.547893,
              -46.719762
            ],
            [
              -62.444465,
              -46.846163
            ],
            [
              -62.323822,
              -46.964871
            ],
            [
              -62.187126,
              -47.074744
            ],
            [
              -62.035693,
              -47.174724
            ],
            [
              -61.870981,
              -47.263847
            ],
            [
              -61.694577,
              -47.341255
            ],
            [
              -61.50818,
              -47.406204
            ],
            [
              -61.313584,
              -47.458066
            ],
            [
              -61.112664,
              -47.496343
            ],
            [
              -60.907355,
              -47.520666
            ],
            [
              -60.699634,
              -47.530802
            ],
            [
              -60.491502,
              -47.526651
            ],
            [
              -60.284962,
              -47.508255
            ],
            [
              -60.082004,
              -47.475791
            ],
            [
              -59.884583,
              -47.42957
            ],
            [
              -59.6946,
              -47.370039
            ],
            [
              -59.513884,
              -47.29777
            ],
            [
              -59.344177,
              -47.21346
            ],
            [
              -59.187111,
              -47.11792
            ],
            [
              -59.0442,
              -47.012071
            ],
            [
              -58.916821,
              -46.896932
            ],
            [
              -58.806199,
              -46.773611
            ],
            [
              -58.713401,
              -46.643298
            ],
            [
              -58.63932,
              -46.507245
            ],
            [
              -58.584669,
              -46.366765
            ],
            [
              -58.549975,
              -46.223209
            ],
            [
              -58.535572,
              -46.07796
            ],
            [
              -58.541598,
              -45.932417
            ],
            [
              -58.567996,
              -45.787982
            ],
            [
              -58.614511,
              -45.646045
            ],
            [
              -58.680696,
              -45.507974
            ],
            [
              -58.765912,
              -45.375098
            ],
            [
              -58.86934,
              -45.248697
            ],
            [
              -58.989983,
              -45.129989
            ],
            [
              -59.126679,
              -45.020116
            ],
            [
              -59.278112,
              -44.920136
            ],
            [
              -59.442824,
              -44.831013
            ],
            [
              -59.619228,
              -44.753605
            ],
            [
              -59.805625,
              -44.688656
            ],
            [
              -60.000221,
              -44.636794
            ],
            [
              -60.201141,
              -44.598517
            ],
            [
              -60.40645,
              -44.574194
            ],
            [
              -60.614171,
              -44.564058
            ],
            [
              -60.822303,
              -44.568209
            ],
            [
              -61.028843,
              -44.586605
            ],
            [
              -61.231801,
              -44.619069
            ]
          ]
        ],
        "type": "Polygon"
      },
      "properties": {
        "kind": "reachableSet",
        "observationStatus": "estimated",
        "vessel": "A"
      },
      "type": "Feature"
    },
    {
      "geometry": {
        "coordinates": [
          [
            [
              -61.108841,
              -44.563462
            ],
            [
              -61.306411,
              -44.602027
            ],
            [
              -61.497621,
              -44.653971
            ],
            [
              -61.680629,
              -44.718794
            ],
            [
              -61.853673,
              -44.795873
            ],
            [
              -62.015086,
              -44.884464
            ],
            [
              -62.163314,
              -44.983715
            ],
            [
              -62.296929,
              -45.092669
            ],
            [
              -62.414644,
              -45.210278
            ],
            [
              -62.515327,
              -45.335408
            ],
            [
              -62.598006,
              -45.466855
            ],
            [
              -62.661887,
              -45.603353
            ],
            [
              -62.706353,
              -45.743587
            ],
            [
              -62.730977,
              -45.886206
            ],
            [
              -62.735521,
              -46.029838
            ],
            [
              -62.719942,
              -46.173099
            ],
            [
              -62.684389,
              -46.314609
            ],
            [
              -62.629205,
              -46.453005
            ],
            [
              -62.554922,
              -46.586955
            ],
            [
              -62.462255,
              -46.715168
            ],
            [
              -62.352096,
              -46.836411
            ],
            [
              -62.225506,
              -46.949514
            ],
            [
              -62.083704,
              -47.053389
            ],
            [
              -61.928057,
              -47.147036
            ],
            [
              -61.760062,
              -47.229553
            ],
            [
              -61.581338,
              -47.300144
            ],
            [
              -61.393606,
              -47.358131
            ],
            [
              -61.198674,
              -47.402955
            ],
            [
              -60.99842,
              -47.434183
            ],
            [
              -60.794771,
              -47.451516
            ],
            [
              -60.589689,
              -47.454786
            ],
            [
              -60.38515,
              -47.443962
            ],
            [
              -60.183122,
              -47.419148
            ],
            [
              -59.985552,
              -47.380583
            ],
            [
              -59.794342,
              -47.328639
            ],
            [
              -59.611334,
              -47.263816
            ],
            [
              -59.43829,
              -47.186737
            ],
            [
              -59.276877,
              -47.098146
            ],
            [
              -59.12865,
              -46.998895
            ],
            [
              -58.995034,
              -46.889941
            ],
            [
              -58.877319,
              -46.772332
            ],
            [
              -58.776637,
              -46.647202
            ],
            [
              -58.693957,
              -46.515755
            ],
            [
              -58.630076,
              -46.379257
            ],
            [
              -58.58561,
              -46.239023
            ],
            [
              -58.560987,
              -46.096404
            ],
            [
              -58.556442,
              -45.952772
            ],
            [
              -58.572022,
              -45.809511
            ],
            [
              -58.607574,
              -45.668001
            ],
            [
              -58.662758,
              -45.529605
            ],
            [
              -58.737041,
              -45.395655
            ],
            [
              -58.829709,
              -45.267442
            ],
            [
              -58.939868,
              -45.146199
            ],
            [
              -59.066458,
              -45.033096
            ],
            [
              -59.208259,
              -44.929221
            ],
            [
              -59.363907,
              -44.835574
            ],
            [
              -59.531901,
              -44.753057
            ],
            [
              -59.710625,
              -44.682466
            ],
            [
              -59.898357,
              -44.624479
            ],
            [
              -60.093289,
              -44.579655
            ],
            [
              -60.293544,
              -44.548427
            ],
            [
              -60.497192,
              -44.531094
            ],
            [
              -60.702274,
              -44.527824
            ],
            [
              -60.906814,
              -44.538648
            ],
            [
              -61.108841,
              -44.563462
            ]
          ]
        ],
        "type": "Polygon"
      },
      "properties": {
        "kind": "reachableSet",
        "observationStatus": "estimated",
        "vessel": "B"
      },
      "type": "Feature"
    }
  ],
  "properties": {
    "dateline": false
  },
  "type": "FeatureCollection"
}
