{
  "features": [
    {
      "geometry": {
        "coordinates": [
          160.85646,
          42.006798
        ],
        "type": "Point"
      },
      "properties": {
        "mmsi": "416005531",
        "observationStatus": "observed",
        "role": "off",
        "time": "2019-09-06T01:52:11Z",
        "vessel": "A"
      },
      "type": "Feature"
    },
    {
      "geometry": {
        "coordinates": [
          160.80922,
          41.991492
        ],
        "type": "Point"
      },
      "properties": {
        "mmsi": "416180600",
        "observationStatus": "observed",
        "role": "off",
        "time": "2019-09-06T02:04:20Z",
        "vessel": "B"
      },
      "type": "Feature"
    },
    {
      "geometry": {
        "coordinates": [
          161.652053,
          41.498667
        ],
        "type": "Point"
      },
      "properties": {
        "mmsi": "416180600",
        "observationStatus": "observed",
        "role": "on",
        "time": "2019-09-06T18:11:37Z",
        "vessel": "B"
      },
      "type": "Feature"
    },
    {
      "geometry": {
        "coordinates": [
          161.64816,
          41.531013
        ],
        "type": "Point"
      },
      "properties": {
        "mmsi": "416005531",
        "observationStatus": "observed",
        "role": "on",
        "time": "2019-09-06T18:12:18Z",
        "vessel": "A"
      },
      "type": "Feature"
    },
    {
      "geometry": {
        "coordinates": [
          [
            160.85646,
            42.006798
          ],
          [
            161.444424,
            41.619566
          ],
          [
            161.64816,
            41.531013
          ]
        ],
        "type": "LineString"
      },
      "properties": {
        "confidence": "low",
        "lineStyle": "dashed",
        "observationStatus": "estimated",
        "source": "reachable-set heuristic",
        "vessel": "A"
      },
      "type": "Feature"
    },
    {
      "geometry": {
        "coordinates": [
          [
            160.80922,
            41.991492
          ],
          [
            161.444424,
            41.619566
          ],
          [
            161.652053,
            41.498667
          ]
        ],
        "type": "LineString"
      },
      "properties": {
        "confidence": "low",
        "lineStyle": "dashed",
        "observationStatus": "estimated",
        "source": "reachable-set heuristic",
        "vessel": "B"
      },
      "type": "Feature"
    },
    {
      "geometry": {
        "coordinates": [
          161.444424,
          41.619566
        ],
        "type": "Point"
      },
      "properties": {
        "kind": "meetingPoint",
        "observationStatus": "estimated"
      },
      "type": "Feature"
    },
    {
      "geometry": {
        "coordinates": [
          [
            [
              162.854722,
              40.80591
            ],
            [
              162.968813,
              40.924831
            ],
            [
              163.066374,
              41.05188
            ],
            [
              163.146464,
              41.185835
            ],
            [
              163.208312,
              41.325405
            ],
            [
              163.251322,
              41.469246
            ],
            [
              163.275082,
              41.615973
            ],
            [
              163.27936,
              41.764173
            ],
            [
              163.264118,
              41.912419
            ],
            [
              163.2295,
              42.059282
            ],
            [
              163.175841,
              42.203349
            ],
            [
              163.103657,
              42.343232
            ],
            [
              163.013644,
              42.477584
            ],
            [
              162.906668,
              42.605111
            ],
            [
              162.78376,
              42.724585
            ],
            [
              162.646103,
              42.834855
            ],
            [
              162.495024,
              42.934859
            ],
            [
              162.331976,
              43.023635
            ],
            [
              162.15853,
              43.100327
            ],
            [
              161.976357,
              43.164197
            ],
            [
              161.787211,
              43.214629
            ],
            [
              161.592914,
              43.251138
            ],
            [
              161.395336,
              43.273373
            ],
            [
              161.196381,
              43.281118
            ],
            [
              160.997965,
              43.2743
            ],
            [
              160.801998,
              43.252985
            ],
            [
              160.610368,
              43.217377
            ],
            [
              160.42492,
              43.167819
            ],
            [
              160.24744,
              43.104789
            ],
            [
              160.079638,
              43.028894
            ],
            [
              159.923129,
              42.940864
            ],
            [
              159.779421,
              42.841548
            ],
            [
              159.649898,
              42.731902
            ],
            [
              159.535807,
              42.612981
            ],
            [
              159.438246,
              42.485932
            ],
            [
              159.358156,
              42.351977
            ],
            [
              159.296308,
              42.212407
            ],
            [
              159.253298,
              42.068565
            ],
            [
              159.229538,
              41.921838
            ],
            [
              159.22526,
              41.773638
            ],
            [
              159.240502,
              41.625393
            ],
            [
              159.27512,
              41.47853
            ],
            [
              159.328779,
              41.334463
            ],
            [
              159.400963,
              41.19458
            ],
            [
              159.490976,
              41.060228
            ],
            [
              159.597952,
              40.932701
            ],
            [
              159.72086,
              40.813227
            ],
            [
              159.858517,
              40.702957
            ],
            [
              160.009596,
              40.602952
            ],
            [
              160.172644,
              40.514177
            ],
            [
              160.34609,
              40.437485
            ],
            [
              160.528263,
              40.373615
            ],
            [
              160.717409,
              40.323183
            ],
            [
              160.911706,
              40.286674
            ],
            [
              161.109284,
              40.264439
            ],
            [
              161.308239,
              40.256694
            ],
            [
              161.506655,
              40.263511
            ],
            [
              161.702622,
              40.284827
            ],
            [
              161.894252,
              40.320435
            ],
            [
              162.0797,
              40.369993
            ],
            [
              162.25718,
              40.433023
            ],
            [
              162.424982,
              40.508918
            ],
            [
              162.581491,
              40.596948
            ],
            [
              162.725199,
              40.696264
            ],
            [
              162.854722,
              40.80591
            ]
          ]
        ],
        "type": "Polygon"
      },
      "properties": {
        "kind": "reachableSet",
        "observationStatus": "estimated",
        "vessel": "A"
      },
      "type": "Feature"
    },
    {
      "geometry": {
        "coordinates": [
          [
            [
              162.82704,
              40.811624
            ],
            [
              162.936834,
              40.929489
            ],
            [
              163.030197,
              41.05521
            ],
            [
              163.106228,
              41.187574
            ],
            [
              163.164197,
              41.325307
            ],
            [
              163.203545,
              41.467082
            ],
            [
              163.223893,
              41.611535
            ],
            [
              163.225044,
              41.757274
            ],
            [
              163.206988,
              41.902896
            ],
            [
              163.169899,
              42.046998
            ],
            [
              163.114134,
              42.188192
            ],
            [
              163.040229,
              42.325119
            ],
            [
              162.948897,
              42.456459
            ],
            [
              162.841018,
              42.580949
            ],
            [
              162.717629,
              42.697388
            ],
            [
              162.57992,
              42.804657
            ],
            [
              162.429217,
              42.901721
            ],
            [
              162.266971,
              42.987646
            ],
            [
              162.094744,
              43.061605
            ],
            [
              161.914195,
              43.122884
            ],
            [
              161.727064,
              43.170895
            ],
            [
              161.535151,
              43.205174
            ],
            [
              161.340306,
              43.225392
            ],
            [
              161.144405,
              43.231353
            ],
            [
              160.949334,
              43.223001
            ],
            [
              160.756972,
              43.200416
            ],
            [
              160.569172,
              43.163815
            ],
            [
              160.387742,
              43.113551
            ],
            [
              160.21443,
              43.050107
            ],
            [
              160.050904,
              42.974096
            ],
            [
              159.89874,
              42.886248
            ],
            [
              159.759402,
              42.78741
            ],
            [
              159.634234,
              42.678534
            ],
            [
              159.524439,
              42.560669
            ],
            [
              159.431077,
              42.434949
            ],
            [
              159.355045,
              42.302585
            ],
            [
              159.297076,
              42.164852
            ],
            [
              159.257728,
              42.023076
            ],
            [
              159.237381,
              41.878623
            ],
            [
              159.236229,
              41.732884
            ],
            [
              159.254285,
              41.587262
            ],
            [
              159.291374,
              41.443161
            ],
            [
              159.34714,
              41.301966
            ],
            [
              159.421044,
              41.16504
            ],
            [
              159.512376,
              41.033699
            ],
            [
              159.620255,
              40.90921
            ],
            [
              159.743644,
              40.79277
            ],
            [
              159.881353,
              40.685501
            ],
            [
              160.032056,
              40.588437
            ],
            [
              160.194303,
              40.502512
            ],
            [
              160.366529,
              40.428554
            ],
            [
              160.547078,
              40.367274
            ],
            [
              160.73421,
              40.319263
            ],
            [
              160.926122,
              40.284984
            ],
            [
              161.120967,
              40.264767
            ],
            [
              161.316869,
              40.258805
            ],
            [
              161.51194,
              40.267157
            ],
            [
              161.704301,
              40.289743
            ],
            [
              161.892102,
              40.326344
            ],
            [
              162.073531,
              40.376608
            ],
            [
              162.246844,
              40.440051
            ],
            [
              162.410369,
              40.516063
            ],
            [
              162.562534,
              40.60391
            ],
            [
              162.701871,
              40.702748
            ],
            [
              162.82704,
              40.811624
            ]
          ]
        ],
        "type": "Polygon"
      },
      "properties": {
        "kind": "reachableSet",
        "observationStatus": "estimated",
        "vessel": "B"
      },
      "type": "Feature"
    }
  ],
  "properties": {
    "dateline": false
  },
  "type": "FeatureCollection"
}
