{
  "features": [
    {
      "geometry": {
        "coordinates": [
          -60.542187,
          -45.610827
        ],
        "type": "Point"
      },
      "properties": {
        "mmsi": "412331069",
        "observationStatus": "observed",
        "role": "off",
        "time": "2018-02-06T07:33:02Z",
        "vessel": "A"
      },
      "type": "Feature"
    },
    {
      "geometry": {
        "coordinates": [
          -60.532907,
          -45.62089
        ],
        "type": "Point"
      },
      "properties": {
        "mmsi": "412331071",
        "observationStatus": "observed",
        "role": "off",
        "time": "2018-02-06T08:07:58Z",
        "vessel": "B"
      },
      "type": "Feature"
    },
    {
      "geometry": {
        "coordinates": [
          -60.485073,
          -45.310767
        ],
        "type": "Point"
      },
      "properties": {
        "mmsi": "412331071",
        "observationStatus": "observed",
        "role": "on",
        "time": "2018-02-06T22:11:20Z",
        "vessel": "B"
      },
      "type": "Feature"
    },
    {
      "geometry": {
        "coordinates": [
          -60.46942,
          -45.302483
        ],
        "type": "Point"
      },
      "properties": {
        "mmsi": "412331069",
        "observationStatus": "observed",
        "role": "on",
        "time": "2018-02-06T23:09:08Z",
        "vessel": "A"
      },
      "type": "Feature"
    },
    {
      "geometry": {
        "coordinates": [
          [
            -60.542187,
            -45.610827
          ],
          [
            -60.505803,
            -45.444557
          ],
          [
            -60.46942,
            -45.302483
          ]
        ],
        "type": "LineString"
      },
      "properties": {
        "confidence": "low",
        "lineStyle": "dashed",
        "observationStatus": "estimated",
        "source": "reachable-set heuristic",
        "vessel": "A"
      },
      "type": "Feature"
    },
    {
      "geometry": {
        "coordinates": [
          [
            -60.532907,
            -45.62089
          ],
          [
            -60.505803,
            -45.444557
          ],
          [
            -60.485073,
            -45.310767
          ]
        ],
        "type": "LineString"
      },
      "properties": {
        "confidence": "low",
        "lineStyle": "dashed",
        "observationStatus": "estimated",
        "source": "reachable-set heuristic",
        "vessel": "B"
      },
      "type": "Feature"
    },
    {
      "geometry": {
        "coordinates": [
          -60.505803,
          -45.444557
        ],
        "type": "Point"
      },
      "properties": {
        "kind": "meetingPoint",
        "observationStatus": "estimated"
      },
      "type": "Feature"
    },
    {
      "geometry": {
        "coordinates": [
          [
            [
              -60.164213,
              -44.009189
            ],
            [
              -60.365614,
              -43.992649
            ],
            [
              -60.568365,
              -43.990207
            ],
            [
              -60.770514,
              -44.001889
            ],
            [
              -60.970114,
              -44.02758
            ],
            [
              -61.165242,
              -44.067034
            ],
            [
              -61.354019,
              -44.119871
            ],
            [
              -61.534628,
              -44.185582
            ],
            [
              -61.705328,
              -44.263535
            ],
            [
              -61.864477,
              -44.352977
            ],
            [
              -62.01054,
              -44.453049
            ],
            [
              -62.142112,
              -44.562786
            ],
            [
              -62.257926,
              -44.681131
            ],
            [
              -62.356866,
              -44.806945
            ],
            [
              -62.437979,
              -44.939016
            ],
            [
              -62.500484,
              -45.076072
            ],
            [
              -62.543779,
              -45.216794
            ],
            [
              -62.567447,
              -45.359825
            ],
            [
              -62.571261,
              -45.503789
            ],
            [
              -62.555183,
              -45.647299
            ],
            [
              -62.519368,
              -45.788973
            ],
            [
              -62.464162,
              -45.927447
            ],
            [
              -62.390096,
              -46.061386
            ],
            [
              -62.297883,
              -46.189502
            ],
            [
              -62.188411,
              -46.31056
            ],
            [
              -62.062735,
              -46.423395
            ],
            [
              -61.922064,
              -46.526919
            ],
            [
              -61.767754,
              -46.620136
            ],
            [
              -61.601292,
              -46.702148
            ],
            [
              -61.424278,
              -46.772165
            ],
            [
              -61.23842,
              -46.829513
            ],
            [
              -61.045506,
              -46.87364
            ],
            [
              -60.847394,
              -46.904121
            ],
            [
              -60.645993,
              -46.920661
            ],
            [
              -60.443241,
              -46.923103
            ],
            [
              -60.241092,
              -46.911421
            ],
            [
              -60.041493,
              -46.88573
            ],
            [
              -59.846365,
              -46.846276
            ],
            [
              -59.657587,
              -46.793439
            ],
            [
              -59.476979,
              -46.727728
            ],
            [
              -59.306278,
              -46.649775
            ],
            [
              -59.14713,
              -46.560333
            ],
            [
              -59.001066,
              -46.460261
            ],
            [
              -58.869494,
              -46.350524
            ],
            [
              -58.753681,
              -46.232179
            ],
            [
              -58.654741,
              -46.106365
            ],
            [
              -58.573628,
              -45.974294
            ],
            [
              -58.511123,
              -45.837238
            ],
            [
              -58.467828,
              -45.696516
            ],
            [
              -58.44416,
              -45.553485
            ],
            [
              -58.440346,
              -45.409521
            ],
            [
              -58.456424,
              -45.266011
            ],
            [
              -58.492238,
              -45.124337
            ],
            [
              -58.547445,
              -44.985863
            ],
            [
              -58.621511,
              -44.851924
            ],
            [
              -58.713724,
              -44.723808
            ],
            [
              -58.823196,
              -44.60275
            ],
            [
              -58.948872,
              -44.489915
            ],
            [
              -59.089542,
              -44.386391
            ],
            [
              -59.243852,
              -44.293174
            ],
            [
              -59.410315,
              -44.211162
            ],
            [
              -59.587328,
              -44.141145
            ],
            [
              -59.773187,
              -44.083797
            ],
            [
              -59.966101,
              -44.03967
            ],
            [
              -60.164213,
              -44.009189
            ]
          ]
        ],
        "type": "Polygon"
      },
      "properties": {
        "kind": "reachableSet",
        "observationStatus": "estimated",
        "vessel": "A"
      },
      "type": "Feature"
    },
    {
      "geometry": {
        "coordinates": [
          [
            [
              -60.274269,
              -43.944037
            ],
            [
              -60.48555,
              -43.935204
            ],
            [
              -60.697056,
              -43.941113
            ],
            [
              -60.906751,
              -43.961705
            ],
            [
              -61.112615,
              -43.996783
            ],
            [
              -61.312666,
              -44.046008
            ],
            [
              -61.504978,
              -44.108907
            ],
            [
              -61.687697,
              -44.184874
            ],
            [
              -61.859065,
              -44.273177
            ],
            [
              -62.017431,
              -44.372966
            ],
            [
              -62.161269,
              -44.48328
            ],
            [
              -62.289196,
              -44.603057
            ],
            [
              -62.399978,
              -44.731142
            ],
            [
              -62.492548,
              -44.866303
            ],
            [
              -62.566016,
              -45.007238
            ],
            [
              -62.619674,
              -45.152589
            ],
            [
              -62.653005,
              -45.300957
            ],
            [
              -62.665687,
              -45.450912
            ],
            [
              -62.6576,
              -45.601011
            ],
            [
              -62.62882,
              -45.749809
            ],
            [
              -62.579625,
              -45.895871
            ],
            [
              -62.510489,
              -46.037792
            ],
            [
              -62.422077,
              -46.174205
            ],
            [
              -62.315241,
              -46.303795
            ],
            [
              -62.19101,
              -46.425316
            ],
            [
              -62.05058,
              -46.537596
            ],
            [
              -61.895304,
              -46.639554
            ],
            [
              -61.726677,
              -46.730209
            ],
            [
              -61.546323,
              -46.808687
            ],
            [
              -61.355978,
              -46.874232
            ],
            [
              -61.157477,
              -46.926214
            ],
            [
              -60.952731,
              -46.964132
            ],
            [
              -60.743711,
              -46.98762
            ],
            [
              -60.53243,
              -46.996452
            ],
            [
              -60.320924,
              -46.990544
            ],
            [
              -60.111229,
              -46.969952
            ],
            [
              -59.905365,
              -46.934874
            ],
            [
              -59.705314,
              -46.885649
            ],
            [
              -59.513002,
              -46.82275
            ],
            [
              -59.330283,
              -46.746783
            ],
            [
              -59.158915,
              -46.658479
            ],
            [
              -59.000549,
              -46.55869
            ],
            [
              -58.856711,
              -46.448376
            ],
            [
              -58.728784,
              -46.3286
            ],
            [
              -58.618002,
              -46.200514
            ],
            [
              -58.525432,
              -46.065353
            ],
            [
              -58.451964,
              -45.924419
            ],
            [
              -58.398306,
              -45.779068
            ],
            [
              -58.364975,
              -45.6307
            ],
            [
              -58.352293,
              -45.480744
            ],
            [
              -58.36038,
              -45.330645
            ],
            [
              -58.38916,
              -45.181848
            ],
            [
              -58.438355,
              -45.035786
            ],
            [
              -58.507491,
              -44.893865
            ],
            [
              -58.595903,
              -44.757452
            ],
            [
              -58.702739,
              -44.627862
            ],
            [
              -58.82697,
              -44.506341
            ],
            [
              -58.9674,
              -44.394061
            ],
            [
              -59.122676,
              -44.292103
            ],
            [
              -59.291303,
              -44.201448
            ],
            [
              -59.471657,
              -44.12297
            ],
            [
              -59.662002,
              -44.057424
            ],
            [
              -59.860503,
              -44.005442
            ],
            [
              -60.065249,
              -43.967525
            ],
            [
              -60.274269,
              -43.944037
            ]
          ]
        ],
        "type": "Polygon"
      },
      "properties": {
        "kind": "reachableSet",
        "observationStatus": "estimated",
        "vessel": "B"
      },
      "type": "Feature"
    }
  ],
  "properties": {
    "dateline": false
  },
  "type": "FeatureCollection"
}
