{
  "features": [
    {
      "geometry": {
        "coordinates": [
          151.955392,
          42.319923
        ],
        "type": "Point"
      },
      "properties": {
        "mmsi": "416004244",
        "observationStatus": "observed",
        "role": "off",
        "time": "2017-09-21T03:25:47Z",
        "vessel": "A"
      },
      "type": "Feature"
    },
    {
      "geometry": {
        "coordinates": [
          151.89439,
          42.29567
        ],
        "type": "Point"
      },
      "properties": {
        "mmsi": "416241700",
        "observationStatus": "observed",
        "role": "off",
        "time": "2017-09-21T03:26:10Z",
        "vessel": "B"
      },
      "type": "Feature"
    },
    {
      "geometry": {
        "coordinates": [
          152.434583,
          42.56182
        ],
        "type": "Point"
      },
      "properties": {
        "mmsi": "416004244",
        "observationStatus": "observed",
        "role": "on",
        "time": "2017-09-21T19:04:47Z",
        "vessel": "A"
      },
      "type": "Feature"
    },
    {
      "geometry": {
        "coordinates": [
          152.520453,
          42.56692
        ],
        "type": "Point"
      },
      "properties": {
        "mmsi": "416241700",
        "observationStatus": "observed",
        "role": "on",
        "time": "2017-09-21T19:39:05Z",
        "vessel": "B"
      },
      "type": "Feature"
    },
    {
      "geometry": {
        "coordinates": [
          [
            151.955392,
            42.319923
          ],
          [
            152.294726,
            42.493124
          ],
          [
            152.434583,
            42.56182
          ]
        ],
        "type": "LineString"
      },
      "properties": {
        "confidence": "low",
        "lineStyle": "dashed",
        "observationStatus": "estimated",
        "source": "reachable-set heuristic",
        "vessel": "A"
      },
      "type": "Feature"
    },
    {
      "geometry": {
        "coordinates": [
          [
            151.89439,
            42.29567
          ],
          [
            152.294726,
            42.493124
          ],
          [
            152.520453,
            42.56692
          ]
        ],
        "type": "LineString"
      },
      "properties": {
        "confidence": "low",
        "lineStyle": "dashed",
        "observationStatus": "estimated",
        "source": "reachable-set heuristic",
        "vessel": "B"
      },
      "type": "Feature"
    },
    {
      "geometry": {
        "coordinates": [
          152.294726,
          42.493124
        ],
        "type": "Point"
      },
      "properties": {
        "kind": "meetingPoint",
        "observationStatus": "estimated"
      },
      "type": "Feature"
    },
    {
      "geometry": {
        "coordinates": [
          [
            [
              153.834059,
              43.268277
            ],
            [
              153.718184,
              43.382376
            ],
            [
              153.58764,
              43.487407
            ],
            [
              153.443683,
              43.58236
            ],
            [
              153.287701,
              43.66632
            ],
            [
              153.121196,
              43.738477
            ],
            [
              152.945771,
              43.798139
            ],
            [
              152.763115,
              43.844729
            ],
            [
              152.574988,
              43.877799
            ],
            [
              152.383202,
              43.89703
            ],
            [
              152.189602,
              43.902238
            ],
            [
              151.996055,
              43.893373
            ],
            [
              151.804423,
              43.870518
            ],
            [
              151.616553,
              43.833896
            ],
            [
              151.434254,
              43.783858
            ],
            [
              151.25928,
              43.720886
            ],
            [
              151.093318,
              43.645588
            ],
            [
              150.937966,
              43.558687
            ],
            [
              150.79472,
              43.46102
            ],
            [
              150.664959,
              43.35353
            ],
            [
              150.549932,
              43.23725
            ],
            [
              150.450749,
              43.1133
            ],
            [
              150.368364,
              42.982874
            ],
            [
              150.30357,
              42.847229
            ],
            [
              150.256991,
              42.70767
            ],
            [
              150.229077,
              42.565542
            ],
            [
              150.220095,
              42.422213
            ],
            [
              150.230132,
              42.279064
            ],
            [
              150.259092,
              42.137473
            ],
            [
              150.306696,
              41.998804
            ],
            [
              150.372485,
              41.864393
            ],
            [
              150.455826,
              41.735533
            ],
            [
              150.555916,
              41.613466
            ],
            [
              150.671791,
              41.499367
            ],
            [
              150.802335,
              41.394336
            ],
            [
              150.946292,
              41.299383
            ],
            [
              151.102274,
              41.215424
            ],
            [
              151.268779,
              41.143266
            ],
            [
              151.444204,
              41.083605
            ],
            [
              151.62686,
              41.037015
            ],
            [
              151.814987,
              41.003945
            ],
            [
              152.006773,
              40.984713
            ],
            [
              152.200373,
              40.979505
            ],
            [
              152.39392,
              40.988371
            ],
            [
              152.585552,
              41.011225
            ],
            [
              152.773422,
              41.047847
            ],
            [
              152.955721,
              41.097885
            ],
            [
              153.130695,
              41.160857
            ],
            [
              153.296657,
              41.236156
            ],
            [
              153.452009,
              41.323057
            ],
            [
              153.595255,
              41.420723
            ],
            [
              153.725016,
              41.528214
            ],
            [
              153.840043,
              41.644494
            ],
            [
              153.939226,
              41.768443
            ],
            [
              154.021611,
              41.898869
            ],
            [
              154.086405,
              42.034514
            ],
            [
              154.132984,
              42.174073
            ],
            [
              154.160898,
              42.316201
            ],
            [
              154.16988,
              42.45953
            ],
            [
              154.159843,
              42.602679
            ],
            [
              154.130883,
              42.74427
            ],
            [
              154.083279,
              42.882939
            ],
            [
              154.01749,
              43.017351
            ],
            [
              153.934149,
              43.14621
            ],
            [
              153.834059,
              43.268277
            ]
          ]
        ],
        "type": "Polygon"
      },
      "properties": {
        "kind": "reachableSet",
        "observationStatus": "estimated",
        "vessel": "A"
      },
      "type": "Feature"
    },
    {
      "geometry": {
        "coordinates": [
          [
            [
              153.985075,
              43.201486
            ],
            [
              153.876511,
              43.325231
            ],
            [
              153.751873,
              43.440367
            ],
            [
              153.612361,
              43.545785
            ],
            [
              153.459318,
              43.64047
            ],
            [
              153.29422,
              43.72351
            ],
            [
              153.118655,
              43.794105
            ],
            [
              152.934314,
              43.851575
            ],
            [
              152.742972,
              43.895368
            ],
            [
              152.546474,
              43.92506
            ],
            [
              152.346709,
              43.940367
            ],
            [
              152.145604,
              43.941141
            ],
            [
              151.945094,
              43.927374
            ],
            [
              151.74711,
              43.899199
            ],
            [
              151.553559,
              43.856887
            ],
            [
              151.366305,
              43.800846
            ],
            [
              151.187152,
              43.731615
            ],
            [
              151.017824,
              43.649862
            ],
            [
              150.859953,
              43.556373
            ],
            [
              150.715059,
              43.452049
            ],
            [
              150.584537,
              43.337895
            ],
            [
              150.469644,
              43.21501
            ],
            [
              150.371487,
              43.084577
            ],
            [
              150.291011,
              42.947852
            ],
            [
              150.228992,
              42.806153
            ],
            [
              150.186025,
              42.660844
            ],
            [
              150.162526,
              42.513324
            ],
            [
              150.15872,
              42.365014
            ],
            [
              150.174644,
              42.217342
            ],
            [
              150.210145,
              42.071731
            ],
            [
              150.264881,
              41.929583
            ],
            [
              150.338325,
              41.792266
            ],
            [
              150.429769,
              41.661104
            ],
            [
              150.538333,
              41.537359
            ],
            [
              150.662971,
              41.422223
            ],
            [
              150.802483,
              41.316805
            ],
            [
              150.955525,
              41.22212
            ],
            [
              151.120624,
              41.13908
            ],
            [
              151.296189,
              41.068485
            ],
            [
              151.48053,
              41.011015
            ],
            [
              151.671871,
              40.967222
            ],
            [
              151.86837,
              40.93753
            ],
            [
              152.068134,
              40.922223
            ],
            [
              152.269239,
              40.921449
            ],
            [
              152.46975,
              40.935216
            ],
            [
              152.667734,
              40.963391
            ],
            [
              152.861284,
              41.005703
            ],
            [
              153.048538,
              41.061744
            ],
            [
              153.227691,
              41.130975
            ],
            [
              153.397019,
              41.212728
            ],
            [
              153.55489,
              41.306217
            ],
            [
              153.699784,
              41.410541
            ],
            [
              153.830306,
              41.524695
            ],
            [
              153.945199,
              41.64758
            ],
            [
              154.043356,
              41.778013
            ],
            [
              154.123832,
              41.914738
            ],
            [
              154.185852,
              42.056437
            ],
            [
              154.228818,
              42.201746
            ],
            [
              154.252318,
              42.349266
            ],
            [
              154.256123,
              42.497576
            ],
            [
              154.240199,
              42.645248
            ],
            [
              154.204698,
              42.790859
            ],
            [
              154.149962,
              42.933007
            ],
            [
              154.076519,
              43.070324
            ],
            [
              153.985075,
              43.201486
            ]
          ]
        ],
        "type": "Polygon"
      },
      "properties": {
        "kind": "reachableSet",
        "observationStatus": "estimated",
        "vessel": "B"
      },
      "type": "Feature"
    }
  ],
  "properties": {
    "dateline": false
  },
  "type": "FeatureCollection"
}
