{
  "features": [
    {
      "geometry": {
        "coordinates": [
          -57.841633,
          -42.004978
        ],
        "type": "Point"
      },
      "properties": {
        "mmsi": "412439575",
        "observationStatus": "observed",
        "role": "off",
        "time": "2018-04-11T17:01:39Z",
        "vessel": "A"
      },
      "type": "Feature"
    },
    {
      "geometry": {
        "coordinates": [
          -57.861943,
          -42.03817
        ],
        "type": "Point"
      },
      "properties": {
        "mmsi": "412421057",
        "observationStatus": "observed",
        "role": "off",
        "time": "2018-04-11T17:27:00Z",
        "vessel": "B"
      },
      "type": "Feature"
    },
    {
      "geometry": {
        "coordinates": [
          -58.0051,
          -42.15275
        ],
        "type": "Point"
      },
      "properties": {
        "mmsi": "412421057",
        "observationStatus": "observed",
        "role": "on",
        "time": "2018-04-12T10:20:53Z",
        "vessel": "B"
      },
      "type": "Feature"
    },
    {
      "geometry": {
        "coordinates": [
          -58.04178,
          -42.216597
        ],
        "type": "Point"
      },
      "properties": {
        "mmsi": "412439575",
        "observationStatus": "observed",
        "role": "on",
        "time": "2018-04-12T10:25:27Z",
        "vessel": "A"
      },
      "type": "Feature"
    },
    {
      "geometry": {
        "coordinates": [
          [
            -57.841633,
            -42.004978
          ],
          [
            -57.899559,
            -42.076135
          ],
          [
            -58.04178,
            -42.216597
          ]
        ],
        "type": "LineString"
      },
      "properties": {
        "confidence": "low",
        "lineStyle": "dashed",
        "observationStatus": "estimated",
        "source": "reachable-set heuristic",
        "vessel": "A"
      },
      "type": "Feature"
    },
    {
      "geometry": {
        "coordinates": [
          [
            -57.861943,
            -42.03817
          ],
          [
            -57.899559,
            -42.076135
          ],
          [
            -58.0051,
            -42.15275
          ]
        ],
        "type": "LineString"
      },
      "properties": {
        "confidence": "low",
        "lineStyle": "dashed",
        "observationStatus": "estimated",
        "source": "reachable-set heuristic",
        "vessel": "B"
      },
      "type": "Feature"
    },
    {
      "geometry": {
        "coordinates": [
          -57.899559,
          -42.076135
        ],
        "type": "Point"
      },
      "properties": {
        "kind": "meetingPoint",
        "observationStatus": "estimated"
      },
      "type": "Feature"
    },
    {
      "geometry": {
        "coordinates": [
          [
            [
              -59.214641,
              -43.456681
            ],
            [
              -59.032429,
              -43.5431
            ],
            [
              -58.839713,
              -43.615725
            ],
            [
              -58.638349,
              -43.673856
            ],
            [
              -58.430276,
              -43.716934
            ],
            [
              -58.217498,
              -43.744544
            ],
            [
              -58.002064,
              -43.75642
            ],
            [
              -57.786048,
              -43.752448
            ],
            [
              -57.571532,
              -43.732666
            ],
            [
              -57.36058,
              -43.697264
            ],
            [
              -57.155225,
              -43.646583
            ],
            [
              -56.957445,
              -43.581112
            ],
            [
              -56.769143,
              -43.501481
            ],
            [
              -56.592134,
              -43.408457
            ],
            [
              -56.428121,
              -43.302935
            ],
            [
              -56.278686,
              -43.185933
            ],
            [
              -56.145266,
              -43.058576
            ],
            [
              -56.029147,
              -42.922091
            ],
            [
              -55.931447,
              -42.777794
            ],
            [
              -55.853107,
              -42.627072
            ],
            [
              -55.794881,
              -42.471379
            ],
            [
              -55.757331,
              -42.312212
            ],
            [
              -55.740817,
              -42.151106
            ],
            [
              -55.745499,
              -41.989612
            ],
            [
              -55.771331,
              -41.829284
            ],
            [
              -55.818066,
              -41.671668
            ],
            [
              -55.885252,
              -41.518281
            ],
            [
              -55.972243,
              -41.370599
            ],
            [
              -56.078201,
              -41.230047
            ],
            [
              -56.202106,
              -41.097976
            ],
            [
              -56.342764,
              -40.975659
            ],
            [
              -56.49882,
              -40.864274
            ],
            [
              -56.668773,
              -40.764894
            ],
            [
              -56.850984,
              -40.678475
            ],
            [
              -57.0437,
              -40.60585
            ],
            [
              -57.245064,
              -40.547719
            ],
            [
              -57.453137,
              -40.504641
            ],
            [
              -57.665915,
              -40.477031
            ],
            [
              -57.88135,
              -40.465155
            ],
            [
              -58.097365,
              -40.469127
            ],
            [
              -58.311882,
              -40.488909
            ],
            [
              -58.522833,
              -40.524311
            ],
            [
              -58.728188,
              -40.574992
            ],
            [
              -58.925969,
              -40.640463
            ],
            [
              -59.11427,
              -40.720094
            ],
            [
              -59.29128,
              -40.813118
            ],
            [
              -59.455292,
              -40.91864
            ],
            [
              -59.604727,
              -41.035642
            ],
            [
              -59.738147,
              -41.162999
            ],
            [
              -59.854266,
              -41.299484
            ],
            [
              -59.951966,
              -41.443781
            ],
            [
              -60.030306,
              -41.594503
            ],
            [
              -60.088532,
              -41.750196
            ],
            [
              -60.126083,
              -41.909363
            ],
            [
              -60.142597,
              -42.070469
            ],
            [
              -60.137915,
              -42.231963
            ],
            [
              -60.112082,
              -42.392291
            ],
            [
              -60.065348,
              -42.549907
            ],
            [
              -59.998161,
              -42.703294
            ],
            [
              -59.91117,
              -42.850976
            ],
            [
              -59.805212,
              -42.991528
            ],
            [
              -59.681308,
              -43.123599
            ],
            [
              -59.54065,
              -43.245916
            ],
            [
              -59.384593,
              -43.357301
            ],
            [
              -59.214641,
              -43.456681
            ]
          ]
        ],
        "type": "Polygon"
      },
      "properties": {
        "kind": "reachableSet",
        "observationStatus": "estimated",
        "vessel": "A"
      },
      "type": "Feature"
    },
    {
      "geometry": {
        "coordinates": [
          [
            [
              -59.392811,
              -43.263448
            ],
            [
              -59.232724,
              -43.364552
            ],
            [
              -59.060126,
              -43.453433
            ],
            [
              -58.876677,
              -43.529237
            ],
            [
              -58.684146,
              -43.591232
            ],
            [
              -58.484385,
              -43.638822
            ],
            [
              -58.27932,
              -43.671549
            ],
            [
              -58.070924,
              -43.689097
            ],
            [
              -57.861205,
              -43.691298
            ],
            [
              -57.652182,
              -43.67813
            ],
            [
              -57.445869,
              -43.64972
            ],
            [
              -57.244253,
              -43.606341
            ],
            [
              -57.049274,
              -43.548412
            ],
            [
              -56.862811,
              -43.47649
            ],
            [
              -56.68666,
              -43.391268
            ],
            [
              -56.522516,
              -43.293567
            ],
            [
              -56.371961,
              -43.184327
            ],
            [
              -56.236445,
              -43.064601
            ],
            [
              -56.117273,
              -42.935542
            ],
            [
              -56.015592,
              -42.798392
            ],
            [
              -55.932382,
              -42.654472
            ],
            [
              -55.868444,
              -42.505169
            ],
            [
              -55.824394,
              -42.351921
            ],
            [
              -55.800656,
              -42.196202
            ],
            [
              -55.797459,
              -42.039513
            ],
            [
              -55.814833,
              -41.883363
            ],
            [
              -55.852611,
              -41.729255
            ],
            [
              -55.910429,
              -41.578675
            ],
            [
              -55.987731,
              -41.433071
            ],
            [
              -56.083772,
              -41.293846
            ],
            [
              -56.197627,
              -41.162342
            ],
            [
              -56.3282,
              -41.039823
            ],
            [
              -56.474233,
              -40.927472
            ],
            [
              -56.634319,
              -40.826368
            ],
            [
              -56.806918,
              -40.737487
            ],
            [
              -56.990366,
              -40.661683
            ],
            [
              -57.182898,
              -40.599688
            ],
            [
              -57.382658,
              -40.552098
            ],
            [
              -57.587724,
              -40.519371
            ],
            [
              -57.796119,
              -40.501823
            ],
            [
              -58.005838,
              -40.499622
            ],
            [
              -58.214861,
              -40.51279
            ],
            [
              -58.421174,
              -40.5412
            ],
            [
              -58.622791,
              -40.584579
            ],
            [
              -58.817769,
              -40.642508
            ],
            [
              -59.004232,
              -40.71443
            ],
            [
              -59.180384,
              -40.799652
            ],
            [
              -59.344527,
              -40.897353
            ],
            [
              -59.495082,
              -41.006593
            ],
            [
              -59.630598,
              -41.126319
            ],
            [
              -59.74977,
              -41.255378
            ],
            [
              -59.851451,
              -41.392528
            ],
            [
              -59.934661,
              -41.536448
            ],
            [
              -59.998599,
              -41.685751
            ],
            [
              -60.042649,
              -41.838999
            ],
            [
              -60.066387,
              -41.994718
            ],
            [
              -60.069585,
              -42.151407
            ],
            [
              -60.052211,
              -42.307557
            ],
            [
              -60.014433,
              -42.461665
            ],
            [
              -59.956614,
              -42.612245
            ],
            [
              -59.879312,
              -42.757849
            ],
            [
              -59.783271,
              -42.897074
            ],
            [
              -59.669416,
              -43.028578
            ],
            [
              -59.538844,
              -43.151097
            ],
            [
              -59.392811,
              -43.263448
            ]
          ]
        ],
        "type": "Polygon"
      },
      "properties": {
        "kind": "reachableSet",
        "observationStatus": "estimated",
        "vessel": "B"
      },
      "type": "Feature"
    }
  ],
  "properties": {
    "dateline": false
  },
  "type": "FeatureCollection"
}
