{
  "features": [
    {
      "geometry": {
        "coordinates": [
          -60.6584,
          -47.158427
        ],
        "type": "Point"
      },
      "properties": {
        "mmsi": "412217992",
        "observationStatus": "observed",
        "role": "off",
        "time": "2019-02-26T18:22:08Z",
        "vessel": "A"
      },
      "type": "Feature"
    },
    {
      "geometry": {
        "coordinates": [
          -60.727553,
          -47.179412
        ],
        "type": "Point"
      },
      "properties": {
        "mmsi": "412420382",
        "observationStatus": "observed",
        "role": "off",
        "time": "2019-02-26T18:24:21Z",
        "vessel": "B"
      },
      "type": "Feature"
    },
    {
      "geometry": {
        "coordinates": [
          -60.733077,
          -47.255817
        ],
        "type": "Point"
      },
      "properties": {
        "mmsi": "412217992",
        "observationStatus": "observed",
        "role": "on",
        "time": "2019-02-27T09:54:55Z",
        "vessel": "A"
      },
      "type": "Feature"
    },
    {
      "geometry": {
        "coordinates": [
          -60.741722,
          -47.235278
        ],
        "type": "Point"
      },
      "properties": {
        "mmsi": "412420382",
        "observationStatus": "observed",
        "role": "on",
        "time": "2019-02-27T09:57:52Z",
        "vessel": "B"
      },
      "type": "Feature"
    },
    {
      "geometry": {
        "coordinates": [
          [
            -60.6584,
            -47.158427
          ],
          [
            -60.700061,
            -47.212304
          ],
          [
            -60.733077,
            -47.255817
          ]
        ],
        "type": "LineString"
      },
      "properties": {
        "confidence": "low",
        "lineStyle": "dashed",
        "observationStatus": "estimated",
        "source": "reachable-set heuristic",
        "vessel": "A"
      },
      "type": "Feature"
    },
    {
      "geometry": {
        "coordinates": [
          [
            -60.727553,
            -47.179412
          ],
          [
            -60.700061,
            -47.212304
          ],
          [
            -60.741722,
            -47.235278
          ]
        ],
        "type": "LineString"
      },
      "properties": {
        "confidence": "low",
        "lineStyle": "dashed",
        "observationStatus": "estimated",
        "source": "reachable-set heuristic",
        "vessel": "B"
      },
      "type": "Feature"
    },
    {
      "geometry": {
        "coordinates": [
          -60.700061,
          -47.212304
        ],
        "type": "Point"
      },
      "properties": {
        "kind": "meetingPoint",
        "observationStatus": "estimated"
      },
      "type": "Feature"
    },
    {
      "geometry": {
        "coordinates": [
          [
            [
              -61.688439,
              -48.501758
            ],
            [
              -61.498258,
              -48.562027
            ],
            [
              -61.300347,
              -48.609248
            ],
            [
              -61.096615,
              -48.642965
            ],
            [
              -60.889021,
              -48.662855
            ],
            [
              -60.679566,
              -48.668725
            ],
            [
              -60.470267,
              -48.660519
            ],
            [
              -60.263139,
              -48.638315
            ],
            [
              -60.060178,
              -48.602329
            ],
            [
              -59.863337,
              -48.552906
            ],
            [
              -59.674512,
              -48.490523
            ],
            [
              -59.495523,
              -48.41578
            ],
            [
              -59.328092,
              -48.329396
            ],
            [
              -59.173833,
              -48.232205
            ],
            [
              -59.03423,
              -48.125141
            ],
            [
              -58.910629,
              -48.009236
            ],
            [
              -58.804219,
              -47.885607
            ],
            [
              -58.716025,
              -47.755443
            ],
            [
              -58.646898,
              -47.619999
            ],
            [
              -58.597501,
              -47.480579
            ],
            [
              -58.568312,
              -47.338524
            ],
            [
              -58.559611,
              -47.195205
            ],
            [
              -58.571483,
              -47.052
            ],
            [
              -58.603811,
              -46.910289
            ],
            [
              -58.656287,
              -46.771437
            ],
            [
              -58.728403,
              -46.636781
            ],
            [
              -58.819466,
              -46.507617
            ],
            [
              -58.928598,
              -46.38519
            ],
            [
              -59.054749,
              -46.270679
            ],
            [
              -59.196704,
              -46.165186
            ],
            [
              -59.353095,
              -46.069727
            ],
            [
              -59.522416,
              -45.985223
            ],
            [
              -59.703038,
              -45.912485
            ],
            [
              -59.893219,
              -45.852216
            ],
            [
              -60.091129,
              -45.804996
            ],
            [
              -60.294862,
              -45.771278
            ],
            [
              -60.502456,
              -45.751389
            ],
            [
              -60.711911,
              -45.745519
            ],
            [
              -60.92121,
              -45.753725
            ],
            [
              -61.128338,
              -45.775928
            ],
            [
              -61.331299,
              -45.811914
            ],
            [
              -61.52814,
              -45.861337
            ],
            [
              -61.716964,
              -45.92372
            ],
            [
              -61.895954,
              -45.998464
            ],
            [
              -62.063384,
              -46.084847
            ],
            [
              -62.217644,
              -46.182039
            ],
            [
              -62.357246,
              -46.289102
            ],
            [
              -62.480848,
              -46.405007
            ],
            [
              -62.587258,
              -46.528636
            ],
            [
              -62.675451,
              -46.6588
            ],
            [
              -62.744579,
              -46.794244
            ],
            [
              -62.793975,
              -46.933665
            ],
            [
              -62.823164,
              -47.075719
            ],
            [
              -62.831865,
              -47.219038
            ],
            [
              -62.819994,
              -47.362243
            ],
            [
              -62.787665,
              -47.503954
            ],
            [
              -62.73519,
              -47.642806
            ],
            [
              -62.663073,
              -47.777462
            ],
            [
              -62.572011,
              -47.906626
            ],
            [
              -62.462878,
              -48.029053
            ],
            [
              -62.336727,
              -48.143564
            ],
            [
              -62.194773,
              -48.249057
            ],
            [
              -62.038382,
              -48.344516
            ],
            [
              -61.86906,
              -48.429021
            ],
            [
              -61.688439,
              -48.501758
            ]
          ]
        ],
        "type": "Polygon"
      },
      "properties": {
        "kind": "reachableSet",
        "observationStatus": "estimated",
        "vessel": "A"
      },
      "type": "Feature"
    },
    {
      "geometry": {
        "coordinates": [
          [
            [
              -61.100235,
              -48.648922
            ],
            [
              -60.891922,
              -48.666485
            ],
            [
              -60.682095,
              -48.669996
            ],
            [
              -60.472773,
              -48.659421
            ],
            [
              -60.265973,
              -48.634861
            ],
            [
              -60.063687,
              -48.596554
            ],
            [
              -59.867862,
              -48.544868
            ],
            [
              -59.680385,
              -48.480301
            ],
            [
              -59.503061,
              -48.403474
            ],
            [
              -59.337597,
              -48.315129
            ],
            [
              -59.185588,
              -48.216114
            ],
            [
              -59.048497,
              -48.107385
            ],
            [
              -58.927645,
              -47.989988
            ],
            [
              -58.824195,
              -47.865053
            ],
            [
              -58.739143,
              -47.733785
            ],
            [
              -58.673309,
              -47.597446
            ],
            [
              -58.627327,
              -47.457351
            ],
            [
              -58.601639,
              -47.314848
            ],
            [
              -58.596494,
              -47.171309
            ],
            [
              -58.61194,
              -47.028118
            ],
            [
              -58.647828,
              -46.886653
            ],
            [
              -58.703814,
              -46.748276
            ],
            [
              -58.779357,
              -46.61432
            ],
            [
              -58.873732,
              -46.486075
            ],
            [
              -58.986027,
              -46.364777
            ],
            [
              -59.115163,
              -46.251593
            ],
            [
              -59.259895,
              -46.147613
            ],
            [
              -59.41883,
              -46.05384
            ],
            [
              -59.590436,
              -45.971175
            ],
            [
              -59.773062,
              -45.900415
            ],
            [
              -59.964948,
              -45.842241
            ],
            [
              -60.164247,
              -45.797215
            ],
            [
              -60.36904,
              -45.765768
            ],
            [
              -60.577353,
              -45.748205
            ],
            [
              -60.78718,
              -45.744694
            ],
            [
              -60.996502,
              -45.755269
            ],
            [
              -61.203302,
              -45.779829
            ],
            [
              -61.405588,
              -45.818136
            ],
            [
              -61.601413,
              -45.869822
            ],
            [
              -61.78889,
              -45.934389
            ],
            [
              -61.966214,
              -46.011216
            ],
            [
              -62.131678,
              -46.099561
            ],
            [
              -62.283687,
              -46.198576
            ],
            [
              -62.420778,
              -46.307305
            ],
            [
              -62.54163,
              -46.424702
            ],
            [
              -62.64508,
              -46.549637
            ],
            [
              -62.730132,
              -46.680905
            ],
            [
              -62.795966,
              -46.817244
            ],
            [
              -62.841948,
              -46.957339
            ],
            [
              -62.867636,
              -47.099842
            ],
            [
              -62.872781,
              -47.243381
            ],
            [
              -62.857335,
              -47.386572
            ],
            [
              -62.821447,
              -47.528037
            ],
            [
              -62.765461,
              -47.666414
            ],
            [
              -62.689918,
              -47.80037
            ],
            [
              -62.595543,
              -47.928615
            ],
            [
              -62.483248,
              -48.049913
            ],
            [
              -62.354112,
              -48.163097
            ],
            [
              -62.20938,
              -48.267077
            ],
            [
              -62.050445,
              -48.36085
            ],
            [
              -61.878839,
              -48.443515
            ],
            [
              -61.696213,
              -48.514275
            ],
            [
              -61.504327,
              -48.572449
            ],
            [
              -61.305028,
              -48.617475
            ],
            [
              -61.100235,
              -48.648922
            ]
          ]
        ],
        "type": "Polygon"
      },
      "properties": {
        "kind": "reachableSet",
        "observationStatus": "estimated",
        "vessel": "B"
      },
      "type": "Feature"
    }
  ],
  "properties": {
    "dateline": false
  },
  "type": "FeatureCollection"
}
