{
  "features": [
    {
      "geometry": {
        "coordinates": [
          -60.841117,
          -46.941633
        ],
        "type": "Point"
      },
      "properties": {
        "mmsi": "441330000",
        "observationStatus": "observed",
        "role": "off",
        "time": "2017-03-09T03:21:21Z",
        "vessel": "A"
      },
      "type": "Feature"
    },
    {
      "geometry": {
        "coordinates": [
          -60.825868,
          -47.019258
        ],
        "type": "Point"
      },
      "properties": {
        "mmsi": "440201000",
        "observationStatus": "observed",
        "role": "off",
        "time": "2017-03-09T03:22:29Z",
        "vessel": "B"
      },
      "type": "Feature"
    },
    {
      "geometry": {
        "coordinates": [
          -60.811227,
          -46.933263
        ],
        "type": "Point"
      },
      "properties": {
        "mmsi": "440201000",
        "observationStatus": "observed",
        "role": "on",
        "time": "2017-03-09T16:01:05Z",
        "vessel": "B"
      },
      "type": "Feature"
    },
    {
      "geometry": {
        "coordinates": [
          -60.838683,
          -46.92395
        ],
        "type": "Point"
      },
      "properties": {
        "mmsi": "441330000",
        "observationStatus": "observed",
        "role": "on",
        "time": "2017-03-09T16:01:58Z",
        "vessel": "A"
      },
      "type": "Feature"
    },
    {
      "geometry": {
        "coordinates": [
          [
            -60.841117,
            -46.941633
          ],
          [
            -60.832556,
            -46.971604
          ],
          [
            -60.838683,
            -46.92395
          ]
        ],
        "type": "LineString"
      },
      "properties": {
        "confidence": "low",
        "lineStyle": "dashed",
        "observationStatus": "estimated",
        "source": "reachable-set heuristic",
        "vessel": "A"
      },
      "type": "Feature"
    },
    {
      "geometry": {
        "coordinates": [
          [
            -60.825868,
            -47.019258
          ],
          [
            -60.832556,
            -46.971604
          ],
          [
            -60.811227,
            -46.933263
          ]
        ],
        "type": "LineString"
      },
      "properties": {
        "confidence": "low",
        "lineStyle": "dashed",
        "observationStatus": "estimated",
        "source": "reachable-set heuristic",
        "vessel": "B"
      },
      "type": "Feature"
    },
    {
      "geometry": {
        "coordinates": [
          -60.832556,
          -46.971604
        ],
        "type": "Point"
      },
      "properties": {
        "kind": "meetingPoint",
        "observationStatus": "estimated"
      },
      "type": "Feature"
    },
    {
      "geometry": {
        "coordinates": [
          [
            [
              -60.679137,
              -45.764505
            ],
            [
              -60.846472,
              -45.759298
            ],
            [
              -61.013744,
              -45.765392
            ],
            [
              -61.179342,
              -45.782729
            ],
            [
              -61.341671,
              -45.811142
            ],
            [
              -61.499168,
              -45.850356
            ],
            [
              -61.650315,
              -45.899995
            ],
            [
              -61.793658,
              -45.959581
            ],
            [
              -61.927815,
              -46.028539
            ],
            [
              -62.051496,
              -46.106206
            ],
            [
              -62.163508,
              -46.191833
            ],
            [
              -62.262773,
              -46.284596
            ],
            [
              -62.348334,
              -46.383601
            ],
            [
              -62.419369,
              -46.487895
            ],
            [
              -62.475193,
              -46.596474
            ],
            [
              -62.515268,
              -46.708292
            ],
            [
              -62.539208,
              -46.822272
            ],
            [
              -62.546783,
              -46.937316
            ],
            [
              -62.53792,
              -47.052317
            ],
            [
              -62.512703,
              -47.166167
            ],
            [
              -62.471377,
              -47.277769
            ],
            [
              -62.414339,
              -47.386049
            ],
            [
              -62.342138,
              -47.489963
            ],
            [
              -62.25547,
              -47.588512
            ],
            [
              -62.155169,
              -47.680746
            ],
            [
              -62.042201,
              -47.765777
            ],
            [
              -61.917655,
              -47.842785
            ],
            [
              -61.782729,
              -47.91103
            ],
            [
              -61.638723,
              -47.969854
            ],
            [
              -61.487024,
              -48.01869
            ],
            [
              -61.329093,
              -48.057069
            ],
            [
              -61.16645,
              -48.08462
            ],
            [
              -61.000663,
              -48.101078
            ],
            [
              -60.833328,
              -48.106285
            ],
            [
              -60.666056,
              -48.100191
            ],
            [
              -60.500458,
              -48.082854
            ],
            [
              -60.338129,
              -48.054442
            ],
            [
              -60.180632,
              -48.015227
            ],
            [
              -60.029485,
              -47.965588
            ],
            [
              -59.886142,
              -47.906002
            ],
            [
              -59.751985,
              -47.837044
            ],
            [
              -59.628304,
              -47.759378
            ],
            [
              -59.516292,
              -47.673751
            ],
            [
              -59.417027,
              -47.580988
            ],
            [
              -59.331466,
              -47.481982
            ],
            [
              -59.260431,
              -47.377688
            ],
            [
              -59.204607,
              -47.269109
            ],
            [
              -59.164532,
              -47.157291
            ],
            [
              -59.140592,
              -47.043311
            ],
            [
              -59.133017,
              -46.928267
            ],
            [
              -59.14188,
              -46.813266
            ],
            [
              -59.167097,
              -46.699417
            ],
            [
              -59.208423,
              -46.587815
            ],
            [
              -59.265461,
              -46.479535
            ],
            [
              -59.337662,
              -46.37562
            ],
            [
              -59.42433,
              -46.277071
            ],
            [
              -59.524631,
              -46.184837
            ],
            [
              -59.637599,
              -46.099807
            ],
            [
              -59.762145,
              -46.022798
            ],
            [
              -59.897071,
              -45.954553
            ],
            [
              -60.041077,
              -45.89573
            ],
            [
              -60.192776,
              -45.846893
            ],
            [
              -60.350707,
              -45.808515
            ],
            [
              -60.51335,
              -45.780963
            ],
            [
              -60.679137,
              -45.764505
            ]
          ]
        ],
        "type": "Polygon"
      },
      "properties": {
        "kind": "reachableSet",
        "observationStatus": "estimated",
        "vessel": "A"
      },
      "type": "Feature"
    },
    {
      "geometry": {
        "coordinates": [
          [
            [
              -60.620669,
              -45.814058
            ],
            [
              -60.787341,
              -45.80634
            ],
            [
              -60.954315,
              -45.809889
            ],
            [
              -61.11998,
              -45.824671
            ],
            [
              -61.282743,
              -45.850543
            ],
            [
              -61.441035,
              -45.887257
            ],
            [
              -61.593333,
              -45.934458
            ],
            [
              -61.738168,
              -45.991692
            ],
            [
              -61.874148,
              -46.058409
            ],
            [
              -61.999961,
              -46.133965
            ],
            [
              -62.114397,
              -46.217632
            ],
            [
              -62.216353,
              -46.308606
            ],
            [
              -62.304847,
              -46.406009
            ],
            [
              -62.379027,
              -46.508904
            ],
            [
              -62.43818,
              -46.616301
            ],
            [
              -62.481734,
              -46.727163
            ],
            [
              -62.509271,
              -46.840425
            ],
            [
              -62.520525,
              -46.954995
            ],
            [
              -62.515388,
              -47.06977
            ],
            [
              -62.49391,
              -47.183644
            ],
            [
              -62.456297,
              -47.295521
            ],
            [
              -62.402912,
              -47.404323
            ],
            [
              -62.334268,
              -47.509003
            ],
            [
              -62.251027,
              -47.608552
            ],
            [
              -62.153991,
              -47.702012
            ],
            [
              -62.044093,
              -47.788483
            ],
            [
              -61.922393,
              -47.867131
            ],
            [
              -61.790062,
              -47.9372
            ],
            [
              -61.648375,
              -47.998014
            ],
            [
              -61.498697,
              -48.048989
            ],
            [
              -61.342468,
              -48.089632
            ],
            [
              -61.181193,
              -48.119553
            ],
            [
              -61.016426,
              -48.138464
            ],
            [
              -60.849754,
              -48.146182
            ],
            [
              -60.68278,
              -48.142633
            ],
            [
              -60.517115,
              -48.127851
            ],
            [
              -60.354352,
              -48.101978
            ],
            [
              -60.19606,
              -48.065265
            ],
            [
              -60.043762,
              -48.018064
            ],
            [
              -59.898927,
              -47.960829
            ],
            [
              -59.762947,
              -47.894113
            ],
            [
              -59.637134,
              -47.818557
            ],
            [
              -59.522698,
              -47.73489
            ],
            [
              -59.420742,
              -47.643916
            ],
            [
              -59.332248,
              -47.546513
            ],
            [
              -59.258068,
              -47.443617
            ],
            [
              -59.198915,
              -47.336221
            ],
            [
              -59.155361,
              -47.225358
            ],
            [
              -59.127824,
              -47.112097
            ],
            [
              -59.11657,
              -46.997527
            ],
            [
              -59.121707,
              -46.882752
            ],
            [
              -59.143185,
              -46.768878
            ],
            [
              -59.180798,
              -46.657001
            ],
            [
              -59.234183,
              -46.548199
            ],
            [
              -59.302827,
              -46.443519
            ],
            [
              -59.386068,
              -46.343969
            ],
            [
              -59.483104,
              -46.25051
            ],
            [
              -59.593002,
              -46.164039
            ],
            [
              -59.714702,
              -46.085391
            ],
            [
              -59.847033,
              -46.015322
            ],
            [
              -59.98872,
              -45.954507
            ],
            [
              -60.138398,
              -45.903533
            ],
            [
              -60.294627,
              -45.862889
            ],
            [
              -60.455902,
              -45.832968
            ],
            [
              -60.620669,
              -45.814058
            ]
          ]
        ],
        "type": "Polygon"
      },
      "properties": {
        "kind": "reachableSet",
        "observationStatus": "estimated",
        "vessel": "B"
      },
      "type": "Feature"
    }
  ],
  "properties": {
    "dateline": false
  },
  "type": "FeatureCollection"
}
