{
  "features": [
    {
      "geometry": {
        "coordinates": [
          153.79232,
          43.031173
        ],
        "type": "Point"
      },
      "properties": {
        "mmsi": "416252900",
        "observationStatus": "observed",
        "role": "off",
        "time": "2019-10-31T04:03:09Z",
        "vessel": "A"
      },
      "type": "Feature"
    },
    {
      "geometry": {
        "coordinates": [
          153.755148,
          42.996098
        ],
        "type": "Point"
      },
      "properties": {
        "mmsi": "412439761",
        "observationStatus": "observed",
        "role": "off",
        "time": "2019-10-31T04:16:28Z",
        "vessel": "B"
      },
      "type": "Feature"
    },
    {
      "geometry": {
        "coordinates": [
          154.961667,
          44.11
        ],
        "type": "Point"
      },
      "properties": {
        "mmsi": "412439761",
        "observationStatus": "observed",
        "role": "on",
        "time": "2019-10-31T19:31:19Z",
        "vessel": "B"
      },
      "type": "Feature"
    },
    {
      "geometry": {
        "coordinates": [
          154.976998,
          44.132313
        ],
        "type": "Point"
      },
      "properties": {
        "mmsi": "416252900",
        "observationStatus": "observed",
        "role": "on",
        "time": "2019-10-31T19:46:42Z",
        "vessel": "A"
      },
      "type": "Feature"
    },
    {
      "geometry": {
        "coordinates": [
          [
            153.79232,
            43.031173
          ],
          [
            154.417023,
            43.606371
          ],
          [
            154.976998,
            44.132313
          ]
        ],
        "type": "LineString"
      },
      "properties": {
        "confidence": "low",
        "lineStyle": "dashed",
        "observationStatus": "estimated",
        "source": "reachable-set heuristic",
        "vessel": "A"
      },
      "type": "Feature"
    },
    {
      "geometry": {
        "coordinates": [
          [
            153.755148,
            42.996098
          ],
          [
            154.417023,
            43.606371
          ],
          [
            154.961667,
            44.11
          ]
        ],
        "type": "LineString"
      },
      "properties": {
        "confidence": "low",
        "lineStyle": "dashed",
        "observationStatus": "estimated",
        "source": "reachable-set heuristic",
        "vessel": "B"
      },
      "type": "Feature"
    },
    {
      "geometry": {
        "coordinates": [
          154.417023,
          43.606371
        ],
        "type": "Point"
      },
      "properties": {
        "kind": "meetingPoint",
        "observationStatus": "estimated"
      },
      "type": "Feature"
    },
    {
      "geometry": {
        "coordinates": [
          [
            [
              155.637278,
              44.746033
            ],
            [
              155.493369,
              44.819325
            ],
            [
              155.338783,
              44.880699
            ],
            [
              155.175008,
              44.929563
            ],
            [
              155.003622,
              44.965446
            ],
            [
              154.826274,
              44.988004
            ],
            [
              154.644674,
              44.997019
            ],
            [
              154.460569,
              44.992404
            ],
            [
              154.275734,
              44.974203
            ],
            [
              154.091947,
              44.942592
            ],
            [
              153.910979,
              44.897876
            ],
            [
              153.734574,
              44.840484
            ],
            [
              153.564428,
              44.77097
            ],
            [
              153.402183,
              44.690004
            ],
            [
              153.249399,
              44.598364
            ],
            [
              153.107548,
              44.496933
            ],
            [
              152.977996,
              44.386689
            ],
            [
              152.861991,
              44.268693
            ],
            [
              152.760651,
              44.14408
            ],
            [
              152.67495,
              44.014053
            ],
            [
              152.605715,
              43.879862
            ],
            [
              152.553613,
              43.7428
            ],
            [
              152.519144,
              43.604186
            ],
            [
              152.502641,
              43.465357
            ],
            [
              152.504263,
              43.327649
            ],
            [
              152.523994,
              43.192387
            ],
            [
              152.561644,
              43.060876
            ],
            [
              152.616852,
              42.93438
            ],
            [
              152.689084,
              42.814119
            ],
            [
              152.777645,
              42.701251
            ],
            [
              152.881683,
              42.596862
            ],
            [
              153.000195,
              42.501958
            ],
            [
              153.13204,
              42.417454
            ],
            [
              153.275949,
              42.344161
            ],
            [
              153.430535,
              42.282788
            ],
            [
              153.59431,
              42.233924
            ],
            [
              153.765697,
              42.198041
            ],
            [
              153.943044,
              42.175483
            ],
            [
              154.124645,
              42.166468
            ],
            [
              154.308749,
              42.171083
            ],
            [
              154.493585,
              42.189284
            ],
            [
              154.677371,
              42.220894
            ],
            [
              154.858339,
              42.265611
            ],
            [
              155.034745,
              42.323002
            ],
            [
              155.20489,
              42.392516
            ],
            [
              155.367136,
              42.473483
            ],
            [
              155.51992,
              42.565123
            ],
            [
              155.661771,
              42.666553
            ],
            [
              155.791322,
              42.776798
            ],
            [
              155.907327,
              42.894794
            ],
            [
              156.008667,
              43.019406
            ],
            [
              156.094368,
              43.149434
            ],
            [
              156.163603,
              43.283625
            ],
            [
              156.215706,
              43.420687
            ],
            [
              156.250175,
              43.5593
            ],
            [
              156.266677,
              43.69813
            ],
            [
              156.265055,
              43.835838
            ],
            [
              156.245324,
              43.971099
            ],
            [
              156.207674,
              44.102611
            ],
            [
              156.152467,
              44.229106
            ],
            [
              156.080235,
              44.349367
            ],
            [
              155.991673,
              44.462236
            ],
            [
              155.887636,
              44.566624
            ],
            [
              155.769124,
              44.661528
            ],
            [
              155.637278,
              44.746033
            ]
          ]
        ],
        "type": "Polygon"
      },
      "properties": {
        "kind": "reachableSet",
        "observationStatus": "estimated",
        "vessel": "A"
      },
      "type": "Feature"
    },
    {
      "geometry": {
        "coordinates": [
          [
            [
              155.575172,
              44.676411
            ],
            [
              155.43826,
              44.746574
            ],
            [
              155.290949,
              44.805243
            ],
            [
              155.134656,
              44.851853
            ],
            [
              154.970888,
              44.885955
            ],
            [
              154.801222,
              44.90722
            ],
            [
              154.62729,
              44.915444
            ],
            [
              154.45077,
              44.910547
            ],
            [
              154.27336,
              44.892577
            ],
            [
              154.096769,
              44.861706
            ],
            [
              153.922697,
              44.818232
            ],
            [
              153.752822,
              44.762574
            ],
            [
              153.588779,
              44.695268
            ],
            [
              153.432148,
              44.616961
            ],
            [
              153.284437,
              44.528408
            ],
            [
              153.147069,
              44.430462
            ],
            [
              153.021367,
              44.324066
            ],
            [
              152.908542,
              44.210245
            ],
            [
              152.809679,
              44.090094
            ],
            [
              152.725732,
              43.964772
            ],
            [
              152.657508,
              43.835484
            ],
            [
              152.605664,
              43.703476
            ],
            [
              152.570701,
              43.57002
            ],
            [
              152.552954,
              43.4364
            ],
            [
              152.552595,
              43.303904
            ],
            [
              152.569626,
              43.173807
            ],
            [
              152.603885,
              43.047362
            ],
            [
              152.65504,
              42.925788
            ],
            [
              152.7226,
              42.810254
            ],
            [
              152.805914,
              42.701874
            ],
            [
              152.904179,
              42.601691
            ],
            [
              153.016449,
              42.51067
            ],
            [
              153.141643,
              42.429688
            ],
            [
              153.278555,
              42.359524
            ],
            [
              153.425866,
              42.300855
            ],
            [
              153.582159,
              42.254245
            ],
            [
              153.745927,
              42.220143
            ],
            [
              153.915593,
              42.198878
            ],
            [
              154.089525,
              42.190654
            ],
            [
              154.266045,
              42.195551
            ],
            [
              154.443455,
              42.213521
            ],
            [
              154.620046,
              42.244392
            ],
            [
              154.794118,
              42.287866
            ],
            [
              154.963993,
              42.343524
            ],
            [
              155.128036,
              42.410831
            ],
            [
              155.284667,
              42.489137
            ],
            [
              155.432378,
              42.57769
            ],
            [
              155.569746,
              42.675636
            ],
            [
              155.695448,
              42.782032
            ],
            [
              155.808273,
              42.895854
            ],
            [
              155.907136,
              43.016004
            ],
            [
              155.991083,
              43.141327
            ],
            [
              156.059307,
              43.270614
            ],
            [
              156.111151,
              43.402622
            ],
            [
              156.146114,
              43.536078
            ],
            [
              156.163861,
              43.669698
            ],
            [
              156.16422,
              43.802194
            ],
            [
              156.147189,
              43.932291
            ],
            [
              156.11293,
              44.058736
            ],
            [
              156.061775,
              44.180311
            ],
            [
              155.994215,
              44.295844
            ],
            [
              155.910901,
              44.404225
            ],
            [
              155.812636,
              44.504408
            ],
            [
              155.700366,
              44.595428
            ],
            [
              155.575172,
              44.676411
            ]
          ]
        ],
        "type": "Polygon"
      },
      "properties": {
        "kind": "reachableSet",
        "observationStatus": "estimated",
        "vessel": "B"
      },
      "type": "Feature"
    }
  ],
  "properties": {
    "dateline": false
  },
  "type": "FeatureCollection"
}
