{
  "features": [
    {
      "geometry": {
        "coordinates": [
          -57.91436,
          -42.197735
        ],
        "type": "Point"
      },
      "properties": {
        "mmsi": "412200336",
        "observationStatus": "observed",
        "role": "off",
        "time": "2018-04-14T18:22:37Z",
        "vessel": "A"
      },
      "type": "Feature"
    },
    {
      "geometry": {
        "coordinates": [
          -57.816433,
          -42.235705
        ],
        "type": "Point"
      },
      "properties": {
        "mmsi": "412200335",
        "observationStatus": "observed",
        "role": "off",
        "time": "2018-04-14T18:24:37Z",
        "vessel": "B"
      },
      "type": "Feature"
    },
    {
      "geometry": {
        "coordinates": [
          -57.880413,
          -42.014543
        ],
        "type": "Point"
      },
      "properties": {
        "mmsi": "412200335",
        "observationStatus": "observed",
        "role": "on",
        "time": "2018-04-15T09:11:41Z",
        "vessel": "B"
      },
      "type": "Feature"
    },
    {
      "geometry": {
        "coordinates": [
          -57.93938,
          -42.063112
        ],
        "type": "Point"
      },
      "properties": {
        "mmsi": "412200336",
        "observationStatus": "observed",
        "role": "on",
        "time": "2018-04-15T09:52:32Z",
        "vessel": "A"
      },
      "type": "Feature"
    },
    {
      "geometry": {
        "coordinates": [
          [
            -57.91436,
            -42.197735
          ],
          [
            -57.862488,
            -42.075588
          ],
          [
            -57.93938,
            -42.063112
          ]
        ],
        "type": "LineString"
      },
      "properties": {
        "confidence": "low",
        "lineStyle": "dashed",
        "observationStatus": "estimated",
        "source": "reachable-set heuristic",
        "vessel": "A"
      },
      "type": "Feature"
    },
    {
      "geometry": {
        "coordinates": [
          [
            -57.816433,
            -42.235705
          ],
          [
            -57.862488,
            -42.075588
          ],
          [
            -57.880413,
            -42.014543
          ]
        ],
        "type": "LineString"
      },
      "properties": {
        "confidence": "low",
        "lineStyle": "dashed",
        "observationStatus": "estimated",
        "source": "reachable-set heuristic",
        "vessel": "B"
      },
      "type": "Feature"
    },
    {
      "geometry": {
        "coordinates": [
          -57.862488,
          -42.075588
        ],
        "type": "Point"
      },
      "properties": {
        "kind": "meetingPoint",
        "observationStatus": "estimated"
      },
      "type": "Feature"
    },
    {
      "geometry": {
        "coordinates": [
          [
            [
              -58.1951,
              -40.68718
            ],
            [
              -58.383065,
              -40.713738
            ],
            [
              -58.566637,
              -40.75394
            ],
            [
              -58.744047,
              -40.807398
            ],
            [
              -58.913588,
              -40.873598
            ],
            [
              -59.073626,
              -40.951902
            ],
            [
              -59.22262,
              -41.041555
            ],
            [
              -59.359136,
              -41.141695
            ],
            [
              -59.481858,
              -41.251357
            ],
            [
              -59.589604,
              -41.369484
            ],
            [
              -59.681338,
              -41.49494
            ],
            [
              -59.756175,
              -41.626516
            ],
            [
              -59.813394,
              -41.762945
            ],
            [
              -59.852446,
              -41.902913
            ],
            [
              -59.872953,
              -42.045072
            ],
            [
              -59.874718,
              -42.188053
            ],
            [
              -59.857725,
              -42.330479
            ],
            [
              -59.822136,
              -42.470978
            ],
            [
              -59.768295,
              -42.608198
            ],
            [
              -59.69672,
              -42.740816
            ],
            [
              -59.6081,
              -42.867556
            ],
            [
              -59.503289,
              -42.987197
            ],
            [
              -59.383297,
              -43.098587
            ],
            [
              -59.249278,
              -43.200653
            ],
            [
              -59.102524,
              -43.292411
            ],
            [
              -58.944447,
              -43.37298
            ],
            [
              -58.776571,
              -43.441582
            ],
            [
              -58.600511,
              -43.497556
            ],
            [
              -58.417964,
              -43.540365
            ],
            [
              -58.230688,
              -43.569595
            ],
            [
              -58.040486,
              -43.584964
            ],
            [
              -57.849189,
              -43.586326
            ],
            [
              -57.65864,
              -43.573667
            ],
            [
              -57.470675,
              -43.547109
            ],
            [
              -57.287103,
              -43.506907
            ],
            [
              -57.109693,
              -43.453448
            ],
            [
              -56.940152,
              -43.387249
            ],
            [
              -56.780114,
              -43.308945
            ],
            [
              -56.63112,
              -43.219292
            ],
            [
              -56.494604,
              -43.119152
            ],
            [
              -56.371882,
              -43.00949
            ],
            [
              -56.264136,
              -42.891362
            ],
            [
              -56.172402,
              -42.765906
            ],
            [
              -56.097565,
              -42.63433
            ],
            [
              -56.040346,
              -42.497901
            ],
            [
              -56.001294,
              -42.357933
            ],
            [
              -55.980787,
              -42.215775
            ],
            [
              -55.979022,
              -42.072794
            ],
            [
              -55.996015,
              -41.930368
            ],
            [
              -56.031604,
              -41.789868
            ],
            [
              -56.085445,
              -41.652649
            ],
            [
              -56.15702,
              -41.52003
            ],
            [
              -56.24564,
              -41.393291
            ],
            [
              -56.350451,
              -41.27365
            ],
            [
              -56.470443,
              -41.16226
            ],
            [
              -56.604462,
              -41.060194
            ],
            [
              -56.751216,
              -40.968435
            ],
            [
              -56.909293,
              -40.887867
            ],
            [
              -57.077169,
              -40.819265
            ],
            [
              -57.253229,
              -40.76329
            ],
            [
              -57.435776,
              -40.720482
            ],
            [
              -57.623052,
              -40.691252
            ],
            [
              -57.813254,
              -40.675882
            ],
            [
              -58.004551,
              -40.67452
            ],
            [
              -58.1951,
              -40.68718
            ]
          ]
        ],
        "type": "Polygon"
      },
      "properties": {
        "kind": "reachableSet",
        "observationStatus": "estimated",
        "vessel": "A"
      },
      "type": "Feature"
    },
    {
      "geometry": {
        "coordinates": [
          [
            [
              -58.240143,
              -40.771056
            ],
            [
              -58.415404,
              -40.80615
            ],
            [
              -58.585206,
              -40.853947
            ],
            [
              -58.747912,
              -40.913986
            ],
            [
              -58.901955,
              -40.98569
            ],
            [
              -59.045852,
              -41.068366
            ],
            [
              -59.178217,
              -41.16122
            ],
            [
              -59.297776,
              -41.263356
            ],
            [
              -59.403376,
              -41.373792
            ],
            [
              -59.494002,
              -41.491464
            ],
            [
              -59.568779,
              -41.615238
            ],
            [
              -59.626989,
              -41.743923
            ],
            [
              -59.66807,
              -41.876278
            ],
            [
              -59.691627,
              -42.011031
            ],
            [
              -59.697433,
              -42.146882
            ],
            [
              -59.685432,
              -42.282523
            ],
            [
              -59.655739,
              -42.416649
            ],
            [
              -59.608641,
              -42.547967
            ],
            [
              -59.544592,
              -42.675213
            ],
            [
              -59.464207,
              -42.797161
            ],
            [
              -59.368261,
              -42.912638
            ],
            [
              -59.257679,
              -43.02053
            ],
            [
              -59.133524,
              -43.119798
            ],
            [
              -58.996993,
              -43.209488
            ],
            [
              -58.849401,
              -43.288734
            ],
            [
              -58.692169,
              -43.356775
            ],
            [
              -58.526812,
              -43.412954
            ],
            [
              -58.354921,
              -43.45673
            ],
            [
              -58.178152,
              -43.487682
            ],
            [
              -57.998207,
              -43.505512
            ],
            [
              -57.816821,
              -43.510048
            ],
            [
              -57.635738,
              -43.501247
            ],
            [
              -57.456704,
              -43.479193
            ],
            [
              -57.281442,
              -43.444098
            ],
            [
              -57.111641,
              -43.396301
            ],
            [
              -56.948935,
              -43.336262
            ],
            [
              -56.794892,
              -43.264559
            ],
            [
              -56.650995,
              -43.181882
            ],
            [
              -56.51863,
              -43.089029
            ],
            [
              -56.399071,
              -42.986892
            ],
            [
              -56.29347,
              -42.876456
            ],
            [
              -56.202845,
              -42.758785
            ],
            [
              -56.128067,
              -42.63501
            ],
            [
              -56.069858,
              -42.506326
            ],
            [
              -56.028776,
              -42.37397
            ],
            [
              -56.00522,
              -42.239218
            ],
            [
              -55.999414,
              -42.103367
            ],
            [
              -56.011415,
              -41.967725
            ],
            [
              -56.041107,
              -41.833599
            ],
            [
              -56.088205,
              -41.702281
            ],
            [
              -56.152255,
              -41.575035
            ],
            [
              -56.23264,
              -41.453087
            ],
            [
              -56.328585,
              -41.337611
            ],
            [
              -56.439168,
              -41.229719
            ],
            [
              -56.563323,
              -41.13045
            ],
            [
              -56.699853,
              -41.04076
            ],
            [
              -56.847445,
              -40.961514
            ],
            [
              -57.004677,
              -40.893474
            ],
            [
              -57.170035,
              -40.837295
            ],
            [
              -57.341926,
              -40.793518
            ],
            [
              -57.518695,
              -40.762566
            ],
            [
              -57.698639,
              -40.744736
            ],
            [
              -57.880026,
              -40.7402
            ],
            [
              -58.061109,
              -40.749001
            ],
            [
              -58.240143,
              -40.771056
            ]
          ]
        ],
        "type": "Polygon"
      },
      "properties": {
        "kind": "reachableSet",
        "observationStatus": "estimated",
        "vessel": "B"
      },
      "type": "Feature"
    }
  ],
  "properties": {
    "dateline": false
  },
  "type": "FeatureCollection"
}
