{
  "features": [
    {
      "geometry": {
        "coordinates": [
          162.357525,
          48.578877
        ],
        "type": "Point"
      },
      "properties": {
        "mmsi": "416252900",
        "observationStatus": "observed",
        "role": "off",
        "time": "2018-08-02T02:01:55Z",
        "vessel": "A"
      },
      "type": "Feature"
    },
    {
      "geometry": {
        "coordinates": [
          162.293648,
          48.632462
        ],
        "type": "Point"
      },
      "properties": {
        "mmsi": "416236900",
        "observationStatus": "observed",
        "role": "off",
        "time": "2018-08-02T02:05:07Z",
        "vessel": "B"
      },
      "type": "Feature"
    },
    {
      "geometry": {
        "coordinates": [
          161.24258,
          48.247693
        ],
        "type": "Point"
      },
      "properties": {
        "mmsi": "416252900",
        "observationStatus": "observed",
        "role": "on",
        "time": "2018-08-02T18:42:07Z",
        "vessel": "A"
      },
      "type": "Feature"
    },
    {
      "geometry": {
        "coordinates": [
          161.236835,
          48.159578
        ],
        "type": "Point"
      },
      "properties": {
        "mmsi": "416236900",
        "observationStatus": "observed",
        "role": "on",
        "time": "2018-08-02T18:43:20Z",
        "vessel": "B"
      },
      "type": "Feature"
    },
    {
      "geometry": {
        "coordinates": [
          [
            162.357525,
            48.578877
          ],
          [
            161.683798,
            48.359005
          ],
          [
            161.24258,
            48.247693
          ]
        ],
        "type": "LineString"
      },
      "properties": {
        "confidence": "low",
        "lineStyle": "dashed",
        "observationStatus": "estimated",
        "source": "reachable-set heuristic",
        "vessel": "A"
      },
      "type": "Feature"
    },
    {
      "geometry": {
        "coordinates": [
          [
            162.293648,
            48.632462
          ],
          [
            161.683798,
            48.359005
          ],
          [
            161.236835,
            48.159578
          ]
        ],
        "type": "LineString"
      },
      "properties": {
        "confidence": "low",
        "lineStyle": "dashed",
        "observationStatus": "estimated",
        "source": "reachable-set heuristic",
        "vessel": "B"
      },
      "type": "Feature"
    },
    {
      "geometry": {
        "coordinates": [
          161.683798,
          48.359005
        ],
        "type": "Point"
      },
      "properties": {
        "kind": "meetingPoint",
        "observationStatus": "estimated"
      },
      "type": "Feature"
    },
    {
      "geometry": {
        "coordinates": [
          [
            [
              159.64663,
              47.773632
            ],
            [
              159.747623,
              47.640471
            ],
            [
              159.868382,
              47.514752
            ],
            [
              160.007744,
              47.397686
            ],
            [
              160.164367,
              47.290401
            ],
            [
              160.336742,
              47.19393
            ],
            [
              160.52321,
              47.109202
            ],
            [
              160.721974,
              47.037034
            ],
            [
              160.931121,
              46.978119
            ],
            [
              161.148636,
              46.933025
            ],
            [
              161.372425,
              46.902188
            ],
            [
              161.600332,
              46.885903
            ],
            [
              161.830163,
              46.884328
            ],
            [
              162.059703,
              46.897477
            ],
            [
              162.286743,
              46.925224
            ],
            [
              162.509096,
              46.967302
            ],
            [
              162.72462,
              47.023306
            ],
            [
              162.93124,
              47.092696
            ],
            [
              163.126967,
              47.174804
            ],
            [
              163.309914,
              47.26884
            ],
            [
              163.478321,
              47.373897
            ],
            [
              163.630565,
              47.488963
            ],
            [
              163.76518,
              47.612932
            ],
            [
              163.88087,
              47.744608
            ],
            [
              163.97652,
              47.882724
            ],
            [
              164.05121,
              48.02595
            ],
            [
              164.10422,
              48.172906
            ],
            [
              164.135039,
              48.322177
            ],
            [
              164.143372,
              48.472325
            ],
            [
              164.129137,
              48.621905
            ],
            [
              164.092471,
              48.769476
            ],
            [
              164.033729,
              48.913616
            ],
            [
              163.953475,
              49.052938
            ],
            [
              163.852482,
              49.186099
            ],
            [
              163.731723,
              49.311818
            ],
            [
              163.592361,
              49.428884
            ],
            [
              163.435738,
              49.536169
            ],
            [
              163.263363,
              49.63264
            ],
            [
              163.076895,
              49.717368
            ],
            [
              162.878131,
              49.789536
            ],
            [
              162.668984,
              49.848451
            ],
            [
              162.451469,
              49.893545
            ],
            [
              162.22768,
              49.924382
            ],
            [
              161.999773,
              49.940667
            ],
            [
              161.769942,
              49.942242
            ],
            [
              161.540402,
              49.929093
            ],
            [
              161.313362,
              49.901346
            ],
            [
              161.091009,
              49.859268
            ],
            [
              160.875485,
              49.803264
            ],
            [
              160.668865,
              49.733874
            ],
            [
              160.473138,
              49.651766
            ],
            [
              160.290191,
              49.55773
            ],
            [
              160.121784,
              49.452673
            ],
            [
              159.96954,
              49.337607
            ],
            [
              159.834925,
              49.213638
            ],
            [
              159.719235,
              49.081962
            ],
            [
              159.623585,
              48.943846
            ],
            [
              159.548895,
              48.80062
            ],
            [
              159.495885,
              48.653664
            ],
            [
              159.465066,
              48.504393
            ],
            [
              159.456733,
              48.354245
            ],
            [
              159.470968,
              48.204665
            ],
            [
              159.507634,
              48.057094
            ],
            [
              159.566376,
              47.912954
            ],
            [
              159.64663,
              47.773632
            ]
          ]
        ],
        "type": "Polygon"
      },
      "properties": {
        "kind": "reachableSet",
        "observationStatus": "estimated",
        "vessel": "A"
      },
      "type": "Feature"
    },
    {
      "geometry": {
        "coordinates": [
          [
            [
              159.811692,
              47.521882
            ],
            [
              159.944493,
              47.40286
            ],
            [
              160.094829,
              47.293404
            ],
            [
              160.261251,
              47.194566
            ],
            [
              160.442158,
              47.107299
            ],
            [
              160.635807,
              47.032443
            ],
            [
              160.840334,
              46.970719
            ],
            [
              161.053767,
              46.922721
            ],
            [
              161.274052,
              46.888912
            ],
            [
              161.499068,
              46.869618
            ],
            [
              161.726647,
              46.865023
            ],
            [
              161.954598,
              46.875173
            ],
            [
              162.180726,
              46.899969
            ],
            [
              162.402851,
              46.939173
            ],
            [
              162.618837,
              46.992408
            ],
            [
              162.826602,
              47.05916
            ],
            [
              163.024145,
              47.138786
            ],
            [
              163.209564,
              47.230521
            ],
            [
              163.381074,
              47.33348
            ],
            [
              163.537023,
              47.446671
            ],
            [
              163.675908,
              47.569006
            ],
            [
              163.796392,
              47.699305
            ],
            [
              163.897316,
              47.836314
            ],
            [
              163.977706,
              47.978713
            ],
            [
              164.036789,
              48.125131
            ],
            [
              164.073996,
              48.274158
            ],
            [
              164.088968,
              48.424358
            ],
            [
              164.081562,
              48.574285
            ],
            [
              164.051848,
              48.722496
            ],
            [
              164.000113,
              48.867563
            ],
            [
              163.926854,
              49.008088
            ],
            [
              163.832779,
              49.142719
            ],
            [
              163.718791,
              49.270158
            ],
            [
              163.585991,
              49.38918
            ],
            [
              163.435655,
              49.498636
            ],
            [
              163.269232,
              49.597474
            ],
            [
              163.088325,
              49.684741
            ],
            [
              162.894676,
              49.759597
            ],
            [
              162.69015,
              49.821321
            ],
            [
              162.476716,
              49.869319
            ],
            [
              162.256431,
              49.903128
            ],
            [
              162.031415,
              49.922422
            ],
            [
              161.803836,
              49.927017
            ],
            [
              161.575885,
              49.916867
            ],
            [
              161.349758,
              49.892071
            ],
            [
              161.127632,
              49.852867
            ],
            [
              160.911647,
              49.799632
            ],
            [
              160.703882,
              49.73288
            ],
            [
              160.506338,
              49.653254
            ],
            [
              160.320919,
              49.561519
            ],
            [
              160.149409,
              49.45856
            ],
            [
              159.993461,
              49.345369
            ],
            [
              159.854576,
              49.223034
            ],
            [
              159.734091,
              49.092735
            ],
            [
              159.633168,
              48.955726
            ],
            [
              159.552777,
              48.813327
            ],
            [
              159.493694,
              48.666909
            ],
            [
              159.456487,
              48.517882
            ],
            [
              159.441515,
              48.367682
            ],
            [
              159.448922,
              48.217755
            ],
            [
              159.478636,
              48.069544
            ],
            [
              159.530371,
              47.924477
            ],
            [
              159.603629,
              47.783952
            ],
            [
              159.697705,
              47.649321
            ],
            [
              159.811692,
              47.521882
            ]
          ]
        ],
        "type": "Polygon"
      },
      "properties": {
        "kind": "reachableSet",
        "observationStatus": "estimated",
        "vessel": "B"
      },
      "type": "Feature"
    }
  ],
  "properties": {
    "dateline": false
  },
  "type": "FeatureCollection"
}
