{
  "features": [
    {
      "geometry": {
        "coordinates": [
          -60.782553,
          -47.133695
        ],
        "type": "Point"
      },
      "properties": {
        "mmsi": "412424703",
        "observationStatus": "observed",
        "role": "off",
        "time": "2019-03-25T16:05:27Z",
        "vessel": "A"
      },
      "type": "Feature"
    },
    {
      "geometry": {
        "coordinates": [
          -60.762712,
          -47.114655
        ],
        "type": "Point"
      },
      "properties": {
        "mmsi": "412420315",
        "observationStatus": "observed",
        "role": "off",
        "time": "2019-03-25T16:06:37Z",
        "vessel": "B"
      },
      "type": "Feature"
    },
    {
      "geometry": {
        "coordinates": [
          -60.713163,
          -47.035332
        ],
        "type": "Point"
      },
      "properties": {
        "mmsi": "412424703",
        "observationStatus": "observed",
        "role": "on",
        "time": "2019-03-26T10:00:44Z",
        "vessel": "A"
      },
      "type": "Feature"
    },
    {
      "geometry": {
        "coordinates": [
          -60.72965,
          -47.023795
        ],
        "type": "Point"
      },
      "properties": {
        "mmsi": "412420315",
        "observationStatus": "observed",
        "role": "on",
        "time": "2019-03-26T10:29:34Z",
        "vessel": "B"
      },
      "type": "Feature"
    },
    {
      "geometry": {
        "coordinates": [
          [
            -60.782553,
            -47.133695
          ],
          [
            -60.747858,
            -47.084119
          ],
          [
            -60.713163,
            -47.035332
          ]
        ],
        "type": "LineString"
      },
      "properties": {
        "confidence": "low",
        "lineStyle": "dashed",
        "observationStatus": "estimated",
        "source": "reachable-set heuristic",
        "vessel": "A"
      },
      "type": "Feature"
    },
    {
      "geometry": {
        "coordinates": [
          [
            -60.762712,
            -47.114655
          ],
          [
            -60.747858,
            -47.084119
          ],
          [
            -60.72965,
            -47.023795
          ]
        ],
        "type": "LineString"
      },
      "properties": {
        "confidence": "low",
        "lineStyle": "dashed",
        "observationStatus": "estimated",
        "source": "reachable-set heuristic",
        "vessel": "B"
      },
      "type": "Feature"
    },
    {
      "geometry": {
        "coordinates": [
          -60.747858,
          -47.084119
        ],
        "type": "Point"
      },
      "properties": {
        "kind": "meetingPoint",
        "observationStatus": "estimated"
      },
      "type": "Feature"
    },
    {
      "geometry": {
        "coordinates": [
          [
            [
              -59.667872,
              -45.553585
            ],
            [
              -59.891849,
              -45.488425
            ],
            [
              -60.12407,
              -45.438637
            ],
            [
              -60.362298,
              -45.404699
            ],
            [
              -60.60424,
              -45.386939
            ],
            [
              -60.847565,
              -45.385527
            ],
            [
              -61.08993,
              -45.400477
            ],
            [
              -61.329,
              -45.431646
            ],
            [
              -61.562473,
              -45.478732
            ],
            [
              -61.788102,
              -45.541283
            ],
            [
              -62.003712,
              -45.618697
            ],
            [
              -62.207228,
              -45.710227
            ],
            [
              -62.396689,
              -45.814992
            ],
            [
              -62.570271,
              -45.931983
            ],
            [
              -62.726302,
              -46.060073
            ],
            [
              -62.86328,
              -46.19803
            ],
            [
              -62.979885,
              -46.344524
            ],
            [
              -63.074994,
              -46.498144
            ],
            [
              -63.147692,
              -46.657412
            ],
            [
              -63.197278,
              -46.820793
            ],
            [
              -63.223275,
              -46.986713
            ],
            [
              -63.225432,
              -47.153576
            ],
            [
              -63.203729,
              -47.319773
            ],
            [
              -63.158374,
              -47.483704
            ],
            [
              -63.089805,
              -47.643791
            ],
            [
              -62.998682,
              -47.798492
            ],
            [
              -62.885882,
              -47.946317
            ],
            [
              -62.752492,
              -48.085843
            ],
            [
              -62.599795,
              -48.215725
            ],
            [
              -62.429264,
              -48.334713
            ],
            [
              -62.24254,
              -48.44166
            ],
            [
              -62.041421,
              -48.535538
            ],
            [
              -61.827845,
              -48.615441
            ],
            [
              -61.603868,
              -48.680601
            ],
            [
              -61.371647,
              -48.73039
            ],
            [
              -61.133418,
              -48.764328
            ],
            [
              -60.891476,
              -48.782088
            ],
            [
              -60.648152,
              -48.7835
            ],
            [
              -60.405787,
              -48.76855
            ],
            [
              -60.166717,
              -48.737381
            ],
            [
              -59.933243,
              -48.690294
            ],
            [
              -59.707615,
              -48.627743
            ],
            [
              -59.492005,
              -48.55033
            ],
            [
              -59.288489,
              -48.4588
            ],
            [
              -59.099028,
              -48.354035
            ],
            [
              -58.925446,
              -48.237044
            ],
            [
              -58.769415,
              -48.108953
            ],
            [
              -58.632437,
              -47.970997
            ],
            [
              -58.515832,
              -47.824503
            ],
            [
              -58.420723,
              -47.670882
            ],
            [
              -58.348025,
              -47.511615
            ],
            [
              -58.298439,
              -47.348234
            ],
            [
              -58.272442,
              -47.182314
            ],
            [
              -58.270285,
              -47.015451
            ],
            [
              -58.291988,
              -46.849254
            ],
            [
              -58.337342,
              -46.685322
            ],
            [
              -58.405911,
              -46.525235
            ],
            [
              -58.497035,
              -46.370534
            ],
            [
              -58.609835,
              -46.222709
            ],
            [
              -58.743225,
              -46.083184
            ],
            [
              -58.895921,
              -45.953302
            ],
            [
              -59.066452,
              -45.834314
            ],
            [
              -59.253176,
              -45.727366
            ],
            [
              -59.454295,
              -45.633489
            ],
            [
              -59.667872,
              -45.553585
            ]
          ]
        ],
        "type": "Polygon"
      },
      "properties": {
        "kind": "reachableSet",
        "observationStatus": "estimated",
        "vessel": "A"
      },
      "type": "Feature"
    },
    {
      "geometry": {
        "coordinates": [
          [
            [
              -60.129439,
              -45.374296
            ],
            [
              -60.37459,
              -45.341019
            ],
            [
              -60.623321,
              -45.324385
            ],
            [
              -60.873234,
              -45.324555
            ],
            [
              -61.121924,
              -45.341528
            ],
            [
              -61.366995,
              -45.375139
            ],
            [
              -61.606088,
              -45.425065
            ],
            [
              -61.836899,
              -45.490825
            ],
            [
              -62.057206,
              -45.571786
            ],
            [
              -62.264887,
              -45.667168
            ],
            [
              -62.457942,
              -45.776053
            ],
            [
              -62.634512,
              -45.897392
            ],
            [
              -62.792896,
              -46.030016
            ],
            [
              -62.931569,
              -46.172648
            ],
            [
              -63.049196,
              -46.323915
            ],
            [
              -63.144644,
              -46.482359
            ],
            [
              -63.216993,
              -46.646456
            ],
            [
              -63.265546,
              -46.814624
            ],
            [
              -63.289837,
              -46.985243
            ],
            [
              -63.289631,
              -47.156672
            ],
            [
              -63.26493,
              -47.327258
            ],
            [
              -63.215972,
              -47.49536
            ],
            [
              -63.143229,
              -47.659357
            ],
            [
              -63.047401,
              -47.817672
            ],
            [
              -62.929411,
              -47.968778
            ],
            [
              -62.790395,
              -48.111221
            ],
            [
              -62.631693,
              -48.243629
            ],
            [
              -62.454831,
              -48.364727
            ],
            [
              -62.261515,
              -48.473349
            ],
            [
              -62.053605,
              -48.568448
            ],
            [
              -61.833104,
              -48.649108
            ],
            [
              -61.602135,
              -48.714554
            ],
            [
              -61.362923,
              -48.764154
            ],
            [
              -61.117771,
              -48.797431
            ],
            [
              -60.869041,
              -48.814065
            ],
            [
              -60.619127,
              -48.813895
            ],
            [
              -60.370438,
              -48.796922
            ],
            [
              -60.125366,
              -48.763311
            ],
            [
              -59.886274,
              -48.713385
            ],
            [
              -59.655463,
              -48.647625
            ],
            [
              -59.435156,
              -48.566664
            ],
            [
              -59.227475,
              -48.471282
            ],
            [
              -59.03442,
              -48.362397
            ],
            [
              -58.85785,
              -48.241058
            ],
            [
              -58.699465,
              -48.108434
            ],
            [
              -58.560792,
              -47.965802
            ],
            [
              -58.443166,
              -47.814535
            ],
            [
              -58.347718,
              -47.656091
            ],
            [
              -58.275369,
              -47.491994
            ],
            [
              -58.226815,
              -47.323826
            ],
            [
              -58.202525,
              -47.153207
            ],
            [
              -58.202731,
              -46.981778
            ],
            [
              -58.227432,
              -46.811192
            ],
            [
              -58.276389,
              -46.64309
            ],
            [
              -58.349132,
              -46.479093
            ],
            [
              -58.444961,
              -46.320778
            ],
            [
              -58.562951,
              -46.169672
            ],
            [
              -58.701966,
              -46.027229
            ],
            [
              -58.860669,
              -45.894821
            ],
            [
              -59.03753,
              -45.773723
            ],
            [
              -59.230847,
              -45.665101
            ],
            [
              -59.438757,
              -45.570002
            ],
            [
              -59.659258,
              -45.489342
            ],
            [
              -59.890227,
              -45.423896
            ],
            [
              -60.129439,
              -45.374296
            ]
          ]
        ],
        "type": "Polygon"
      },
      "properties": {
        "kind": "reachableSet",
        "observationStatus": "estimated",
        "vessel": "B"
      },
      "type": "Feature"
    }
  ],
  "properties": {
    "dateline": false
  },
  "type": "FeatureCollection"
}
