{
  "features": [
    {
      "geometry": {
        "coordinates": [
          -60.704775,
          -46.840342
        ],
        "type": "Point"
      },
      "properties": {
        "mmsi": "412329693",
        "observationStatus": "observed",
        "role": "off",
        "time": "2017-05-02T21:39:29Z",
        "vessel": "A"
      },
      "type": "Feature"
    },
    {
      "geometry": {
        "coordinates": [
          -60.630552,
          -46.766575
        ],
        "type": "Point"
      },
      "properties": {
        "mmsi": "412329686",
        "observationStatus": "observed",
        "role": "off",
        "time": "2017-05-02T22:24:11Z",
        "vessel": "B"
      },
      "type": "Feature"
    },
    {
      "geometry": {
        "coordinates": [
          -60.384977,
          -46.472128
        ],
        "type": "Point"
      },
      "properties": {
        "mmsi": "412329693",
        "observationStatus": "observed",
        "role": "on",
        "time": "2017-05-04T08:44:09Z",
        "vessel": "A"
      },
      "type": "Feature"
    },
    {
      "geometry": {
        "coordinates": [
          -60.349567,
          -46.428463
        ],
        "type": "Point"
      },
      "properties": {
        "mmsi": "412329686",
        "observationStatus": "observed",
        "role": "on",
        "time": "2017-05-04T09:12:28Z",
        "vessel": "B"
      },
      "type": "Feature"
    },
    {
      "geometry": {
        "coordinates": [
          [
            -60.704775,
            -46.840342
          ],
          [
            -60.503165,
            -46.614411
          ],
          [
            -60.384977,
            -46.472128
          ]
        ],
        "type": "LineString"
      },
      "properties": {
        "confidence": "low",
        "lineStyle": "dashed",
        "observationStatus": "estimated",
        "source": "reachable-set heuristic",
        "vessel": "A"
      },
      "type": "Feature"
    },
    {
      "geometry": {
        "coordinates": [
          [
            -60.630552,
            -46.766575
          ],
          [
            -60.503165,
            -46.614411
          ],
          [
            -60.349567,
            -46.428463
          ]
        ],
        "type": "LineString"
      },
      "properties": {
        "confidence": "low",
        "lineStyle": "dashed",
        "observationStatus": "estimated",
        "source": "reachable-set heuristic",
        "vessel": "B"
      },
      "type": "Feature"
    },
    {
      "geometry": {
        "coordinates": [
          -60.503165,
          -46.614411
        ],
        "type": "Point"
      },
      "properties": {
        "kind": "meetingPoint",
        "observationStatus": "estimated"
      },
      "type": "Feature"
    },
    {
      "geometry": {
        "coordinates": [
          [
            [
              -57.781988,
              -43.475068
            ],
            [
              -58.24576,
              -43.303562
            ],
            [
              -58.731673,
              -43.164344
            ],
            [
              -59.235048,
              -43.058754
            ],
            [
              -59.751038,
              -42.987811
            ],
            [
              -60.274672,
              -42.952196
            ],
            [
              -60.800909,
              -42.952254
            ],
            [
              -61.32468,
              -42.987982
            ],
            [
              -61.840941,
              -43.059038
            ],
            [
              -62.344721,
              -43.164737
            ],
            [
              -62.831167,
              -43.304061
            ],
            [
              -63.295594,
              -43.475668
            ],
            [
              -63.733531,
              -43.677906
            ],
            [
              -64.140759,
              -43.908827
            ],
            [
              -64.513357,
              -44.166207
            ],
            [
              -64.847736,
              -44.447567
            ],
            [
              -65.140677,
              -44.750198
            ],
            [
              -65.389357,
              -45.071185
            ],
            [
              -65.591382,
              -45.407437
            ],
            [
              -65.744807,
              -45.755715
            ],
            [
              -65.848153,
              -46.112666
            ],
            [
              -65.900427,
              -46.474852
            ],
            [
              -65.901123,
              -46.838785
            ],
            [
              -65.850235,
              -47.200959
            ],
            [
              -65.748254,
              -47.557888
            ],
            [
              -65.596162,
              -47.906133
            ],
            [
              -65.395423,
              -48.242341
            ],
            [
              -65.147971,
              -48.563274
            ],
            [
              -64.856188,
              -48.865841
            ],
            [
              -64.522885,
              -49.147129
            ],
            [
              -64.151271,
              -49.404428
            ],
            [
              -63.744926,
              -49.63526
            ],
            [
              -63.307763,
              -49.837402
            ],
            [
              -62.843992,
              -50.008908
            ],
            [
              -62.358079,
              -50.148126
            ],
            [
              -61.854704,
              -50.253716
            ],
            [
              -61.338714,
              -50.324659
            ],
            [
              -60.815079,
              -50.360274
            ],
            [
              -60.288842,
              -50.360216
            ],
            [
              -59.765071,
              -50.324488
            ],
            [
              -59.24881,
              -50.253432
            ],
            [
              -58.745031,
              -50.147733
            ],
            [
              -58.258585,
              -50.008409
            ],
            [
              -57.794157,
              -49.836802
            ],
            [
              -57.356221,
              -49.634564
            ],
            [
              -56.948992,
              -49.403643
            ],
            [
              -56.576394,
              -49.146263
            ],
            [
              -56.242015,
              -48.864903
            ],
            [
              -55.949075,
              -48.562272
            ],
            [
              -55.700395,
              -48.241285
            ],
            [
              -55.498369,
              -47.905033
            ],
            [
              -55.344945,
              -47.556755
            ],
            [
              -55.241598,
              -47.199804
            ],
            [
              -55.189325,
              -46.837618
            ],
            [
              -55.188629,
              -46.473685
            ],
            [
              -55.239516,
              -46.111511
            ],
            [
              -55.341497,
              -45.754582
            ],
            [
              -55.49359,
              -45.406337
            ],
            [
              -55.694329,
              -45.070129
            ],
            [
              -55.941781,
              -44.749196
            ],
            [
              -56.233564,
              -44.446629
            ],
            [
              -56.566867,
              -44.165341
            ],
            [
              -56.93848,
              -43.908042
            ],
            [
              -57.344825,
              -43.67721
            ],
            [
              -57.781988,
              -43.475068
            ]
          ]
        ],
        "type": "Polygon"
      },
      "properties": {
        "kind": "reachableSet",
        "observationStatus": "estimated",
        "vessel": "A"
      },
      "type": "Feature"
    },
    {
      "geometry": {
        "coordinates": [
          [
            [
              -57.838455,
              -43.406821
            ],
            [
              -58.302673,
              -43.242642
            ],
            [
              -58.787957,
              -43.110773
            ],
            [
              -59.289633,
              -43.012483
            ],
            [
              -59.802869,
              -42.948718
            ],
            [
              -60.322724,
              -42.920094
            ],
            [
              -60.84419,
              -42.926885
            ],
            [
              -61.362246,
              -42.969027
            ],
            [
              -61.871902,
              -43.046113
            ],
            [
              -62.36825,
              -43.1574
            ],
            [
              -62.84651,
              -43.301818
            ],
            [
              -63.302077,
              -43.477976
            ],
            [
              -63.730562,
              -43.684176
            ],
            [
              -64.127839,
              -43.918434
            ],
            [
              -64.490082,
              -44.178492
            ],
            [
              -64.813803,
              -44.461847
            ],
            [
              -65.095884,
              -44.76577
            ],
            [
              -65.333608,
              -45.087333
            ],
            [
              -65.524687,
              -45.423441
            ],
            [
              -65.667279,
              -45.770855
            ],
            [
              -65.760011,
              -46.126231
            ],
            [
              -65.801992,
              -46.486145
            ],
            [
              -65.792815,
              -46.847132
            ],
            [
              -65.73257,
              -47.205715
            ],
            [
              -65.621836,
              -47.558441
            ],
            [
              -65.461681,
              -47.901913
            ],
            [
              -65.253647,
              -48.232822
            ],
            [
              -64.999736,
              -48.547983
            ],
            [
              -64.702395,
              -48.84436
            ],
            [
              -64.364486,
              -49.119098
            ],
            [
              -63.989265,
              -49.369552
            ],
            [
              -63.580345,
              -49.59331
            ],
            [
              -63.141663,
              -49.788217
            ],
            [
              -62.677445,
              -49.952396
            ],
            [
              -62.192162,
              -50.084265
            ],
            [
              -61.690486,
              -50.182556
            ],
            [
              -61.177249,
              -50.24632
            ],
            [
              -60.657394,
              -50.274944
            ],
            [
              -60.135928,
              -50.268153
            ],
            [
              -59.617872,
              -50.226012
            ],
            [
              -59.108216,
              -50.148926
            ],
            [
              -58.611868,
              -50.037638
            ],
            [
              -58.133608,
              -49.89322
            ],
            [
              -57.678042,
              -49.717063
            ],
            [
              -57.249557,
              -49.510862
            ],
            [
              -56.85228,
              -49.276605
            ],
            [
              -56.490036,
              -49.016546
            ],
            [
              -56.166315,
              -48.733191
            ],
            [
              -55.884234,
              -48.429269
            ],
            [
              -55.64651,
              -48.107705
            ],
            [
              -55.455432,
              -47.771598
            ],
            [
              -55.31284,
              -47.424183
            ],
            [
              -55.220107,
              -47.068808
            ],
            [
              -55.178127,
              -46.708893
            ],
            [
              -55.187303,
              -46.347906
            ],
            [
              -55.247549,
              -45.989323
            ],
            [
              -55.358282,
              -45.636597
            ],
            [
              -55.518437,
              -45.293126
            ],
            [
              -55.726472,
              -44.962216
            ],
            [
              -55.980382,
              -44.647055
            ],
            [
              -56.277724,
              -44.350679
            ],
            [
              -56.615632,
              -44.07594
            ],
            [
              -56.990853,
              -43.825486
            ],
            [
              -57.399773,
              -43.601728
            ],
            [
              -57.838455,
              -43.406821
            ]
          ]
        ],
        "type": "Polygon"
      },
      "properties": {
        "kind": "reachableSet",
        "observationStatus": "estimated",
        "vessel": "B"
      },
      "type": "Feature"
    }
  ],
  "properties": {
    "dateline": false
  },
  "type": "FeatureCollection"
}
