{
  "features": [
    {
      "geometry": {
        "coordinates": [
          -57.981818,
          -42.092638
        ],
        "type": "Point"
      },
      "properties": {
        "mmsi": "412328763",
        "observationStatus": "observed",
        "role": "off",
        "time": "2018-12-14T15:19:43Z",
        "vessel": "A"
      },
      "type": "Feature"
    },
    {
      "geometry": {
        "coordinates": [
          -57.90472,
          -42.101787
        ],
        "type": "Point"
      },
      "properties": {
        "mmsi": "412328762",
        "observationStatus": "observed",
        "role": "off",
        "time": "2018-12-14T15:48:08Z",
        "vessel": "B"
      },
      "type": "Feature"
    },
    {
      "geometry": {
        "coordinates": [
          -57.897585,
          -41.979738
        ],
        "type": "Point"
      },
      "properties": {
        "mmsi": "412328763",
        "observationStatus": "observed",
        "role": "on",
        "time": "2018-12-15T07:59:58Z",
        "vessel": "A"
      },
      "type": "Feature"
    },
    {
      "geometry": {
        "coordinates": [
          -57.93008,
          -42.026827
        ],
        "type": "Point"
      },
      "properties": {
        "mmsi": "412328762",
        "observationStatus": "observed",
        "role": "on",
        "time": "2018-12-15T08:30:07Z",
        "vessel": "B"
      },
      "type": "Feature"
    },
    {
      "geometry": {
        "coordinates": [
          [
            -57.981818,
            -42.092638
          ],
          [
            -57.89992,
            -42.018524
          ],
          [
            -57.897585,
            -41.979738
          ]
        ],
        "type": "LineString"
      },
      "properties": {
        "confidence": "low",
        "lineStyle": "dashed",
        "observationStatus": "estimated",
        "source": "reachable-set heuristic",
        "vessel": "A"
      },
      "type": "Feature"
    },
    {
      "geometry": {
        "coordinates": [
          [
            -57.90472,
            -42.101787
          ],
          [
            -57.89992,
            -42.018524
          ],
          [
            -57.93008,
            -42.026827
          ]
        ],
        "type": "LineString"
      },
      "properties": {
        "confidence": "low",
        "lineStyle": "dashed",
        "observationStatus": "estimated",
        "source": "reachable-set heuristic",
        "vessel": "B"
      },
      "type": "Feature"
    },
    {
      "geometry": {
        "coordinates": [
          -57.89992,
          -42.018524
        ],
        "type": "Point"
      },
      "properties": {
        "kind": "meetingPoint",
        "observationStatus": "estimated"
      },
      "type": "Feature"
    },
    {
      "geometry": {
        "coordinates": [
          [
            [
              -56.913589,
              -40.660865
            ],
            [
              -57.098657,
              -40.592344
            ],
            [
              -57.291825,
              -40.537727
            ],
            [
              -57.491232,
              -40.497542
            ],
            [
              -57.694958,
              -40.472175
            ],
            [
              -57.901041,
              -40.46187
            ],
            [
              -58.107496,
              -40.466727
            ],
            [
              -58.312336,
              -40.486698
            ],
            [
              -58.513586,
              -40.521592
            ],
            [
              -58.70931,
              -40.571072
            ],
            [
              -58.897623,
              -40.634662
            ],
            [
              -59.076709,
              -40.71175
            ],
            [
              -59.244846,
              -40.801593
            ],
            [
              -59.400414,
              -40.903325
            ],
            [
              -59.541914,
              -41.015968
            ],
            [
              -59.667984,
              -41.138436
            ],
            [
              -59.77741,
              -41.269549
            ],
            [
              -59.869137,
              -41.408046
            ],
            [
              -59.942283,
              -41.552592
            ],
            [
              -59.996143,
              -41.701796
            ],
            [
              -60.030199,
              -41.85422
            ],
            [
              -60.044121,
              -42.008396
            ],
            [
              -60.037777,
              -42.16284
            ],
            [
              -60.011228,
              -42.316064
            ],
            [
              -59.964728,
              -42.466593
            ],
            [
              -59.898727,
              -42.612977
            ],
            [
              -59.813859,
              -42.753806
            ],
            [
              -59.710941,
              -42.887724
            ],
            [
              -59.590966,
              -43.013441
            ],
            [
              -59.455088,
              -43.129747
            ],
            [
              -59.304617,
              -43.235521
            ],
            [
              -59.141,
              -43.329745
            ],
            [
              -58.965814,
              -43.411512
            ],
            [
              -58.780746,
              -43.480033
            ],
            [
              -58.587578,
              -43.534649
            ],
            [
              -58.388171,
              -43.574834
            ],
            [
              -58.184445,
              -43.600202
            ],
            [
              -57.978362,
              -43.610506
            ],
            [
              -57.771907,
              -43.60565
            ],
            [
              -57.567068,
              -43.585678
            ],
            [
              -57.365817,
              -43.550785
            ],
            [
              -57.170093,
              -43.501304
            ],
            [
              -56.981781,
              -43.437714
            ],
            [
              -56.802694,
              -43.360627
            ],
            [
              -56.634557,
              -43.270784
            ],
            [
              -56.478989,
              -43.169052
            ],
            [
              -56.337489,
              -43.056409
            ],
            [
              -56.211419,
              -42.933941
            ],
            [
              -56.101994,
              -42.802827
            ],
            [
              -56.010266,
              -42.664331
            ],
            [
              -55.93712,
              -42.519784
            ],
            [
              -55.88326,
              -42.370581
            ],
            [
              -55.849205,
              -42.218157
            ],
            [
              -55.835282,
              -42.063981
            ],
            [
              -55.841626,
              -41.909537
            ],
            [
              -55.868175,
              -41.756312
            ],
            [
              -55.914675,
              -41.605784
            ],
            [
              -55.980677,
              -41.4594
            ],
            [
              -56.065545,
              -41.318571
            ],
            [
              -56.168462,
              -41.184653
            ],
            [
              -56.288437,
              -41.058935
            ],
            [
              -56.424315,
              -40.942629
            ],
            [
              -56.574787,
              -40.836855
            ],
            [
              -56.738404,
              -40.742631
            ],
            [
              -56.913589,
              -40.660865
            ]
          ]
        ],
        "type": "Polygon"
      },
      "properties": {
        "kind": "reachableSet",
        "observationStatus": "estimated",
        "vessel": "A"
      },
      "type": "Feature"
    },
    {
      "geometry": {
        "coordinates": [
          [
            [
              -58.434897,
              -40.534671
            ],
            [
              -58.63294,
              -40.579937
            ],
            [
              -58.824092,
              -40.639499
            ],
            [
              -59.006512,
              -40.712782
            ],
            [
              -59.178443,
              -40.799082
            ],
            [
              -59.33823,
              -40.897566
            ],
            [
              -59.484333,
              -41.007286
            ],
            [
              -59.615346,
              -41.127187
            ],
            [
              -59.730007,
              -41.256112
            ],
            [
              -59.827211,
              -41.39282
            ],
            [
              -59.906023,
              -41.535996
            ],
            [
              -59.965683,
              -41.684259
            ],
            [
              -60.005617,
              -41.836182
            ],
            [
              -60.025441,
              -41.990303
            ],
            [
              -60.024963,
              -42.145136
            ],
            [
              -60.004188,
              -42.29919
            ],
            [
              -59.963316,
              -42.450983
            ],
            [
              -59.902741,
              -42.599051
            ],
            [
              -59.823045,
              -42.74197
            ],
            [
              -59.724998,
              -42.878363
            ],
            [
              -59.609542,
              -43.006915
            ],
            [
              -59.47779,
              -43.12639
            ],
            [
              -59.331011,
              -43.235636
            ],
            [
              -59.170618,
              -43.333602
            ],
            [
              -58.998155,
              -43.419344
            ],
            [
              -58.815285,
              -43.492036
            ],
            [
              -58.623767,
              -43.550978
            ],
            [
              -58.425446,
              -43.595603
            ],
            [
              -58.222233,
              -43.625481
            ],
            [
              -58.016084,
              -43.640323
            ],
            [
              -57.808985,
              -43.639988
            ],
            [
              -57.60293,
              -43.624478
            ],
            [
              -57.399903,
              -43.593943
            ],
            [
              -57.20186,
              -43.548676
            ],
            [
              -57.010708,
              -43.489114
            ],
            [
              -56.828288,
              -43.415831
            ],
            [
              -56.656357,
              -43.329532
            ],
            [
              -56.49657,
              -43.231047
            ],
            [
              -56.350467,
              -43.121327
            ],
            [
              -56.219454,
              -43.001427
            ],
            [
              -56.104793,
              -42.872501
            ],
            [
              -56.007589,
              -42.735793
            ],
            [
              -55.928777,
              -42.592618
            ],
            [
              -55.869117,
              -42.444354
            ],
            [
              -55.829183,
              -42.292431
            ],
            [
              -55.809359,
              -42.138311
            ],
            [
              -55.809837,
              -41.983478
            ],
            [
              -55.830612,
              -41.829423
            ],
            [
              -55.871484,
              -41.677631
            ],
            [
              -55.932059,
              -41.529562
            ],
            [
              -56.011755,
              -41.386643
            ],
            [
              -56.109802,
              -41.250251
            ],
            [
              -56.225258,
              -41.121698
            ],
            [
              -56.35701,
              -41.002223
            ],
            [
              -56.503789,
              -40.892977
            ],
            [
              -56.664182,
              -40.795011
            ],
            [
              -56.836645,
              -40.709269
            ],
            [
              -57.019515,
              -40.636577
            ],
            [
              -57.211033,
              -40.577635
            ],
            [
              -57.409354,
              -40.53301
            ],
            [
              -57.612567,
              -40.503133
            ],
            [
              -57.818716,
              -40.48829
            ],
            [
              -58.025815,
              -40.488625
            ],
            [
              -58.23187,
              -40.504135
            ],
            [
              -58.434897,
              -40.534671
            ]
          ]
        ],
        "type": "Polygon"
      },
      "properties": {
        "kind": "reachableSet",
        "observationStatus": "estimated",
        "vessel": "B"
      },
      "type": "Feature"
    }
  ],
  "properties": {
    "dateline": false
  },
  "type": "FeatureCollection"
}
