{
  "features": [
    {
      "geometry": {
        "coordinates": [
          160.698973,
          41.541107
        ],
        "type": "Point"
      },
      "properties": {
        "mmsi": "416004545",
        "observationStatus": "observed",
        "role": "off",
        "time": "2017-09-02T05:54:47Z",
        "vessel": "A"
      },
      "type": "Feature"
    },
    {
      "geometry": {
        "coordinates": [
          160.714953,
          41.582863
        ],
        "type": "Point"
      },
      "properties": {
        "mmsi": "416536000",
        "observationStatus": "observed",
        "role": "off",
        "time": "2017-09-02T05:57:16Z",
        "vessel": "B"
      },
      "type": "Feature"
    },
    {
      "geometry": {
        "coordinates": [
          163.118173,
          41.284067
        ],
        "type": "Point"
      },
      "properties": {
        "mmsi": "416004545",
        "observationStatus": "observed",
        "role": "on",
        "time": "2017-09-02T18:53:51Z",
        "vessel": "A"
      },
      "type": "Feature"
    },
    {
      "geometry": {
        "coordinates": [
          163.10031,
          41.300442
        ],
        "type": "Point"
      },
      "properties": {
        "mmsi": "416536000",
        "observationStatus": "observed",
        "role": "on",
        "time": "2017-09-02T19:04:07Z",
        "vessel": "B"
      },
      "type": "Feature"
    },
    {
      "geometry": {
        "coordinates": [
          [
            160.698973,
            41.541107
          ],
          [
            161.657061,
            41.465581
          ],
          [
            163.118173,
            41.284067
          ]
        ],
        "type": "LineString"
      },
      "properties": {
        "confidence": "low",
        "lineStyle": "dashed",
        "observationStatus": "estimated",
        "source": "reachable-set heuristic",
        "vessel": "A"
      },
      "type": "Feature"
    },
    {
      "geometry": {
        "coordinates": [
          [
            160.714953,
            41.582863
          ],
          [
            161.657061,
            41.465581
          ],
          [
            163.10031,
            41.300442
          ]
        ],
        "type": "LineString"
      },
      "properties": {
        "confidence": "low",
        "lineStyle": "dashed",
        "observationStatus": "estimated",
        "source": "reachable-set heuristic",
        "vessel": "B"
      },
      "type": "Feature"
    },
    {
      "geometry": {
        "coordinates": [
          161.657061,
          41.465581
        ],
        "type": "Point"
      },
      "properties": {
        "kind": "meetingPoint",
        "observationStatus": "estimated"
      },
      "type": "Feature"
    },
    {
      "geometry": {
        "coordinates": [
          [
            [
              163.488139,
              41.244758
            ],
            [
              163.494544,
              41.320745
            ],
            [
              163.485675,
              41.397617
            ],
            [
              163.461618,
              41.474633
            ],
            [
              163.422604,
              41.551051
            ],
            [
              163.36901,
              41.626136
            ],
            [
              163.30135,
              41.699164
            ],
            [
              163.220277,
              41.769433
            ],
            [
              163.126572,
              41.836264
            ],
            [
              163.021137,
              41.899016
            ],
            [
              162.904987,
              41.957083
            ],
            [
              162.779242,
              42.009906
            ],
            [
              162.645111,
              42.056976
            ],
            [
              162.503887,
              42.097841
            ],
            [
              162.35693,
              42.132107
            ],
            [
              162.205655,
              42.159443
            ],
            [
              162.051518,
              42.179586
            ],
            [
              161.896006,
              42.192343
            ],
            [
              161.740614,
              42.19759
            ],
            [
              161.58684,
              42.195278
            ],
            [
              161.436164,
              42.185427
            ],
            [
              161.290038,
              42.168134
            ],
            [
              161.149868,
              42.143564
            ],
            [
              161.017006,
              42.111955
            ],
            [
              160.892729,
              42.07361
            ],
            [
              160.778236,
              42.028899
            ],
            [
              160.674629,
              41.978253
            ],
            [
              160.582905,
              41.92216
            ],
            [
              160.503948,
              41.861158
            ],
            [
              160.438518,
              41.795837
            ],
            [
              160.387246,
              41.726825
            ],
            [
              160.350625,
              41.654786
            ],
            [
              160.329008,
              41.580415
            ],
            [
              160.322603,
              41.504428
            ],
            [
              160.331472,
              41.427557
            ],
            [
              160.355529,
              41.350541
            ],
            [
              160.394542,
              41.274122
            ],
            [
              160.448137,
              41.199037
            ],
            [
              160.515797,
              41.126009
            ],
            [
              160.596869,
              41.055741
            ],
            [
              160.690574,
              40.988909
            ],
            [
              160.79601,
              40.926158
            ],
            [
              160.912159,
              40.868091
            ],
            [
              161.037905,
              40.815268
            ],
            [
              161.172036,
              40.768197
            ],
            [
              161.31326,
              40.727332
            ],
            [
              161.460217,
              40.693067
            ],
            [
              161.611492,
              40.665731
            ],
            [
              161.765628,
              40.645587
            ],
            [
              161.921141,
              40.63283
            ],
            [
              162.076533,
              40.627583
            ],
            [
              162.230307,
              40.629896
            ],
            [
              162.380983,
              40.639746
            ],
            [
              162.527109,
              40.65704
            ],
            [
              162.667278,
              40.681609
            ],
            [
              162.800141,
              40.713219
            ],
            [
              162.924417,
              40.751563
            ],
            [
              163.038911,
              40.796274
            ],
            [
              163.142518,
              40.84692
            ],
            [
              163.234242,
              40.903014
            ],
            [
              163.313199,
              40.964015
            ],
            [
              163.378628,
              41.029336
            ],
            [
              163.429901,
              41.098348
            ],
            [
              163.466522,
              41.170387
            ],
            [
              163.488139,
              41.244758
            ]
          ]
        ],
        "type": "Polygon"
      },
      "properties": {
        "kind": "reachableSet",
        "observationStatus": "estimated",
        "vessel": "A"
      },
      "type": "Feature"
    },
    {
      "geometry": {
        "coordinates": [
          [
            [
              163.501257,
              41.25297
            ],
            [
              163.509835,
              41.332067
            ],
            [
              163.502984,
              41.41222
            ],
            [
              163.480769,
              41.492655
            ],
            [
              163.443403,
              41.5726
            ],
            [
              163.391247,
              41.651284
            ],
            [
              163.324803,
              41.727948
            ],
            [
              163.244711,
              41.801856
            ],
            [
              163.151742,
              41.872294
            ],
            [
              163.046792,
              41.938585
            ],
            [
              162.930871,
              42.000091
            ],
            [
              162.805095,
              42.056218
            ],
            [
              162.670677,
              42.106427
            ],
            [
              162.52891,
              42.150234
            ],
            [
              162.38116,
              42.187216
            ],
            [
              162.228849,
              42.217019
            ],
            [
              162.073445,
              42.239354
            ],
            [
              161.916444,
              42.254007
            ],
            [
              161.759358,
              42.260836
            ],
            [
              161.6037,
              42.259777
            ],
            [
              161.450969,
              42.250838
            ],
            [
              161.302636,
              42.234107
            ],
            [
              161.16013,
              42.209743
            ],
            [
              161.024822,
              42.177983
            ],
            [
              160.898016,
              42.139131
            ],
            [
              160.780934,
              42.093562
            ],
            [
              160.674702,
              42.041715
            ],
            [
              160.580344,
              41.984089
            ],
            [
              160.498768,
              41.921239
            ],
            [
              160.430761,
              41.853771
            ],
            [
              160.376976,
              41.782333
            ],
            [
              160.337933,
              41.707615
            ],
            [
              160.314007,
              41.630335
            ],
            [
              160.305428,
              41.551238
            ],
            [
              160.312279,
              41.471085
            ],
            [
              160.334495,
              41.39065
            ],
            [
              160.37186,
              41.310705
            ],
            [
              160.424016,
              41.232021
            ],
            [
              160.49046,
              41.155357
            ],
            [
              160.570552,
              41.081449
            ],
            [
              160.663521,
              41.011011
            ],
            [
              160.768471,
              40.94472
            ],
            [
              160.884392,
              40.883214
            ],
            [
              161.010168,
              40.827087
            ],
            [
              161.144586,
              40.776878
            ],
            [
              161.286353,
              40.733071
            ],
            [
              161.434104,
              40.696089
            ],
            [
              161.586414,
              40.666286
            ],
            [
              161.741818,
              40.643951
            ],
            [
              161.898819,
              40.629298
            ],
            [
              162.055905,
              40.622469
            ],
            [
              162.211563,
              40.623528
            ],
            [
              162.364294,
              40.632467
            ],
            [
              162.512627,
              40.649198
            ],
            [
              162.655134,
              40.673562
            ],
            [
              162.790441,
              40.705322
            ],
            [
              162.917247,
              40.744174
            ],
            [
              163.03433,
              40.789743
            ],
            [
              163.140561,
              40.84159
            ],
            [
              163.23492,
              40.899216
            ],
            [
              163.316495,
              40.962066
            ],
            [
              163.384503,
              41.029534
            ],
            [
              163.438287,
              41.100972
            ],
            [
              163.47733,
              41.17569
            ],
            [
              163.501257,
              41.25297
            ]
          ]
        ],
        "type": "Polygon"
      },
      "properties": {
        "kind": "reachableSet",
        "observationStatus": "estimated",
        "vessel": "B"
      },
      "type": "Feature"
    }
  ],
  "properties": {
    "dateline": false
  },
  "type": "FeatureCollection"
}
