{
  "features": [
    {
      "geometry": {
        "coordinates": [
          -62.696177,
          -43.257612
        ],
        "type": "Point"
      },
      "properties": {
        "mmsi": "701000607",
        "observationStatus": "observed",
        "role": "off",
        "time": "2017-09-15T19:34:17Z",
        "vessel": "A"
      },
      "type": "Feature"
    },
    {
      "geometry": {
        "coordinates": [
          -62.702713,
          -43.31719
        ],
        "type": "Point"
      },
      "properties": {
        "mmsi": "701000708",
        "observationStatus": "observed",
        "role": "off",
        "time": "2017-09-15T20:16:20Z",
        "vessel": "B"
      },
      "type": "Feature"
    },
    {
      "geometry": {
        "coordinates": [
          -62.561867,
          -43.33672
        ],
        "type": "Point"
      },
      "properties": {
        "mmsi": "701000708",
        "observationStatus": "observed",
        "role": "on",
        "time": "2017-09-16T17:41:02Z",
        "vessel": "B"
      },
      "type": "Feature"
    },
    {
      "geometry": {
        "coordinates": [
          -62.629147,
          -43.341787
        ],
        "type": "Point"
      },
      "properties": {
        "mmsi": "701000607",
        "observationStatus": "observed",
        "role": "on",
        "time": "2017-09-16T17:59:35Z",
        "vessel": "A"
      },
      "type": "Feature"
    },
    {
      "geometry": {
        "coordinates": [
          [
            -62.696177,
            -43.257612
          ],
          [
            -62.610705,
            -43.33016
          ],
          [
            -62.629147,
            -43.341787
          ]
        ],
        "type": "LineString"
      },
      "properties": {
        "confidence": "low",
        "lineStyle": "dashed",
        "observationStatus": "estimated",
        "source": "reachable-set heuristic",
        "vessel": "A"
      },
      "type": "Feature"
    },
    {
      "geometry": {
        "coordinates": [
          [
            -62.702713,
            -43.31719
          ],
          [
            -62.610705,
            -43.33016
          ],
          [
            -62.561867,
            -43.33672
          ]
        ],
        "type": "LineString"
      },
      "properties": {
        "confidence": "low",
        "lineStyle": "dashed",
        "observationStatus": "estimated",
        "source": "reachable-set heuristic",
        "vessel": "B"
      },
      "type": "Feature"
    },
    {
      "geometry": {
        "coordinates": [
          -62.610705,
          -43.33016
        ],
        "type": "Point"
      },
      "properties": {
        "kind": "meetingPoint",
        "observationStatus": "estimated"
      },
      "type": "Feature"
    },
    {
      "geometry": {
        "coordinates": [
          [
            [
              -61.058557,
              -45.314104
            ],
            [
              -60.796867,
              -45.189225
            ],
            [
              -60.553146,
              -45.046148
            ],
            [
              -60.329741,
              -44.886253
            ],
            [
              -60.128802,
              -44.711078
            ],
            [
              -59.952267,
              -44.522311
            ],
            [
              -59.801834,
              -44.321769
            ],
            [
              -59.678952,
              -44.111385
            ],
            [
              -59.584805,
              -43.893183
            ],
            [
              -59.5203,
              -43.669266
            ],
            [
              -59.486057,
              -43.441789
            ],
            [
              -59.482407,
              -43.212944
            ],
            [
              -59.509384,
              -42.984935
            ],
            [
              -59.566729,
              -42.759957
            ],
            [
              -59.65389,
              -42.540177
            ],
            [
              -59.770026,
              -42.327712
            ],
            [
              -59.914021,
              -42.124607
            ],
            [
              -60.084486,
              -41.93282
            ],
            [
              -60.27978,
              -41.754196
            ],
            [
              -60.498023,
              -41.590456
            ],
            [
              -60.737113,
              -41.443177
            ],
            [
              -60.994746,
              -41.313777
            ],
            [
              -61.268443,
              -41.203503
            ],
            [
              -61.555567,
              -41.113416
            ],
            [
              -61.853352,
              -41.044385
            ],
            [
              -62.158932,
              -40.997073
            ],
            [
              -62.469363,
              -40.971937
            ],
            [
              -62.781655,
              -40.969219
            ],
            [
              -63.092802,
              -40.988944
            ],
            [
              -63.399806,
              -41.030923
            ],
            [
              -63.699711,
              -41.094752
            ],
            [
              -63.989628,
              -41.179815
            ],
            [
              -64.266767,
              -41.285295
            ],
            [
              -64.528456,
              -41.410174
            ],
            [
              -64.772177,
              -41.55325
            ],
            [
              -64.995583,
              -41.713145
            ],
            [
              -65.196521,
              -41.88832
            ],
            [
              -65.373056,
              -42.077087
            ],
            [
              -65.523489,
              -42.277629
            ],
            [
              -65.646371,
              -42.488014
            ],
            [
              -65.740518,
              -42.706215
            ],
            [
              -65.805023,
              -42.930133
            ],
            [
              -65.839266,
              -43.157609
            ],
            [
              -65.842917,
              -43.386454
            ],
            [
              -65.815939,
              -43.614463
            ],
            [
              -65.758594,
              -43.839441
            ],
            [
              -65.671434,
              -44.059221
            ],
            [
              -65.555297,
              -44.271686
            ],
            [
              -65.411303,
              -44.474791
            ],
            [
              -65.240838,
              -44.666579
            ],
            [
              -65.045543,
              -44.845203
            ],
            [
              -64.8273,
              -45.008943
            ],
            [
              -64.588211,
              -45.156222
            ],
            [
              -64.330577,
              -45.285621
            ],
            [
              -64.05688,
              -45.395896
            ],
            [
              -63.769757,
              -45.485982
            ],
            [
              -63.471971,
              -45.555014
            ],
            [
              -63.166391,
              -45.602325
            ],
            [
              -62.85596,
              -45.627461
            ],
            [
              -62.543668,
              -45.63018
            ],
            [
              -62.232521,
              -45.610454
            ],
            [
              -61.925517,
              -45.568475
            ],
            [
              -61.625612,
              -45.504647
            ],
            [
              -61.335695,
              -45.419583
            ],
            [
              -61.058557,
              -45.314104
            ]
          ]
        ],
        "type": "Polygon"
      },
      "properties": {
        "kind": "reachableSet",
        "observationStatus": "estimated",
        "vessel": "A"
      },
      "type": "Feature"
    },
    {
      "geometry": {
        "coordinates": [
          [
            [
              -59.650967,
              -43.740349
            ],
            [
              -59.610013,
              -43.524401
            ],
            [
              -59.598165,
              -43.30655
            ],
            [
              -59.615537,
              -43.088897
            ],
            [
              -59.661962,
              -42.873535
            ],
            [
              -59.736992,
              -42.662541
            ],
            [
              -59.839907,
              -42.457945
            ],
            [
              -59.969713,
              -42.261718
            ],
            [
              -60.125161,
              -42.075751
            ],
            [
              -60.304755,
              -41.901832
            ],
            [
              -60.506764,
              -41.741639
            ],
            [
              -60.729243,
              -41.596713
            ],
            [
              -60.970049,
              -41.46845
            ],
            [
              -61.226863,
              -41.358086
            ],
            [
              -61.497213,
              -41.266683
            ],
            [
              -61.778494,
              -41.195121
            ],
            [
              -62.067997,
              -41.14409
            ],
            [
              -62.362935,
              -41.114082
            ],
            [
              -62.660467,
              -41.105384
            ],
            [
              -62.957728,
              -41.118082
            ],
            [
              -63.251854,
              -41.152052
            ],
            [
              -63.540014,
              -41.206967
            ],
            [
              -63.819432,
              -41.2823
            ],
            [
              -64.087417,
              -41.377323
            ],
            [
              -64.341388,
              -41.491122
            ],
            [
              -64.5789,
              -41.622602
            ],
            [
              -64.797665,
              -41.770495
            ],
            [
              -64.995576,
              -41.933378
            ],
            [
              -65.170727,
              -42.109682
            ],
            [
              -65.321432,
              -42.297709
            ],
            [
              -65.446239,
              -42.495648
            ],
            [
              -65.543946,
              -42.701593
            ],
            [
              -65.613613,
              -42.913561
            ],
            [
              -65.654567,
              -43.129509
            ],
            [
              -65.666415,
              -43.34736
            ],
            [
              -65.649043,
              -43.565013
            ],
            [
              -65.602618,
              -43.780375
            ],
            [
              -65.527588,
              -43.991369
            ],
            [
              -65.424673,
              -44.195965
            ],
            [
              -65.294867,
              -44.392192
            ],
            [
              -65.139419,
              -44.578159
            ],
            [
              -64.959825,
              -44.752078
            ],
            [
              -64.757816,
              -44.912271
            ],
            [
              -64.535337,
              -45.057197
            ],
            [
              -64.294531,
              -45.18546
            ],
            [
              -64.037717,
              -45.295824
            ],
            [
              -63.767367,
              -45.387227
            ],
            [
              -63.486086,
              -45.458789
            ],
            [
              -63.196583,
              -45.50982
            ],
            [
              -62.901645,
              -45.539828
            ],
            [
              -62.604113,
              -45.548526
            ],
            [
              -62.306852,
              -45.535828
            ],
            [
              -62.012726,
              -45.501858
            ],
            [
              -61.724566,
              -45.446943
            ],
            [
              -61.445148,
              -45.37161
            ],
            [
              -61.177163,
              -45.276587
            ],
            [
              -60.923192,
              -45.162788
            ],
            [
              -60.68568,
              -45.031308
            ],
            [
              -60.466915,
              -44.883415
            ],
            [
              -60.269004,
              -44.720532
            ],
            [
              -60.093853,
              -44.544228
            ],
            [
              -59.943148,
              -44.356201
            ],
            [
              -59.818341,
              -44.158262
            ],
            [
              -59.720634,
              -43.952317
            ],
            [
              -59.650967,
              -43.740349
            ]
          ]
        ],
        "type": "Polygon"
      },
      "properties": {
        "kind": "reachableSet",
        "observationStatus": "estimated",
        "vessel": "B"
      },
      "type": "Feature"
    }
  ],
  "properties": {
    "dateline": false
  },
  "type": "FeatureCollection"
}
