{
  "features": [
    {
      "geometry": {
        "coordinates": [
          -60.841117,
          -46.941633
        ],
        "type": "Point"
      },
      "properties": {
        "mmsi": "441330000",
        "observationStatus": "observed",
        "role": "off",
        "time": "2017-03-09T03:21:21Z",
        "vessel": "A"
      },
      "type": "Feature"
    },
    {
      "geometry": {
        "coordinates": [
          -60.846313,
          -46.948472
        ],
        "type": "Point"
      },
      "properties": {
        "mmsi": "440684000",
        "observationStatus": "observed",
        "role": "off",
        "time": "2017-03-09T03:22:14Z",
        "vessel": "B"
      },
      "type": "Feature"
    },
    {
      "geometry": {
        "coordinates": [
          -60.864785,
          -46.870627
        ],
        "type": "Point"
      },
      "properties": {
        "mmsi": "440684000",
        "observationStatus": "observed",
        "role": "on",
        "time": "2017-03-09T16:01:01Z",
        "vessel": "B"
      },
      "type": "Feature"
    },
    {
      "geometry": {
        "coordinates": [
          -60.838683,
          -46.92395
        ],
        "type": "Point"
      },
      "properties": {
        "mmsi": "441330000",
        "observationStatus": "observed",
        "role": "on",
        "time": "2017-03-09T16:01:58Z",
        "vessel": "A"
      },
      "type": "Feature"
    },
    {
      "geometry": {
        "coordinates": [
          [
            -60.841117,
            -46.941633
          ],
          [
            -60.857946,
            -46.899783
          ],
          [
            -60.838683,
            -46.92395
          ]
        ],
        "type": "LineString"
      },
      "properties": {
        "confidence": "low",
        "lineStyle": "dashed",
        "observationStatus": "estimated",
        "source": "reachable-set heuristic",
        "vessel": "A"
      },
      "type": "Feature"
    },
    {
      "geometry": {
        "coordinates": [
          [
            -60.846313,
            -46.948472
          ],
          [
            -60.857946,
            -46.899783
          ],
          [
            -60.864785,
            -46.870627
          ]
        ],
        "type": "LineString"
      },
      "properties": {
        "confidence": "low",
        "lineStyle": "dashed",
        "observationStatus": "estimated",
        "source": "reachable-set heuristic",
        "vessel": "B"
      },
      "type": "Feature"
    },
    {
      "geometry": {
        "coordinates": [
          -60.857946,
          -46.899783
        ],
        "type": "Point"
      },
      "properties": {
        "kind": "meetingPoint",
        "observationStatus": "estimated"
      },
      "type": "Feature"
    },
    {
      "geometry": {
        "coordinates": [
          [
            [
              -60.679137,
              -45.764505
            ],
            [
              -60.846472,
              -45.759298
            ],
            [
              -61.013744,
              -45.765392
            ],
            [
              -61.179342,
              -45.782729
            ],
            [
              -61.341671,
              -45.811142
            ],
            [
              -61.499168,
              -45.850356
            ],
            [
              -61.650315,
              -45.899995
            ],
            [
              -61.793658,
              -45.959581
            ],
            [
              -61.927815,
              -46.028539
            ],
            [
              -62.051496,
              -46.106206
            ],
            [
              -62.163508,
              -46.191833
            ],
            [
              -62.262773,
              -46.284596
            ],
            [
              -62.348334,
              -46.383601
            ],
            [
              -62.419369,
              -46.487895
            ],
            [
              -62.475193,
              -46.596474
            ],
            [
              -62.515268,
              -46.708292
            ],
            [
              -62.539208,
              -46.822272
            ],
            [
              -62.546783,
              -46.937316
            ],
            [
              -62.53792,
              -47.052317
            ],
            [
              -62.512703,
              -47.166167
            ],
            [
              -62.471377,
              -47.277769
            ],
            [
              -62.414339,
              -47.386049
            ],
            [
              -62.342138,
              -47.489963
            ],
            [
              -62.25547,
              -47.588512
            ],
            [
              -62.155169,
              -47.680746
            ],
            [
              -62.042201,
              -47.765777
            ],
            [
              -61.917655,
              -47.842785
            ],
            [
              -61.782729,
              -47.91103
            ],
            [
              -61.638723,
              -47.969854
            ],
            [
              -61.487024,
              -48.01869
            ],
            [
              -61.329093,
              -48.057069
            ],
            [
              -61.16645,
              -48.08462
            ],
            [
              -61.000663,
              -48.101078
            ],
            [
              -60.833328,
              -48.106285
            ],
            [
              -60.666056,
              -48.100191
            ],
            [
              -60.500458,
              -48.082854
            ],
            [
              -60.338129,
              -48.054442
            ],
            [
              -60.180632,
              -48.015227
            ],
            [
              -60.029485,
              -47.965588
            ],
            [
              -59.886142,
              -47.906002
            ],
            [
              -59.751985,
              -47.837044
            ],
            [
              -59.628304,
              -47.759378
            ],
            [
              -59.516292,
              -47.673751
            ],
            [
              -59.417027,
              -47.580988
            ],
            [
              -59.331466,
              -47.481982
            ],
            [
              -59.260431,
              -47.377688
            ],
            [
              -59.204607,
              -47.269109
            ],
            [
              -59.164532,
              -47.157291
            ],
            [
              -59.140592,
              -47.043311
            ],
            [
              -59.133017,
              -46.928267
            ],
            [
              -59.14188,
              -46.813266
            ],
            [
              -59.167097,
              -46.699417
            ],
            [
              -59.208423,
              -46.587815
            ],
            [
              -59.265461,
              -46.479535
            ],
            [
              -59.337662,
              -46.37562
            ],
            [
              -59.42433,
              -46.277071
            ],
            [
              -59.524631,
              -46.184837
            ],
            [
              -59.637599,
              -46.099807
            ],
            [
              -59.762145,
              -46.022798
            ],
            [
              -59.897071,
              -45.954553
            ],
            [
              -60.041077,
              -45.89573
            ],
            [
              -60.192776,
              -45.846893
            ],
            [
              -60.350707,
              -45.808515
            ],
            [
              -60.51335,
              -45.780963
            ],
            [
              -60.679137,
              -45.764505
            ]
          ]
        ],
        "type": "Polygon"
      },
      "properties": {
        "kind": "reachableSet",
        "observationStatus": "estimated",
        "vessel": "A"
      },
      "type": "Feature"
    },
    {
      "geometry": {
        "coordinates": [
          [
            [
              -61.129652,
              -45.7544
            ],
            [
              -61.29286,
              -45.77843
            ],
            [
              -61.451857,
              -45.813354
            ],
            [
              -61.605111,
              -45.858835
            ],
            [
              -61.751146,
              -45.914434
            ],
            [
              -61.888556,
              -45.979618
            ],
            [
              -62.016018,
              -46.053757
            ],
            [
              -62.132304,
              -46.136137
            ],
            [
              -62.236294,
              -46.225966
            ],
            [
              -62.326986,
              -46.322379
            ],
            [
              -62.403508,
              -46.424446
            ],
            [
              -62.465123,
              -46.531185
            ],
            [
              -62.511236,
              -46.641567
            ],
            [
              -62.541404,
              -46.754531
            ],
            [
              -62.555336,
              -46.868987
            ],
            [
              -62.552898,
              -46.983834
            ],
            [
              -62.534114,
              -47.097966
            ],
            [
              -62.499165,
              -47.210283
            ],
            [
              -62.448386,
              -47.319704
            ],
            [
              -62.382268,
              -47.425175
            ],
            [
              -62.301446,
              -47.52568
            ],
            [
              -62.2067,
              -47.620252
            ],
            [
              -62.098942,
              -47.707979
            ],
            [
              -61.979208,
              -47.788016
            ],
            [
              -61.848654,
              -47.859594
            ],
            [
              -61.708535,
              -47.922022
            ],
            [
              -61.560202,
              -47.9747
            ],
            [
              -61.405082,
              -48.017119
            ],
            [
              -61.24467,
              -48.048872
            ],
            [
              -61.080511,
              -48.069653
            ],
            [
              -60.914185,
              -48.079261
            ],
            [
              -60.747294,
              -48.077604
            ],
            [
              -60.581446,
              -48.064698
            ],
            [
              -60.418238,
              -48.040668
            ],
            [
              -60.259241,
              -48.005744
            ],
            [
              -60.105987,
              -47.960264
            ],
            [
              -59.959952,
              -47.904664
            ],
            [
              -59.822542,
              -47.839481
            ],
            [
              -59.69508,
              -47.765342
            ],
            [
              -59.578794,
              -47.682961
            ],
            [
              -59.474805,
              -47.593132
            ],
            [
              -59.384112,
              -47.49672
            ],
            [
              -59.30759,
              -47.394653
            ],
            [
              -59.245976,
              -47.287914
            ],
            [
              -59.199863,
              -47.177531
            ],
            [
              -59.169695,
              -47.064567
            ],
            [
              -59.155763,
              -46.950111
            ],
            [
              -59.1582,
              -46.835264
            ],
            [
              -59.176984,
              -46.721132
            ],
            [
              -59.211934,
              -46.608815
            ],
            [
              -59.262712,
              -46.499394
            ],
            [
              -59.32883,
              -46.393923
            ],
            [
              -59.409652,
              -46.293418
            ],
            [
              -59.504398,
              -46.198847
            ],
            [
              -59.612157,
              -46.11112
            ],
            [
              -59.73189,
              -46.031082
            ],
            [
              -59.862444,
              -45.959504
            ],
            [
              -60.002563,
              -45.897076
            ],
            [
              -60.150897,
              -45.844399
            ],
            [
              -60.306016,
              -45.801979
            ],
            [
              -60.466428,
              -45.770226
            ],
            [
              -60.630587,
              -45.749446
            ],
            [
              -60.796913,
              -45.739837
            ],
            [
              -60.963804,
              -45.741494
            ],
            [
              -61.129652,
              -45.7544
            ]
          ]
        ],
        "type": "Polygon"
      },
      "properties": {
        "kind": "reachableSet",
        "observationStatus": "estimated",
        "vessel": "B"
      },
      "type": "Feature"
    }
  ],
  "properties": {
    "dateline": false
  },
  "type": "FeatureCollection"
}
