{
  "features": [
    {
      "geometry": {
        "coordinates": [
          -60.841117,
          -46.941633
        ],
        "type": "Point"
      },
      "properties": {
        "mmsi": "441330000",
        "observationStatus": "observed",
        "role": "off",
        "time": "2017-03-09T03:21:21Z",
        "vessel": "A"
      },
      "type": "Feature"
    },
    {
      "geometry": {
        "coordinates": [
          -60.857063,
          -46.991305
        ],
        "type": "Point"
      },
      "properties": {
        "mmsi": "441767000",
        "observationStatus": "observed",
        "role": "off",
        "time": "2017-03-09T03:22:58Z",
        "vessel": "B"
      },
      "type": "Feature"
    },
    {
      "geometry": {
        "coordinates": [
          -60.827677,
          -46.91814
        ],
        "type": "Point"
      },
      "properties": {
        "mmsi": "441767000",
        "observationStatus": "observed",
        "role": "on",
        "time": "2017-03-09T16:01:04Z",
        "vessel": "B"
      },
      "type": "Feature"
    },
    {
      "geometry": {
        "coordinates": [
          -60.838683,
          -46.92395
        ],
        "type": "Point"
      },
      "properties": {
        "mmsi": "441330000",
        "observationStatus": "observed",
        "role": "on",
        "time": "2017-03-09T16:01:58Z",
        "vessel": "A"
      },
      "type": "Feature"
    },
    {
      "geometry": {
        "coordinates": [
          [
            -60.841117,
            -46.941633
          ],
          [
            -60.84237,
            -46.954722
          ],
          [
            -60.838683,
            -46.92395
          ]
        ],
        "type": "LineString"
      },
      "properties": {
        "confidence": "low",
        "lineStyle": "dashed",
        "observationStatus": "estimated",
        "source": "reachable-set heuristic",
        "vessel": "A"
      },
      "type": "Feature"
    },
    {
      "geometry": {
        "coordinates": [
          [
            -60.857063,
            -46.991305
          ],
          [
            -60.84237,
            -46.954722
          ],
          [
            -60.827677,
            -46.91814
          ]
        ],
        "type": "LineString"
      },
      "properties": {
        "confidence": "low",
        "lineStyle": "dashed",
        "observationStatus": "estimated",
        "source": "reachable-set heuristic",
        "vessel": "B"
      },
      "type": "Feature"
    },
    {
      "geometry": {
        "coordinates": [
          -60.84237,
          -46.954722
        ],
        "type": "Point"
      },
      "properties": {
        "kind": "meetingPoint",
        "observationStatus": "estimated"
      },
      "type": "Feature"
    },
    {
      "geometry": {
        "coordinates": [
          [
            [
              -60.679137,
              -45.764505
            ],
            [
              -60.846472,
              -45.759298
            ],
            [
              -61.013744,
              -45.765392
            ],
            [
              -61.179342,
              -45.782729
            ],
            [
              -61.341671,
              -45.811142
            ],
            [
              -61.499168,
              -45.850356
            ],
            [
              -61.650315,
              -45.899995
            ],
            [
              -61.793658,
              -45.959581
            ],
            [
              -61.927815,
              -46.028539
            ],
            [
              -62.051496,
              -46.106206
            ],
            [
              -62.163508,
              -46.191833
            ],
            [
              -62.262773,
              -46.284596
            ],
            [
              -62.348334,
              -46.383601
            ],
            [
              -62.419369,
              -46.487895
            ],
            [
              -62.475193,
              -46.596474
            ],
            [
              -62.515268,
              -46.708292
            ],
            [
              -62.539208,
              -46.822272
            ],
            [
              -62.546783,
              -46.937316
            ],
            [
              -62.53792,
              -47.052317
            ],
            [
              -62.512703,
              -47.166167
            ],
            [
              -62.471377,
              -47.277769
            ],
            [
              -62.414339,
              -47.386049
            ],
            [
              -62.342138,
              -47.489963
            ],
            [
              -62.25547,
              -47.588512
            ],
            [
              -62.155169,
              -47.680746
            ],
            [
              -62.042201,
              -47.765777
            ],
            [
              -61.917655,
              -47.842785
            ],
            [
              -61.782729,
              -47.91103
            ],
            [
              -61.638723,
              -47.969854
            ],
            [
              -61.487024,
              -48.01869
            ],
            [
              -61.329093,
              -48.057069
            ],
            [
              -61.16645,
              -48.08462
            ],
            [
              -61.000663,
              -48.101078
            ],
            [
              -60.833328,
              -48.106285
            ],
            [
              -60.666056,
              -48.100191
            ],
            [
              -60.500458,
              -48.082854
            ],
            [
              -60.338129,
              -48.054442
            ],
            [
              -60.180632,
              -48.015227
            ],
            [
              -60.029485,
              -47.965588
            ],
            [
              -59.886142,
              -47.906002
            ],
            [
              -59.751985,
              -47.837044
            ],
            [
              -59.628304,
              -47.759378
            ],
            [
              -59.516292,
              -47.673751
            ],
            [
              -59.417027,
              -47.580988
            ],
            [
              -59.331466,
              -47.481982
            ],
            [
              -59.260431,
              -47.377688
            ],
            [
              -59.204607,
              -47.269109
            ],
            [
              -59.164532,
              -47.157291
            ],
            [
              -59.140592,
              -47.043311
            ],
            [
              -59.133017,
              -46.928267
            ],
            [
              -59.14188,
              -46.813266
            ],
            [
              -59.167097,
              -46.699417
            ],
            [
              -59.208423,
              -46.587815
            ],
            [
              -59.265461,
              -46.479535
            ],
            [
              -59.337662,
              -46.37562
            ],
            [
              -59.42433,
              -46.277071
            ],
            [
              -59.524631,
              -46.184837
            ],
            [
              -59.637599,
              -46.099807
            ],
            [
              -59.762145,
              -46.022798
            ],
            [
              -59.897071,
              -45.954553
            ],
            [
              -60.041077,
              -45.89573
            ],
            [
              -60.192776,
              -45.846893
            ],
            [
              -60.350707,
              -45.808515
            ],
            [
              -60.51335,
              -45.780963
            ],
            [
              -60.679137,
              -45.764505
            ]
          ]
        ],
        "type": "Polygon"
      },
      "properties": {
        "kind": "reachableSet",
        "observationStatus": "estimated",
        "vessel": "A"
      },
      "type": "Feature"
    },
    {
      "geometry": {
        "coordinates": [
          [
            [
              -60.389655,
              -45.827582
            ],
            [
              -60.552516,
              -45.802532
            ],
            [
              -60.718168,
              -45.788578
            ],
            [
              -60.885016,
              -45.785854
            ],
            [
              -61.051454,
              -45.794388
            ],
            [
              -61.215878,
              -45.814095
            ],
            [
              -61.376705,
              -45.844788
            ],
            [
              -61.532386,
              -45.88617
            ],
            [
              -61.681422,
              -45.937843
            ],
            [
              -61.822377,
              -45.999309
            ],
            [
              -61.953895,
              -46.069976
            ],
            [
              -62.074707,
              -46.149164
            ],
            [
              -62.183652,
              -46.236109
            ],
            [
              -62.279679,
              -46.329976
            ],
            [
              -62.361864,
              -46.429859
            ],
            [
              -62.429416,
              -46.534796
            ],
            [
              -62.481684,
              -46.643778
            ],
            [
              -62.518164,
              -46.755754
            ],
            [
              -62.538505,
              -46.869647
            ],
            [
              -62.542512,
              -46.984359
            ],
            [
              -62.530145,
              -47.098785
            ],
            [
              -62.501524,
              -47.211824
            ],
            [
              -62.456925,
              -47.322387
            ],
            [
              -62.396776,
              -47.429409
            ],
            [
              -62.321658,
              -47.53186
            ],
            [
              -62.232293,
              -47.628752
            ],
            [
              -62.129543,
              -47.719154
            ],
            [
              -62.014396,
              -47.802193
            ],
            [
              -61.887962,
              -47.877071
            ],
            [
              -61.751459,
              -47.943066
            ],
            [
              -61.6062,
              -47.999543
            ],
            [
              -61.453586,
              -48.045957
            ],
            [
              -61.295085,
              -48.081863
            ],
            [
              -61.132224,
              -48.106913
            ],
            [
              -60.966572,
              -48.120867
            ],
            [
              -60.799724,
              -48.123591
            ],
            [
              -60.633286,
              -48.115057
            ],
            [
              -60.468862,
              -48.09535
            ],
            [
              -60.308035,
              -48.064657
            ],
            [
              -60.152354,
              -48.023275
            ],
            [
              -60.003318,
              -47.971602
            ],
            [
              -59.862363,
              -47.910136
            ],
            [
              -59.730845,
              -47.839469
            ],
            [
              -59.610033,
              -47.760281
            ],
            [
              -59.501088,
              -47.673336
            ],
            [
              -59.405061,
              -47.579469
            ],
            [
              -59.322876,
              -47.479586
            ],
            [
              -59.255324,
              -47.374649
            ],
            [
              -59.203056,
              -47.265667
            ],
            [
              -59.166576,
              -47.153691
            ],
            [
              -59.146235,
              -47.039798
            ],
            [
              -59.142228,
              -46.925086
            ],
            [
              -59.154595,
              -46.81066
            ],
            [
              -59.183216,
              -46.697621
            ],
            [
              -59.227815,
              -46.587058
            ],
            [
              -59.287964,
              -46.480036
            ],
            [
              -59.363082,
              -46.377585
            ],
            [
              -59.452447,
              -46.280693
            ],
            [
              -59.555197,
              -46.190291
            ],
            [
              -59.670344,
              -46.107252
            ],
            [
              -59.796778,
              -46.032374
            ],
            [
              -59.933281,
              -45.966379
            ],
            [
              -60.07854,
              -45.909902
            ],
            [
              -60.231154,
              -45.863488
            ],
            [
              -60.389655,
              -45.827582
            ]
          ]
        ],
        "type": "Polygon"
      },
      "properties": {
        "kind": "reachableSet",
        "observationStatus": "estimated",
        "vessel": "B"
      },
      "type": "Feature"
    }
  ],
  "properties": {
    "dateline": false
  },
  "type": "FeatureCollection"
}
