{
  "features": [
    {
      "geometry": {
        "coordinates": [
          152.186637,
          42.721105
        ],
        "type": "Point"
      },
      "properties": {
        "mmsi": "412329634",
        "observationStatus": "observed",
        "role": "off",
        "time": "2019-07-21T06:36:11Z",
        "vessel": "A"
      },
      "type": "Feature"
    },
    {
      "geometry": {
        "coordinates": [
          152.087213,
          42.691972
        ],
        "type": "Point"
      },
      "properties": {
        "mmsi": "412329635",
        "observationStatus": "observed",
        "role": "off",
        "time": "2019-07-21T06:39:54Z",
        "vessel": "B"
      },
      "type": "Feature"
    },
    {
      "geometry": {
        "coordinates": [
          145.852143,
          42.068478
        ],
        "type": "Point"
      },
      "properties": {
        "mmsi": "412329635",
        "observationStatus": "observed",
        "role": "on",
        "time": "2019-07-22T06:39:16Z",
        "vessel": "B"
      },
      "type": "Feature"
    },
    {
      "geometry": {
        "coordinates": [
          145.911518,
          42.117215
        ],
        "type": "Point"
      },
      "properties": {
        "mmsi": "412329634",
        "observationStatus": "observed",
        "role": "on",
        "time": "2019-07-22T07:00:31Z",
        "vessel": "A"
      },
      "type": "Feature"
    },
    {
      "geometry": {
        "coordinates": [
          [
            152.186637,
            42.721105
          ],
          [
            149.01939,
            42.394792
          ],
          [
            145.911518,
            42.117215
          ]
        ],
        "type": "LineString"
      },
      "properties": {
        "confidence": "low",
        "lineStyle": "dashed",
        "observationStatus": "estimated",
        "source": "reachable-set heuristic",
        "vessel": "A"
      },
      "type": "Feature"
    },
    {
      "geometry": {
        "coordinates": [
          [
            152.087213,
            42.691972
          ],
          [
            149.01939,
            42.394792
          ],
          [
            145.852143,
            42.068478
          ]
        ],
        "type": "LineString"
      },
      "properties": {
        "confidence": "low",
        "lineStyle": "dashed",
        "observationStatus": "estimated",
        "source": "reachable-set heuristic",
        "vessel": "B"
      },
      "type": "Feature"
    },
    {
      "geometry": {
        "coordinates": [
          149.01939,
          42.394792
        ],
        "type": "Point"
      },
      "properties": {
        "kind": "meetingPoint",
        "observationStatus": "estimated"
      },
      "type": "Feature"
    },
    {
      "geometry": {
        "coordinates": [
          [
            [
              145.910477,
              42.117115
            ],
            [
              145.926616,
              42.11268
            ],
            [
              145.972826,
              42.111198
            ],
            [
              146.048663,
              42.112681
            ],
            [
              146.153394,
              42.117116
            ],
            [
              146.286013,
              42.124459
            ],
            [
              146.445242,
              42.134641
            ],
            [
              146.629547,
              42.147562
            ],
            [
              146.837153,
              42.1631
            ],
            [
              147.066061,
              42.181103
            ],
            [
              147.314067,
              42.201399
            ],
            [
              147.578782,
              42.223792
            ],
            [
              147.857657,
              42.248067
            ],
            [
              148.148006,
              42.273989
            ],
            [
              148.447032,
              42.30131
            ],
            [
              148.751857,
              42.329765
            ],
            [
              149.059544,
              42.359081
            ],
            [
              149.36713,
              42.388976
            ],
            [
              149.671653,
              42.419162
            ],
            [
              149.970181,
              42.449347
            ],
            [
              150.259838,
              42.479242
            ],
            [
              150.537834,
              42.508558
            ],
            [
              150.801493,
              42.537014
            ],
            [
              151.048275,
              42.564334
            ],
            [
              151.275804,
              42.590256
            ],
            [
              151.481888,
              42.614531
            ],
            [
              151.664543,
              42.636923
            ],
            [
              151.82201,
              42.657219
            ],
            [
              151.952771,
              42.675222
            ],
            [
              152.055569,
              42.690759
            ],
            [
              152.129412,
              42.703681
            ],
            [
              152.17359,
              42.713862
            ],
            [
              152.187678,
              42.721205
            ],
            [
              152.171539,
              42.72564
            ],
            [
              152.125329,
              42.727122
            ],
            [
              152.049492,
              42.725639
            ],
            [
              151.944761,
              42.721204
            ],
            [
              151.812142,
              42.713861
            ],
            [
              151.652913,
              42.703679
            ],
            [
              151.468608,
              42.690758
            ],
            [
              151.261002,
              42.67522
            ],
            [
              151.032094,
              42.657217
            ],
            [
              150.784088,
              42.636921
            ],
            [
              150.519373,
              42.614528
            ],
            [
              150.240498,
              42.590253
            ],
            [
              149.950149,
              42.564331
            ],
            [
              149.651123,
              42.53701
            ],
            [
              149.346298,
              42.508555
            ],
            [
              149.038611,
              42.479239
            ],
            [
              148.731025,
              42.449344
            ],
            [
              148.426502,
              42.419158
            ],
            [
              148.127974,
              42.388973
            ],
            [
              147.838317,
              42.359078
            ],
            [
              147.560321,
              42.329762
            ],
            [
              147.296662,
              42.301306
            ],
            [
              147.04988,
              42.273986
            ],
            [
              146.822351,
              42.248064
            ],
            [
              146.616267,
              42.223789
            ],
            [
              146.433612,
              42.201397
            ],
            [
              146.276145,
              42.181101
            ],
            [
              146.145384,
              42.163098
            ],
            [
              146.042586,
              42.147561
            ],
            [
              145.968743,
              42.134639
            ],
            [
              145.924565,
              42.124458
            ],
            [
              145.910477,
              42.117115
            ]
          ]
        ],
        "type": "Polygon"
      },
      "properties": {
        "kind": "reachableSet",
        "observationStatus": "estimated",
        "vessel": "A"
      },
      "type": "Feature"
    }
  ],
  "properties": {
    "dateline": false
  },
  "type": "FeatureCollection"
}
