{
  "features": [
    {
      "geometry": {
        "coordinates": [
          163.065413,
          45.90592
        ],
        "type": "Point"
      },
      "properties": {
        "mmsi": "416236900",
        "observationStatus": "observed",
        "role": "off",
        "time": "2018-07-10T04:06:01Z",
        "vessel": "A"
      },
      "type": "Feature"
    },
    {
      "geometry": {
        "coordinates": [
          163.174747,
          45.87232
        ],
        "type": "Point"
      },
      "properties": {
        "mmsi": "416243800",
        "observationStatus": "observed",
        "role": "off",
        "time": "2018-07-10T04:10:17Z",
        "vessel": "B"
      },
      "type": "Feature"
    },
    {
      "geometry": {
        "coordinates": [
          162.921413,
          46.187093
        ],
        "type": "Point"
      },
      "properties": {
        "mmsi": "416236900",
        "observationStatus": "observed",
        "role": "on",
        "time": "2018-07-10T16:37:25Z",
        "vessel": "A"
      },
      "type": "Feature"
    },
    {
      "geometry": {
        "coordinates": [
          162.9582,
          46.256783
        ],
        "type": "Point"
      },
      "properties": {
        "mmsi": "416243800",
        "observationStatus": "observed",
        "role": "on",
        "time": "2018-07-10T17:13:40Z",
        "vessel": "B"
      },
      "type": "Feature"
    },
    {
      "geometry": {
        "coordinates": [
          [
            163.065413,
            45.90592
          ],
          [
            163.112137,
            45.949639
          ],
          [
            162.921413,
            46.187093
          ]
        ],
        "type": "LineString"
      },
      "properties": {
        "confidence": "low",
        "lineStyle": "dashed",
        "observationStatus": "estimated",
        "source": "reachable-set heuristic",
        "vessel": "A"
      },
      "type": "Feature"
    },
    {
      "geometry": {
        "coordinates": [
          [
            163.174747,
            45.87232
          ],
          [
            163.112137,
            45.949639
          ],
          [
            162.9582,
            46.256783
          ]
        ],
        "type": "LineString"
      },
      "properties": {
        "confidence": "low",
        "lineStyle": "dashed",
        "observationStatus": "estimated",
        "source": "reachable-set heuristic",
        "vessel": "B"
      },
      "type": "Feature"
    },
    {
      "geometry": {
        "coordinates": [
          163.112137,
          45.949639
        ],
        "type": "Point"
      },
      "properties": {
        "kind": "meetingPoint",
        "observationStatus": "estimated"
      },
      "type": "Feature"
    },
    {
      "geometry": {
        "coordinates": [
          [
            [
              162.435004,
              47.136853
            ],
            [
              162.286028,
              47.093675
            ],
            [
              162.143865,
              47.040412
            ],
            [
              162.009884,
              46.977577
            ],
            [
              161.885374,
              46.905776
            ],
            [
              161.771535,
              46.825699
            ],
            [
              161.669464,
              46.738119
            ],
            [
              161.580143,
              46.643877
            ],
            [
              161.504433,
              46.543883
            ],
            [
              161.443062,
              46.439099
            ],
            [
              161.396622,
              46.330534
            ],
            [
              161.365561,
              46.219233
            ],
            [
              161.350176,
              46.106269
            ],
            [
              161.350616,
              45.99273
            ],
            [
              161.366878,
              45.879708
            ],
            [
              161.398804,
              45.768293
            ],
            [
              161.446086,
              45.659557
            ],
            [
              161.508271,
              45.554548
            ],
            [
              161.584758,
              45.454277
            ],
            [
              161.674812,
              45.359709
            ],
            [
              161.777564,
              45.271755
            ],
            [
              161.892025,
              45.191262
            ],
            [
              162.017094,
              45.119006
            ],
            [
              162.151565,
              45.055683
            ],
            [
              162.294143,
              45.001901
            ],
            [
              162.443456,
              44.95818
            ],
            [
              162.598065,
              44.92494
            ],
            [
              162.756482,
              44.902501
            ],
            [
              162.91718,
              44.891079
            ],
            [
              163.078612,
              44.890785
            ],
            [
              163.239224,
              44.901621
            ],
            [
              163.397469,
              44.923483
            ],
            [
              163.551823,
              44.956161
            ],
            [
              163.700798,
              44.999339
            ],
            [
              163.842961,
              45.052602
            ],
            [
              163.976943,
              45.115436
            ],
            [
              164.101453,
              45.187238
            ],
            [
              164.215291,
              45.267314
            ],
            [
              164.317362,
              45.354895
            ],
            [
              164.406683,
              45.449136
            ],
            [
              164.482394,
              45.54913
            ],
            [
              164.543764,
              45.653914
            ],
            [
              164.590204,
              45.76248
            ],
            [
              164.621266,
              45.87378
            ],
            [
              164.636651,
              45.986744
            ],
            [
              164.63621,
              46.100283
            ],
            [
              164.619949,
              46.213305
            ],
            [
              164.588023,
              46.32472
            ],
            [
              164.54074,
              46.433456
            ],
            [
              164.478556,
              46.538465
            ],
            [
              164.402068,
              46.638737
            ],
            [
              164.312015,
              46.733305
            ],
            [
              164.209263,
              46.821259
            ],
            [
              164.094801,
              46.901751
            ],
            [
              163.969733,
              46.974007
            ],
            [
              163.835262,
              47.037331
            ],
            [
              163.692684,
              47.091112
            ],
            [
              163.543371,
              47.134833
            ],
            [
              163.388762,
              47.168074
            ],
            [
              163.230345,
              47.190513
            ],
            [
              163.069647,
              47.201934
            ],
            [
              162.908214,
              47.202228
            ],
            [
              162.747602,
              47.191392
            ],
            [
              162.589357,
              47.16953
            ],
            [
              162.435004,
              47.136853
            ]
          ]
        ],
        "type": "Polygon"
      },
      "properties": {
        "kind": "reachableSet",
        "observationStatus": "estimated",
        "vessel": "A"
      },
      "type": "Feature"
    },
    {
      "geometry": {
        "coordinates": [
          [
            [
              162.431415,
              47.192054
            ],
            [
              162.278584,
              47.143778
            ],
            [
              162.133342,
              47.08511
            ],
            [
              161.997086,
              47.016612
            ],
            [
              161.871128,
              46.938946
            ],
            [
              161.756683,
              46.852859
            ],
            [
              161.654851,
              46.75918
            ],
            [
              161.566615,
              46.658812
            ],
            [
              161.492822,
              46.55272
            ],
            [
              161.434185,
              46.441927
            ],
            [
              161.391268,
              46.3275
            ],
            [
              161.364484,
              46.21054
            ],
            [
              161.35409,
              46.092175
            ],
            [
              161.360189,
              45.973543
            ],
            [
              161.382719,
              45.855788
            ],
            [
              161.421465,
              45.740044
            ],
            [
              161.476053,
              45.627424
            ],
            [
              161.545958,
              45.519014
            ],
            [
              161.630507,
              45.415859
            ],
            [
              161.728884,
              45.31895
            ],
            [
              161.840143,
              45.229222
            ],
            [
              161.963213,
              45.147539
            ],
            [
              162.096907,
              45.074687
            ],
            [
              162.239939,
              45.011368
            ],
            [
              162.390931,
              44.958192
            ],
            [
              162.548429,
              44.91567
            ],
            [
              162.710915,
              44.884213
            ],
            [
              162.876826,
              44.864123
            ],
            [
              163.044564,
              44.855594
            ],
            [
              163.212512,
              44.858708
            ],
            [
              163.379054,
              44.873435
            ],
            [
              163.542586,
              44.899633
            ],
            [
              163.701532,
              44.93705
            ],
            [
              163.854362,
              44.985325
            ],
            [
              163.999605,
              45.043994
            ],
            [
              164.135861,
              45.112491
            ],
            [
              164.261818,
              45.190157
            ],
            [
              164.376264,
              45.276244
            ],
            [
              164.478095,
              45.369923
            ],
            [
              164.566332,
              45.470292
            ],
            [
              164.640124,
              45.576383
            ],
            [
              164.698762,
              45.687176
            ],
            [
              164.741679,
              45.801603
            ],
            [
              164.768463,
              45.918563
            ],
            [
              164.778856,
              46.036929
            ],
            [
              164.772758,
              46.15556
            ],
            [
              164.750228,
              46.273315
            ],
            [
              164.711482,
              46.38906
            ],
            [
              164.656893,
              46.501679
            ],
            [
              164.586988,
              46.610089
            ],
            [
              164.50244,
              46.713245
            ],
            [
              164.404062,
              46.810153
            ],
            [
              164.292803,
              46.899881
            ],
            [
              164.169734,
              46.981565
            ],
            [
              164.036039,
              47.054416
            ],
            [
              163.893008,
              47.117736
            ],
            [
              163.742016,
              47.170912
            ],
            [
              163.584518,
              47.213433
            ],
            [
              163.422031,
              47.24489
            ],
            [
              163.25612,
              47.26498
            ],
            [
              163.088383,
              47.273509
            ],
            [
              162.920435,
              47.270395
            ],
            [
              162.753893,
              47.255668
            ],
            [
              162.590361,
              47.22947
            ],
            [
              162.431415,
              47.192054
            ]
          ]
        ],
        "type": "Polygon"
      },
      "properties": {
        "kind": "reachableSet",
        "observationStatus": "estimated",
        "vessel": "B"
      },
      "type": "Feature"
    }
  ],
  "properties": {
    "dateline": false
  },
  "type": "FeatureCollection"
}
