{
  "features": [
    {
      "geometry": {
        "coordinates": [
          162.94988,
          47.492087
        ],
        "type": "Point"
      },
      "properties": {
        "mmsi": "412439617",
        "observationStatus": "observed",
        "role": "off",
        "time": "2019-07-31T03:29:41Z",
        "vessel": "A"
      },
      "type": "Feature"
    },
    {
      "geometry": {
        "coordinates": [
          163.012465,
          47.526783
        ],
        "type": "Point"
      },
      "properties": {
        "mmsi": "412439762",
        "observationStatus": "observed",
        "role": "off",
        "time": "2019-07-31T04:23:42Z",
        "vessel": "B"
      },
      "type": "Feature"
    },
    {
      "geometry": {
        "coordinates": [
          159.518393,
          43.536262
        ],
        "type": "Point"
      },
      "properties": {
        "mmsi": "412439762",
        "observationStatus": "observed",
        "role": "on",
        "time": "2019-08-01T12:49:29Z",
        "vessel": "B"
      },
      "type": "Feature"
    },
    {
      "geometry": {
        "coordinates": [
          159.535413,
          43.488
        ],
        "type": "Point"
      },
      "properties": {
        "mmsi": "412439617",
        "observationStatus": "observed",
        "role": "on",
        "time": "2019-08-01T13:01:52Z",
        "vessel": "A"
      },
      "type": "Feature"
    },
    {
      "geometry": {
        "coordinates": [
          [
            162.94988,
            47.492087
          ],
          [
            161.475707,
            45.76943
          ],
          [
            159.535413,
            43.488
          ]
        ],
        "type": "LineString"
      },
      "properties": {
        "confidence": "low",
        "lineStyle": "dashed",
        "observationStatus": "estimated",
        "source": "reachable-set heuristic",
        "vessel": "A"
      },
      "type": "Feature"
    },
    {
      "geometry": {
        "coordinates": [
          [
            163.012465,
            47.526783
          ],
          [
            161.475707,
            45.76943
          ],
          [
            159.518393,
            43.536262
          ]
        ],
        "type": "LineString"
      },
      "properties": {
        "confidence": "low",
        "lineStyle": "dashed",
        "observationStatus": "estimated",
        "source": "reachable-set heuristic",
        "vessel": "B"
      },
      "type": "Feature"
    },
    {
      "geometry": {
        "coordinates": [
          161.475707,
          45.76943
        ],
        "type": "Point"
      },
      "properties": {
        "kind": "meetingPoint",
        "observationStatus": "estimated"
      },
      "type": "Feature"
    },
    {
      "geometry": {
        "coordinates": [
          [
            [
              158.853636,
              42.688492
            ],
            [
              159.137299,
              42.586373
            ],
            [
              159.441237,
              42.512219
            ],
            [
              159.762524,
              42.466742
            ],
            [
              160.098065,
              42.450382
            ],
            [
              160.444628,
              42.463295
            ],
            [
              160.798878,
              42.505358
            ],
            [
              161.157401,
              42.576164
            ],
            [
              161.516745,
              42.675033
            ],
            [
              161.873449,
              42.801012
            ],
            [
              162.224079,
              42.952888
            ],
            [
              162.565256,
              43.129198
            ],
            [
              162.893696,
              43.328244
            ],
            [
              163.206236,
              43.548109
            ],
            [
              163.499865,
              43.786677
            ],
            [
              163.771756,
              44.041648
            ],
            [
              164.01929,
              44.310569
            ],
            [
              164.240084,
              44.590849
            ],
            [
              164.432011,
              44.879788
            ],
            [
              164.593222,
              45.174604
            ],
            [
              164.722166,
              45.472458
            ],
            [
              164.817599,
              45.770482
            ],
            [
              164.878605,
              46.065805
            ],
            [
              164.904593,
              46.355583
            ],
            [
              164.895316,
              46.637025
            ],
            [
              164.850861,
              46.907421
            ],
            [
              164.771657,
              47.164167
            ],
            [
              164.658466,
              47.404791
            ],
            [
              164.51238,
              47.626974
            ],
            [
              164.334804,
              47.828578
            ],
            [
              164.127449,
              48.00766
            ],
            [
              163.892312,
              48.162496
            ],
            [
              163.631657,
              48.291595
            ],
            [
              163.347995,
              48.393713
            ],
            [
              163.044056,
              48.467868
            ],
            [
              162.72277,
              48.513344
            ],
            [
              162.387229,
              48.529705
            ],
            [
              162.040665,
              48.516792
            ],
            [
              161.686416,
              48.474729
            ],
            [
              161.327892,
              48.403923
            ],
            [
              160.968548,
              48.305054
            ],
            [
              160.611844,
              48.179075
            ],
            [
              160.261215,
              48.027199
            ],
            [
              159.920037,
              47.850889
            ],
            [
              159.591597,
              47.651843
            ],
            [
              159.279057,
              47.431977
            ],
            [
              158.985428,
              47.19341
            ],
            [
              158.713537,
              46.938438
            ],
            [
              158.466003,
              46.669518
            ],
            [
              158.245209,
              46.389238
            ],
            [
              158.053283,
              46.100299
            ],
            [
              157.892071,
              45.805482
            ],
            [
              157.763128,
              45.507628
            ],
            [
              157.667694,
              45.209605
            ],
            [
              157.606689,
              44.914282
            ],
            [
              157.5807,
              44.624504
            ],
            [
              157.589978,
              44.343062
            ],
            [
              157.634433,
              44.072665
            ],
            [
              157.713637,
              43.815919
            ],
            [
              157.826827,
              43.575296
            ],
            [
              157.972913,
              43.353113
            ],
            [
              158.150489,
              43.151509
            ],
            [
              158.357844,
              42.972427
            ],
            [
              158.592981,
              42.817591
            ],
            [
              158.853636,
              42.688492
            ]
          ]
        ],
        "type": "Polygon"
      },
      "properties": {
        "kind": "reachableSet",
        "observationStatus": "estimated",
        "vessel": "A"
      },
      "type": "Feature"
    },
    {
      "geometry": {
        "coordinates": [
          [
            [
              158.912292,
              42.844044
            ],
            [
              159.173842,
              42.748009
            ],
            [
              159.455534,
              42.678781
            ],
            [
              159.754657,
              42.637026
            ],
            [
              160.068329,
              42.623147
            ],
            [
              160.39353,
              42.637277
            ],
            [
              160.727128,
              42.67928
            ],
            [
              161.06591,
              42.748753
            ],
            [
              161.406613,
              42.845024
            ],
            [
              161.745957,
              42.967168
            ],
            [
              162.080673,
              43.114008
            ],
            [
              162.407538,
              43.284131
            ],
            [
              162.723404,
              43.475896
            ],
            [
              163.025228,
              43.687459
            ],
            [
              163.310105,
              43.916781
            ],
            [
              163.575291,
              44.161654
            ],
            [
              163.818231,
              44.419719
            ],
            [
              164.036586,
              44.688492
            ],
            [
              164.228254,
              44.965383
            ],
            [
              164.391388,
              45.247727
            ],
            [
              164.524417,
              45.532804
            ],
            [
              164.62606,
              45.817868
            ],
            [
              164.695339,
              46.100175
            ],
            [
              164.731586,
              46.377005
            ],
            [
              164.734452,
              46.645693
            ],
            [
              164.703909,
              46.903651
            ],
            [
              164.640252,
              47.148395
            ],
            [
              164.544093,
              47.377567
            ],
            [
              164.416359,
              47.588961
            ],
            [
              164.25828,
              47.78054
            ],
            [
              164.071378,
              47.95046
            ],
            [
              163.857453,
              48.097085
            ],
            [
              163.618566,
              48.219001
            ],
            [
              163.357017,
              48.315036
            ],
            [
              163.075324,
              48.384264
            ],
            [
              162.776202,
              48.426019
            ],
            [
              162.462529,
              48.439898
            ],
            [
              162.137328,
              48.425768
            ],
            [
              161.80373,
              48.383765
            ],
            [
              161.464948,
              48.314292
            ],
            [
              161.124245,
              48.218021
            ],
            [
              160.784901,
              48.095877
            ],
            [
              160.450185,
              47.949037
            ],
            [
              160.12332,
              47.778914
            ],
            [
              159.807454,
              47.587149
            ],
            [
              159.50563,
              47.375586
            ],
            [
              159.220753,
              47.146264
            ],
            [
              158.955568,
              46.901391
            ],
            [
              158.712627,
              46.643326
            ],
            [
              158.494272,
              46.374553
            ],
            [
              158.302605,
              46.097662
            ],
            [
              158.139471,
              45.815318
            ],
            [
              158.006441,
              45.530241
            ],
            [
              157.904798,
              45.245177
            ],
            [
              157.835519,
              44.96287
            ],
            [
              157.799272,
              44.68604
            ],
            [
              157.796407,
              44.417352
            ],
            [
              157.826949,
              44.159394
            ],
            [
              157.890607,
              43.91465
            ],
            [
              157.986765,
              43.685478
            ],
            [
              158.114499,
              43.474084
            ],
            [
              158.272578,
              43.282505
            ],
            [
              158.45948,
              43.112585
            ],
            [
              158.673405,
              42.96596
            ],
            [
              158.912292,
              42.844044
            ]
          ]
        ],
        "type": "Polygon"
      },
      "properties": {
        "kind": "reachableSet",
        "observationStatus": "estimated",
        "vessel": "B"
      },
      "type": "Feature"
    }
  ],
  "properties": {
    "dateline": false
  },
  "type": "FeatureCollection"
}
