{
  "features": [
    {
      "geometry": {
        "coordinates": [
          -80.858152,
          -20.00735
        ],
        "type": "Point"
      },
      "properties": {
        "mmsi": "412420801",
        "observationStatus": "observed",
        "role": "off",
        "time": "2019-10-22T09:21:52Z",
        "vessel": "A"
      },
      "type": "Feature"
    },
    {
      "geometry": {
        "coordinates": [
          -80.882888,
          -19.984418
        ],
        "type": "Point"
      },
      "properties": {
        "mmsi": "412420799",
        "observationStatus": "observed",
        "role": "off",
        "time": "2019-10-22T09:22:30Z",
        "vessel": "B"
      },
      "type": "Feature"
    },
    {
      "geometry": {
        "coordinates": [
          -81.215468,
          -18.593985
        ],
        "type": "Point"
      },
      "properties": {
        "mmsi": "412420801",
        "observationStatus": "observed",
        "role": "on",
        "time": "2019-10-23T00:34:49Z",
        "vessel": "A"
      },
      "type": "Feature"
    },
    {
      "geometry": {
        "coordinates": [
          -81.203132,
          -18.54975
        ],
        "type": "Point"
      },
      "properties": {
        "mmsi": "412420799",
        "observationStatus": "observed",
        "role": "on",
        "time": "2019-10-23T00:48:57Z",
        "vessel": "B"
      },
      "type": "Feature"
    },
    {
      "geometry": {
        "coordinates": [
          [
            -80.858152,
            -20.00735
          ],
          [
            -81.03681,
            -19.304552
          ],
          [
            -81.215468,
            -18.593985
          ]
        ],
        "type": "LineString"
      },
      "properties": {
        "confidence": "low",
        "lineStyle": "dashed",
        "observationStatus": "estimated",
        "source": "reachable-set heuristic",
        "vessel": "A"
      },
      "type": "Feature"
    },
    {
      "geometry": {
        "coordinates": [
          [
            -80.882888,
            -19.984418
          ],
          [
            -81.03681,
            -19.304552
          ],
          [
            -81.203132,
            -18.54975
          ]
        ],
        "type": "LineString"
      },
      "properties": {
        "confidence": "low",
        "lineStyle": "dashed",
        "observationStatus": "estimated",
        "source": "reachable-set heuristic",
        "vessel": "B"
      },
      "type": "Feature"
    },
    {
      "geometry": {
        "coordinates": [
          -81.03681,
          -19.304552
        ],
        "type": "Point"
      },
      "properties": {
        "kind": "meetingPoint",
        "observationStatus": "estimated"
      },
      "type": "Feature"
    },
    {
      "geometry": {
        "coordinates": [
          [
            [
              -81.388001,
              -17.911532
            ],
            [
              -81.509678,
              -17.946381
            ],
            [
              -81.6268,
              -17.994272
            ],
            [
              -81.73824,
              -18.054745
            ],
            [
              -81.842926,
              -18.127216
            ],
            [
              -81.939848,
              -18.210989
            ],
            [
              -82.028073,
              -18.305256
            ],
            [
              -82.106752,
              -18.409109
            ],
            [
              -82.175127,
              -18.521548
            ],
            [
              -82.232539,
              -18.641491
            ],
            [
              -82.278435,
              -18.767781
            ],
            [
              -82.312374,
              -18.899204
            ],
            [
              -82.334029,
              -19.034493
            ],
            [
              -82.343191,
              -19.172346
            ],
            [
              -82.339771,
              -19.311434
            ],
            [
              -82.323804,
              -19.450419
            ],
            [
              -82.295442,
              -19.587962
            ],
            [
              -82.254958,
              -19.722737
            ],
            [
              -82.202743,
              -19.853448
            ],
            [
              -82.1393,
              -19.978835
            ],
            [
              -82.065239,
              -20.097692
            ],
            [
              -81.981274,
              -20.208872
            ],
            [
              -81.888213,
              -20.311306
            ],
            [
              -81.786952,
              -20.404007
            ],
            [
              -81.678467,
              -20.486082
            ],
            [
              -81.563803,
              -20.556741
            ],
            [
              -81.444063,
              -20.615303
            ],
            [
              -81.320402,
              -20.661205
            ],
            [
              -81.194009,
              -20.694004
            ],
            [
              -81.066102,
              -20.713384
            ],
            [
              -80.937914,
              -20.719159
            ],
            [
              -80.810677,
              -20.711274
            ],
            [
              -80.685619,
              -20.689803
            ],
            [
              -80.563942,
              -20.654954
            ],
            [
              -80.44682,
              -20.607063
            ],
            [
              -80.33538,
              -20.54659
            ],
            [
              -80.230694,
              -20.474119
            ],
            [
              -80.133772,
              -20.390346
            ],
            [
              -80.045547,
              -20.296079
            ],
            [
              -79.966868,
              -20.192226
            ],
            [
              -79.898493,
              -20.079787
            ],
            [
              -79.841081,
              -19.959844
            ],
            [
              -79.795185,
              -19.833554
            ],
            [
              -79.761246,
              -19.702131
            ],
            [
              -79.739591,
              -19.566842
            ],
            [
              -79.730429,
              -19.428989
            ],
            [
              -79.733849,
              -19.289901
            ],
            [
              -79.749816,
              -19.150916
            ],
            [
              -79.778178,
              -19.013373
            ],
            [
              -79.818662,
              -18.878598
            ],
            [
              -79.870877,
              -18.747887
            ],
            [
              -79.93432,
              -18.6225
            ],
            [
              -80.008381,
              -18.503643
            ],
            [
              -80.092346,
              -18.392463
            ],
            [
              -80.185407,
              -18.290029
            ],
            [
              -80.286668,
              -18.197328
            ],
            [
              -80.395153,
              -18.115253
            ],
            [
              -80.509817,
              -18.044594
            ],
            [
              -80.629557,
              -17.986032
            ],
            [
              -80.753218,
              -17.94013
            ],
            [
              -80.879611,
              -17.907331
            ],
            [
              -81.007518,
              -17.887951
            ],
            [
              -81.135706,
              -17.882176
            ],
            [
              -81.262943,
              -17.890061
            ],
            [
              -81.388001,
              -17.911532
            ]
          ]
        ],
        "type": "Polygon"
      },
      "properties": {
        "kind": "reachableSet",
        "observationStatus": "estimated",
        "vessel": "A"
      },
      "type": "Feature"
    },
    {
      "geometry": {
        "coordinates": [
          [
            [
              -81.359906,
              -17.847412
            ],
            [
              -81.48473,
              -17.879723
            ],
            [
              -81.605299,
              -17.925395
            ],
            [
              -81.720454,
              -17.983988
            ],
            [
              -81.829084,
              -18.054938
            ],
            [
              -81.930145,
              -18.137562
            ],
            [
              -82.022661,
              -18.231064
            ],
            [
              -82.105743,
              -18.334543
            ],
            [
              -82.17859,
              -18.447002
            ],
            [
              -82.240501,
              -18.56736
            ],
            [
              -82.29088,
              -18.694457
            ],
            [
              -82.329241,
              -18.827068
            ],
            [
              -82.355214,
              -18.963917
            ],
            [
              -82.368551,
              -19.103685
            ],
            [
              -82.369122,
              -19.245027
            ],
            [
              -82.356921,
              -19.386582
            ],
            [
              -82.332067,
              -19.526985
            ],
            [
              -82.294799,
              -19.664886
            ],
            [
              -82.245475,
              -19.798955
            ],
            [
              -82.184571,
              -19.927903
            ],
            [
              -82.112673,
              -20.050486
            ],
            [
              -82.030473,
              -20.165525
            ],
            [
              -81.938764,
              -20.271911
            ],
            [
              -81.838428,
              -20.368621
            ],
            [
              -81.730432,
              -20.454721
            ],
            [
              -81.615815,
              -20.529385
            ],
            [
              -81.495683,
              -20.591891
            ],
            [
              -81.37119,
              -20.641639
            ],
            [
              -81.243537,
              -20.67815
            ],
            [
              -81.113953,
              -20.701071
            ],
            [
              -80.983686,
              -20.710181
            ],
            [
              -80.85399,
              -20.705394
            ],
            [
              -80.726114,
              -20.686756
            ],
            [
              -80.60129,
              -20.654445
            ],
            [
              -80.480721,
              -20.608773
            ],
            [
              -80.365566,
              -20.55018
            ],
            [
              -80.256936,
              -20.47923
            ],
            [
              -80.155875,
              -20.396606
            ],
            [
              -80.063359,
              -20.303105
            ],
            [
              -79.980277,
              -20.199626
            ],
            [
              -79.90743,
              -20.087166
            ],
            [
              -79.845519,
              -19.966808
            ],
            [
              -79.79514,
              -19.839712
            ],
            [
              -79.756779,
              -19.707101
            ],
            [
              -79.730806,
              -19.570252
            ],
            [
              -79.717469,
              -19.430483
            ],
            [
              -79.716898,
              -19.289141
            ],
            [
              -79.729099,
              -19.147587
            ],
            [
              -79.753953,
              -19.007183
            ],
            [
              -79.791221,
              -18.869282
            ],
            [
              -79.840545,
              -18.735213
            ],
            [
              -79.901449,
              -18.606265
            ],
            [
              -79.973347,
              -18.483682
            ],
            [
              -80.055547,
              -18.368643
            ],
            [
              -80.147256,
              -18.262257
            ],
            [
              -80.247592,
              -18.165548
            ],
            [
              -80.355588,
              -18.079447
            ],
            [
              -80.470205,
              -18.004784
            ],
            [
              -80.590337,
              -17.942277
            ],
            [
              -80.71483,
              -17.892529
            ],
            [
              -80.842483,
              -17.856019
            ],
            [
              -80.972067,
              -17.833098
            ],
            [
              -81.102334,
              -17.823987
            ],
            [
              -81.23203,
              -17.828774
            ],
            [
              -81.359906,
              -17.847412
            ]
          ]
        ],
        "type": "Polygon"
      },
      "properties": {
        "kind": "reachableSet",
        "observationStatus": "estimated",
        "vessel": "B"
      },
      "type": "Feature"
    }
  ],
  "properties": {
    "dateline": false
  },
  "type": "FeatureCollection"
}
