{
  "features": [
    {
      "geometry": {
        "coordinates": [
          160.81088,
          41.89328
        ],
        "type": "Point"
      },
      "properties": {
        "mmsi": "416004693",
        "observationStatus": "observed",
        "role": "off",
        "time": "2018-08-19T04:25:38Z",
        "vessel": "A"
      },
      "type": "Feature"
    },
    {
      "geometry": {
        "coordinates": [
          160.855908,
          41.823302
        ],
        "type": "Point"
      },
      "properties": {
        "mmsi": "416241700",
        "observationStatus": "observed",
        "role": "off",
        "time": "2018-08-19T04:42:57Z",
        "vessel": "B"
      },
      "type": "Feature"
    },
    {
      "geometry": {
        "coordinates": [
          160.81095,
          42.24281
        ],
        "type": "Point"
      },
      "properties": {
        "mmsi": "416004693",
        "observationStatus": "observed",
        "role": "on",
        "time": "2018-08-19T18:07:47Z",
        "vessel": "A"
      },
      "type": "Feature"
    },
    {
      "geometry": {
        "coordinates": [
          160.803577,
          42.162592
        ],
        "type": "Point"
      },
      "properties": {
        "mmsi": "416241700",
        "observationStatus": "observed",
        "role": "on",
        "time": "2018-08-19T18:52:57Z",
        "vessel": "B"
      },
      "type": "Feature"
    },
    {
      "geometry": {
        "coordinates": [
          [
            160.81088,
            41.89328
          ],
          [
            160.838075,
            41.992606
          ],
          [
            160.81095,
            42.24281
          ]
        ],
        "type": "LineString"
      },
      "properties": {
        "confidence": "low",
        "lineStyle": "dashed",
        "observationStatus": "estimated",
        "source": "reachable-set heuristic",
        "vessel": "A"
      },
      "type": "Feature"
    },
    {
      "geometry": {
        "coordinates": [
          [
            160.855908,
            41.823302
          ],
          [
            160.838075,
            41.992606
          ],
          [
            160.803577,
            42.162592
          ]
        ],
        "type": "LineString"
      },
      "properties": {
        "confidence": "low",
        "lineStyle": "dashed",
        "observationStatus": "estimated",
        "source": "reachable-set heuristic",
        "vessel": "B"
      },
      "type": "Feature"
    },
    {
      "geometry": {
        "coordinates": [
          160.838075,
          41.992606
        ],
        "type": "Point"
      },
      "properties": {
        "kind": "meetingPoint",
        "observationStatus": "estimated"
      },
      "type": "Feature"
    },
    {
      "geometry": {
        "coordinates": [
          [
            [
              160.811171,
              43.344613
            ],
            [
              160.645328,
              43.338485
            ],
            [
              160.48108,
              43.320122
            ],
            [
              160.320008,
              43.2897
            ],
            [
              160.163664,
              43.247513
            ],
            [
              160.013554,
              43.193967
            ],
            [
              159.871122,
              43.129578
            ],
            [
              159.737742,
              43.054966
            ],
            [
              159.614696,
              42.970849
            ],
            [
              159.503171,
              42.878038
            ],
            [
              159.40424,
              42.777426
            ],
            [
              159.318856,
              42.669982
            ],
            [
              159.247841,
              42.556741
            ],
            [
              159.19188,
              42.438794
            ],
            [
              159.151511,
              42.317277
            ],
            [
              159.127123,
              42.193359
            ],
            [
              159.11895,
              42.068234
            ],
            [
              159.127073,
              41.943108
            ],
            [
              159.151411,
              41.819184
            ],
            [
              159.191732,
              41.697658
            ],
            [
              159.247646,
              41.579698
            ],
            [
              159.318615,
              41.466442
            ],
            [
              159.403956,
              41.358979
            ],
            [
              159.502846,
              41.258345
            ],
            [
              159.614335,
              41.165509
            ],
            [
              159.737346,
              41.081364
            ],
            [
              159.870697,
              41.006722
            ],
            [
              160.013103,
              40.942301
            ],
            [
              160.163192,
              40.888722
            ],
            [
              160.319519,
              40.8465
            ],
            [
              160.480578,
              40.816042
            ],
            [
              160.644819,
              40.797642
            ],
            [
              160.810659,
              40.791477
            ],
            [
              160.976502,
              40.797605
            ],
            [
              161.14075,
              40.815968
            ],
            [
              161.301822,
              40.84639
            ],
            [
              161.458166,
              40.888577
            ],
            [
              161.608276,
              40.942123
            ],
            [
              161.750708,
              41.006512
            ],
            [
              161.884088,
              41.081124
            ],
            [
              162.007134,
              41.165241
            ],
            [
              162.118659,
              41.258052
            ],
            [
              162.21759,
              41.358664
            ],
            [
              162.302974,
              41.466108
            ],
            [
              162.373989,
              41.579349
            ],
            [
              162.42995,
              41.697296
            ],
            [
              162.470319,
              41.818813
            ],
            [
              162.494707,
              41.942731
            ],
            [
              162.50288,
              42.067856
            ],
            [
              162.494757,
              42.192982
            ],
            [
              162.470419,
              42.316906
            ],
            [
              162.430098,
              42.438432
            ],
            [
              162.374184,
              42.556392
            ],
            [
              162.303215,
              42.669648
            ],
            [
              162.217874,
              42.777111
            ],
            [
              162.118984,
              42.877745
            ],
            [
              162.007495,
              42.970581
            ],
            [
              161.884484,
              43.054726
            ],
            [
              161.751133,
              43.129368
            ],
            [
              161.608727,
              43.193789
            ],
            [
              161.458638,
              43.247368
            ],
            [
              161.302311,
              43.28959
            ],
            [
              161.141252,
              43.320048
            ],
            [
              160.977011,
              43.338448
            ],
            [
              160.811171,
              43.344613
            ]
          ]
        ],
        "type": "Polygon"
      },
      "properties": {
        "kind": "reachableSet",
        "observationStatus": "estimated",
        "vessel": "A"
      },
      "type": "Feature"
    },
    {
      "geometry": {
        "coordinates": [
          [
            [
              160.626997,
              43.307437
            ],
            [
              160.457226,
              43.286362
            ],
            [
              160.291042,
              43.25283
            ],
            [
              160.130046,
              43.207165
            ],
            [
              159.975789,
              43.149807
            ],
            [
              159.829755,
              43.081307
            ],
            [
              159.693352,
              43.002326
            ],
            [
              159.567893,
              42.913624
            ],
            [
              159.454587,
              42.816055
            ],
            [
              159.354524,
              42.71056
            ],
            [
              159.268668,
              42.598153
            ],
            [
              159.197846,
              42.479918
            ],
            [
              159.14274,
              42.356993
            ],
            [
              159.103881,
              42.230562
            ],
            [
              159.081643,
              42.101842
            ],
            [
              159.07624,
              41.972074
            ],
            [
              159.087724,
              41.842507
            ],
            [
              159.115985,
              41.714389
            ],
            [
              159.16075,
              41.588954
            ],
            [
              159.221589,
              41.467409
            ],
            [
              159.297915,
              41.350925
            ],
            [
              159.388993,
              41.240625
            ],
            [
              159.493946,
              41.137569
            ],
            [
              159.611764,
              41.042752
            ],
            [
              159.741312,
              40.957085
            ],
            [
              159.881342,
              40.881394
            ],
            [
              160.030506,
              40.816408
            ],
            [
              160.187366,
              40.762753
            ],
            [
              160.350413,
              40.720945
            ],
            [
              160.518076,
              40.691387
            ],
            [
              160.688741,
              40.674364
            ],
            [
              160.860764,
              40.67004
            ],
            [
              161.032488,
              40.678456
            ],
            [
              161.202259,
              40.699531
            ],
            [
              161.368443,
              40.733063
            ],
            [
              161.529439,
              40.778728
            ],
            [
              161.683696,
              40.836086
            ],
            [
              161.82973,
              40.904586
            ],
            [
              161.966133,
              40.983567
            ],
            [
              162.091592,
              41.072269
            ],
            [
              162.204898,
              41.169838
            ],
            [
              162.304961,
              41.275334
            ],
            [
              162.390817,
              41.387741
            ],
            [
              162.461639,
              41.505976
            ],
            [
              162.516745,
              41.628901
            ],
            [
              162.555604,
              41.755332
            ],
            [
              162.577842,
              41.884051
            ],
            [
              162.583245,
              42.013819
            ],
            [
              162.571761,
              42.143386
            ],
            [
              162.5435,
              42.271504
            ],
            [
              162.498735,
              42.39694
            ],
            [
              162.437896,
              42.518485
            ],
            [
              162.36157,
              42.634968
            ],
            [
              162.270492,
              42.745269
            ],
            [
              162.165539,
              42.848324
            ],
            [
              162.047721,
              42.943142
            ],
            [
              161.918173,
              43.028808
            ],
            [
              161.778143,
              43.104499
            ],
            [
              161.628979,
              43.169485
            ],
            [
              161.472119,
              43.22314
            ],
            [
              161.309072,
              43.264948
            ],
            [
              161.141409,
              43.294506
            ],
            [
              160.970744,
              43.311529
            ],
            [
              160.798721,
              43.315853
            ],
            [
              160.626997,
              43.307437
            ]
          ]
        ],
        "type": "Polygon"
      },
      "properties": {
        "kind": "reachableSet",
        "observationStatus": "estimated",
        "vessel": "B"
      },
      "type": "Feature"
    }
  ],
  "properties": {
    "dateline": false
  },
  "type": "FeatureCollection"
}
