{
  "features": [
    {
      "geometry": {
        "coordinates": [
          -62.898387,
          -44.292022
        ],
        "type": "Point"
      },
      "properties": {
        "mmsi": "701000626",
        "observationStatus": "observed",
        "role": "off",
        "time": "2018-09-29T21:14:00Z",
        "vessel": "A"
      },
      "type": "Feature"
    },
    {
      "geometry": {
        "coordinates": [
          -62.943248,
          -44.27698
        ],
        "type": "Point"
      },
      "properties": {
        "mmsi": "701000662",
        "observationStatus": "observed",
        "role": "off",
        "time": "2018-09-29T21:14:08Z",
        "vessel": "B"
      },
      "type": "Feature"
    },
    {
      "geometry": {
        "coordinates": [
          -62.927413,
          -44.150773
        ],
        "type": "Point"
      },
      "properties": {
        "mmsi": "701000626",
        "observationStatus": "observed",
        "role": "on",
        "time": "2018-09-30T09:15:55Z",
        "vessel": "A"
      },
      "type": "Feature"
    },
    {
      "geometry": {
        "coordinates": [
          -62.96144,
          -44.192
        ],
        "type": "Point"
      },
      "properties": {
        "mmsi": "701000662",
        "observationStatus": "observed",
        "role": "on",
        "time": "2018-09-30T09:20:51Z",
        "vessel": "B"
      },
      "type": "Feature"
    },
    {
      "geometry": {
        "coordinates": [
          [
            -62.898387,
            -44.292022
          ],
          [
            -62.916395,
            -44.203837
          ],
          [
            -62.927413,
            -44.150773
          ]
        ],
        "type": "LineString"
      },
      "properties": {
        "confidence": "low",
        "lineStyle": "dashed",
        "observationStatus": "estimated",
        "source": "reachable-set heuristic",
        "vessel": "A"
      },
      "type": "Feature"
    },
    {
      "geometry": {
        "coordinates": [
          [
            -62.943248,
            -44.27698
          ],
          [
            -62.916395,
            -44.203837
          ],
          [
            -62.96144,
            -44.192
          ]
        ],
        "type": "LineString"
      },
      "properties": {
        "confidence": "low",
        "lineStyle": "dashed",
        "observationStatus": "estimated",
        "source": "reachable-set heuristic",
        "vessel": "B"
      },
      "type": "Feature"
    },
    {
      "geometry": {
        "coordinates": [
          -62.916395,
          -44.203837
        ],
        "type": "Point"
      },
      "properties": {
        "kind": "meetingPoint",
        "observationStatus": "estimated"
      },
      "type": "Feature"
    },
    {
      "geometry": {
        "coordinates": [
          [
            [
              -63.157052,
              -43.033314
            ],
            [
              -63.316992,
              -43.056271
            ],
            [
              -63.47304,
              -43.090449
            ],
            [
              -63.623694,
              -43.135518
            ],
            [
              -63.767502,
              -43.191045
            ],
            [
              -63.90308,
              -43.256495
            ],
            [
              -64.029123,
              -43.331238
            ],
            [
              -64.144415,
              -43.414553
            ],
            [
              -64.247847,
              -43.505638
            ],
            [
              -64.338423,
              -43.603617
            ],
            [
              -64.41527,
              -43.707545
            ],
            [
              -64.477649,
              -43.816422
            ],
            [
              -64.524958,
              -43.929199
            ],
            [
              -64.556742,
              -44.04479
            ],
            [
              -64.572695,
              -44.162082
            ],
            [
              -64.572664,
              -44.279945
            ],
            [
              -64.556648,
              -44.397245
            ],
            [
              -64.524802,
              -44.51285
            ],
            [
              -64.477432,
              -44.625649
            ],
            [
              -64.414995,
              -44.734555
            ],
            [
              -64.338092,
              -44.838519
            ],
            [
              -64.247464,
              -44.93654
            ],
            [
              -64.143983,
              -45.027673
            ],
            [
              -64.028646,
              -45.111041
            ],
            [
              -63.902564,
              -45.185842
            ],
            [
              -63.76695,
              -45.251355
            ],
            [
              -63.623112,
              -45.306948
            ],
            [
              -63.472434,
              -45.352087
            ],
            [
              -63.316368,
              -45.386337
            ],
            [
              -63.156416,
              -45.409368
            ],
            [
              -62.994118,
              -45.420958
            ],
            [
              -62.831039,
              -45.420996
            ],
            [
              -62.668748,
              -45.409481
            ],
            [
              -62.508808,
              -45.386524
            ],
            [
              -62.35276,
              -45.352346
            ],
            [
              -62.202106,
              -45.307277
            ],
            [
              -62.058298,
              -45.25175
            ],
            [
              -61.92272,
              -45.1863
            ],
            [
              -61.796677,
              -45.111557
            ],
            [
              -61.681385,
              -45.028242
            ],
            [
              -61.577953,
              -44.937157
            ],
            [
              -61.487377,
              -44.839178
            ],
            [
              -61.41053,
              -44.73525
            ],
            [
              -61.348151,
              -44.626373
            ],
            [
              -61.300842,
              -44.513596
            ],
            [
              -61.269058,
              -44.398005
            ],
            [
              -61.253105,
              -44.280713
            ],
            [
              -61.253136,
              -44.16285
            ],
            [
              -61.269152,
              -44.04555
            ],
            [
              -61.300998,
              -43.929945
            ],
            [
              -61.348368,
              -43.817146
            ],
            [
              -61.410805,
              -43.70824
            ],
            [
              -61.487708,
              -43.604276
            ],
            [
              -61.578336,
              -43.506255
            ],
            [
              -61.681817,
              -43.415122
            ],
            [
              -61.797154,
              -43.331754
            ],
            [
              -61.923236,
              -43.256953
            ],
            [
              -62.05885,
              -43.19144
            ],
            [
              -62.202688,
              -43.135847
            ],
            [
              -62.353366,
              -43.090708
            ],
            [
              -62.509432,
              -43.056458
            ],
            [
              -62.669384,
              -43.033427
            ],
            [
              -62.831682,
              -43.021837
            ],
            [
              -62.994761,
              -43.021799
            ],
            [
              -63.157052,
              -43.033314
            ]
          ]
        ],
        "type": "Polygon"
      },
      "properties": {
        "kind": "reachableSet",
        "observationStatus": "estimated",
        "vessel": "A"
      },
      "type": "Feature"
    },
    {
      "geometry": {
        "coordinates": [
          [
            [
              -63.208289,
              -43.038879
            ],
            [
              -63.369413,
              -43.062721
            ],
            [
              -63.526521,
              -43.097848
            ],
            [
              -63.678099,
              -43.143922
            ],
            [
              -63.822688,
              -43.200498
            ],
            [
              -63.958895,
              -43.267032
            ],
            [
              -64.085409,
              -43.342884
            ],
            [
              -64.20101,
              -43.427322
            ],
            [
              -64.304586,
              -43.519533
            ],
            [
              -64.395139,
              -43.61863
            ],
            [
              -64.471797,
              -43.723658
            ],
            [
              -64.533822,
              -43.833605
            ],
            [
              -64.580617,
              -43.947414
            ],
            [
              -64.611731,
              -44.063987
            ],
            [
              -64.626863,
              -44.182202
            ],
            [
              -64.625869,
              -44.30092
            ],
            [
              -64.608758,
              -44.418999
            ],
            [
              -64.575695,
              -44.535301
            ],
            [
              -64.526999,
              -44.648706
            ],
            [
              -64.463137,
              -44.758122
            ],
            [
              -64.384726,
              -44.862495
            ],
            [
              -64.29252,
              -44.96082
            ],
            [
              -64.187407,
              -45.05215
            ],
            [
              -64.0704,
              -45.135605
            ],
            [
              -63.942626,
              -45.210382
            ],
            [
              -63.805315,
              -45.275761
            ],
            [
              -63.659789,
              -45.331112
            ],
            [
              -63.50745,
              -45.375902
            ],
            [
              -63.349765,
              -45.409699
            ],
            [
              -63.188252,
              -45.432179
            ],
            [
              -63.024468,
              -45.443124
            ],
            [
              -62.859989,
              -45.442429
            ],
            [
              -62.6964,
              -45.430101
            ],
            [
              -62.535275,
              -45.406259
            ],
            [
              -62.378167,
              -45.371132
            ],
            [
              -62.226589,
              -45.325058
            ],
            [
              -62.082,
              -45.268482
            ],
            [
              -61.945793,
              -45.201948
            ],
            [
              -61.81928,
              -45.126096
            ],
            [
              -61.703678,
              -45.041658
            ],
            [
              -61.600102,
              -44.949447
            ],
            [
              -61.509549,
              -44.85035
            ],
            [
              -61.432891,
              -44.745322
            ],
            [
              -61.370866,
              -44.635375
            ],
            [
              -61.324071,
              -44.521566
            ],
            [
              -61.292958,
              -44.404993
            ],
            [
              -61.277825,
              -44.286778
            ],
            [
              -61.278819,
              -44.16806
            ],
            [
              -61.29593,
              -44.049981
            ],
            [
              -61.328993,
              -43.933679
            ],
            [
              -61.37769,
              -43.820274
            ],
            [
              -61.441551,
              -43.710858
            ],
            [
              -61.519963,
              -43.606485
            ],
            [
              -61.612169,
              -43.50816
            ],
            [
              -61.717281,
              -43.41683
            ],
            [
              -61.834288,
              -43.333375
            ],
            [
              -61.962062,
              -43.258598
            ],
            [
              -62.099374,
              -43.193219
            ],
            [
              -62.2449,
              -43.137868
            ],
            [
              -62.397239,
              -43.093078
            ],
            [
              -62.554924,
              -43.059281
            ],
            [
              -62.716436,
              -43.036801
            ],
            [
              -62.88022,
              -43.025856
            ],
            [
              -63.044699,
              -43.026551
            ],
            [
              -63.208289,
              -43.038879
            ]
          ]
        ],
        "type": "Polygon"
      },
      "properties": {
        "kind": "reachableSet",
        "observationStatus": "estimated",
        "vessel": "B"
      },
      "type": "Feature"
    }
  ],
  "properties": {
    "dateline": false
  },
  "type": "FeatureCollection"
}
