{
  "features": [
    {
      "geometry": {
        "coordinates": [
          -57.81968,
          -42.0624
        ],
        "type": "Point"
      },
      "properties": {
        "mmsi": "412329693",
        "observationStatus": "observed",
        "role": "off",
        "time": "2019-05-08T05:23:47Z",
        "vessel": "A"
      },
      "type": "Feature"
    },
    {
      "geometry": {
        "coordinates": [
          -57.772353,
          -42.058297
        ],
        "type": "Point"
      },
      "properties": {
        "mmsi": "412329689",
        "observationStatus": "observed",
        "role": "off",
        "time": "2019-05-08T05:26:02Z",
        "vessel": "B"
      },
      "type": "Feature"
    },
    {
      "geometry": {
        "coordinates": [
          -57.909302,
          -42.04751
        ],
        "type": "Point"
      },
      "properties": {
        "mmsi": "412329693",
        "observationStatus": "observed",
        "role": "on",
        "time": "2019-05-08T22:14:14Z",
        "vessel": "A"
      },
      "type": "Feature"
    },
    {
      "geometry": {
        "coordinates": [
          -57.895,
          -42.03
        ],
        "type": "Point"
      },
      "properties": {
        "mmsi": "412329689",
        "observationStatus": "observed",
        "role": "on",
        "time": "2019-05-08T22:32:47Z",
        "vessel": "B"
      },
      "type": "Feature"
    },
    {
      "geometry": {
        "coordinates": [
          [
            -57.81968,
            -42.0624
          ],
          [
            -57.868963,
            -42.050744
          ],
          [
            -57.909302,
            -42.04751
          ]
        ],
        "type": "LineString"
      },
      "properties": {
        "confidence": "low",
        "lineStyle": "dashed",
        "observationStatus": "estimated",
        "source": "reachable-set heuristic",
        "vessel": "A"
      },
      "type": "Feature"
    },
    {
      "geometry": {
        "coordinates": [
          [
            -57.772353,
            -42.058297
          ],
          [
            -57.868963,
            -42.050744
          ],
          [
            -57.895,
            -42.03
          ]
        ],
        "type": "LineString"
      },
      "properties": {
        "confidence": "low",
        "lineStyle": "dashed",
        "observationStatus": "estimated",
        "source": "reachable-set heuristic",
        "vessel": "B"
      },
      "type": "Feature"
    },
    {
      "geometry": {
        "coordinates": [
          -57.868963,
          -42.050744
        ],
        "type": "Point"
      },
      "properties": {
        "kind": "meetingPoint",
        "observationStatus": "estimated"
      },
      "type": "Feature"
    },
    {
      "geometry": {
        "coordinates": [
          [
            [
              -60.11661,
              -41.680782
            ],
            [
              -60.154817,
              -41.847567
            ],
            [
              -60.170967,
              -42.01635
            ],
            [
              -60.164905,
              -42.185504
            ],
            [
              -60.136688,
              -42.353402
            ],
            [
              -60.086589,
              -42.518425
            ],
            [
              -60.01509,
              -42.678985
            ],
            [
              -59.922879,
              -42.833534
            ],
            [
              -59.810845,
              -42.980586
            ],
            [
              -59.680066,
              -43.118724
            ],
            [
              -59.531803,
              -43.246616
            ],
            [
              -59.367482,
              -43.363033
            ],
            [
              -59.188687,
              -43.466852
            ],
            [
              -58.997139,
              -43.557073
            ],
            [
              -58.794683,
              -43.632829
            ],
            [
              -58.583269,
              -43.693388
            ],
            [
              -58.364932,
              -43.738169
            ],
            [
              -58.141776,
              -43.766739
            ],
            [
              -57.91595,
              -43.778824
            ],
            [
              -57.689628,
              -43.774307
            ],
            [
              -57.46499,
              -43.753232
            ],
            [
              -57.244199,
              -43.715801
            ],
            [
              -57.029382,
              -43.662376
            ],
            [
              -56.822608,
              -43.59347
            ],
            [
              -56.625868,
              -43.509747
            ],
            [
              -56.441056,
              -43.412015
            ],
            [
              -56.269953,
              -43.301212
            ],
            [
              -56.114206,
              -43.178408
            ],
            [
              -55.975315,
              -43.044784
            ],
            [
              -55.854618,
              -42.901628
            ],
            [
              -55.753277,
              -42.750318
            ],
            [
              -55.672268,
              -42.592311
            ],
            [
              -55.612372,
              -42.429128
            ],
            [
              -55.574165,
              -42.262343
            ],
            [
              -55.558014,
              -42.09356
            ],
            [
              -55.564077,
              -41.924406
            ],
            [
              -55.592294,
              -41.756508
            ],
            [
              -55.642393,
              -41.591485
            ],
            [
              -55.713892,
              -41.430925
            ],
            [
              -55.806103,
              -41.276376
            ],
            [
              -55.918137,
              -41.129324
            ],
            [
              -56.048915,
              -40.991186
            ],
            [
              -56.197179,
              -40.863294
            ],
            [
              -56.361499,
              -40.746877
            ],
            [
              -56.540295,
              -40.643058
            ],
            [
              -56.731843,
              -40.552837
            ],
            [
              -56.934299,
              -40.477081
            ],
            [
              -57.145713,
              -40.416522
            ],
            [
              -57.36405,
              -40.371741
            ],
            [
              -57.587206,
              -40.343171
            ],
            [
              -57.813032,
              -40.331086
            ],
            [
              -58.039354,
              -40.335603
            ],
            [
              -58.263992,
              -40.356678
            ],
            [
              -58.484783,
              -40.394109
            ],
            [
              -58.699599,
              -40.447534
            ],
            [
              -58.906374,
              -40.51644
            ],
            [
              -59.103114,
              -40.600163
            ],
            [
              -59.287926,
              -40.697895
            ],
            [
              -59.459029,
              -40.808698
            ],
            [
              -59.614776,
              -40.931502
            ],
            [
              -59.753667,
              -41.065126
            ],
            [
              -59.874364,
              -41.208282
            ],
            [
              -59.975705,
              -41.359592
            ],
            [
              -60.056713,
              -41.517599
            ],
            [
              -60.11661,
              -41.680782
            ]
          ]
        ],
        "type": "Polygon"
      },
      "properties": {
        "kind": "reachableSet",
        "observationStatus": "estimated",
        "vessel": "A"
      },
      "type": "Feature"
    },
    {
      "geometry": {
        "coordinates": [
          [
            [
              -60.0756,
              -41.526899
            ],
            [
              -60.13259,
              -41.693625
            ],
            [
              -60.167439,
              -41.863727
            ],
            [
              -60.179813,
              -42.035567
            ],
            [
              -60.169593,
              -42.20749
            ],
            [
              -60.136876,
              -42.377839
            ],
            [
              -60.081978,
              -42.544975
            ],
            [
              -60.005428,
              -42.707288
            ],
            [
              -59.907963,
              -42.863214
            ],
            [
              -59.790521,
              -43.011252
            ],
            [
              -59.654234,
              -43.149977
            ],
            [
              -59.500414,
              -43.278051
            ],
            [
              -59.330542,
              -43.394243
            ],
            [
              -59.146255,
              -43.497432
            ],
            [
              -58.949326,
              -43.586626
            ],
            [
              -58.741654,
              -43.660964
            ],
            [
              -58.525237,
              -43.719732
            ],
            [
              -58.30216,
              -43.762363
            ],
            [
              -58.074571,
              -43.788446
            ],
            [
              -57.844662,
              -43.797732
            ],
            [
              -57.614648,
              -43.790129
            ],
            [
              -57.386743,
              -43.765711
            ],
            [
              -57.163142,
              -43.724714
            ],
            [
              -56.945999,
              -43.667532
            ],
            [
              -56.737404,
              -43.594716
            ],
            [
              -56.539367,
              -43.506967
            ],
            [
              -56.353796,
              -43.40513
            ],
            [
              -56.182476,
              -43.290187
            ],
            [
              -56.027058,
              -43.163243
            ],
            [
              -55.889039,
              -43.025522
            ],
            [
              -55.769748,
              -42.878349
            ],
            [
              -55.670333,
              -42.723143
            ],
            [
              -55.591753,
              -42.561398
            ],
            [
              -55.534764,
              -42.394672
            ],
            [
              -55.499914,
              -42.224569
            ],
            [
              -55.48754,
              -42.052729
            ],
            [
              -55.497761,
              -41.880807
            ],
            [
              -55.530477,
              -41.710457
            ],
            [
              -55.585375,
              -41.543321
            ],
            [
              -55.661925,
              -41.381009
            ],
            [
              -55.75939,
              -41.225083
            ],
            [
              -55.876832,
              -41.077045
            ],
            [
              -56.013119,
              -40.93832
            ],
            [
              -56.16694,
              -40.810245
            ],
            [
              -56.336811,
              -40.694054
            ],
            [
              -56.521099,
              -40.590865
            ],
            [
              -56.718027,
              -40.501671
            ],
            [
              -56.9257,
              -40.427333
            ],
            [
              -57.142116,
              -40.368565
            ],
            [
              -57.365193,
              -40.325934
            ],
            [
              -57.592782,
              -40.29985
            ],
            [
              -57.822691,
              -40.290565
            ],
            [
              -58.052705,
              -40.298168
            ],
            [
              -58.28061,
              -40.322586
            ],
            [
              -58.504211,
              -40.363583
            ],
            [
              -58.721355,
              -40.420765
            ],
            [
              -58.929949,
              -40.493581
            ],
            [
              -59.127986,
              -40.58133
            ],
            [
              -59.313558,
              -40.683166
            ],
            [
              -59.484878,
              -40.79811
            ],
            [
              -59.640295,
              -40.925054
            ],
            [
              -59.778314,
              -41.062775
            ],
            [
              -59.897606,
              -41.209947
            ],
            [
              -59.99702,
              -41.365153
            ],
            [
              -60.0756,
              -41.526899
            ]
          ]
        ],
        "type": "Polygon"
      },
      "properties": {
        "kind": "reachableSet",
        "observationStatus": "estimated",
        "vessel": "B"
      },
      "type": "Feature"
    }
  ],
  "properties": {
    "dateline": false
  },
  "type": "FeatureCollection"
}
