{
  "features": [
    {
      "geometry": {
        "coordinates": [
          -57.759988,
          -42.073723
        ],
        "type": "Point"
      },
      "properties": {
        "mmsi": "412329684",
        "observationStatus": "observed",
        "role": "off",
        "time": "2019-05-18T05:35:34Z",
        "vessel": "A"
      },
      "type": "Feature"
    },
    {
      "geometry": {
        "coordinates": [
          -57.795278,
          -42.127518
        ],
        "type": "Point"
      },
      "properties": {
        "mmsi": "412329691",
        "observationStatus": "observed",
        "role": "off",
        "time": "2019-05-18T06:25:07Z",
        "vessel": "B"
      },
      "type": "Feature"
    },
    {
      "geometry": {
        "coordinates": [
          -57.928637,
          -42.032823
        ],
        "type": "Point"
      },
      "properties": {
        "mmsi": "412329691",
        "observationStatus": "observed",
        "role": "on",
        "time": "2019-05-18T22:31:37Z",
        "vessel": "B"
      },
      "type": "Feature"
    },
    {
      "geometry": {
        "coordinates": [
          -57.943423,
          -42.08539
        ],
        "type": "Point"
      },
      "properties": {
        "mmsi": "412329684",
        "observationStatus": "observed",
        "role": "on",
        "time": "2019-05-18T22:55:19Z",
        "vessel": "A"
      },
      "type": "Feature"
    },
    {
      "geometry": {
        "coordinates": [
          [
            -57.759988,
            -42.073723
          ],
          [
            -57.90594,
            -42.048028
          ],
          [
            -57.943423,
            -42.08539
          ]
        ],
        "type": "LineString"
      },
      "properties": {
        "confidence": "low",
        "lineStyle": "dashed",
        "observationStatus": "estimated",
        "source": "reachable-set heuristic",
        "vessel": "A"
      },
      "type": "Feature"
    },
    {
      "geometry": {
        "coordinates": [
          [
            -57.795278,
            -42.127518
          ],
          [
            -57.90594,
            -42.048028
          ],
          [
            -57.928637,
            -42.032823
          ]
        ],
        "type": "LineString"
      },
      "properties": {
        "confidence": "low",
        "lineStyle": "dashed",
        "observationStatus": "estimated",
        "source": "reachable-set heuristic",
        "vessel": "B"
      },
      "type": "Feature"
    },
    {
      "geometry": {
        "coordinates": [
          -57.90594,
          -42.048028
        ],
        "type": "Point"
      },
      "properties": {
        "kind": "meetingPoint",
        "observationStatus": "estimated"
      },
      "type": "Feature"
    },
    {
      "geometry": {
        "coordinates": [
          [
            [
              -60.22225,
              -42.230326
            ],
            [
              -60.191073,
              -42.403096
            ],
            [
              -60.137367,
              -42.572751
            ],
            [
              -60.061649,
              -42.737655
            ],
            [
              -59.964648,
              -42.896222
            ],
            [
              -59.847299,
              -43.046924
            ],
            [
              -59.71073,
              -43.18831
            ],
            [
              -59.556258,
              -43.319018
            ],
            [
              -59.385371,
              -43.437789
            ],
            [
              -59.199713,
              -43.54348
            ],
            [
              -59.001073,
              -43.635072
            ],
            [
              -58.791364,
              -43.711684
            ],
            [
              -58.572606,
              -43.772577
            ],
            [
              -58.346905,
              -43.817166
            ],
            [
              -58.116436,
              -43.84502
            ],
            [
              -57.883416,
              -43.855873
            ],
            [
              -57.650091,
              -43.849618
            ],
            [
              -57.418708,
              -43.826317
            ],
            [
              -57.191495,
              -43.786193
            ],
            [
              -56.97064,
              -43.729634
            ],
            [
              -56.75827,
              -43.657183
            ],
            [
              -56.556431,
              -43.569539
            ],
            [
              -56.367066,
              -43.467546
            ],
            [
              -56.191999,
              -43.352186
            ],
            [
              -56.032915,
              -43.224569
            ],
            [
              -55.891348,
              -43.085926
            ],
            [
              -55.76866,
              -42.93759
            ],
            [
              -55.666032,
              -42.780991
            ],
            [
              -55.584454,
              -42.617637
            ],
            [
              -55.524711,
              -42.449101
            ],
            [
              -55.487378,
              -42.277006
            ],
            [
              -55.472815,
              -42.10301
            ],
            [
              -55.481162,
              -41.928787
            ],
            [
              -55.512338,
              -41.756017
            ],
            [
              -55.566044,
              -41.586363
            ],
            [
              -55.641762,
              -41.421458
            ],
            [
              -55.738763,
              -41.262891
            ],
            [
              -55.856113,
              -41.112189
            ],
            [
              -55.992682,
              -40.970803
            ],
            [
              -56.147153,
              -40.840095
            ],
            [
              -56.318041,
              -40.721324
            ],
            [
              -56.503699,
              -40.615634
            ],
            [
              -56.702338,
              -40.524042
            ],
            [
              -56.912047,
              -40.44743
            ],
            [
              -57.130805,
              -40.386536
            ],
            [
              -57.356506,
              -40.341948
            ],
            [
              -57.586976,
              -40.314093
            ],
            [
              -57.819996,
              -40.303241
            ],
            [
              -58.05332,
              -40.309495
            ],
            [
              -58.284703,
              -40.332797
            ],
            [
              -58.511917,
              -40.37292
            ],
            [
              -58.732771,
              -40.429479
            ],
            [
              -58.945141,
              -40.50193
            ],
            [
              -59.146981,
              -40.589574
            ],
            [
              -59.336346,
              -40.691567
            ],
            [
              -59.511413,
              -40.806928
            ],
            [
              -59.670497,
              -40.934544
            ],
            [
              -59.812064,
              -41.073188
            ],
            [
              -59.934752,
              -41.221523
            ],
            [
              -60.037379,
              -41.378122
            ],
            [
              -60.118957,
              -41.541476
            ],
            [
              -60.178701,
              -41.710012
            ],
            [
              -60.216034,
              -41.882107
            ],
            [
              -60.230597,
              -42.056104
            ],
            [
              -60.22225,
              -42.230326
            ]
          ]
        ],
        "type": "Polygon"
      },
      "properties": {
        "kind": "reachableSet",
        "observationStatus": "estimated",
        "vessel": "A"
      },
      "type": "Feature"
    },
    {
      "geometry": {
        "coordinates": [
          [
            [
              -59.45766,
              -40.947095
            ],
            [
              -59.598474,
              -41.069323
            ],
            [
              -59.722565,
              -41.201285
            ],
            [
              -59.828737,
              -41.341711
            ],
            [
              -59.915967,
              -41.48925
            ],
            [
              -59.983417,
              -41.642479
            ],
            [
              -60.030435,
              -41.799923
            ],
            [
              -60.05657,
              -41.960066
            ],
            [
              -60.06157,
              -42.121366
            ],
            [
              -60.045386,
              -42.28227
            ],
            [
              -60.008175,
              -42.441227
            ],
            [
              -59.950294,
              -42.596706
            ],
            [
              -59.872301,
              -42.747212
            ],
            [
              -59.774948,
              -42.891293
            ],
            [
              -59.659172,
              -43.027563
            ],
            [
              -59.526087,
              -43.154708
            ],
            [
              -59.376976,
              -43.271506
            ],
            [
              -59.213275,
              -43.37683
            ],
            [
              -59.036559,
              -43.469667
            ],
            [
              -58.848532,
              -43.549122
            ],
            [
              -58.651003,
              -43.61443
            ],
            [
              -58.445876,
              -43.664963
            ],
            [
              -58.235125,
              -43.700233
            ],
            [
              -58.02078,
              -43.719901
            ],
            [
              -57.804905,
              -43.723777
            ],
            [
              -57.58958,
              -43.711825
            ],
            [
              -57.376878,
              -43.684159
            ],
            [
              -57.168848,
              -43.641046
            ],
            [
              -56.967493,
              -43.5829
            ],
            [
              -56.774752,
              -43.510283
            ],
            [
              -56.592481,
              -43.423893
            ],
            [
              -56.422436,
              -43.324562
            ],
            [
              -56.266255,
              -43.213246
            ],
            [
              -56.125441,
              -43.091019
            ],
            [
              -56.00135,
              -42.959057
            ],
            [
              -55.895178,
              -42.81863
            ],
            [
              -55.807948,
              -42.671092
            ],
            [
              -55.740498,
              -42.517863
            ],
            [
              -55.69348,
              -42.360418
            ],
            [
              -55.667345,
              -42.200275
            ],
            [
              -55.662345,
              -42.038975
            ],
            [
              -55.678529,
              -41.878072
            ],
            [
              -55.71574,
              -41.719115
            ],
            [
              -55.773621,
              -41.563635
            ],
            [
              -55.851614,
              -41.41313
            ],
            [
              -55.948967,
              -41.269049
            ],
            [
              -56.064743,
              -41.132779
            ],
            [
              -56.197828,
              -41.005633
            ],
            [
              -56.346939,
              -40.888836
            ],
            [
              -56.51064,
              -40.783512
            ],
            [
              -56.687356,
              -40.690675
            ],
            [
              -56.875383,
              -40.61122
            ],
            [
              -57.072912,
              -40.545911
            ],
            [
              -57.278039,
              -40.495379
            ],
            [
              -57.48879,
              -40.460109
            ],
            [
              -57.703135,
              -40.440441
            ],
            [
              -57.91901,
              -40.436564
            ],
            [
              -58.134335,
              -40.448517
            ],
            [
              -58.347037,
              -40.476183
            ],
            [
              -58.555067,
              -40.519296
            ],
            [
              -58.756422,
              -40.577441
            ],
            [
              -58.949163,
              -40.650059
            ],
            [
              -59.131434,
              -40.736449
            ],
            [
              -59.301479,
              -40.83578
            ],
            [
              -59.45766,
              -40.947095
            ]
          ]
        ],
        "type": "Polygon"
      },
      "properties": {
        "kind": "reachableSet",
        "observationStatus": "estimated",
        "vessel": "B"
      },
      "type": "Feature"
    }
  ],
  "properties": {
    "dateline": false
  },
  "type": "FeatureCollection"
}
