{
  "features": [
    {
      "geometry": {
        "coordinates": [
          162.54312,
          46.08768
        ],
        "type": "Point"
      },
      "properties": {
        "mmsi": "416004853",
        "observationStatus": "observed",
        "role": "off",
        "time": "2018-07-15T02:36:22Z",
        "vessel": "A"
      },
      "type": "Feature"
    },
    {
      "geometry": {
        "coordinates": [
          162.498773,
          46.07824
        ],
        "type": "Point"
      },
      "properties": {
        "mmsi": "416664000",
        "observationStatus": "observed",
        "role": "off",
        "time": "2018-07-15T02:45:05Z",
        "vessel": "B"
      },
      "type": "Feature"
    },
    {
      "geometry": {
        "coordinates": [
          162.68203,
          46.024602
        ],
        "type": "Point"
      },
      "properties": {
        "mmsi": "416664000",
        "observationStatus": "observed",
        "role": "on",
        "time": "2018-07-15T16:55:56Z",
        "vessel": "B"
      },
      "type": "Feature"
    },
    {
      "geometry": {
        "coordinates": [
          162.797013,
          46.027297
        ],
        "type": "Point"
      },
      "properties": {
        "mmsi": "416004853",
        "observationStatus": "observed",
        "role": "on",
        "time": "2018-07-15T16:56:12Z",
        "vessel": "A"
      },
      "type": "Feature"
    },
    {
      "geometry": {
        "coordinates": [
          [
            162.54312,
            46.08768
          ],
          [
            162.628197,
            46.056141
          ],
          [
            162.797013,
            46.027297
          ]
        ],
        "type": "LineString"
      },
      "properties": {
        "confidence": "low",
        "lineStyle": "dashed",
        "observationStatus": "estimated",
        "source": "reachable-set heuristic",
        "vessel": "A"
      },
      "type": "Feature"
    },
    {
      "geometry": {
        "coordinates": [
          [
            162.498773,
            46.07824
          ],
          [
            162.628197,
            46.056141
          ],
          [
            162.68203,
            46.024602
          ]
        ],
        "type": "LineString"
      },
      "properties": {
        "confidence": "low",
        "lineStyle": "dashed",
        "observationStatus": "estimated",
        "source": "reachable-set heuristic",
        "vessel": "B"
      },
      "type": "Feature"
    },
    {
      "geometry": {
        "coordinates": [
          162.628197,
          46.056141
        ],
        "type": "Point"
      },
      "properties": {
        "kind": "meetingPoint",
        "observationStatus": "estimated"
      },
      "type": "Feature"
    },
    {
      "geometry": {
        "coordinates": [
          [
            [
              164.485325,
              45.625766
            ],
            [
              164.537004,
              45.751848
            ],
            [
              164.570704,
              45.880873
            ],
            [
              164.5861,
              46.011599
            ],
            [
              164.583044,
              46.142767
            ],
            [
              164.561564,
              46.273114
            ],
            [
              164.521869,
              46.401384
            ],
            [
              164.464339,
              46.526342
            ],
            [
              164.38953,
              46.646785
            ],
            [
              164.298161,
              46.761552
            ],
            [
              164.191113,
              46.869539
            ],
            [
              164.069416,
              46.969706
            ],
            [
              163.934243,
              47.061087
            ],
            [
              163.786895,
              47.142803
            ],
            [
              163.628792,
              47.214067
            ],
            [
              163.461455,
              47.274193
            ],
            [
              163.286497,
              47.322601
            ],
            [
              163.105602,
              47.358825
            ],
            [
              162.920513,
              47.382517
            ],
            [
              162.733012,
              47.393448
            ],
            [
              162.544905,
              47.391513
            ],
            [
              162.358003,
              47.37673
            ],
            [
              162.174107,
              47.349243
            ],
            [
              161.994986,
              47.309315
            ],
            [
              161.822368,
              47.257332
            ],
            [
              161.657913,
              47.193793
            ],
            [
              161.503205,
              47.119311
            ],
            [
              161.359735,
              47.034603
            ],
            [
              161.228885,
              46.940485
            ],
            [
              161.111914,
              46.837863
            ],
            [
              161.009948,
              46.727726
            ],
            [
              160.923971,
              46.611134
            ],
            [
              160.854809,
              46.48921
            ],
            [
              160.803129,
              46.363129
            ],
            [
              160.769429,
              46.234104
            ],
            [
              160.754033,
              46.103378
            ],
            [
              160.757089,
              45.97221
            ],
            [
              160.778569,
              45.841863
            ],
            [
              160.818265,
              45.713593
            ],
            [
              160.875794,
              45.588635
            ],
            [
              160.950603,
              45.468192
            ],
            [
              161.041972,
              45.353425
            ],
            [
              161.14902,
              45.245437
            ],
            [
              161.270717,
              45.145271
            ],
            [
              161.40589,
              45.053889
            ],
            [
              161.553238,
              44.972173
            ],
            [
              161.711342,
              44.900909
            ],
            [
              161.878678,
              44.840784
            ],
            [
              162.053636,
              44.792376
            ],
            [
              162.234531,
              44.756151
            ],
            [
              162.41962,
              44.73246
            ],
            [
              162.607121,
              44.721529
            ],
            [
              162.795228,
              44.723464
            ],
            [
              162.98213,
              44.738246
            ],
            [
              163.166027,
              44.765734
            ],
            [
              163.345147,
              44.805662
            ],
            [
              163.517766,
              44.857645
            ],
            [
              163.682221,
              44.921184
            ],
            [
              163.836928,
              44.995666
            ],
            [
              163.980398,
              45.080374
            ],
            [
              164.111249,
              45.174492
            ],
            [
              164.22822,
              45.277113
            ],
            [
              164.330185,
              45.387251
            ],
            [
              164.416163,
              45.503843
            ],
            [
              164.485325,
              45.625766
            ]
          ]
        ],
        "type": "Polygon"
      },
      "properties": {
        "kind": "reachableSet",
        "observationStatus": "estimated",
        "vessel": "A"
      },
      "type": "Feature"
    },
    {
      "geometry": {
        "coordinates": [
          [
            [
              164.338989,
              45.539618
            ],
            [
              164.402266,
              45.661673
            ],
            [
              164.448095,
              45.787481
            ],
            [
              164.476032,
              45.915831
            ],
            [
              164.485811,
              46.045486
            ],
            [
              164.477335,
              46.175199
            ],
            [
              164.450687,
              46.30372
            ],
            [
              164.406124,
              46.429811
            ],
            [
              164.344074,
              46.552258
            ],
            [
              164.265135,
              46.669882
            ],
            [
              164.170068,
              46.78155
            ],
            [
              164.059788,
              46.886186
            ],
            [
              163.935356,
              46.982782
            ],
            [
              163.797972,
              47.07041
            ],
            [
              163.648959,
              47.148223
            ],
            [
              163.489751,
              47.215474
            ],
            [
              163.321882,
              47.271515
            ],
            [
              163.146968,
              47.315805
            ],
            [
              162.966694,
              47.347919
            ],
            [
              162.782796,
              47.367547
            ],
            [
              162.597046,
              47.374499
            ],
            [
              162.411231,
              47.36871
            ],
            [
              162.227142,
              47.350234
            ],
            [
              162.046552,
              47.319251
            ],
            [
              161.871198,
              47.276057
            ],
            [
              161.702772,
              47.221069
            ],
            [
              161.542893,
              47.154817
            ],
            [
              161.393103,
              47.077939
            ],
            [
              161.254843,
              46.991175
            ],
            [
              161.129446,
              46.89536
            ],
            [
              161.018118,
              46.791418
            ],
            [
              160.921932,
              46.680349
            ],
            [
              160.841815,
              46.563224
            ],
            [
              160.778537,
              46.441169
            ],
            [
              160.732709,
              46.315361
            ],
            [
              160.704771,
              46.187011
            ],
            [
              160.694993,
              46.057355
            ],
            [
              160.703468,
              45.927642
            ],
            [
              160.730116,
              45.799121
            ],
            [
              160.77468,
              45.67303
            ],
            [
              160.83673,
              45.550583
            ],
            [
              160.915668,
              45.43296
            ],
            [
              161.010736,
              45.321292
            ],
            [
              161.121016,
              45.216656
            ],
            [
              161.245447,
              45.120059
            ],
            [
              161.382831,
              45.032432
            ],
            [
              161.531845,
              44.954618
            ],
            [
              161.691053,
              44.887367
            ],
            [
              161.858922,
              44.831327
            ],
            [
              162.033835,
              44.787036
            ],
            [
              162.214109,
              44.754923
            ],
            [
              162.398007,
              44.735295
            ],
            [
              162.583758,
              44.728342
            ],
            [
              162.769572,
              44.734132
            ],
            [
              162.953661,
              44.752607
            ],
            [
              163.134252,
              44.783591
            ],
            [
              163.309605,
              44.826785
            ],
            [
              163.478032,
              44.881772
            ],
            [
              163.63791,
              44.948024
            ],
            [
              163.7877,
              45.024903
            ],
            [
              163.92596,
              45.111667
            ],
            [
              164.051358,
              45.207481
            ],
            [
              164.162685,
              45.311424
            ],
            [
              164.258871,
              45.422492
            ],
            [
              164.338989,
              45.539618
            ]
          ]
        ],
        "type": "Polygon"
      },
      "properties": {
        "kind": "reachableSet",
        "observationStatus": "estimated",
        "vessel": "B"
      },
      "type": "Feature"
    }
  ],
  "properties": {
    "dateline": false
  },
  "type": "FeatureCollection"
}
