{
  "features": [
    {
      "geometry": {
        "coordinates": [
          -60.575132,
          -45.996173
        ],
        "type": "Point"
      },
      "properties": {
        "mmsi": "412329689",
        "observationStatus": "observed",
        "role": "off",
        "time": "2018-02-10T08:11:50Z",
        "vessel": "A"
      },
      "type": "Feature"
    },
    {
      "geometry": {
        "coordinates": [
          -60.587307,
          -45.961653
        ],
        "type": "Point"
      },
      "properties": {
        "mmsi": "412329693",
        "observationStatus": "observed",
        "role": "off",
        "time": "2018-02-10T08:48:03Z",
        "vessel": "B"
      },
      "type": "Feature"
    },
    {
      "geometry": {
        "coordinates": [
          -60.58898,
          -45.74643
        ],
        "type": "Point"
      },
      "properties": {
        "mmsi": "412329693",
        "observationStatus": "observed",
        "role": "on",
        "time": "2018-02-10T22:56:18Z",
        "vessel": "B"
      },
      "type": "Feature"
    },
    {
      "geometry": {
        "coordinates": [
          -60.551335,
          -45.811548
        ],
        "type": "Point"
      },
      "properties": {
        "mmsi": "412329689",
        "observationStatus": "observed",
        "role": "on",
        "time": "2018-02-10T23:24:15Z",
        "vessel": "A"
      },
      "type": "Feature"
    },
    {
      "geometry": {
        "coordinates": [
          [
            -60.575132,
            -45.996173
          ],
          [
            -60.585095,
            -45.88633
          ],
          [
            -60.551335,
            -45.811548
          ]
        ],
        "type": "LineString"
      },
      "properties": {
        "confidence": "low",
        "lineStyle": "dashed",
        "observationStatus": "estimated",
        "source": "reachable-set heuristic",
        "vessel": "A"
      },
      "type": "Feature"
    },
    {
      "geometry": {
        "coordinates": [
          [
            -60.587307,
            -45.961653
          ],
          [
            -60.585095,
            -45.88633
          ],
          [
            -60.58898,
            -45.74643
          ]
        ],
        "type": "LineString"
      },
      "properties": {
        "confidence": "low",
        "lineStyle": "dashed",
        "observationStatus": "estimated",
        "source": "reachable-set heuristic",
        "vessel": "B"
      },
      "type": "Feature"
    },
    {
      "geometry": {
        "coordinates": [
          -60.585095,
          -45.88633
        ],
        "type": "Point"
      },
      "properties": {
        "kind": "meetingPoint",
        "observationStatus": "estimated"
      },
      "type": "Feature"
    },
    {
      "geometry": {
        "coordinates": [
          [
            [
              -60.364679,
              -44.363387
            ],
            [
              -60.580772,
              -44.357195
            ],
            [
              -60.796696,
              -44.365898
            ],
            [
              -61.010371,
              -44.389412
            ],
            [
              -61.219741,
              -44.427512
            ],
            [
              -61.422787,
              -44.479829
            ],
            [
              -61.617556,
              -44.545861
            ],
            [
              -61.802171,
              -44.62497
            ],
            [
              -61.974855,
              -44.716397
            ],
            [
              -62.133944,
              -44.819259
            ],
            [
              -62.277906,
              -44.932566
            ],
            [
              -62.405355,
              -45.055228
            ],
            [
              -62.515063,
              -45.186062
            ],
            [
              -62.605974,
              -45.32381
            ],
            [
              -62.677212,
              -45.467143
            ],
            [
              -62.728092,
              -45.614682
            ],
            [
              -62.758122,
              -45.765007
            ],
            [
              -62.767015,
              -45.916668
            ],
            [
              -62.754684,
              -46.068206
            ],
            [
              -62.721249,
              -46.218161
            ],
            [
              -62.66703,
              -46.36509
            ],
            [
              -62.592551,
              -46.507577
            ],
            [
              -62.498528,
              -46.644249
            ],
            [
              -62.385867,
              -46.773791
            ],
            [
              -62.255654,
              -46.894955
            ],
            [
              -62.109141,
              -47.006575
            ],
            [
              -61.94774,
              -47.107575
            ],
            [
              -61.773006,
              -47.196982
            ],
            [
              -61.586622,
              -47.273936
            ],
            [
              -61.390381,
              -47.337695
            ],
            [
              -61.186174,
              -47.387646
            ],
            [
              -60.975969,
              -47.423307
            ],
            [
              -60.761788,
              -47.444334
            ],
            [
              -60.545695,
              -47.450527
            ],
            [
              -60.329771,
              -47.441824
            ],
            [
              -60.116096,
              -47.418309
            ],
            [
              -59.906726,
              -47.38021
            ],
            [
              -59.703679,
              -47.327893
            ],
            [
              -59.50891,
              -47.261861
            ],
            [
              -59.324295,
              -47.182751
            ],
            [
              -59.151612,
              -47.091325
            ],
            [
              -58.992523,
              -46.988463
            ],
            [
              -58.848561,
              -46.875155
            ],
            [
              -58.721112,
              -46.752494
            ],
            [
              -58.611404,
              -46.621659
            ],
            [
              -58.520493,
              -46.483912
            ],
            [
              -58.449254,
              -46.340579
            ],
            [
              -58.398375,
              -46.193039
            ],
            [
              -58.368344,
              -46.042715
            ],
            [
              -58.359451,
              -45.891054
            ],
            [
              -58.371782,
              -45.739516
            ],
            [
              -58.405218,
              -45.58956
            ],
            [
              -58.459437,
              -45.442632
            ],
            [
              -58.533916,
              -45.300145
            ],
            [
              -58.627939,
              -45.163473
            ],
            [
              -58.740599,
              -45.033931
            ],
            [
              -58.870813,
              -44.912766
            ],
            [
              -59.017326,
              -44.801147
            ],
            [
              -59.178726,
              -44.700147
            ],
            [
              -59.35346,
              -44.61074
            ],
            [
              -59.539845,
              -44.533786
            ],
            [
              -59.736086,
              -44.470027
            ],
            [
              -59.940292,
              -44.420076
            ],
            [
              -60.150498,
              -44.384415
            ],
            [
              -60.364679,
              -44.363387
            ]
          ]
        ],
        "type": "Polygon"
      },
      "properties": {
        "kind": "reachableSet",
        "observationStatus": "estimated",
        "vessel": "A"
      },
      "type": "Feature"
    },
    {
      "geometry": {
        "coordinates": [
          [
            [
              -60.599264,
              -44.423754
            ],
            [
              -60.798572,
              -44.431404
            ],
            [
              -60.995854,
              -44.452754
            ],
            [
              -61.18921,
              -44.487599
            ],
            [
              -61.376777,
              -44.535604
            ],
            [
              -61.556749,
              -44.596306
            ],
            [
              -61.727393,
              -44.669121
            ],
            [
              -61.887065,
              -44.753347
            ],
            [
              -62.034228,
              -44.848174
            ],
            [
              -62.167464,
              -44.952688
            ],
            [
              -62.285491,
              -45.065882
            ],
            [
              -62.387171,
              -45.186666
            ],
            [
              -62.471526,
              -45.313878
            ],
            [
              -62.537742,
              -45.446292
            ],
            [
              -62.585183,
              -45.582633
            ],
            [
              -62.613391,
              -45.721587
            ],
            [
              -62.622095,
              -45.861817
            ],
            [
              -62.611211,
              -46.001972
            ],
            [
              -62.580844,
              -46.140703
            ],
            [
              -62.531286,
              -46.276673
            ],
            [
              -62.463014,
              -46.408573
            ],
            [
              -62.376687,
              -46.535132
            ],
            [
              -62.273135,
              -46.655132
            ],
            [
              -62.153355,
              -46.767417
            ],
            [
              -62.018501,
              -46.870906
            ],
            [
              -61.869873,
              -46.964602
            ],
            [
              -61.7089,
              -47.047602
            ],
            [
              -61.537134,
              -47.119108
            ],
            [
              -61.356229,
              -47.17843
            ],
            [
              -61.167927,
              -47.224998
            ],
            [
              -60.974041,
              -47.258363
            ],
            [
              -60.776439,
              -47.278204
            ],
            [
              -60.577023,
              -47.284329
            ],
            [
              -60.377714,
              -47.27668
            ],
            [
              -60.180432,
              -47.25533
            ],
            [
              -59.987077,
              -47.220484
            ],
            [
              -59.79951,
              -47.172479
            ],
            [
              -59.619538,
              -47.111777
            ],
            [
              -59.448894,
              -47.038962
            ],
            [
              -59.289222,
              -46.954736
            ],
            [
              -59.142059,
              -46.859909
            ],
            [
              -59.008823,
              -46.755396
            ],
            [
              -58.890796,
              -46.642202
            ],
            [
              -58.789116,
              -46.521417
            ],
            [
              -58.704761,
              -46.394205
            ],
            [
              -58.638545,
              -46.261791
            ],
            [
              -58.591104,
              -46.125451
            ],
            [
              -58.562895,
              -45.986496
            ],
            [
              -58.554191,
              -45.846266
            ],
            [
              -58.565075,
              -45.706111
            ],
            [
              -58.595443,
              -45.56738
            ],
            [
              -58.645001,
              -45.43141
            ],
            [
              -58.713272,
              -45.299511
            ],
            [
              -58.7996,
              -45.172951
            ],
            [
              -58.903152,
              -45.052951
            ],
            [
              -59.022932,
              -44.940666
            ],
            [
              -59.157785,
              -44.837178
            ],
            [
              -59.306414,
              -44.743482
            ],
            [
              -59.467386,
              -44.660481
            ],
            [
              -59.639152,
              -44.588975
            ],
            [
              -59.820057,
              -44.529653
            ],
            [
              -60.00836,
              -44.483085
            ],
            [
              -60.202246,
              -44.44972
            ],
            [
              -60.399848,
              -44.429879
            ],
            [
              -60.599264,
              -44.423754
            ]
          ]
        ],
        "type": "Polygon"
      },
      "properties": {
        "kind": "reachableSet",
        "observationStatus": "estimated",
        "vessel": "B"
      },
      "type": "Feature"
    }
  ],
  "properties": {
    "dateline": false
  },
  "type": "FeatureCollection"
}
