{
  "features": [
    {
      "geometry": {
        "coordinates": [
          -60.839723,
          -47.00438
        ],
        "type": "Point"
      },
      "properties": {
        "mmsi": "441410000",
        "observationStatus": "observed",
        "role": "off",
        "time": "2017-03-09T03:22:03Z",
        "vessel": "A"
      },
      "type": "Feature"
    },
    {
      "geometry": {
        "coordinates": [
          -60.825868,
          -47.019258
        ],
        "type": "Point"
      },
      "properties": {
        "mmsi": "440201000",
        "observationStatus": "observed",
        "role": "off",
        "time": "2017-03-09T03:22:29Z",
        "vessel": "B"
      },
      "type": "Feature"
    },
    {
      "geometry": {
        "coordinates": [
          -60.83595,
          -46.908365
        ],
        "type": "Point"
      },
      "properties": {
        "mmsi": "441410000",
        "observationStatus": "observed",
        "role": "on",
        "time": "2017-03-09T16:01:00Z",
        "vessel": "A"
      },
      "type": "Feature"
    },
    {
      "geometry": {
        "coordinates": [
          -60.811227,
          -46.933263
        ],
        "type": "Point"
      },
      "properties": {
        "mmsi": "440201000",
        "observationStatus": "observed",
        "role": "on",
        "time": "2017-03-09T16:01:05Z",
        "vessel": "B"
      },
      "type": "Feature"
    },
    {
      "geometry": {
        "coordinates": [
          [
            -60.839723,
            -47.00438
          ],
          [
            -60.831962,
            -46.963812
          ],
          [
            -60.83595,
            -46.908365
          ]
        ],
        "type": "LineString"
      },
      "properties": {
        "confidence": "low",
        "lineStyle": "dashed",
        "observationStatus": "estimated",
        "source": "reachable-set heuristic",
        "vessel": "A"
      },
      "type": "Feature"
    },
    {
      "geometry": {
        "coordinates": [
          [
            -60.825868,
            -47.019258
          ],
          [
            -60.831962,
            -46.963812
          ],
          [
            -60.811227,
            -46.933263
          ]
        ],
        "type": "LineString"
      },
      "properties": {
        "confidence": "low",
        "lineStyle": "dashed",
        "observationStatus": "estimated",
        "source": "reachable-set heuristic",
        "vessel": "B"
      },
      "type": "Feature"
    },
    {
      "geometry": {
        "coordinates": [
          -60.831962,
          -46.963812
        ],
        "type": "Point"
      },
      "properties": {
        "kind": "meetingPoint",
        "observationStatus": "estimated"
      },
      "type": "Feature"
    },
    {
      "geometry": {
        "coordinates": [
          [
            [
              -60.791845,
              -45.786088
            ],
            [
              -60.958851,
              -45.788628
            ],
            [
              -61.124691,
              -45.802414
            ],
            [
              -61.287768,
              -45.827313
            ],
            [
              -61.446512,
              -45.863086
            ],
            [
              -61.599395,
              -45.909388
            ],
            [
              -61.744943,
              -45.965773
            ],
            [
              -61.881755,
              -46.031697
            ],
            [
              -62.008514,
              -46.106527
            ],
            [
              -62.123998,
              -46.189542
            ],
            [
              -62.227097,
              -46.279941
            ],
            [
              -62.316815,
              -46.376855
            ],
            [
              -62.392291,
              -46.47935
            ],
            [
              -62.452796,
              -46.586439
            ],
            [
              -62.497748,
              -46.69709
            ],
            [
              -62.526714,
              -46.810239
            ],
            [
              -62.539416,
              -46.924794
            ],
            [
              -62.53573,
              -47.039654
            ],
            [
              -62.515693,
              -47.153712
            ],
            [
              -62.479497,
              -47.26587
            ],
            [
              -62.427491,
              -47.375047
            ],
            [
              -62.360176,
              -47.480191
            ],
            [
              -62.2782,
              -47.580292
            ],
            [
              -62.182352,
              -47.674383
            ],
            [
              -62.073556,
              -47.76156
            ],
            [
              -61.952859,
              -47.840982
            ],
            [
              -61.821424,
              -47.911885
            ],
            [
              -61.680516,
              -47.973586
            ],
            [
              -61.531493,
              -48.02549
            ],
            [
              -61.37579,
              -48.067098
            ],
            [
              -61.214906,
              -48.09801
            ],
            [
              -61.050391,
              -48.117927
            ],
            [
              -60.883828,
              -48.126657
            ],
            [
              -60.716823,
              -48.124117
            ],
            [
              -60.550983,
              -48.110331
            ],
            [
              -60.387905,
              -48.085432
            ],
            [
              -60.229161,
              -48.049659
            ],
            [
              -60.076279,
              -48.003357
            ],
            [
              -59.93073,
              -47.946972
            ],
            [
              -59.793918,
              -47.881048
            ],
            [
              -59.667159,
              -47.806218
            ],
            [
              -59.551675,
              -47.723203
            ],
            [
              -59.448577,
              -47.632804
            ],
            [
              -59.358858,
              -47.53589
            ],
            [
              -59.283383,
              -47.433395
            ],
            [
              -59.222878,
              -47.326306
            ],
            [
              -59.177925,
              -47.215655
            ],
            [
              -59.148959,
              -47.102506
            ],
            [
              -59.136257,
              -46.987951
            ],
            [
              -59.139943,
              -46.873091
            ],
            [
              -59.15998,
              -46.759033
            ],
            [
              -59.196176,
              -46.646875
            ],
            [
              -59.248182,
              -46.537698
            ],
            [
              -59.315498,
              -46.432554
            ],
            [
              -59.397474,
              -46.332453
            ],
            [
              -59.493321,
              -46.238362
            ],
            [
              -59.602118,
              -46.151185
            ],
            [
              -59.722814,
              -46.071763
            ],
            [
              -59.854249,
              -46.00086
            ],
            [
              -59.995157,
              -45.939159
            ],
            [
              -60.14418,
              -45.887255
            ],
            [
              -60.299883,
              -45.845647
            ],
            [
              -60.460767,
              -45.814735
            ],
            [
              -60.625283,
              -45.794818
            ],
            [
              -60.791845,
              -45.786088
            ]
          ]
        ],
        "type": "Polygon"
      },
      "properties": {
        "kind": "reachableSet",
        "observationStatus": "estimated",
        "vessel": "A"
      },
      "type": "Feature"
    },
    {
      "geometry": {
        "coordinates": [
          [
            [
              -60.620669,
              -45.814058
            ],
            [
              -60.787341,
              -45.80634
            ],
            [
              -60.954315,
              -45.809889
            ],
            [
              -61.11998,
              -45.824671
            ],
            [
              -61.282743,
              -45.850543
            ],
            [
              -61.441035,
              -45.887257
            ],
            [
              -61.593333,
              -45.934458
            ],
            [
              -61.738168,
              -45.991692
            ],
            [
              -61.874148,
              -46.058409
            ],
            [
              -61.999961,
              -46.133965
            ],
            [
              -62.114397,
              -46.217632
            ],
            [
              -62.216353,
              -46.308606
            ],
            [
              -62.304847,
              -46.406009
            ],
            [
              -62.379027,
              -46.508904
            ],
            [
              -62.43818,
              -46.616301
            ],
            [
              -62.481734,
              -46.727163
            ],
            [
              -62.509271,
              -46.840425
            ],
            [
              -62.520525,
              -46.954995
            ],
            [
              -62.515388,
              -47.06977
            ],
            [
              -62.49391,
              -47.183644
            ],
            [
              -62.456297,
              -47.295521
            ],
            [
              -62.402912,
              -47.404323
            ],
            [
              -62.334268,
              -47.509003
            ],
            [
              -62.251027,
              -47.608552
            ],
            [
              -62.153991,
              -47.702012
            ],
            [
              -62.044093,
              -47.788483
            ],
            [
              -61.922393,
              -47.867131
            ],
            [
              -61.790062,
              -47.9372
            ],
            [
              -61.648375,
              -47.998014
            ],
            [
              -61.498697,
              -48.048989
            ],
            [
              -61.342468,
              -48.089632
            ],
            [
              -61.181193,
              -48.119553
            ],
            [
              -61.016426,
              -48.138464
            ],
            [
              -60.849754,
              -48.146182
            ],
            [
              -60.68278,
              -48.142633
            ],
            [
              -60.517115,
              -48.127851
            ],
            [
              -60.354352,
              -48.101978
            ],
            [
              -60.19606,
              -48.065265
            ],
            [
              -60.043762,
              -48.018064
            ],
            [
              -59.898927,
              -47.960829
            ],
            [
              -59.762947,
              -47.894113
            ],
            [
              -59.637134,
              -47.818557
            ],
            [
              -59.522698,
              -47.73489
            ],
            [
              -59.420742,
              -47.643916
            ],
            [
              -59.332248,
              -47.546513
            ],
            [
              -59.258068,
              -47.443617
            ],
            [
              -59.198915,
              -47.336221
            ],
            [
              -59.155361,
              -47.225358
            ],
            [
              -59.127824,
              -47.112097
            ],
            [
              -59.11657,
              -46.997527
            ],
            [
              -59.121707,
              -46.882752
            ],
            [
              -59.143185,
              -46.768878
            ],
            [
              -59.180798,
              -46.657001
            ],
            [
              -59.234183,
              -46.548199
            ],
            [
              -59.302827,
              -46.443519
            ],
            [
              -59.386068,
              -46.343969
            ],
            [
              -59.483104,
              -46.25051
            ],
            [
              -59.593002,
              -46.164039
            ],
            [
              -59.714702,
              -46.085391
            ],
            [
              -59.847033,
              -46.015322
            ],
            [
              -59.98872,
              -45.954507
            ],
            [
              -60.138398,
              -45.903533
            ],
            [
              -60.294627,
              -45.862889
            ],
            [
              -60.455902,
              -45.832968
            ],
            [
              -60.620669,
              -45.814058
            ]
          ]
        ],
        "type": "Polygon"
      },
      "properties": {
        "kind": "reachableSet",
        "observationStatus": "estimated",
        "vessel": "B"
      },
      "type": "Feature"
    }
  ],
  "properties": {
    "dateline": false
  },
  "type": "FeatureCollection"
}
