{
  "features": [
    {
      "geometry": {
        "coordinates": [
          -57.856457,
          -42.0256
        ],
        "type": "Point"
      },
      "properties": {
        "mmsi": "412421041",
        "observationStatus": "observed",
        "role": "off",
        "time": "2018-12-21T18:10:32Z",
        "vessel": "A"
      },
      "type": "Feature"
    },
    {
      "geometry": {
        "coordinates": [
          -57.860148,
          -42.048858
        ],
        "type": "Point"
      },
      "properties": {
        "mmsi": "412328763",
        "observationStatus": "observed",
        "role": "off",
        "time": "2018-12-21T19:02:38Z",
        "vessel": "B"
      },
      "type": "Feature"
    },
    {
      "geometry": {
        "coordinates": [
          -57.952442,
          -42.053203
        ],
        "type": "Point"
      },
      "properties": {
        "mmsi": "412421041",
        "observationStatus": "observed",
        "role": "on",
        "time": "2018-12-22T08:36:24Z",
        "vessel": "A"
      },
      "type": "Feature"
    },
    {
      "geometry": {
        "coordinates": [
          -57.97316,
          -42.080963
        ],
        "type": "Point"
      },
      "properties": {
        "mmsi": "412328763",
        "observationStatus": "observed",
        "role": "on",
        "time": "2018-12-22T08:48:15Z",
        "vessel": "B"
      },
      "type": "Feature"
    },
    {
      "geometry": {
        "coordinates": [
          [
            -57.856457,
            -42.0256
          ],
          [
            -57.948429,
            -42.053282
          ],
          [
            -57.952442,
            -42.053203
          ]
        ],
        "type": "LineString"
      },
      "properties": {
        "confidence": "low",
        "lineStyle": "dashed",
        "observationStatus": "estimated",
        "source": "reachable-set heuristic",
        "vessel": "A"
      },
      "type": "Feature"
    },
    {
      "geometry": {
        "coordinates": [
          [
            -57.860148,
            -42.048858
          ],
          [
            -57.948429,
            -42.053282
          ],
          [
            -57.97316,
            -42.080963
          ]
        ],
        "type": "LineString"
      },
      "properties": {
        "confidence": "low",
        "lineStyle": "dashed",
        "observationStatus": "estimated",
        "source": "reachable-set heuristic",
        "vessel": "B"
      },
      "type": "Feature"
    },
    {
      "geometry": {
        "coordinates": [
          -57.948429,
          -42.053282
        ],
        "type": "Point"
      },
      "properties": {
        "kind": "meetingPoint",
        "observationStatus": "estimated"
      },
      "type": "Feature"
    },
    {
      "geometry": {
        "coordinates": [
          [
            [
              -59.589334,
              -42.52394
            ],
            [
              -59.51773,
              -42.645042
            ],
            [
              -59.430588,
              -42.76031
            ],
            [
              -59.32875,
              -42.868636
            ],
            [
              -59.213194,
              -42.968976
            ],
            [
              -59.085035,
              -43.060363
            ],
            [
              -58.945505,
              -43.141918
            ],
            [
              -58.79595,
              -43.212856
            ],
            [
              -58.63781,
              -43.272492
            ],
            [
              -58.472606,
              -43.320253
            ],
            [
              -58.301931,
              -43.355679
            ],
            [
              -58.127428,
              -43.378428
            ],
            [
              -57.950778,
              -43.388282
            ],
            [
              -57.773681,
              -43.385145
            ],
            [
              -57.597844,
              -43.369048
            ],
            [
              -57.424959,
              -43.340145
            ],
            [
              -57.256692,
              -43.298716
            ],
            [
              -57.094664,
              -43.245159
            ],
            [
              -56.940434,
              -43.17999
            ],
            [
              -56.795488,
              -43.103836
            ],
            [
              -56.661223,
              -43.017432
            ],
            [
              -56.53893,
              -42.921608
            ],
            [
              -56.429787,
              -42.817288
            ],
            [
              -56.334847,
              -42.705477
            ],
            [
              -56.255023,
              -42.587251
            ],
            [
              -56.191083,
              -42.463749
            ],
            [
              -56.143644,
              -42.33616
            ],
            [
              -56.113163,
              -42.205714
            ],
            [
              -56.099933,
              -42.073665
            ],
            [
              -56.104081,
              -41.941287
            ],
            [
              -56.125568,
              -41.809853
            ],
            [
              -56.164186,
              -41.680631
            ],
            [
              -56.219564,
              -41.554863
            ],
            [
              -56.291169,
              -41.433762
            ],
            [
              -56.37831,
              -41.318493
            ],
            [
              -56.480149,
              -41.210167
            ],
            [
              -56.595704,
              -41.109828
            ],
            [
              -56.723864,
              -41.01844
            ],
            [
              -56.863393,
              -40.936885
            ],
            [
              -57.012948,
              -40.865948
            ],
            [
              -57.171089,
              -40.806311
            ],
            [
              -57.336292,
              -40.75855
            ],
            [
              -57.506967,
              -40.723125
            ],
            [
              -57.68147,
              -40.700375
            ],
            [
              -57.858121,
              -40.690522
            ],
            [
              -58.035217,
              -40.693659
            ],
            [
              -58.211055,
              -40.709756
            ],
            [
              -58.383939,
              -40.738658
            ],
            [
              -58.552206,
              -40.780087
            ],
            [
              -58.714234,
              -40.833644
            ],
            [
              -58.868464,
              -40.898813
            ],
            [
              -59.01341,
              -40.974967
            ],
            [
              -59.147676,
              -41.061372
            ],
            [
              -59.269969,
              -41.157195
            ],
            [
              -59.379111,
              -41.261515
            ],
            [
              -59.474051,
              -41.373326
            ],
            [
              -59.553876,
              -41.491552
            ],
            [
              -59.617815,
              -41.615054
            ],
            [
              -59.665254,
              -41.742643
            ],
            [
              -59.695735,
              -41.87309
            ],
            [
              -59.708966,
              -42.005138
            ],
            [
              -59.704817,
              -42.137516
            ],
            [
              -59.683331,
              -42.26895
            ],
            [
              -59.644712,
              -42.398173
            ],
            [
              -59.589334,
              -42.52394
            ]
          ]
        ],
        "type": "Polygon"
      },
      "properties": {
        "kind": "reachableSet",
        "observationStatus": "estimated",
        "vessel": "A"
      },
      "type": "Feature"
    },
    {
      "geometry": {
        "coordinates": [
          [
            [
              -59.520445,
              -42.520525
            ],
            [
              -59.45301,
              -42.635752
            ],
            [
              -59.370779,
              -42.745482
            ],
            [
              -59.274544,
              -42.848657
            ],
            [
              -59.165232,
              -42.944284
            ],
            [
              -59.043895,
              -43.031443
            ],
            [
              -58.911703,
              -43.109293
            ],
            [
              -58.769927,
              -43.177086
            ],
            [
              -58.619934,
              -43.234167
            ],
            [
              -58.463168,
              -43.279988
            ],
            [
              -58.301139,
              -43.314107
            ],
            [
              -58.135407,
              -43.336196
            ],
            [
              -57.967569,
              -43.346041
            ],
            [
              -57.79924,
              -43.343549
            ],
            [
              -57.632042,
              -43.328742
            ],
            [
              -57.467584,
              -43.301764
            ],
            [
              -57.307452,
              -43.262875
            ],
            [
              -57.153186,
              -43.212448
            ],
            [
              -57.006273,
              -43.15097
            ],
            [
              -56.868128,
              -43.079033
            ],
            [
              -56.740081,
              -42.997329
            ],
            [
              -56.623364,
              -42.906646
            ],
            [
              -56.519103,
              -42.807856
            ],
            [
              -56.4283,
              -42.701911
            ],
            [
              -56.351832,
              -42.589832
            ],
            [
              -56.290433,
              -42.472697
            ],
            [
              -56.244696,
              -42.351635
            ],
            [
              -56.215061,
              -42.227811
            ],
            [
              -56.201813,
              -42.102419
            ],
            [
              -56.20508,
              -41.976666
            ],
            [
              -56.22483,
              -41.851763
            ],
            [
              -56.260874,
              -41.728912
            ],
            [
              -56.312863,
              -41.609297
            ],
            [
              -56.380298,
              -41.49407
            ],
            [
              -56.462529,
              -41.38434
            ],
            [
              -56.558764,
              -41.281165
            ],
            [
              -56.668076,
              -41.185537
            ],
            [
              -56.789413,
              -41.098379
            ],
            [
              -56.921606,
              -41.020528
            ],
            [
              -57.063381,
              -40.952736
            ],
            [
              -57.213374,
              -40.895655
            ],
            [
              -57.37014,
              -40.849834
            ],
            [
              -57.532169,
              -40.815715
            ],
            [
              -57.697901,
              -40.793626
            ],
            [
              -57.86574,
              -40.78378
            ],
            [
              -58.034069,
              -40.786273
            ],
            [
              -58.201267,
              -40.801079
            ],
            [
              -58.365724,
              -40.828057
            ],
            [
              -58.525856,
              -40.866947
            ],
            [
              -58.680122,
              -40.917373
            ],
            [
              -58.827035,
              -40.978851
            ],
            [
              -58.96518,
              -41.050788
            ],
            [
              -59.093228,
              -41.132492
            ],
            [
              -59.209944,
              -41.223176
            ],
            [
              -59.314206,
              -41.321966
            ],
            [
              -59.405008,
              -41.427911
            ],
            [
              -59.481476,
              -41.53999
            ],
            [
              -59.542875,
              -41.657125
            ],
            [
              -59.588612,
              -41.778187
            ],
            [
              -59.618247,
              -41.90201
            ],
            [
              -59.631495,
              -42.027402
            ],
            [
              -59.628228,
              -42.153156
            ],
            [
              -59.608478,
              -42.278059
            ],
            [
              -59.572434,
              -42.40091
            ],
            [
              -59.520445,
              -42.520525
            ]
          ]
        ],
        "type": "Polygon"
      },
      "properties": {
        "kind": "reachableSet",
        "observationStatus": "estimated",
        "vessel": "B"
      },
      "type": "Feature"
    }
  ],
  "properties": {
    "dateline": false
  },
  "type": "FeatureCollection"
}
