{
  "features": [
    {
      "geometry": {
        "coordinates": [
          161.66397,
          41.758848
        ],
        "type": "Point"
      },
      "properties": {
        "mmsi": "416004729",
        "observationStatus": "observed",
        "role": "off",
        "time": "2019-09-07T05:51:16Z",
        "vessel": "A"
      },
      "type": "Feature"
    },
    {
      "geometry": {
        "coordinates": [
          161.740532,
          41.78377
        ],
        "type": "Point"
      },
      "properties": {
        "mmsi": "416580000",
        "observationStatus": "observed",
        "role": "off",
        "time": "2019-09-07T06:35:46Z",
        "vessel": "B"
      },
      "type": "Feature"
    },
    {
      "geometry": {
        "coordinates": [
          161.91769,
          41.922035
        ],
        "type": "Point"
      },
      "properties": {
        "mmsi": "416004729",
        "observationStatus": "observed",
        "role": "on",
        "time": "2019-09-07T18:40:46Z",
        "vessel": "A"
      },
      "type": "Feature"
    },
    {
      "geometry": {
        "coordinates": [
          161.840667,
          41.87224
        ],
        "type": "Point"
      },
      "properties": {
        "mmsi": "416580000",
        "observationStatus": "observed",
        "role": "on",
        "time": "2019-09-07T18:45:42Z",
        "vessel": "B"
      },
      "type": "Feature"
    },
    {
      "geometry": {
        "coordinates": [
          [
            161.66397,
            41.758848
          ],
          [
            161.870071,
            41.884735
          ],
          [
            161.91769,
            41.922035
          ]
        ],
        "type": "LineString"
      },
      "properties": {
        "confidence": "low",
        "lineStyle": "dashed",
        "observationStatus": "estimated",
        "source": "reachable-set heuristic",
        "vessel": "A"
      },
      "type": "Feature"
    },
    {
      "geometry": {
        "coordinates": [
          [
            161.740532,
            41.78377
          ],
          [
            161.870071,
            41.884735
          ],
          [
            161.840667,
            41.87224
          ]
        ],
        "type": "LineString"
      },
      "properties": {
        "confidence": "low",
        "lineStyle": "dashed",
        "observationStatus": "estimated",
        "source": "reachable-set heuristic",
        "vessel": "B"
      },
      "type": "Feature"
    },
    {
      "geometry": {
        "coordinates": [
          161.870071,
          41.884735
        ],
        "type": "Point"
      },
      "properties": {
        "kind": "meetingPoint",
        "observationStatus": "estimated"
      },
      "type": "Feature"
    },
    {
      "geometry": {
        "coordinates": [
          [
            [
              162.993572,
              42.614017
            ],
            [
              162.887254,
              42.698222
            ],
            [
              162.770377,
              42.774167
            ],
            [
              162.644067,
              42.84112
            ],
            [
              162.509539,
              42.898435
            ],
            [
              162.368089,
              42.945562
            ],
            [
              162.221081,
              42.982045
            ],
            [
              162.069929,
              43.007534
            ],
            [
              161.916089,
              43.021784
            ],
            [
              161.761042,
              43.024656
            ],
            [
              161.606283,
              43.016124
            ],
            [
              161.453301,
              42.99627
            ],
            [
              161.303569,
              42.965284
            ],
            [
              161.15853,
              42.923465
            ],
            [
              161.01958,
              42.871216
            ],
            [
              160.888058,
              42.809041
            ],
            [
              160.76523,
              42.737537
            ],
            [
              160.65228,
              42.657393
            ],
            [
              160.550294,
              42.569382
            ],
            [
              160.460255,
              42.474351
            ],
            [
              160.38303,
              42.373215
            ],
            [
              160.319363,
              42.266948
            ],
            [
              160.269867,
              42.156574
            ],
            [
              160.235019,
              42.043155
            ],
            [
              160.215154,
              41.927783
            ],
            [
              160.210464,
              41.811571
            ],
            [
              160.220994,
              41.695637
            ],
            [
              160.246642,
              41.581097
            ],
            [
              160.287161,
              41.469055
            ],
            [
              160.342162,
              41.360589
            ],
            [
              160.411114,
              41.256745
            ],
            [
              160.493353,
              41.158522
            ],
            [
              160.588088,
              41.066867
            ],
            [
              160.694406,
              40.982661
            ],
            [
              160.811283,
              40.906716
            ],
            [
              160.937593,
              40.839764
            ],
            [
              161.072121,
              40.782448
            ],
            [
              161.213571,
              40.735322
            ],
            [
              161.360579,
              40.698838
            ],
            [
              161.511731,
              40.673349
            ],
            [
              161.665571,
              40.6591
            ],
            [
              161.820618,
              40.656227
            ],
            [
              161.975377,
              40.664759
            ],
            [
              162.128359,
              40.684614
            ],
            [
              162.278091,
              40.7156
            ],
            [
              162.42313,
              40.757418
            ],
            [
              162.56208,
              40.809667
            ],
            [
              162.693602,
              40.871843
            ],
            [
              162.81643,
              40.943347
            ],
            [
              162.92938,
              41.02349
            ],
            [
              163.031366,
              41.111501
            ],
            [
              163.121405,
              41.206532
            ],
            [
              163.19863,
              41.307668
            ],
            [
              163.262297,
              41.413935
            ],
            [
              163.311793,
              41.52431
            ],
            [
              163.346641,
              41.637729
            ],
            [
              163.366506,
              41.7531
            ],
            [
              163.371196,
              41.869312
            ],
            [
              163.360666,
              41.985247
            ],
            [
              163.335018,
              42.099786
            ],
            [
              163.294499,
              42.211828
            ],
            [
              163.239498,
              42.320294
            ],
            [
              163.170546,
              42.424138
            ],
            [
              163.088307,
              42.522361
            ],
            [
              162.993572,
              42.614017
            ]
          ]
        ],
        "type": "Polygon"
      },
      "properties": {
        "kind": "reachableSet",
        "observationStatus": "estimated",
        "vessel": "A"
      },
      "type": "Feature"
    },
    {
      "geometry": {
        "coordinates": [
          [
            [
              162.75873,
              42.683355
            ],
            [
              162.642463,
              42.750331
            ],
            [
              162.517992,
              42.808424
            ],
            [
              162.386515,
              42.857075
            ],
            [
              162.2493,
              42.895815
            ],
            [
              162.107667,
              42.924272
            ],
            [
              161.962981,
              42.942171
            ],
            [
              161.816635,
              42.94934
            ],
            [
              161.670037,
              42.945711
            ],
            [
              161.524601,
              42.931317
            ],
            [
              161.381727,
              42.906297
            ],
            [
              161.24279,
              42.870893
            ],
            [
              161.109129,
              42.825445
            ],
            [
              160.982031,
              42.770392
            ],
            [
              160.86272,
              42.706263
            ],
            [
              160.752345,
              42.633675
            ],
            [
              160.651969,
              42.553329
            ],
            [
              160.562558,
              42.465997
            ],
            [
              160.484974,
              42.372521
            ],
            [
              160.419964,
              42.273802
            ],
            [
              160.368154,
              42.170789
            ],
            [
              160.330043,
              42.064474
            ],
            [
              160.305998,
              41.955883
            ],
            [
              160.29625,
              41.84606
            ],
            [
              160.300894,
              41.736062
            ],
            [
              160.319885,
              41.626951
            ],
            [
              160.353039,
              41.519776
            ],
            [
              160.400038,
              41.415569
            ],
            [
              160.460428,
              41.315334
            ],
            [
              160.533629,
              41.220036
            ],
            [
              160.618935,
              41.130594
            ],
            [
              160.715525,
              41.047868
            ],
            [
              160.822469,
              40.972655
            ],
            [
              160.938736,
              40.905679
            ],
            [
              161.063207,
              40.847586
            ],
            [
              161.194683,
              40.798935
            ],
            [
              161.331898,
              40.760195
            ],
            [
              161.473531,
              40.731738
            ],
            [
              161.618217,
              40.713839
            ],
            [
              161.764564,
              40.70667
            ],
            [
              161.911161,
              40.710299
            ],
            [
              162.056597,
              40.724693
            ],
            [
              162.199471,
              40.749713
            ],
            [
              162.338408,
              40.785117
            ],
            [
              162.472069,
              40.830565
            ],
            [
              162.599167,
              40.885618
            ],
            [
              162.718478,
              40.949747
            ],
            [
              162.828853,
              41.022335
            ],
            [
              162.92923,
              41.102681
            ],
            [
              163.01864,
              41.190013
            ],
            [
              163.096224,
              41.283489
            ],
            [
              163.161234,
              41.382208
            ],
            [
              163.213044,
              41.485221
            ],
            [
              163.251155,
              41.591536
            ],
            [
              163.2752,
              41.700127
            ],
            [
              163.284948,
              41.80995
            ],
            [
              163.280304,
              41.919948
            ],
            [
              163.261314,
              42.029059
            ],
            [
              163.228159,
              42.136234
            ],
            [
              163.181161,
              42.240441
            ],
            [
              163.12077,
              42.340676
            ],
            [
              163.047569,
              42.435974
            ],
            [
              162.962263,
              42.525416
            ],
            [
              162.865673,
              42.608142
            ],
            [
              162.75873,
              42.683355
            ]
          ]
        ],
        "type": "Polygon"
      },
      "properties": {
        "kind": "reachableSet",
        "observationStatus": "estimated",
        "vessel": "B"
      },
      "type": "Feature"
    }
  ],
  "properties": {
    "dateline": false
  },
  "type": "FeatureCollection"
}
