{
  "features": [
    {
      "geometry": {
        "coordinates": [
          165.807973,
          43.766507
        ],
        "type": "Point"
      },
      "properties": {
        "mmsi": "416248500",
        "observationStatus": "observed",
        "role": "off",
        "time": "2019-07-13T02:56:19Z",
        "vessel": "A"
      },
      "type": "Feature"
    },
    {
      "geometry": {
        "coordinates": [
          165.77397,
          43.794977
        ],
        "type": "Point"
      },
      "properties": {
        "mmsi": "416239600",
        "observationStatus": "observed",
        "role": "off",
        "time": "2019-07-13T03:47:07Z",
        "vessel": "B"
      },
      "type": "Feature"
    },
    {
      "geometry": {
        "coordinates": [
          165.633867,
          44.344347
        ],
        "type": "Point"
      },
      "properties": {
        "mmsi": "416248500",
        "observationStatus": "observed",
        "role": "on",
        "time": "2019-07-13T16:39:20Z",
        "vessel": "A"
      },
      "type": "Feature"
    },
    {
      "geometry": {
        "coordinates": [
          165.677622,
          44.408367
        ],
        "type": "Point"
      },
      "properties": {
        "mmsi": "416239600",
        "observationStatus": "observed",
        "role": "on",
        "time": "2019-07-13T17:00:33Z",
        "vessel": "B"
      },
      "type": "Feature"
    },
    {
      "geometry": {
        "coordinates": [
          [
            165.807973,
            43.766507
          ],
          [
            165.709512,
            44.046889
          ],
          [
            165.633867,
            44.344347
          ]
        ],
        "type": "LineString"
      },
      "properties": {
        "confidence": "low",
        "lineStyle": "dashed",
        "observationStatus": "estimated",
        "source": "reachable-set heuristic",
        "vessel": "A"
      },
      "type": "Feature"
    },
    {
      "geometry": {
        "coordinates": [
          [
            165.77397,
            43.794977
          ],
          [
            165.709512,
            44.046889
          ],
          [
            165.677622,
            44.408367
          ]
        ],
        "type": "LineString"
      },
      "properties": {
        "confidence": "low",
        "lineStyle": "dashed",
        "observationStatus": "estimated",
        "source": "reachable-set heuristic",
        "vessel": "B"
      },
      "type": "Feature"
    },
    {
      "geometry": {
        "coordinates": [
          165.709512,
          44.046889
        ],
        "type": "Point"
      },
      "properties": {
        "kind": "meetingPoint",
        "observationStatus": "estimated"
      },
      "type": "Feature"
    },
    {
      "geometry": {
        "coordinates": [
          [
            [
              165.344682,
              45.304118
            ],
            [
              165.181926,
              45.272146
            ],
            [
              165.02436,
              45.228457
            ],
            [
              164.873503,
              45.173471
            ],
            [
              164.730807,
              45.107718
            ],
            [
              164.597646,
              45.031831
            ],
            [
              164.475303,
              44.94654
            ],
            [
              164.364956,
              44.852667
            ],
            [
              164.267668,
              44.751117
            ],
            [
              164.184375,
              44.642866
            ],
            [
              164.11588,
              44.528958
            ],
            [
              164.062842,
              44.41049
            ],
            [
              164.025773,
              44.288603
            ],
            [
              164.005029,
              44.164469
            ],
            [
              164.000809,
              44.039286
            ],
            [
              164.013156,
              43.914258
            ],
            [
              164.041949,
              43.79059
            ],
            [
              164.086911,
              43.669472
            ],
            [
              164.14761,
              43.552071
            ],
            [
              164.223461,
              43.439518
            ],
            [
              164.313733,
              43.332896
            ],
            [
              164.417557,
              43.233232
            ],
            [
              164.533933,
              43.141487
            ],
            [
              164.661741,
              43.058544
            ],
            [
              164.799749,
              42.985201
            ],
            [
              164.946628,
              42.922165
            ],
            [
              165.100964,
              42.870042
            ],
            [
              165.261271,
              42.829336
            ],
            [
              165.426004,
              42.800438
            ],
            [
              165.593578,
              42.783626
            ],
            [
              165.762378,
              42.779062
            ],
            [
              165.930779,
              42.78679
            ],
            [
              166.097158,
              42.806736
            ],
            [
              166.259914,
              42.838707
            ],
            [
              166.41748,
              42.882396
            ],
            [
              166.568337,
              42.937382
            ],
            [
              166.711033,
              43.003135
            ],
            [
              166.844194,
              43.079023
            ],
            [
              166.966537,
              43.164314
            ],
            [
              167.076884,
              43.258186
            ],
            [
              167.174172,
              43.359737
            ],
            [
              167.257465,
              43.467987
            ],
            [
              167.32596,
              43.581895
            ],
            [
              167.378998,
              43.700363
            ],
            [
              167.416067,
              43.822251
            ],
            [
              167.436811,
              43.946384
            ],
            [
              167.441031,
              44.071567
            ],
            [
              167.428684,
              44.196595
            ],
            [
              167.399891,
              44.320264
            ],
            [
              167.354929,
              44.441382
            ],
            [
              167.29423,
              44.558783
            ],
            [
              167.218379,
              44.671336
            ],
            [
              167.128107,
              44.777958
            ],
            [
              167.024283,
              44.877621
            ],
            [
              166.907907,
              44.969366
            ],
            [
              166.780099,
              45.05231
            ],
            [
              166.642091,
              45.125653
            ],
            [
              166.495212,
              45.188689
            ],
            [
              166.340876,
              45.240811
            ],
            [
              166.180569,
              45.281517
            ],
            [
              166.015836,
              45.310416
            ],
            [
              165.848262,
              45.327228
            ],
            [
              165.679462,
              45.331792
            ],
            [
              165.511061,
              45.324064
            ],
            [
              165.344682,
              45.304118
            ]
          ]
        ],
        "type": "Polygon"
      },
      "properties": {
        "kind": "reachableSet",
        "observationStatus": "estimated",
        "vessel": "A"
      },
      "type": "Feature"
    },
    {
      "geometry": {
        "coordinates": [
          [
            [
              165.534066,
              45.322295
            ],
            [
              165.374813,
              45.303267
            ],
            [
              165.21894,
              45.272666
            ],
            [
              165.067948,
              45.230789
            ],
            [
              164.923292,
              45.178037
            ],
            [
              164.786364,
              45.114919
            ],
            [
              164.658484,
              45.042043
            ],
            [
              164.540882,
              44.960111
            ],
            [
              164.434692,
              44.869911
            ],
            [
              164.340935,
              44.772313
            ],
            [
              164.260516,
              44.668256
            ],
            [
              164.194208,
              44.558743
            ],
            [
              164.14265,
              44.444828
            ],
            [
              164.106339,
              44.327608
            ],
            [
              164.085624,
              44.208212
            ],
            [
              164.080704,
              44.087791
            ],
            [
              164.091628,
              43.967502
            ],
            [
              164.11829,
              43.848506
            ],
            [
              164.160433,
              43.731949
            ],
            [
              164.217651,
              43.618951
            ],
            [
              164.289394,
              43.510603
            ],
            [
              164.374969,
              43.407947
            ],
            [
              164.473554,
              43.311972
            ],
            [
              164.584199,
              43.223602
            ],
            [
              164.705838,
              43.143688
            ],
            [
              164.8373,
              43.073001
            ],
            [
              164.977318,
              43.01222
            ],
            [
              165.124545,
              42.961931
            ],
            [
              165.277562,
              42.922618
            ],
            [
              165.434896,
              42.89466
            ],
            [
              165.595031,
              42.878327
            ],
            [
              165.756426,
              42.873775
            ],
            [
              165.917526,
              42.881048
            ],
            [
              166.076779,
              42.900076
            ],
            [
              166.232652,
              42.930677
            ],
            [
              166.383644,
              42.972555
            ],
            [
              166.5283,
              43.025307
            ],
            [
              166.665228,
              43.088425
            ],
            [
              166.793108,
              43.161301
            ],
            [
              166.91071,
              43.243233
            ],
            [
              167.0169,
              43.333432
            ],
            [
              167.110656,
              43.43103
            ],
            [
              167.191076,
              43.535087
            ],
            [
              167.257384,
              43.6446
            ],
            [
              167.308942,
              43.758515
            ],
            [
              167.345253,
              43.875735
            ],
            [
              167.365968,
              43.995131
            ],
            [
              167.370887,
              44.115553
            ],
            [
              167.359963,
              44.235841
            ],
            [
              167.333302,
              44.354837
            ],
            [
              167.291159,
              44.471395
            ],
            [
              167.233941,
              44.584392
            ],
            [
              167.162198,
              44.69274
            ],
            [
              167.076622,
              44.795396
            ],
            [
              166.978037,
              44.891372
            ],
            [
              166.867392,
              44.979741
            ],
            [
              166.745753,
              45.059655
            ],
            [
              166.614292,
              45.130343
            ],
            [
              166.474273,
              45.191124
            ],
            [
              166.327047,
              45.241413
            ],
            [
              166.17403,
              45.280725
            ],
            [
              166.016696,
              45.308683
            ],
            [
              165.85656,
              45.325017
            ],
            [
              165.695166,
              45.329569
            ],
            [
              165.534066,
              45.322295
            ]
          ]
        ],
        "type": "Polygon"
      },
      "properties": {
        "kind": "reachableSet",
        "observationStatus": "estimated",
        "vessel": "B"
      },
      "type": "Feature"
    }
  ],
  "properties": {
    "dateline": false
  },
  "type": "FeatureCollection"
}
