{
  "features": [
    {
      "geometry": {
        "coordinates": [
          -60.379235,
          -45.263417
        ],
        "type": "Point"
      },
      "properties": {
        "mmsi": "412329685",
        "observationStatus": "observed",
        "role": "off",
        "time": "2017-02-02T07:18:07Z",
        "vessel": "A"
      },
      "type": "Feature"
    },
    {
      "geometry": {
        "coordinates": [
          -60.354675,
          -45.250848
        ],
        "type": "Point"
      },
      "properties": {
        "mmsi": "412329692",
        "observationStatus": "observed",
        "role": "off",
        "time": "2017-02-02T08:08:05Z",
        "vessel": "B"
      },
      "type": "Feature"
    },
    {
      "geometry": {
        "coordinates": [
          -60.628867,
          -45.790965
        ],
        "type": "Point"
      },
      "properties": {
        "mmsi": "412329685",
        "observationStatus": "observed",
        "role": "on",
        "time": "2017-02-02T23:48:44Z",
        "vessel": "A"
      },
      "type": "Feature"
    },
    {
      "geometry": {
        "coordinates": [
          -60.644602,
          -45.844392
        ],
        "type": "Point"
      },
      "properties": {
        "mmsi": "412329692",
        "observationStatus": "observed",
        "role": "on",
        "time": "2017-02-03T00:02:38Z",
        "vessel": "B"
      },
      "type": "Feature"
    },
    {
      "geometry": {
        "coordinates": [
          [
            -60.379235,
            -45.263417
          ],
          [
            -60.499638,
            -45.54762
          ],
          [
            -60.628867,
            -45.790965
          ]
        ],
        "type": "LineString"
      },
      "properties": {
        "confidence": "low",
        "lineStyle": "dashed",
        "observationStatus": "estimated",
        "source": "reachable-set heuristic",
        "vessel": "A"
      },
      "type": "Feature"
    },
    {
      "geometry": {
        "coordinates": [
          [
            -60.354675,
            -45.250848
          ],
          [
            -60.499638,
            -45.54762
          ],
          [
            -60.644602,
            -45.844392
          ]
        ],
        "type": "LineString"
      },
      "properties": {
        "confidence": "low",
        "lineStyle": "dashed",
        "observationStatus": "estimated",
        "source": "reachable-set heuristic",
        "vessel": "B"
      },
      "type": "Feature"
    },
    {
      "geometry": {
        "coordinates": [
          -60.499638,
          -45.54762
        ],
        "type": "Point"
      },
      "properties": {
        "kind": "meetingPoint",
        "observationStatus": "estimated"
      },
      "type": "Feature"
    },
    {
      "geometry": {
        "coordinates": [
          [
            [
              -61.262001,
              -47.128972
            ],
            [
              -61.038794,
              -47.172943
            ],
            [
              -60.810437,
              -47.201065
            ],
            [
              -60.57913,
              -47.213067
            ],
            [
              -60.3471,
              -47.208833
            ],
            [
              -60.116581,
              -47.188403
            ],
            [
              -59.889794,
              -47.151976
            ],
            [
              -59.668922,
              -47.0999
            ],
            [
              -59.456093,
              -47.032679
            ],
            [
              -59.253356,
              -46.950959
            ],
            [
              -59.062665,
              -46.855527
            ],
            [
              -58.885854,
              -46.747303
            ],
            [
              -58.724628,
              -46.627328
            ],
            [
              -58.580539,
              -46.496759
            ],
            [
              -58.454974,
              -46.356852
            ],
            [
              -58.349143,
              -46.208955
            ],
            [
              -58.264065,
              -46.054492
            ],
            [
              -58.200559,
              -45.894951
            ],
            [
              -58.159237,
              -45.731868
            ],
            [
              -58.140496,
              -45.566814
            ],
            [
              -58.144518,
              -45.401378
            ],
            [
              -58.171264,
              -45.237154
            ],
            [
              -58.220476,
              -45.075724
            ],
            [
              -58.29168,
              -44.918641
            ],
            [
              -58.38419,
              -44.767419
            ],
            [
              -58.497115,
              -44.623513
            ],
            [
              -58.629369,
              -44.488311
            ],
            [
              -58.779676,
              -44.363114
            ],
            [
              -58.946591,
              -44.249127
            ],
            [
              -59.128504,
              -44.147449
            ],
            [
              -59.323665,
              -44.059059
            ],
            [
              -59.530194,
              -43.984807
            ],
            [
              -59.746101,
              -43.92541
            ],
            [
              -59.969308,
              -43.881438
            ],
            [
              -60.197664,
              -43.853316
            ],
            [
              -60.428972,
              -43.841315
            ],
            [
              -60.661002,
              -43.845549
            ],
            [
              -60.891521,
              -43.865978
            ],
            [
              -61.118308,
              -43.902406
            ],
            [
              -61.33918,
              -43.954481
            ],
            [
              -61.552009,
              -44.021703
            ],
            [
              -61.754745,
              -44.103423
            ],
            [
              -61.945437,
              -44.198854
            ],
            [
              -62.122247,
              -44.307079
            ],
            [
              -62.283473,
              -44.427053
            ],
            [
              -62.427563,
              -44.557623
            ],
            [
              -62.553128,
              -44.69753
            ],
            [
              -62.658959,
              -44.845427
            ],
            [
              -62.744037,
              -44.99989
            ],
            [
              -62.807543,
              -45.159431
            ],
            [
              -62.848865,
              -45.322514
            ],
            [
              -62.867605,
              -45.487568
            ],
            [
              -62.863583,
              -45.653003
            ],
            [
              -62.836838,
              -45.817227
            ],
            [
              -62.787626,
              -45.978658
            ],
            [
              -62.716422,
              -46.135741
            ],
            [
              -62.623912,
              -46.286963
            ],
            [
              -62.510986,
              -46.430868
            ],
            [
              -62.378733,
              -46.56607
            ],
            [
              -62.228425,
              -46.691268
            ],
            [
              -62.061511,
              -46.805254
            ],
            [
              -61.879597,
              -46.906932
            ],
            [
              -61.684437,
              -46.995323
            ],
            [
              -61.477908,
              -47.069574
            ],
            [
              -61.262001,
              -47.128972
            ]
          ]
        ],
        "type": "Polygon"
      },
      "properties": {
        "kind": "reachableSet",
        "observationStatus": "estimated",
        "vessel": "A"
      },
      "type": "Feature"
    },
    {
      "geometry": {
        "coordinates": [
          [
            [
              -61.249302,
              -47.082345
            ],
            [
              -61.036364,
              -47.125785
            ],
            [
              -60.818257,
              -47.154027
            ],
            [
              -60.597082,
              -47.166798
            ],
            [
              -60.374968,
              -47.163975
            ],
            [
              -60.154056,
              -47.145586
            ],
            [
              -59.936471,
              -47.111808
            ],
            [
              -59.72431,
              -47.062966
            ],
            [
              -59.519615,
              -46.99953
            ],
            [
              -59.324359,
              -46.922112
            ],
            [
              -59.140421,
              -46.831456
            ],
            [
              -58.969574,
              -46.728436
            ],
            [
              -58.813462,
              -46.614045
            ],
            [
              -58.673588,
              -46.489383
            ],
            [
              -58.5513,
              -46.355652
            ],
            [
              -58.447776,
              -46.214138
            ],
            [
              -58.364013,
              -46.066206
            ],
            [
              -58.300817,
              -45.91328
            ],
            [
              -58.258796,
              -45.756832
            ],
            [
              -58.238357,
              -45.598369
            ],
            [
              -58.239694,
              -45.439417
            ],
            [
              -58.262796,
              -45.281508
            ],
            [
              -58.30744,
              -45.126161
            ],
            [
              -58.373196,
              -44.974873
            ],
            [
              -58.459431,
              -44.829102
            ],
            [
              -58.565314,
              -44.690249
            ],
            [
              -58.689826,
              -44.559654
            ],
            [
              -58.831768,
              -44.438573
            ],
            [
              -58.989771,
              -44.328174
            ],
            [
              -59.162316,
              -44.229518
            ],
            [
              -59.34774,
              -44.143556
            ],
            [
              -59.544257,
              -44.071116
            ],
            [
              -59.749975,
              -44.012895
            ],
            [
              -59.962913,
              -43.969455
            ],
            [
              -60.181019,
              -43.941213
            ],
            [
              -60.402195,
              -43.928442
            ],
            [
              -60.624308,
              -43.931265
            ],
            [
              -60.845221,
              -43.949654
            ],
            [
              -61.062806,
              -43.983432
            ],
            [
              -61.274967,
              -44.032274
            ],
            [
              -61.479662,
              -44.09571
            ],
            [
              -61.674918,
              -44.173128
            ],
            [
              -61.858855,
              -44.263784
            ],
            [
              -62.029703,
              -44.366804
            ],
            [
              -62.185815,
              -44.481195
            ],
            [
              -62.325689,
              -44.605857
            ],
            [
              -62.447976,
              -44.739588
            ],
            [
              -62.5515,
              -44.881102
            ],
            [
              -62.635264,
              -45.029034
            ],
            [
              -62.69846,
              -45.18196
            ],
            [
              -62.74048,
              -45.338408
            ],
            [
              -62.76092,
              -45.496871
            ],
            [
              -62.759583,
              -45.655823
            ],
            [
              -62.736481,
              -45.813732
            ],
            [
              -62.691836,
              -45.969079
            ],
            [
              -62.62608,
              -46.120367
            ],
            [
              -62.539845,
              -46.266138
            ],
            [
              -62.433962,
              -46.404991
            ],
            [
              -62.30945,
              -46.535586
            ],
            [
              -62.167509,
              -46.656667
            ],
            [
              -62.009505,
              -46.767066
            ],
            [
              -61.836961,
              -46.865722
            ],
            [
              -61.651537,
              -46.951684
            ],
            [
              -61.45502,
              -47.024124
            ],
            [
              -61.249302,
              -47.082345
            ]
          ]
        ],
        "type": "Polygon"
      },
      "properties": {
        "kind": "reachableSet",
        "observationStatus": "estimated",
        "vessel": "B"
      },
      "type": "Feature"
    }
  ],
  "properties": {
    "dateline": false
  },
  "type": "FeatureCollection"
}
