{
  "features": [
    {
      "geometry": {
        "coordinates": [
          -61.124553,
          -47.133815
        ],
        "type": "Point"
      },
      "properties": {
        "mmsi": "701000681",
        "observationStatus": "observed",
        "role": "off",
        "time": "2017-03-09T03:22:03Z",
        "vessel": "A"
      },
      "type": "Feature"
    },
    {
      "geometry": {
        "coordinates": [
          -61.083765,
          -47.151183
        ],
        "type": "Point"
      },
      "properties": {
        "mmsi": "701006145",
        "observationStatus": "observed",
        "role": "off",
        "time": "2017-03-09T03:22:11Z",
        "vessel": "B"
      },
      "type": "Feature"
    },
    {
      "geometry": {
        "coordinates": [
          -61.095803,
          -47.094248
        ],
        "type": "Point"
      },
      "properties": {
        "mmsi": "701000681",
        "observationStatus": "observed",
        "role": "on",
        "time": "2017-03-09T16:01:01Z",
        "vessel": "A"
      },
      "type": "Feature"
    },
    {
      "geometry": {
        "coordinates": [
          -61.05594,
          -47.124537
        ],
        "type": "Point"
      },
      "properties": {
        "mmsi": "701006145",
        "observationStatus": "observed",
        "role": "on",
        "time": "2017-03-09T16:01:07Z",
        "vessel": "B"
      },
      "type": "Feature"
    },
    {
      "geometry": {
        "coordinates": [
          [
            -61.124553,
            -47.133815
          ],
          [
            -61.090247,
            -47.122716
          ],
          [
            -61.095803,
            -47.094248
          ]
        ],
        "type": "LineString"
      },
      "properties": {
        "confidence": "low",
        "lineStyle": "dashed",
        "observationStatus": "estimated",
        "source": "reachable-set heuristic",
        "vessel": "A"
      },
      "type": "Feature"
    },
    {
      "geometry": {
        "coordinates": [
          [
            -61.083765,
            -47.151183
          ],
          [
            -61.090247,
            -47.122716
          ],
          [
            -61.05594,
            -47.124537
          ]
        ],
        "type": "LineString"
      },
      "properties": {
        "confidence": "low",
        "lineStyle": "dashed",
        "observationStatus": "estimated",
        "source": "reachable-set heuristic",
        "vessel": "B"
      },
      "type": "Feature"
    },
    {
      "geometry": {
        "coordinates": [
          -61.090247,
          -47.122716
        ],
        "type": "Point"
      },
      "properties": {
        "kind": "meetingPoint",
        "observationStatus": "estimated"
      },
      "type": "Feature"
    },
    {
      "geometry": {
        "coordinates": [
          [
            [
              -60.348649,
              -46.065991
            ],
            [
              -60.50222,
              -46.019905
            ],
            [
              -60.661646,
              -45.984355
            ],
            [
              -60.825391,
              -45.959685
            ],
            [
              -60.991879,
              -45.946132
            ],
            [
              -61.159506,
              -45.943827
            ],
            [
              -61.326658,
              -45.952791
            ],
            [
              -61.491725,
              -45.972939
            ],
            [
              -61.653118,
              -46.004076
            ],
            [
              -61.809282,
              -46.045902
            ],
            [
              -61.958713,
              -46.098015
            ],
            [
              -62.099973,
              -46.159913
            ],
            [
              -62.2317,
              -46.231
            ],
            [
              -62.352626,
              -46.31059
            ],
            [
              -62.461587,
              -46.397919
            ],
            [
              -62.557533,
              -46.492143
            ],
            [
              -62.63954,
              -46.592357
            ],
            [
              -62.706819,
              -46.697595
            ],
            [
              -62.758721,
              -46.806844
            ],
            [
              -62.794746,
              -46.91905
            ],
            [
              -62.814549,
              -47.033135
            ],
            [
              -62.817937,
              -47.147999
            ],
            [
              -62.804879,
              -47.262535
            ],
            [
              -62.7755,
              -47.375642
            ],
            [
              -62.730083,
              -47.486229
            ],
            [
              -62.669065,
              -47.593231
            ],
            [
              -62.593034,
              -47.695619
            ],
            [
              -62.502723,
              -47.792405
            ],
            [
              -62.399001,
              -47.882659
            ],
            [
              -62.282866,
              -47.96551
            ],
            [
              -62.155438,
              -48.040161
            ],
            [
              -62.017944,
              -48.105893
            ],
            [
              -61.871707,
              -48.162072
            ],
            [
              -61.718137,
              -48.208159
            ],
            [
              -61.558711,
              -48.243708
            ],
            [
              -61.394966,
              -48.268378
            ],
            [
              -61.228478,
              -48.281931
            ],
            [
              -61.060851,
              -48.284237
            ],
            [
              -60.893699,
              -48.275272
            ],
            [
              -60.728631,
              -48.255125
            ],
            [
              -60.567239,
              -48.223988
            ],
            [
              -60.411075,
              -48.182161
            ],
            [
              -60.261643,
              -48.130048
            ],
            [
              -60.120384,
              -48.06815
            ],
            [
              -59.988657,
              -47.997064
            ],
            [
              -59.867731,
              -47.917473
            ],
            [
              -59.75877,
              -47.830145
            ],
            [
              -59.662824,
              -47.73592
            ],
            [
              -59.580817,
              -47.635706
            ],
            [
              -59.513538,
              -47.530468
            ],
            [
              -59.461636,
              -47.42122
            ],
            [
              -59.42561,
              -47.309013
            ],
            [
              -59.405808,
              -47.194928
            ],
            [
              -59.402419,
              -47.080065
            ],
            [
              -59.415478,
              -46.965528
            ],
            [
              -59.444857,
              -46.852422
            ],
            [
              -59.490274,
              -46.741835
            ],
            [
              -59.551292,
              -46.634832
            ],
            [
              -59.627322,
              -46.532445
            ],
            [
              -59.717634,
              -46.435658
            ],
            [
              -59.821356,
              -46.345405
            ],
            [
              -59.93749,
              -46.262554
            ],
            [
              -60.064918,
              -46.187903
            ],
            [
              -60.202413,
              -46.122171
            ],
            [
              -60.348649,
              -46.065991
            ]
          ]
        ],
        "type": "Polygon"
      },
      "properties": {
        "kind": "reachableSet",
        "observationStatus": "estimated",
        "vessel": "A"
      },
      "type": "Feature"
    },
    {
      "geometry": {
        "coordinates": [
          [
            [
              -60.075502,
              -46.185619
            ],
            [
              -60.216564,
              -46.123463
            ],
            [
              -60.365843,
              -46.071076
            ],
            [
              -60.521902,
              -46.028963
            ],
            [
              -60.683238,
              -45.997529
            ],
            [
              -60.848297,
              -45.977077
            ],
            [
              -61.01549,
              -45.967804
            ],
            [
              -61.183207,
              -45.9698
            ],
            [
              -61.349832,
              -45.983044
            ],
            [
              -61.51376,
              -46.00741
            ],
            [
              -61.673414,
              -46.042663
            ],
            [
              -61.827254,
              -46.088463
            ],
            [
              -61.973801,
              -46.14437
            ],
            [
              -62.111642,
              -46.209844
            ],
            [
              -62.23945,
              -46.284256
            ],
            [
              -62.355995,
              -46.366888
            ],
            [
              -62.460153,
              -46.456945
            ],
            [
              -62.550921,
              -46.55356
            ],
            [
              -62.627427,
              -46.655802
            ],
            [
              -62.688932,
              -46.762686
            ],
            [
              -62.734844,
              -46.873184
            ],
            [
              -62.764721,
              -46.98623
            ],
            [
              -62.778276,
              -47.100737
            ],
            [
              -62.775378,
              -47.215601
            ],
            [
              -62.756055,
              -47.329717
            ],
            [
              -62.720493,
              -47.441985
            ],
            [
              -62.669034,
              -47.551324
            ],
            [
              -62.602174,
              -47.656681
            ],
            [
              -62.520557,
              -47.757042
            ],
            [
              -62.424969,
              -47.851439
            ],
            [
              -62.316331,
              -47.938964
            ],
            [
              -62.195688,
              -48.018775
            ],
            [
              -62.064203,
              -48.090101
            ],
            [
              -61.923141,
              -48.152257
            ],
            [
              -61.773862,
              -48.204644
            ],
            [
              -61.617803,
              -48.246757
            ],
            [
              -61.456467,
              -48.278191
            ],
            [
              -61.291408,
              -48.298643
            ],
            [
              -61.124215,
              -48.307916
            ],
            [
              -60.956498,
              -48.30592
            ],
            [
              -60.789873,
              -48.292676
            ],
            [
              -60.625945,
              -48.26831
            ],
            [
              -60.466291,
              -48.233057
            ],
            [
              -60.312451,
              -48.187257
            ],
            [
              -60.165904,
              -48.13135
            ],
            [
              -60.028063,
              -48.065876
            ],
            [
              -59.900255,
              -47.991464
            ],
            [
              -59.78371,
              -47.908832
            ],
            [
              -59.679552,
              -47.818775
            ],
            [
              -59.588784,
              -47.72216
            ],
            [
              -59.512278,
              -47.619918
            ],
            [
              -59.450773,
              -47.513034
            ],
            [
              -59.404861,
              -47.402536
            ],
            [
              -59.374984,
              -47.28949
            ],
            [
              -59.361429,
              -47.174983
            ],
            [
              -59.364327,
              -47.060119
            ],
            [
              -59.38365,
              -46.946003
            ],
            [
              -59.419212,
              -46.833735
            ],
            [
              -59.470671,
              -46.724396
            ],
            [
              -59.537531,
              -46.619039
            ],
            [
              -59.619148,
              -46.518678
            ],
            [
              -59.714736,
              -46.424281
            ],
            [
              -59.823374,
              -46.336756
            ],
            [
              -59.944017,
              -46.256945
            ],
            [
              -60.075502,
              -46.185619
            ]
          ]
        ],
        "type": "Polygon"
      },
      "properties": {
        "kind": "reachableSet",
        "observationStatus": "estimated",
        "vessel": "B"
      },
      "type": "Feature"
    }
  ],
  "properties": {
    "dateline": false
  },
  "type": "FeatureCollection"
}
