{
  "features": [
    {
      "geometry": {
        "coordinates": [
          160.65116,
          41.83428
        ],
        "type": "Point"
      },
      "properties": {
        "mmsi": "416253700",
        "observationStatus": "observed",
        "role": "off",
        "time": "2018-09-06T03:09:42Z",
        "vessel": "A"
      },
      "type": "Feature"
    },
    {
      "geometry": {
        "coordinates": [
          160.586693,
          41.78151
        ],
        "type": "Point"
      },
      "properties": {
        "mmsi": "416528000",
        "observationStatus": "observed",
        "role": "off",
        "time": "2018-09-06T03:31:54Z",
        "vessel": "B"
      },
      "type": "Feature"
    },
    {
      "geometry": {
        "coordinates": [
          161.056227,
          41.88899
        ],
        "type": "Point"
      },
      "properties": {
        "mmsi": "416253700",
        "observationStatus": "observed",
        "role": "on",
        "time": "2018-09-06T17:49:25Z",
        "vessel": "A"
      },
      "type": "Feature"
    },
    {
      "geometry": {
        "coordinates": [
          161.015147,
          41.91752
        ],
        "type": "Point"
      },
      "properties": {
        "mmsi": "416528000",
        "observationStatus": "observed",
        "role": "on",
        "time": "2018-09-06T18:40:54Z",
        "vessel": "B"
      },
      "type": "Feature"
    },
    {
      "geometry": {
        "coordinates": [
          [
            160.65116,
            41.83428
          ],
          [
            160.942554,
            41.863266
          ],
          [
            161.056227,
            41.88899
          ]
        ],
        "type": "LineString"
      },
      "properties": {
        "confidence": "low",
        "lineStyle": "dashed",
        "observationStatus": "estimated",
        "source": "reachable-set heuristic",
        "vessel": "A"
      },
      "type": "Feature"
    },
    {
      "geometry": {
        "coordinates": [
          [
            160.586693,
            41.78151
          ],
          [
            160.942554,
            41.863266
          ],
          [
            161.015147,
            41.91752
          ]
        ],
        "type": "LineString"
      },
      "properties": {
        "confidence": "low",
        "lineStyle": "dashed",
        "observationStatus": "estimated",
        "source": "reachable-set heuristic",
        "vessel": "B"
      },
      "type": "Feature"
    },
    {
      "geometry": {
        "coordinates": [
          160.942554,
          41.863266
        ],
        "type": "Point"
      },
      "properties": {
        "kind": "meetingPoint",
        "observationStatus": "estimated"
      },
      "type": "Feature"
    },
    {
      "geometry": {
        "coordinates": [
          [
            [
              162.655807,
              42.105036
            ],
            [
              162.615513,
              42.23547
            ],
            [
              162.558251,
              42.362303
            ],
            [
              162.484574,
              42.484315
            ],
            [
              162.395191,
              42.600331
            ],
            [
              162.290962,
              42.709232
            ],
            [
              162.172891,
              42.80997
            ],
            [
              162.042116,
              42.901575
            ],
            [
              161.899895,
              42.983165
            ],
            [
              161.7476,
              43.053955
            ],
            [
              161.586695,
              43.113261
            ],
            [
              161.418731,
              43.160514
            ],
            [
              161.245326,
              43.195257
            ],
            [
              161.068148,
              43.217158
            ],
            [
              160.888906,
              43.226003
            ],
            [
              160.709324,
              43.22171
            ],
            [
              160.531133,
              43.204317
            ],
            [
              160.356048,
              43.173995
            ],
            [
              160.185756,
              43.131033
            ],
            [
              160.021897,
              43.075846
            ],
            [
              159.866048,
              43.008966
            ],
            [
              159.71971,
              42.931037
            ],
            [
              159.584294,
              42.842808
            ],
            [
              159.461102,
              42.745131
            ],
            [
              159.351322,
              42.638944
            ],
            [
              159.256011,
              42.525272
            ],
            [
              159.176086,
              42.405209
            ],
            [
              159.112317,
              42.279911
            ],
            [
              159.065319,
              42.150584
            ],
            [
              159.035544,
              42.018475
            ],
            [
              159.023279,
              41.884855
            ],
            [
              159.028641,
              41.751012
            ],
            [
              159.05158,
              41.618234
            ],
            [
              159.091874,
              41.4878
            ],
            [
              159.149135,
              41.360967
            ],
            [
              159.222813,
              41.238955
            ],
            [
              159.312196,
              41.122939
            ],
            [
              159.416425,
              41.014038
            ],
            [
              159.534496,
              40.9133
            ],
            [
              159.665271,
              40.821695
            ],
            [
              159.807491,
              40.740105
            ],
            [
              159.959787,
              40.669315
            ],
            [
              160.120692,
              40.610009
            ],
            [
              160.288656,
              40.562756
            ],
            [
              160.462061,
              40.528013
            ],
            [
              160.639238,
              40.506112
            ],
            [
              160.818481,
              40.497267
            ],
            [
              160.998062,
              40.50156
            ],
            [
              161.176254,
              40.518953
            ],
            [
              161.351338,
              40.549275
            ],
            [
              161.52163,
              40.592237
            ],
            [
              161.68549,
              40.647424
            ],
            [
              161.841339,
              40.714304
            ],
            [
              161.987676,
              40.792233
            ],
            [
              162.123093,
              40.880462
            ],
            [
              162.246284,
              40.978139
            ],
            [
              162.356064,
              41.084326
            ],
            [
              162.451376,
              41.197998
            ],
            [
              162.531301,
              41.318061
            ],
            [
              162.595069,
              41.443359
            ],
            [
              162.642067,
              41.572686
            ],
            [
              162.671843,
              41.704795
            ],
            [
              162.684108,
              41.838415
            ],
            [
              162.678745,
              41.972258
            ],
            [
              162.655807,
              42.105036
            ]
          ]
        ],
        "type": "Polygon"
      },
      "properties": {
        "kind": "reachableSet",
        "observationStatus": "estimated",
        "vessel": "A"
      },
      "type": "Feature"
    },
    {
      "geometry": {
        "coordinates": [
          [
            [
              162.547101,
              42.40383
            ],
            [
              162.466792,
              42.52855
            ],
            [
              162.37044,
              42.64673
            ],
            [
              162.258973,
              42.757233
            ],
            [
              162.133464,
              42.858994
            ],
            [
              161.995121,
              42.951033
            ],
            [
              161.845278,
              43.032464
            ],
            [
              161.685377,
              43.102502
            ],
            [
              161.516958,
              43.160474
            ],
            [
              161.341644,
              43.20582
            ],
            [
              161.161122,
              43.238104
            ],
            [
              160.977131,
              43.257015
            ],
            [
              160.791443,
              43.262372
            ],
            [
              160.605846,
              43.254122
            ],
            [
              160.422128,
              43.232344
            ],
            [
              160.242058,
              43.197249
            ],
            [
              160.06737,
              43.149175
            ],
            [
              159.899746,
              43.088585
            ],
            [
              159.740802,
              43.016061
            ],
            [
              159.592067,
              42.932303
            ],
            [
              159.454973,
              42.838117
            ],
            [
              159.330842,
              42.734411
            ],
            [
              159.220869,
              42.622182
            ],
            [
              159.126112,
              42.502512
            ],
            [
              159.047485,
              42.376554
            ],
            [
              158.985744,
              42.245519
            ],
            [
              158.941485,
              42.110671
            ],
            [
              158.915133,
              41.973308
            ],
            [
              158.906941,
              41.834753
            ],
            [
              158.91699,
              41.69634
            ],
            [
              158.945183,
              41.559402
            ],
            [
              158.991247,
              41.425258
            ],
            [
              159.054739,
              41.2952
            ],
            [
              159.135048,
              41.17048
            ],
            [
              159.2314,
              41.0523
            ],
            [
              159.342867,
              40.941797
            ],
            [
              159.468376,
              40.840036
            ],
            [
              159.606719,
              40.747997
            ],
            [
              159.756562,
              40.666566
            ],
            [
              159.916463,
              40.596528
            ],
            [
              160.084882,
              40.538556
            ],
            [
              160.260196,
              40.49321
            ],
            [
              160.440718,
              40.460926
            ],
            [
              160.624709,
              40.442015
            ],
            [
              160.810397,
              40.436658
            ],
            [
              160.995994,
              40.444908
            ],
            [
              161.179712,
              40.466686
            ],
            [
              161.359782,
              40.501781
            ],
            [
              161.53447,
              40.549855
            ],
            [
              161.702094,
              40.610445
            ],
            [
              161.861038,
              40.682969
            ],
            [
              162.009773,
              40.766727
            ],
            [
              162.146867,
              40.860913
            ],
            [
              162.270998,
              40.964619
            ],
            [
              162.380971,
              41.076848
            ],
            [
              162.475728,
              41.196518
            ],
            [
              162.554355,
              41.322476
            ],
            [
              162.616096,
              41.453511
            ],
            [
              162.660355,
              41.588359
            ],
            [
              162.686707,
              41.725722
            ],
            [
              162.694899,
              41.864277
            ],
            [
              162.68485,
              42.00269
            ],
            [
              162.656657,
              42.139628
            ],
            [
              162.610593,
              42.273772
            ],
            [
              162.547101,
              42.40383
            ]
          ]
        ],
        "type": "Polygon"
      },
      "properties": {
        "kind": "reachableSet",
        "observationStatus": "estimated",
        "vessel": "B"
      },
      "type": "Feature"
    }
  ],
  "properties": {
    "dateline": false
  },
  "type": "FeatureCollection"
}
