{
  "features": [
    {
      "geometry": {
        "coordinates": [
          -57.821902,
          -42.059703
        ],
        "type": "Point"
      },
      "properties": {
        "mmsi": "412329686",
        "observationStatus": "observed",
        "role": "off",
        "time": "2019-05-12T04:47:43Z",
        "vessel": "A"
      },
      "type": "Feature"
    },
    {
      "geometry": {
        "coordinates": [
          -57.76892,
          -42.106363
        ],
        "type": "Point"
      },
      "properties": {
        "mmsi": "412329684",
        "observationStatus": "observed",
        "role": "off",
        "time": "2019-05-12T05:20:56Z",
        "vessel": "B"
      },
      "type": "Feature"
    },
    {
      "geometry": {
        "coordinates": [
          -57.92184,
          -42.046213
        ],
        "type": "Point"
      },
      "properties": {
        "mmsi": "412329684",
        "observationStatus": "observed",
        "role": "on",
        "time": "2019-05-12T23:10:41Z",
        "vessel": "B"
      },
      "type": "Feature"
    },
    {
      "geometry": {
        "coordinates": [
          -57.868053,
          -42.061707
        ],
        "type": "Point"
      },
      "properties": {
        "mmsi": "412329686",
        "observationStatus": "observed",
        "role": "on",
        "time": "2019-05-12T23:56:00Z",
        "vessel": "A"
      },
      "type": "Feature"
    },
    {
      "geometry": {
        "coordinates": [
          [
            -57.821902,
            -42.059703
          ],
          [
            -57.84538,
            -42.076288
          ],
          [
            -57.868053,
            -42.061707
          ]
        ],
        "type": "LineString"
      },
      "properties": {
        "confidence": "low",
        "lineStyle": "dashed",
        "observationStatus": "estimated",
        "source": "reachable-set heuristic",
        "vessel": "A"
      },
      "type": "Feature"
    },
    {
      "geometry": {
        "coordinates": [
          [
            -57.76892,
            -42.106363
          ],
          [
            -57.84538,
            -42.076288
          ],
          [
            -57.92184,
            -42.046213
          ]
        ],
        "type": "LineString"
      },
      "properties": {
        "confidence": "low",
        "lineStyle": "dashed",
        "observationStatus": "estimated",
        "source": "reachable-set heuristic",
        "vessel": "B"
      },
      "type": "Feature"
    },
    {
      "geometry": {
        "coordinates": [
          -57.84538,
          -42.076288
        ],
        "type": "Point"
      },
      "properties": {
        "kind": "meetingPoint",
        "observationStatus": "estimated"
      },
      "type": "Feature"
    },
    {
      "geometry": {
        "coordinates": [
          [
            [
              -60.482414,
              -42.17519
            ],
            [
              -60.454702,
              -42.367863
            ],
            [
              -60.401857,
              -42.557578
            ],
            [
              -60.324388,
              -42.742508
            ],
            [
              -60.223041,
              -42.920872
            ],
            [
              -60.098792,
              -43.090952
            ],
            [
              -59.952837,
              -43.25111
            ],
            [
              -59.786582,
              -43.399804
            ],
            [
              -59.601629,
              -43.535601
            ],
            [
              -59.399758,
              -43.657195
            ],
            [
              -59.182914,
              -43.763413
            ],
            [
              -58.953184,
              -43.853234
            ],
            [
              -58.712782,
              -43.925791
            ],
            [
              -58.464023,
              -43.980387
            ],
            [
              -58.209302,
              -44.016495
            ],
            [
              -57.951072,
              -44.033767
            ],
            [
              -57.691821,
              -44.032038
            ],
            [
              -57.434044,
              -44.011324
            ],
            [
              -57.180225,
              -43.971825
            ],
            [
              -56.932808,
              -43.91392
            ],
            [
              -56.694176,
              -43.838168
            ],
            [
              -56.466626,
              -43.745298
            ],
            [
              -56.252351,
              -43.636204
            ],
            [
              -56.053413,
              -43.511938
            ],
            [
              -55.87173,
              -43.373695
            ],
            [
              -55.709049,
              -43.222808
            ],
            [
              -55.566939,
              -43.060728
            ],
            [
              -55.446768,
              -42.889018
            ],
            [
              -55.349693,
              -42.709331
            ],
            [
              -55.276649,
              -42.523398
            ],
            [
              -55.228339,
              -42.333008
            ],
            [
              -55.205229,
              -42.139996
            ],
            [
              -55.207541,
              -41.94622
            ],
            [
              -55.235253,
              -41.753547
            ],
            [
              -55.288098,
              -41.563832
            ],
            [
              -55.365567,
              -41.378902
            ],
            [
              -55.466914,
              -41.200538
            ],
            [
              -55.591163,
              -41.030458
            ],
            [
              -55.737118,
              -40.8703
            ],
            [
              -55.903373,
              -40.721606
            ],
            [
              -56.088326,
              -40.585809
            ],
            [
              -56.290197,
              -40.464215
            ],
            [
              -56.507041,
              -40.357997
            ],
            [
              -56.736771,
              -40.268176
            ],
            [
              -56.977173,
              -40.195619
            ],
            [
              -57.225932,
              -40.141023
            ],
            [
              -57.480653,
              -40.104915
            ],
            [
              -57.738883,
              -40.087643
            ],
            [
              -57.998134,
              -40.089372
            ],
            [
              -58.255911,
              -40.110086
            ],
            [
              -58.50973,
              -40.149585
            ],
            [
              -58.757147,
              -40.20749
            ],
            [
              -58.995779,
              -40.283242
            ],
            [
              -59.223329,
              -40.376112
            ],
            [
              -59.437604,
              -40.485206
            ],
            [
              -59.636542,
              -40.609472
            ],
            [
              -59.818225,
              -40.747715
            ],
            [
              -59.980906,
              -40.898602
            ],
            [
              -60.123016,
              -41.060682
            ],
            [
              -60.243187,
              -41.232392
            ],
            [
              -60.340262,
              -41.412079
            ],
            [
              -60.413306,
              -41.598012
            ],
            [
              -60.461616,
              -41.788402
            ],
            [
              -60.484726,
              -41.981414
            ],
            [
              -60.482414,
              -42.17519
            ]
          ]
        ],
        "type": "Polygon"
      },
      "properties": {
        "kind": "reachableSet",
        "observationStatus": "estimated",
        "vessel": "A"
      },
      "type": "Feature"
    },
    {
      "geometry": {
        "coordinates": [
          [
            [
              -60.015015,
              -41.222878
            ],
            [
              -60.116435,
              -41.385808
            ],
            [
              -60.195983,
              -41.555387
            ],
            [
              -60.252894,
              -41.729984
            ],
            [
              -60.286619,
              -41.907915
            ],
            [
              -60.296833,
              -42.087468
            ],
            [
              -60.283439,
              -42.266913
            ],
            [
              -60.246565,
              -42.444523
            ],
            [
              -60.186566,
              -42.618586
            ],
            [
              -60.10402,
              -42.787426
            ],
            [
              -59.999722,
              -42.949418
            ],
            [
              -59.874677,
              -43.103002
            ],
            [
              -59.730088,
              -43.246697
            ],
            [
              -59.567349,
              -43.379121
            ],
            [
              -59.388026,
              -43.498997
            ],
            [
              -59.193847,
              -43.605172
            ],
            [
              -58.986681,
              -43.696624
            ],
            [
              -58.768524,
              -43.77247
            ],
            [
              -58.541477,
              -43.831982
            ],
            [
              -58.307725,
              -43.874585
            ],
            [
              -58.069521,
              -43.899869
            ],
            [
              -57.829159,
              -43.907592
            ],
            [
              -57.588952,
              -43.897678
            ],
            [
              -57.351216,
              -43.870223
            ],
            [
              -57.118238,
              -43.825491
            ],
            [
              -56.892263,
              -43.763914
            ],
            [
              -56.675467,
              -43.686084
            ],
            [
              -56.469938,
              -43.59275
            ],
            [
              -56.277655,
              -43.484813
            ],
            [
              -56.100471,
              -43.36331
            ],
            [
              -55.94009,
              -43.229413
            ],
            [
              -55.798059,
              -43.08441
            ],
            [
              -55.675745,
              -42.929699
            ],
            [
              -55.574325,
              -42.766769
            ],
            [
              -55.494777,
              -42.597189
            ],
            [
              -55.437866,
              -42.422593
            ],
            [
              -55.404141,
              -42.244662
            ],
            [
              -55.393927,
              -42.065109
            ],
            [
              -55.407321,
              -41.885663
            ],
            [
              -55.444195,
              -41.708054
            ],
            [
              -55.504194,
              -41.533991
            ],
            [
              -55.58674,
              -41.36515
            ],
            [
              -55.691038,
              -41.203158
            ],
            [
              -55.816083,
              -41.049575
            ],
            [
              -55.960672,
              -40.90588
            ],
            [
              -56.123411,
              -40.773456
            ],
            [
              -56.302734,
              -40.653579
            ],
            [
              -56.496913,
              -40.547404
            ],
            [
              -56.704079,
              -40.455953
            ],
            [
              -56.922236,
              -40.380106
            ],
            [
              -57.149283,
              -40.320595
            ],
            [
              -57.383035,
              -40.277992
            ],
            [
              -57.621239,
              -40.252707
            ],
            [
              -57.861601,
              -40.244985
            ],
            [
              -58.101808,
              -40.254899
            ],
            [
              -58.339544,
              -40.282354
            ],
            [
              -58.572522,
              -40.327086
            ],
            [
              -58.798497,
              -40.388663
            ],
            [
              -59.015293,
              -40.466493
            ],
            [
              -59.220822,
              -40.559826
            ],
            [
              -59.413105,
              -40.667764
            ],
            [
              -59.590289,
              -40.789267
            ],
            [
              -59.75067,
              -40.923164
            ],
            [
              -59.892701,
              -41.068166
            ],
            [
              -60.015015,
              -41.222878
            ]
          ]
        ],
        "type": "Polygon"
      },
      "properties": {
        "kind": "reachableSet",
        "observationStatus": "estimated",
        "vessel": "B"
      },
      "type": "Feature"
    }
  ],
  "properties": {
    "dateline": false
  },
  "type": "FeatureCollection"
}
