{
  "features": [
    {
      "geometry": {
        "coordinates": [
          158.75221,
          42.745992
        ],
        "type": "Point"
      },
      "properties": {
        "mmsi": "416229800",
        "observationStatus": "observed",
        "role": "off",
        "time": "2018-09-24T03:15:04Z",
        "vessel": "A"
      },
      "type": "Feature"
    },
    {
      "geometry": {
        "coordinates": [
          158.796838,
          42.68231
        ],
        "type": "Point"
      },
      "properties": {
        "mmsi": "577101000",
        "observationStatus": "observed",
        "role": "off",
        "time": "2018-09-24T03:32:28Z",
        "vessel": "B"
      },
      "type": "Feature"
    },
    {
      "geometry": {
        "coordinates": [
          159.68872,
          42.207487
        ],
        "type": "Point"
      },
      "properties": {
        "mmsi": "577101000",
        "observationStatus": "observed",
        "role": "on",
        "time": "2018-09-24T18:30:48Z",
        "vessel": "B"
      },
      "type": "Feature"
    },
    {
      "geometry": {
        "coordinates": [
          159.577282,
          42.239417
        ],
        "type": "Point"
      },
      "properties": {
        "mmsi": "416229800",
        "observationStatus": "observed",
        "role": "on",
        "time": "2018-09-24T19:08:40Z",
        "vessel": "A"
      },
      "type": "Feature"
    },
    {
      "geometry": {
        "coordinates": [
          [
            158.75221,
            42.745992
          ],
          [
            159.220465,
            42.476739
          ],
          [
            159.577282,
            42.239417
          ]
        ],
        "type": "LineString"
      },
      "properties": {
        "confidence": "low",
        "lineStyle": "dashed",
        "observationStatus": "estimated",
        "source": "reachable-set heuristic",
        "vessel": "A"
      },
      "type": "Feature"
    },
    {
      "geometry": {
        "coordinates": [
          [
            158.796838,
            42.68231
          ],
          [
            159.220465,
            42.476739
          ],
          [
            159.68872,
            42.207487
          ]
        ],
        "type": "LineString"
      },
      "properties": {
        "confidence": "low",
        "lineStyle": "dashed",
        "observationStatus": "estimated",
        "source": "reachable-set heuristic",
        "vessel": "B"
      },
      "type": "Feature"
    },
    {
      "geometry": {
        "coordinates": [
          159.220465,
          42.476739
        ],
        "type": "Point"
      },
      "properties": {
        "kind": "meetingPoint",
        "observationStatus": "estimated"
      },
      "type": "Feature"
    },
    {
      "geometry": {
        "coordinates": [
          [
            [
              160.718405,
              41.538793
            ],
            [
              160.832351,
              41.65238
            ],
            [
              160.930237,
              41.774059
            ],
            [
              161.01112,
              41.902659
            ],
            [
              161.074222,
              42.036942
            ],
            [
              161.118934,
              42.175614
            ],
            [
              161.144827,
              42.317339
            ],
            [
              161.15165,
              42.460754
            ],
            [
              161.139339,
              42.604476
            ],
            [
              161.10801,
              42.747122
            ],
            [
              161.057968,
              42.887317
            ],
            [
              160.989692,
              43.023712
            ],
            [
              160.903841,
              43.154994
            ],
            [
              160.801242,
              43.279897
            ],
            [
              160.682883,
              43.397219
            ],
            [
              160.549903,
              43.50583
            ],
            [
              160.403583,
              43.604684
            ],
            [
              160.245332,
              43.692829
            ],
            [
              160.076675,
              43.769416
            ],
            [
              159.899235,
              43.833708
            ],
            [
              159.714722,
              43.885085
            ],
            [
              159.524913,
              43.923053
            ],
            [
              159.331634,
              43.947246
            ],
            [
              159.136749,
              43.957431
            ],
            [
              158.942133,
              43.953509
            ],
            [
              158.749661,
              43.93552
            ],
            [
              158.561187,
              43.903635
            ],
            [
              158.378525,
              43.858162
            ],
            [
              158.203435,
              43.799539
            ],
            [
              158.037602,
              43.728331
            ],
            [
              157.882625,
              43.645222
            ],
            [
              157.739995,
              43.551015
            ],
            [
              157.611087,
              43.446615
            ],
            [
              157.497141,
              43.333029
            ],
            [
              157.399255,
              43.211349
            ],
            [
              157.318372,
              43.082749
            ],
            [
              157.25527,
              42.948467
            ],
            [
              157.210557,
              42.809795
            ],
            [
              157.184665,
              42.668069
            ],
            [
              157.177841,
              42.524655
            ],
            [
              157.190153,
              42.380932
            ],
            [
              157.221481,
              42.238287
            ],
            [
              157.271524,
              42.098091
            ],
            [
              157.339799,
              41.961696
            ],
            [
              157.42565,
              41.830415
            ],
            [
              157.528249,
              41.705511
            ],
            [
              157.646609,
              41.588189
            ],
            [
              157.779589,
              41.479578
            ],
            [
              157.925909,
              41.380724
            ],
            [
              158.084159,
              41.292579
            ],
            [
              158.252817,
              41.215992
            ],
            [
              158.430256,
              41.1517
            ],
            [
              158.614769,
              41.100323
            ],
            [
              158.804579,
              41.062355
            ],
            [
              158.997857,
              41.038162
            ],
            [
              159.192743,
              41.027977
            ],
            [
              159.387359,
              41.031899
            ],
            [
              159.579831,
              41.049889
            ],
            [
              159.768305,
              41.081773
            ],
            [
              159.950967,
              41.127246
            ],
            [
              160.126057,
              41.185869
            ],
            [
              160.291889,
              41.257078
            ],
            [
              160.446867,
              41.340186
            ],
            [
              160.589496,
              41.434394
            ],
            [
              160.718405,
              41.538793
            ]
          ]
        ],
        "type": "Polygon"
      },
      "properties": {
        "kind": "reachableSet",
        "observationStatus": "estimated",
        "vessel": "A"
      },
      "type": "Feature"
    },
    {
      "geometry": {
        "coordinates": [
          [
            [
              160.779087,
              41.626993
            ],
            [
              160.874952,
              41.737989
            ],
            [
              160.955098,
              41.855793
            ],
            [
              161.018754,
              41.97927
            ],
            [
              161.065306,
              42.107231
            ],
            [
              161.094306,
              42.238444
            ],
            [
              161.105474,
              42.371646
            ],
            [
              161.098704,
              42.505553
            ],
            [
              161.074061,
              42.638876
            ],
            [
              161.031781,
              42.770331
            ],
            [
              160.972272,
              42.898651
            ],
            [
              160.896108,
              43.022602
            ],
            [
              160.80402,
              43.140989
            ],
            [
              160.696898,
              43.252673
            ],
            [
              160.575771,
              43.356577
            ],
            [
              160.441807,
              43.451701
            ],
            [
              160.296295,
              43.537129
            ],
            [
              160.140638,
              43.612039
            ],
            [
              159.976333,
              43.675708
            ],
            [
              159.804964,
              43.727524
            ],
            [
              159.628181,
              43.766987
            ],
            [
              159.447687,
              43.793718
            ],
            [
              159.265219,
              43.807459
            ],
            [
              159.082535,
              43.808078
            ],
            [
              158.901394,
              43.795569
            ],
            [
              158.723541,
              43.770052
            ],
            [
              158.550688,
              43.731773
            ],
            [
              158.384501,
              43.681101
            ],
            [
              158.226579,
              43.618523
            ],
            [
              158.078444,
              43.544643
            ],
            [
              157.941522,
              43.460172
            ],
            [
              157.817132,
              43.365923
            ],
            [
              157.706471,
              43.262804
            ],
            [
              157.610607,
              43.151808
            ],
            [
              157.53046,
              43.034004
            ],
            [
              157.466805,
              42.910527
            ],
            [
              157.420253,
              42.782566
            ],
            [
              157.391253,
              42.651352
            ],
            [
              157.380084,
              42.518151
            ],
            [
              157.386854,
              42.384244
            ],
            [
              157.411497,
              42.250921
            ],
            [
              157.453777,
              42.119466
            ],
            [
              157.513286,
              41.991145
            ],
            [
              157.589451,
              41.867194
            ],
            [
              157.681538,
              41.748807
            ],
            [
              157.788661,
              41.637124
            ],
            [
              157.909788,
              41.53322
            ],
            [
              158.043752,
              41.438095
            ],
            [
              158.189263,
              41.352667
            ],
            [
              158.344921,
              41.277758
            ],
            [
              158.509225,
              41.214089
            ],
            [
              158.680594,
              41.162273
            ],
            [
              158.857377,
              41.12281
            ],
            [
              159.037872,
              41.096079
            ],
            [
              159.22034,
              41.082338
            ],
            [
              159.403024,
              41.081719
            ],
            [
              159.584165,
              41.094228
            ],
            [
              159.762018,
              41.119745
            ],
            [
              159.93487,
              41.158024
            ],
            [
              160.101058,
              41.208696
            ],
            [
              160.258979,
              41.271274
            ],
            [
              160.407114,
              41.345154
            ],
            [
              160.544036,
              41.429625
            ],
            [
              160.668427,
              41.523874
            ],
            [
              160.779087,
              41.626993
            ]
          ]
        ],
        "type": "Polygon"
      },
      "properties": {
        "kind": "reachableSet",
        "observationStatus": "estimated",
        "vessel": "B"
      },
      "type": "Feature"
    }
  ],
  "properties": {
    "dateline": false
  },
  "type": "FeatureCollection"
}
