{
  "features": [
    {
      "geometry": {
        "coordinates": [
          -57.936335,
          -42.175935
        ],
        "type": "Point"
      },
      "properties": {
        "mmsi": "412329693",
        "observationStatus": "observed",
        "role": "off",
        "time": "2019-09-11T04:52:10Z",
        "vessel": "A"
      },
      "type": "Feature"
    },
    {
      "geometry": {
        "coordinates": [
          -57.911878,
          -42.111022
        ],
        "type": "Point"
      },
      "properties": {
        "mmsi": "412329686",
        "observationStatus": "observed",
        "role": "off",
        "time": "2019-09-11T05:32:23Z",
        "vessel": "B"
      },
      "type": "Feature"
    },
    {
      "geometry": {
        "coordinates": [
          -57.850027,
          -42.02392
        ],
        "type": "Point"
      },
      "properties": {
        "mmsi": "412329693",
        "observationStatus": "observed",
        "role": "on",
        "time": "2019-09-11T23:31:26Z",
        "vessel": "A"
      },
      "type": "Feature"
    },
    {
      "geometry": {
        "coordinates": [
          -57.845547,
          -41.990747
        ],
        "type": "Point"
      },
      "properties": {
        "mmsi": "412329686",
        "observationStatus": "observed",
        "role": "on",
        "time": "2019-09-11T23:32:03Z",
        "vessel": "B"
      },
      "type": "Feature"
    },
    {
      "geometry": {
        "coordinates": [
          [
            -57.936335,
            -42.175935
          ],
          [
            -57.88381,
            -42.057237
          ],
          [
            -57.850027,
            -42.02392
          ]
        ],
        "type": "LineString"
      },
      "properties": {
        "confidence": "low",
        "lineStyle": "dashed",
        "observationStatus": "estimated",
        "source": "reachable-set heuristic",
        "vessel": "A"
      },
      "type": "Feature"
    },
    {
      "geometry": {
        "coordinates": [
          [
            -57.911878,
            -42.111022
          ],
          [
            -57.88381,
            -42.057237
          ],
          [
            -57.845547,
            -41.990747
          ]
        ],
        "type": "LineString"
      },
      "properties": {
        "confidence": "low",
        "lineStyle": "dashed",
        "observationStatus": "estimated",
        "source": "reachable-set heuristic",
        "vessel": "B"
      },
      "type": "Feature"
    },
    {
      "geometry": {
        "coordinates": [
          -57.88381,
          -42.057237
        ],
        "type": "Point"
      },
      "properties": {
        "kind": "meetingPoint",
        "observationStatus": "estimated"
      },
      "type": "Feature"
    },
    {
      "geometry": {
        "coordinates": [
          [
            [
              -56.888523,
              -40.330422
            ],
            [
              -57.125328,
              -40.265449
            ],
            [
              -57.369528,
              -40.218144
            ],
            [
              -57.618771,
              -40.188961
            ],
            [
              -57.870656,
              -40.178183
            ],
            [
              -58.122759,
              -40.185911
            ],
            [
              -58.372651,
              -40.212072
            ],
            [
              -58.617925,
              -40.256415
            ],
            [
              -58.856219,
              -40.318512
            ],
            [
              -59.085239,
              -40.397764
            ],
            [
              -59.302779,
              -40.49341
            ],
            [
              -59.506743,
              -40.604527
            ],
            [
              -59.695168,
              -40.730045
            ],
            [
              -59.866239,
              -40.868757
            ],
            [
              -60.018308,
              -41.019325
            ],
            [
              -60.149911,
              -41.1803
            ],
            [
              -60.259781,
              -41.350131
            ],
            [
              -60.346859,
              -41.527183
            ],
            [
              -60.410306,
              -41.709752
            ],
            [
              -60.449513,
              -41.896077
            ],
            [
              -60.4641,
              -42.084366
            ],
            [
              -60.453928,
              -42.272805
            ],
            [
              -60.419095,
              -42.459579
            ],
            [
              -60.359936,
              -42.64289
            ],
            [
              -60.27702,
              -42.820971
            ],
            [
              -60.171147,
              -42.992108
            ],
            [
              -60.043336,
              -43.154653
            ],
            [
              -59.894818,
              -43.307041
            ],
            [
              -59.727022,
              -43.447803
            ],
            [
              -59.541566,
              -43.575585
            ],
            [
              -59.340235,
              -43.689155
            ],
            [
              -59.124969,
              -43.78742
            ],
            [
              -58.897839,
              -43.869433
            ],
            [
              -58.661034,
              -43.934406
            ],
            [
              -58.416834,
              -43.981711
            ],
            [
              -58.167591,
              -44.010894
            ],
            [
              -57.915705,
              -44.021672
            ],
            [
              -57.663603,
              -44.013944
            ],
            [
              -57.413711,
              -43.987783
            ],
            [
              -57.168437,
              -43.94344
            ],
            [
              -56.930143,
              -43.881343
            ],
            [
              -56.701123,
              -43.802091
            ],
            [
              -56.483583,
              -43.706445
            ],
            [
              -56.279619,
              -43.595328
            ],
            [
              -56.091194,
              -43.46981
            ],
            [
              -55.920123,
              -43.331098
            ],
            [
              -55.768054,
              -43.18053
            ],
            [
              -55.63645,
              -43.019555
            ],
            [
              -55.526581,
              -42.849724
            ],
            [
              -55.439503,
              -42.672672
            ],
            [
              -55.376055,
              -42.490103
            ],
            [
              -55.336849,
              -42.303778
            ],
            [
              -55.322262,
              -42.115489
            ],
            [
              -55.332433,
              -41.92705
            ],
            [
              -55.367267,
              -41.740276
            ],
            [
              -55.426426,
              -41.556965
            ],
            [
              -55.509341,
              -41.378884
            ],
            [
              -55.615215,
              -41.207747
            ],
            [
              -55.743026,
              -41.045202
            ],
            [
              -55.891544,
              -40.892814
            ],
            [
              -56.059339,
              -40.752052
            ],
            [
              -56.244795,
              -40.62427
            ],
            [
              -56.446126,
              -40.5107
            ],
            [
              -56.661393,
              -40.412435
            ],
            [
              -56.888523,
              -40.330422
            ]
          ]
        ],
        "type": "Polygon"
      },
      "properties": {
        "kind": "reachableSet",
        "observationStatus": "estimated",
        "vessel": "A"
      },
      "type": "Feature"
    },
    {
      "geometry": {
        "coordinates": [
          [
            [
              -56.935349,
              -40.340343
            ],
            [
              -57.164024,
              -40.279496
            ],
            [
              -57.399582,
              -40.235709
            ],
            [
              -57.639755,
              -40.209403
            ],
            [
              -57.882228,
              -40.200831
            ],
            [
              -58.124668,
              -40.210076
            ],
            [
              -58.364739,
              -40.237049
            ],
            [
              -58.60013,
              -40.281491
            ],
            [
              -58.828573,
              -40.342973
            ],
            [
              -59.047868,
              -40.420902
            ],
            [
              -59.255903,
              -40.51453
            ],
            [
              -59.450676,
              -40.622953
            ],
            [
              -59.630309,
              -40.745128
            ],
            [
              -59.793074,
              -40.879879
            ],
            [
              -59.937402,
              -41.025906
            ],
            [
              -60.061904,
              -41.181805
            ],
            [
              -60.165381,
              -41.346074
            ],
            [
              -60.246836,
              -41.51713
            ],
            [
              -60.305485,
              -41.693327
            ],
            [
              -60.340762,
              -41.872967
            ],
            [
              -60.352329,
              -42.05432
            ],
            [
              -60.340073,
              -42.23564
            ],
            [
              -60.304113,
              -42.415182
            ],
            [
              -60.244795,
              -42.591214
            ],
            [
              -60.16269,
              -42.762043
            ],
            [
              -60.05859,
              -42.926023
            ],
            [
              -59.933496,
              -43.081576
            ],
            [
              -59.788613,
              -43.227202
            ],
            [
              -59.625337,
              -43.361499
            ],
            [
              -59.44524,
              -43.483174
            ],
            [
              -59.250057,
              -43.591056
            ],
            [
              -59.041666,
              -43.684105
            ],
            [
              -58.822076,
              -43.761425
            ],
            [
              -58.593401,
              -43.822272
            ],
            [
              -58.357843,
              -43.86606
            ],
            [
              -58.11767,
              -43.892366
            ],
            [
              -57.875197,
              -43.900938
            ],
            [
              -57.632757,
              -43.891692
            ],
            [
              -57.392686,
              -43.864719
            ],
            [
              -57.157295,
              -43.820277
            ],
            [
              -56.928852,
              -43.758796
            ],
            [
              -56.709557,
              -43.680866
            ],
            [
              -56.501522,
              -43.587238
            ],
            [
              -56.306749,
              -43.478815
            ],
            [
              -56.127116,
              -43.35664
            ],
            [
              -55.964351,
              -43.22189
            ],
            [
              -55.820023,
              -43.075862
            ],
            [
              -55.695521,
              -42.919963
            ],
            [
              -55.592044,
              -42.755695
            ],
            [
              -55.510589,
              -42.584638
            ],
            [
              -55.45194,
              -42.408442
            ],
            [
              -55.416663,
              -42.228802
            ],
            [
              -55.405096,
              -42.047448
            ],
            [
              -55.417352,
              -41.866128
            ],
            [
              -55.453312,
              -41.686587
            ],
            [
              -55.51263,
              -41.510554
            ],
            [
              -55.594735,
              -41.339725
            ],
            [
              -55.698835,
              -41.175745
            ],
            [
              -55.823929,
              -41.020193
            ],
            [
              -55.968812,
              -40.874567
            ],
            [
              -56.132088,
              -40.740269
            ],
            [
              -56.312185,
              -40.618594
            ],
            [
              -56.507368,
              -40.510712
            ],
            [
              -56.715759,
              -40.417663
            ],
            [
              -56.935349,
              -40.340343
            ]
          ]
        ],
        "type": "Polygon"
      },
      "properties": {
        "kind": "reachableSet",
        "observationStatus": "estimated",
        "vessel": "B"
      },
      "type": "Feature"
    }
  ],
  "properties": {
    "dateline": false
  },
  "type": "FeatureCollection"
}
