{
  "features": [
    {
      "geometry": {
        "coordinates": [
          163.976273,
          47.688557
        ],
        "type": "Point"
      },
      "properties": {
        "mmsi": "412331039",
        "observationStatus": "observed",
        "role": "off",
        "time": "2018-07-30T03:11:58Z",
        "vessel": "A"
      },
      "type": "Feature"
    },
    {
      "geometry": {
        "coordinates": [
          163.94577,
          47.61888
        ],
        "type": "Point"
      },
      "properties": {
        "mmsi": "416236900",
        "observationStatus": "observed",
        "role": "off",
        "time": "2018-07-30T03:44:56Z",
        "vessel": "B"
      },
      "type": "Feature"
    },
    {
      "geometry": {
        "coordinates": [
          163.369685,
          48.28026
        ],
        "type": "Point"
      },
      "properties": {
        "mmsi": "416236900",
        "observationStatus": "observed",
        "role": "on",
        "time": "2018-07-30T16:51:02Z",
        "vessel": "B"
      },
      "type": "Feature"
    },
    {
      "geometry": {
        "coordinates": [
          163.35293,
          48.227957
        ],
        "type": "Point"
      },
      "properties": {
        "mmsi": "412331039",
        "observationStatus": "observed",
        "role": "on",
        "time": "2018-07-30T17:22:49Z",
        "vessel": "A"
      },
      "type": "Feature"
    },
    {
      "geometry": {
        "coordinates": [
          [
            163.976273,
            47.688557
          ],
          [
            163.597242,
            48.018643
          ],
          [
            163.35293,
            48.227957
          ]
        ],
        "type": "LineString"
      },
      "properties": {
        "confidence": "low",
        "lineStyle": "dashed",
        "observationStatus": "estimated",
        "source": "reachable-set heuristic",
        "vessel": "A"
      },
      "type": "Feature"
    },
    {
      "geometry": {
        "coordinates": [
          [
            163.94577,
            47.61888
          ],
          [
            163.597242,
            48.018643
          ],
          [
            163.369685,
            48.28026
          ]
        ],
        "type": "LineString"
      },
      "properties": {
        "confidence": "low",
        "lineStyle": "dashed",
        "observationStatus": "estimated",
        "source": "reachable-set heuristic",
        "vessel": "B"
      },
      "type": "Feature"
    },
    {
      "geometry": {
        "coordinates": [
          163.597242,
          48.018643
        ],
        "type": "Point"
      },
      "properties": {
        "kind": "meetingPoint",
        "observationStatus": "estimated"
      },
      "type": "Feature"
    },
    {
      "geometry": {
        "coordinates": [
          [
            [
              162.45707,
              49.003175
            ],
            [
              162.316121,
              48.921048
            ],
            [
              162.18816,
              48.829649
            ],
            [
              162.074417,
              48.729858
            ],
            [
              161.975989,
              48.622636
            ],
            [
              161.893823,
              48.509015
            ],
            [
              161.82871,
              48.390091
            ],
            [
              161.781279,
              48.267008
            ],
            [
              161.751984,
              48.140951
            ],
            [
              161.741109,
              48.013135
            ],
            [
              161.748759,
              47.88479
            ],
            [
              161.774859,
              47.757153
            ],
            [
              161.819158,
              47.631452
            ],
            [
              161.88123,
              47.508899
            ],
            [
              161.960477,
              47.390674
            ],
            [
              162.056135,
              47.277914
            ],
            [
              162.167284,
              47.171707
            ],
            [
              162.292853,
              47.073075
            ],
            [
              162.431633,
              46.982967
            ],
            [
              162.582286,
              46.902252
            ],
            [
              162.743363,
              46.831707
            ],
            [
              162.913312,
              46.772011
            ],
            [
              163.090497,
              46.723739
            ],
            [
              163.27321,
              46.687356
            ],
            [
              163.459692,
              46.663213
            ],
            [
              163.648148,
              46.651542
            ],
            [
              163.836763,
              46.652455
            ],
            [
              164.023719,
              46.665944
            ],
            [
              164.207217,
              46.691879
            ],
            [
              164.38549,
              46.730009
            ],
            [
              164.556819,
              46.779968
            ],
            [
              164.719556,
              46.841275
            ],
            [
              164.872134,
              46.913338
            ],
            [
              165.013082,
              46.995465
            ],
            [
              165.141044,
              47.086864
            ],
            [
              165.254786,
              47.186656
            ],
            [
              165.353214,
              47.293878
            ],
            [
              165.43538,
              47.407498
            ],
            [
              165.500493,
              47.526422
            ],
            [
              165.547925,
              47.649506
            ],
            [
              165.577219,
              47.775562
            ],
            [
              165.588094,
              47.903379
            ],
            [
              165.580445,
              48.031723
            ],
            [
              165.554344,
              48.15936
            ],
            [
              165.510045,
              48.285061
            ],
            [
              165.447973,
              48.407614
            ],
            [
              165.368726,
              48.52584
            ],
            [
              165.273068,
              48.638599
            ],
            [
              165.161919,
              48.744806
            ],
            [
              165.03635,
              48.843439
            ],
            [
              164.897571,
              48.933546
            ],
            [
              164.746917,
              49.014261
            ],
            [
              164.58584,
              49.084807
            ],
            [
              164.415891,
              49.144503
            ],
            [
              164.238707,
              49.192774
            ],
            [
              164.055993,
              49.229157
            ],
            [
              163.869511,
              49.2533
            ],
            [
              163.681055,
              49.264971
            ],
            [
              163.49244,
              49.264058
            ],
            [
              163.305484,
              49.250569
            ],
            [
              163.121986,
              49.224635
            ],
            [
              162.943714,
              49.186504
            ],
            [
              162.772384,
              49.136545
            ],
            [
              162.609647,
              49.075239
            ],
            [
              162.45707,
              49.003175
            ]
          ]
        ],
        "type": "Polygon"
      },
      "properties": {
        "kind": "reachableSet",
        "observationStatus": "estimated",
        "vessel": "A"
      },
      "type": "Feature"
    },
    {
      "geometry": {
        "coordinates": [
          [
            [
              162.744298,
              48.998242
            ],
            [
              162.604043,
              48.935899
            ],
            [
              162.473936,
              48.864057
            ],
            [
              162.35523,
              48.783408
            ],
            [
              162.249067,
              48.694729
            ],
            [
              162.156471,
              48.598874
            ],
            [
              162.078332,
              48.496765
            ],
            [
              162.015404,
              48.389386
            ],
            [
              161.968293,
              48.277772
            ],
            [
              161.937451,
              48.162997
            ],
            [
              161.923177,
              48.046167
            ],
            [
              161.925607,
              47.928406
            ],
            [
              161.944719,
              47.81085
            ],
            [
              161.980328,
              47.694629
            ],
            [
              162.032091,
              47.580863
            ],
            [
              162.09951,
              47.470648
            ],
            [
              162.181936,
              47.365046
            ],
            [
              162.278574,
              47.265073
            ],
            [
              162.388494,
              47.171692
            ],
            [
              162.510638,
              47.085802
            ],
            [
              162.643828,
              47.008231
            ],
            [
              162.786783,
              46.939725
            ],
            [
              162.938126,
              46.880945
            ],
            [
              163.096399,
              46.832456
            ],
            [
              163.260078,
              46.794726
            ],
            [
              163.427586,
              46.768117
            ],
            [
              163.597311,
              46.752887
            ],
            [
              163.767617,
              46.749181
            ],
            [
              163.936866,
              46.757035
            ],
            [
              164.103426,
              46.776375
            ],
            [
              164.265694,
              46.807013
            ],
            [
              164.422106,
              46.848654
            ],
            [
              164.571157,
              46.900898
            ],
            [
              164.711412,
              46.963241
            ],
            [
              164.841519,
              47.035083
            ],
            [
              164.960225,
              47.115732
            ],
            [
              165.066388,
              47.204411
            ],
            [
              165.158984,
              47.300266
            ],
            [
              165.237123,
              47.402375
            ],
            [
              165.300051,
              47.509754
            ],
            [
              165.347162,
              47.621368
            ],
            [
              165.378004,
              47.736143
            ],
            [
              165.392278,
              47.852973
            ],
            [
              165.389848,
              47.970734
            ],
            [
              165.370736,
              48.08829
            ],
            [
              165.335127,
              48.204511
            ],
            [
              165.283364,
              48.318277
            ],
            [
              165.215945,
              48.428492
            ],
            [
              165.133519,
              48.534094
            ],
            [
              165.036881,
              48.634067
            ],
            [
              164.926961,
              48.727448
            ],
            [
              164.804817,
              48.813338
            ],
            [
              164.671627,
              48.890909
            ],
            [
              164.528672,
              48.959415
            ],
            [
              164.377329,
              49.018195
            ],
            [
              164.219056,
              49.066684
            ],
            [
              164.055377,
              49.104414
            ],
            [
              163.887869,
              49.131023
            ],
            [
              163.718144,
              49.146253
            ],
            [
              163.547838,
              49.149959
            ],
            [
              163.378589,
              49.142105
            ],
            [
              163.212029,
              49.122765
            ],
            [
              163.049761,
              49.092127
            ],
            [
              162.893349,
              49.050486
            ],
            [
              162.744298,
              48.998242
            ]
          ]
        ],
        "type": "Polygon"
      },
      "properties": {
        "kind": "reachableSet",
        "observationStatus": "estimated",
        "vessel": "B"
      },
      "type": "Feature"
    }
  ],
  "properties": {
    "dateline": false
  },
  "type": "FeatureCollection"
}
